CuspID,Origin_time,Record,Mw,MwUncert,TectClass,Mech,PreferredFaultPlane,Strike,Dip,Rake,Location,HypLat,HypLon,StationLat,StationLon,HypN,HypE,StationN,StationE,LENGTH_km,WIDTH_km,Repi_km,Rhyp_km,Rjb_km,Rrup_km,Rx_km,Ry_km,Rvol_km,HypDepth_km,ZTOR_km,HWFW,SiteCode,SiteClass1170,Vs30,Vs30Uncert,Tsite,TsiteUncert,Z1,Z1Uncertainty,Directivity,Pulse_or,Pulse_T,S_Trigger_Flag,fcButterHP,f_iniLP,fmin,fmax,References,f100.0000SA_RotD50,f50.0000SA_RotD50,f33.3333SA_RotD50,f25.0000SA_RotD50,f20.0000SA_RotD50,f13.3333SA_RotD50,f10.0000SA_RotD50,f6.6667SA_RotD50,f5.0000SA_RotD50,f4.0000SA_RotD50,f3.3333SA_RotD50,f2.5000SA_RotD50,f2.0000SA_RotD50,f1.3333SA_RotD50,f1.0000SA_RotD50,f0.6667SA_RotD50,f0.5000SA_RotD50,f0.3333SA_RotD50,f0.2500SA_RotD50,f0.2000SA_RotD50,f0.1333SA_RotD50,f0.1000SA_RotD50,f100.0000SA_RotD100,f50.0000SA_RotD100,f33.3333SA_RotD100,f25.0000SA_RotD100,f20.0000SA_RotD100,f13.3333SA_RotD100,f10.0000SA_RotD100,f6.6667SA_RotD100,f5.0000SA_RotD100,f4.0000SA_RotD100,f3.3333SA_RotD100,f2.5000SA_RotD100,f2.0000SA_RotD100,f1.3333SA_RotD100,f1.0000SA_RotD100,f0.6667SA_RotD100,f0.5000SA_RotD100,f0.3333SA_RotD100,f0.2500SA_RotD100,f0.2000SA_RotD100,f0.1333SA_RotD100,f0.1000SA_RotD100,PGA_RotD50,PGA_RotD100,PGV_RotD50,PGV_RotD100
608810,1994-06-18T03:25:13.819000Z,D94042A1,6.72,0.08,Crustal,R,1,221,47,112,geonet,-43.0078,171.4762,-42.5232,172.8305,5798820.69,2385786.14,5853765,2496076,21.06,21.06,122.98,123.31,115.46,115.74,-43.1,-113.82,0,4.27,1,nu,HSES,D,280,Q3,0.9,Q1,85,Q3,0,-99999,-99999,1,0.25,10,0.425,10,Abercrombie_etal_2000&HarvardCMT,0.015482288,0.015493686,0.015503853,0.015555828,0.015575914,0.015665818,0.016765401,0.018356863,0.020535824,0.026426006,0.033938636,0.032131035,0.039350813,0.085065786,0.031854832,0.016012777,0.018859539,-99999,-99999,-99999,-99999,-99999,0.017202325,0.017231963,0.017214151,0.017248367,0.017279785,0.017361453,0.019151004,0.02107739,0.024492819,0.032820453,0.037195865,0.04057884,0.054728155,0.098759412,0.036976669,0.022499163,0.024917638,-99999,-99999,-99999,-99999,-99999,0.015473,0.017197,0.019453,0.022497
608810,1994-06-18T03:25:13.819000Z,D94044A1b,6.72,0.08,Crustal,R,1,221,47,112,geonet,-43.0078,171.4762,-45.8986,170.5097,5798820.69,2385786.14,5475848,2316608,21.06,21.06,330.46,330.33,323.2,323.05,-155.59,289.14,0,4.27,1,nu,SKFS,D,140,Q2,0.8,Q3,25,Q3,0,-99999,-99999,1,0.2,10,0.34,10,Abercrombie_etal_2000&HarvardCMT,0.013960712,0.013993406,0.013995285,0.014039435,0.014090836,0.014301147,0.015155877,0.016429687,0.020658004,0.027429155,0.027809311,0.026173644,0.057274911,0.102712884,0.042831926,0.018126713,0.007787162,-99999,-99999,-99999,-99999,-99999,0.015707693,0.015710292,0.015744648,0.015762745,0.015786875,0.015883337,0.016171706,0.018906481,0.022161826,0.031059459,0.033026246,0.029023516,0.078349454,0.124410888,0.056991687,0.021150866,0.00908537,-99999,-99999,-99999,-99999,-99999,0.013958,0.015708,0.018737,0.02038
608810,1994-06-18T03:25:13.819000Z,D94051D1,6.72,0.08,Crustal,R,1,221,47,112,geonet,-43.0078,171.4762,-41.7557,171.5998,5798820.69,2385786.14,5938069,2393545,21.06,21.06,139.6,139.53,132.84,132.84,89.59,-110.18,0,4.27,1,nu,WBCS,D,300,Q3,1.2,Q2,105,Q3,0,-99999,-99999,0,0.25,20,0.425,20,Abercrombie_etal_2000&HarvardCMT,0.045901788,0.046191782,0.046562837,0.047082359,0.054858625,0.097623689,0.109876769,0.134072349,0.131736359,0.131458163,0.153404751,0.121132377,0.151707538,0.19132939,0.107921921,0.049163928,0.047467828,-99999,-99999,-99999,-99999,-99999,0.058164746,0.058548044,0.059299919,0.060765554,0.064354383,0.128192951,0.125949476,0.146758367,0.162033239,0.146316092,0.207891976,0.1526498,0.201576607,0.24527392,0.115738243,0.05146882,0.054924313,-99999,-99999,-99999,-99999,-99999,0.045551,0.058169,0.050876,0.058746
608810,1994-06-18T03:25:13.819000Z,D94054A3,6.72,0.08,Crustal,R,1,221,47,112,geonet,-43.0078,171.4762,-43.883,169.0441,5798820.69,2385786.14,5695156,2192230,21.06,21.06,219.12,219.61,211.53,212.02,82.16,205.22,0,4.27,1,nu,HDWS,D,210,Q3,0.87,Q1,100,Q3,0,-99999,-99999,1,0.3,11,0.51,11,Abercrombie_etal_2000&HarvardCMT,0.014427037,0.014519165,0.014665598,0.014940916,0.015303533,0.017158555,0.030857384,0.042606278,0.039003774,0.062516837,0.061145995,0.054743086,0.044262387,0.039168255,0.02822952,0.011601121,-99999,-99999,-99999,-99999,-99999,-99999,0.01952703,0.019626084,0.019839893,0.020151951,0.020539718,0.022519234,0.032505209,0.047948924,0.047325995,0.081026081,0.085893156,0.069704756,0.053747767,0.049195875,0.03947881,0.014364184,-99999,-99999,-99999,-99999,-99999,-99999,0.014384,0.01943,0.01289,0.014801
608810,1994-06-18T03:25:13.819000Z,D94129A2,6.72,0.08,Crustal,R,1,221,47,112,geonet,-43.0078,171.4762,-41.7999,172.328,5798820.69,2385786.14,5933893,2454147,21.06,21.06,151.43,151.45,143.62,143.66,41.11,-146.79,0,4.27,1,nu,MCAS,D,501,Q3,1.6,Q3,200,Q3,0,-99999,-99999,0,0.1,13,0.17,13,Abercrombie_etal_2000&HarvardCMT,0.027195114,0.027348609,0.027601033,0.027937906,0.028409645,0.038996313,0.043916332,0.091010208,0.090349634,0.105429911,0.098949483,0.114532827,0.114659131,0.065234983,0.07500894,0.035686324,0.045016383,0.013417255,0.005324018,0.005255537,-99999,-99999,0.029467022,0.02959126,0.029850045,0.030266198,0.030951782,0.042686235,0.050856721,0.113583414,0.118113315,0.110722672,0.120984678,0.12683808,0.131077775,0.07174089,0.090814461,0.04409491,0.05514401,0.018546338,0.006428066,0.006790168,-99999,-99999,0.027166,0.029349,0.027983,0.029524
608810,1994-06-18T03:25:13.819000Z,K94112A1,6.72,0.08,Crustal,R,1,221,47,112,geonet,-43.0078,171.4762,-43.1325,171.7693,5798820.69,2385786.14,5785358,2409884,21.06,21.06,27.55,28.04,23.3,23.35,-22.93,-5.65,0,4.27,1,fw,112B,C,667,Q3,0.36,Q3,60,Q3,0,-99999,-99999,1,0.35,18,0.595,18,Abercrombie_etal_2000&HarvardCMT,0.134150247,0.135056663,0.136641455,0.139344865,0.14503775,0.199700941,0.322432455,0.372468053,0.429479796,0.49713023,0.459801516,0.247154317,0.276022096,0.17894919,0.101393351,0.04818221,-99999,-99999,-99999,-99999,-99999,-99999,0.147886714,0.148411602,0.149193125,0.151076792,0.158099827,0.233682289,0.433442217,0.397025405,0.449777148,0.652635522,0.620566738,0.282271707,0.365521092,0.191860766,0.128970945,0.054268892,-99999,-99999,-99999,-99999,-99999,-99999,0.133497,0.147884,0.080934,0.108476
697172,1994-12-15T11:20:17.858000Z,K5113A01,6.31,0.15,Crustal,S,0,194,77,-1.61E+02,geonet,-37.1987,177.528,-37.8735,177.5847,6434683.68,2912134.85,6359624,2913365,13.1,13.1,75.2,76.03,70.88,72.17,-99999,-99999,10,12,5.68,nu,113A,C,522,Q3,0.15,Q3,10,Q3,0,-99999,-99999,1,0.5,11,0.85,11,HarvardCMT,0.080155617,0.080643734,0.081331751,0.082383697,0.083764889,0.088814202,0.114148843,0.184592609,0.40291149,0.457184902,0.221580357,0.199566327,0.090870027,0.03007791,0.028333845,-99999,-99999,-99999,-99999,-99999,-99999,-99999,0.087823279,0.088210605,0.088803723,0.089685312,0.090807772,0.096676691,0.131370907,0.205202944,0.493474577,0.61820136,0.272490557,0.235335762,0.104764092,0.040864843,0.030242806,-99999,-99999,-99999,-99999,-99999,-99999,-99999,0.079917,0.087819,0.035922,0.044695
731516,1995-02-05T22:51:04.665000Z,D5016A02,7.09,0.15,Crustal,N,0,215,58,-9.00E+01,geonet,-37.6496,179.4886,-38.6774,178.031,6374193.93,3082358.22,6268431,2947608,32.2,32.2,171.17,171.73,155.42,156.01,-99999,-99999,0,12,1.73,nu,016A,C,480,Q3,0.15,Q3,10,Q3,0,-99999,-99999,0,0.35,14,0.595,14,HarvardCMT,0.019709167,0.019794763,0.019907904,0.020116575,0.020466899,0.024842286,0.029673059,0.0538818,0.054188661,0.051591602,0.067421871,0.064327048,0.07948534,0.06883696,0.03592192,0.01523619,-99999,-99999,-99999,-99999,-99999,-99999,0.022114999,0.022190327,0.02233555,0.022529229,0.022794885,0.026347272,0.033570052,0.064391219,0.059642042,0.056748188,0.082490617,0.076786705,0.094639008,0.07944468,0.038308726,0.019393381,-99999,-99999,-99999,-99999,-99999,-99999,0.019614,0.022096,0.013599,0.015489
731516,1995-02-05T22:51:04.665000Z,D5017A02,7.09,0.15,Crustal,N,0,215,58,-9.00E+01,geonet,-37.6496,179.4886,-38.6665,178.0227,6374193.93,3082358.22,6269685,2946952,32.2,32.2,170.91,171.47,155.18,155.77,-99999,-99999,0,12,1.73,nu,GISS,D,138,Q2,1,Q1,40,Q3,0,-99999,-99999,0,0.18,12,0.306,12,HarvardCMT,0.022679005,0.02275668,0.022827437,0.022998251,0.023183539,0.024293203,0.033811601,0.050770113,0.081490707,0.065980429,0.079273675,0.069707116,0.074643977,0.082481253,0.064902058,0.024384647,0.010238116,0.00490474,-99999,-99999,-99999,-99999,0.02667381,0.026747651,0.026835643,0.026984019,0.027182257,0.028034285,0.036144117,0.055020297,0.094901862,0.068645279,0.092814345,0.088259905,0.088702516,0.111031792,0.077437825,0.028082364,0.01107485,0.006285004,-99999,-99999,-99999,-99999,0.022668,0.026673,0.023536,0.028064
731516,1995-02-05T22:51:04.665000Z,D5709A03,7.09,0.15,Crustal,N,0,215,58,-9.00E+01,geonet,-37.6496,179.4886,-38.6257,177.9216,6374193.93,3082358.22,6274694,2938413,32.2,32.2,174.82,175.4,159.22,159.85,-99999,-99999,0,12,1.73,nu,GWTS,D,245,Q3,1.5,Q3,125,Q3,0,-99999,-99999,0,0.15,10,0.255,10,HarvardCMT,0.021732494,0.021764585,0.021813919,0.021830627,0.021859337,0.021952285,0.023448723,0.031723922,0.04231528,0.049834474,0.050945312,0.05494,0.073758571,0.082630019,0.070678975,0.083518037,0.05951005,0.028095647,-99999,-99999,-99999,-99999,0.023720681,0.023762182,0.023822383,0.023911645,0.024051336,0.024575557,0.026135082,0.037290264,0.053265464,0.066253286,0.0705006,0.069378162,0.081525963,0.097887942,0.082087164,0.106172529,0.068795845,0.036358608,-99999,-99999,-99999,-99999,0.021733,0.023696,0.047036,0.051666
731516,1995-02-05T22:51:04.665000Z,D5712A03,7.09,0.15,Crustal,N,0,215,58,-9.00E+01,geonet,-37.6496,179.4886,-37.9615,176.9855,6374193.93,3082358.22,6352382,2860270,32.2,32.2,222.62,223.48,209.17,210.15,-99999,-99999,0,12,1.73,nu,WKHS,D,210,Q3,0.71,Q2,100,Q3,0,-99999,-99999,0,0.25,12,0.425,12,HarvardCMT,0.017438336,0.01746987,0.017528487,0.017695398,0.01797647,0.019581166,0.025466489,0.046273012,0.039648272,0.039522957,0.052231657,0.049189186,0.091839263,0.053688801,0.024177827,0.012997767,0.00735362,-99999,-99999,-99999,-99999,-99999,0.01899213,0.019038456,0.019108034,0.019181623,0.019357714,0.021474674,0.027610387,0.057072769,0.048182302,0.042585243,0.059685976,0.055207016,0.112677879,0.067208251,0.025588086,0.015798708,0.009773982,-99999,-99999,-99999,-99999,-99999,0.017383,0.01896,0.01429,0.016299
731516,1995-02-05T22:51:04.665000Z,K5113A02,7.09,0.15,Crustal,N,0,215,58,-9.00E+01,geonet,-37.6496,179.4886,-37.8735,177.5847,6374193.93,3082358.22,6359624,2913365,32.2,32.2,169.2,170.05,155.84,156.86,-99999,-99999,0,12,1.73,nu,113A,C,522,Q3,0.15,Q3,10,Q3,0,-99999,-99999,1,0.4,11,0.68,11,HarvardCMT,0.038572879,0.038811089,0.03919974,0.039779944,0.040553205,0.043704565,0.054718873,0.10245513,0.221619363,0.347355361,0.173185261,0.089219854,0.066617638,0.036776116,0.019485513,-99999,-99999,-99999,-99999,-99999,-99999,-99999,0.041674028,0.041886949,0.042260395,0.04279384,0.043473929,0.047002664,0.065727183,0.114976186,0.294398618,0.41291685,0.205306789,0.115586449,0.081044003,0.043251062,0.026670676,-99999,-99999,-99999,-99999,-99999,-99999,-99999,0.038456,0.041675,0.017797,0.020876
721911,1995-02-10T01:44:56.764000Z,D5016A04,6.49,0.15,Crustal,N,0,220,41,-7.80E+01,fdsn,-38.1086,178.6757,-38.6774,178.031,6344659.25,3005555.26,6268431,2947608,16.2,16.2,84.6,96.52,87.77,88.47,-99999,-99999,0,12,6.26,nu,016A,C,480,Q3,0.15,Q3,10,Q3,0,-99999,-99999,1,0.3,10,0.51,10,HarvardCMT,0.013070821,0.013107141,0.013165231,0.013268783,0.013370618,0.013867636,0.019456912,0.029727491,0.043423883,0.037028667,0.056012166,0.050981552,0.069645286,0.053049198,0.029483548,0.016586719,-99999,-99999,-99999,-99999,-99999,-99999,0.015125499,0.015180713,0.015270745,0.015368511,0.015525391,0.01611212,0.026272433,0.032965192,0.051758191,0.040947633,0.060651656,0.054330773,0.08897151,0.057435236,0.03758815,0.017940759,-99999,-99999,-99999,-99999,-99999,-99999,0.01307,0.015125,0.011199,0.012434
721911,1995-02-10T01:44:56.764000Z,D5017A03,6.49,0.15,Crustal,N,0,220,41,-7.80E+01,fdsn,-38.1086,178.6757,-38.6665,178.0227,6344659.25,3005555.26,6269685,2946952,16.2,16.2,84.19,95.91,87.18,87.87,-99999,-99999,0,12,6.26,nu,GISS,D,138,Q2,1,Q1,40,Q3,0,-99999,-99999,1,0.2,10,0.34,10,HarvardCMT,0.015887485,0.015939852,0.016014391,0.016107685,0.016256115,0.016908822,0.019715232,0.034479771,0.046485513,0.056958822,0.072054652,0.053044795,0.065438349,0.065088772,0.042957574,0.021735124,0.0089215,-99999,-99999,-99999,-99999,-99999,0.020426484,0.02044134,0.020486463,0.020576022,0.020663488,0.02101151,0.024308496,0.037939666,0.05463095,0.070569398,0.08890978,0.058302478,0.086138125,0.068290677,0.048833568,0.030173371,0.011081943,-99999,-99999,-99999,-99999,-99999,0.015846,0.020389,0.017052,0.020424
722185,1995-03-22T19:43:30.268000Z,D5040A01,5.83,0.15,Slab,S,0,27,64,30,nlloc,-41.0514,174.216,-41.5763,175.2269,6016538.56,2612205.51,5956588,2695679,7.6,7.6,102.64,133.7,100.01,131.33,-99999,-99999,0,85.51,82.13,nu,040A,B,770,Q3,0.08,Q3,7,Q3,0,-99999,-99999,1,0.25,22,0.425,22,HarvardCMT,0.022537609,0.023194088,0.024539396,0.027284502,0.04225472,0.073903065,0.104326685,0.066671942,0.068871174,0.064871994,0.045454933,0.020368675,0.020472314,0.010972061,0.007129783,0.004395933,0.00299382,-99999,-99999,-99999,-99999,-99999,0.027222067,0.027992781,0.029556847,0.033794358,0.059755268,0.08775608,0.146196696,0.082036166,0.073299204,0.090561283,0.061561159,0.026215429,0.026141831,0.0139955,0.007974453,0.005585845,0.003868415,-99999,-99999,-99999,-99999,-99999,0.022443,0.026833,0.006984,0.007547
722185,1995-03-22T19:43:30.268000Z,D5050A02,5.83,0.15,Slab,S,0,27,64,30,nlloc,-41.0514,174.216,-41.1247,173.0095,6016538.56,2612205.51,6009109,2510784,7.6,7.6,101.44,132.87,98.42,129.2,-99999,-99999,0,85.51,82.13,nu,MOTS,D,300,Q3,1.27,Q3,300,Q3,0,-99999,-99999,0,0.3,25,0.51,25,HarvardCMT,0.075009652,0.076038283,0.078302903,0.089573688,0.125825293,0.208631415,0.250271582,0.240852677,0.381301337,0.408853821,0.354099097,0.218739259,0.104658781,0.032191371,0.015372745,0.014457607,-99999,-99999,-99999,-99999,-99999,-99999,0.081438618,0.082117655,0.083235649,0.097787584,0.134511047,0.2354829,0.284961514,0.311816776,0.487901178,0.447326269,0.460251514,0.289160111,0.137321486,0.0401679,0.020165034,0.019342054,-99999,-99999,-99999,-99999,-99999,-99999,0.074658,0.081151,0.031704,0.038098
722185,1995-03-22T19:43:30.268000Z,D5056A02,5.83,0.15,Slab,S,0,27,64,30,nlloc,-41.0514,174.216,-41.2758,173.2851,6016538.56,2612205.51,5992292,2533876,7.6,7.6,81.82,118.48,78.7,114.72,-99999,-99999,0,85.51,82.13,nu,056A,B,450,Q3,0.07,Q3,5,Q3,0,-99999,-99999,0,0.3,15,0.51,15,HarvardCMT,0.204382625,0.205851761,0.208362972,0.212141388,0.217712512,0.282180268,0.314551072,0.596059825,0.511672145,0.830555781,0.748405741,0.290124275,0.16418614,0.090974573,0.025955066,0.015516869,-99999,-99999,-99999,-99999,-99999,-99999,0.257191714,0.259024234,0.262156369,0.267350433,0.275194659,0.359879202,0.367982097,0.799422059,0.720851577,1.174747215,1.013849787,0.408947268,0.231113878,0.118899681,0.032877741,0.021864178,-99999,-99999,-99999,-99999,-99999,-99999,0.203401,0.256838,0.086241,0.109037
722185,1995-03-22T19:43:30.268000Z,D5129A01,5.83,0.15,Slab,S,0,27,64,30,nlloc,-41.0514,174.216,-41.7999,172.328,6016538.56,2612205.51,5933893,2454147,7.6,7.6,178.06,197.87,174.9,194.27,-99999,-99999,0,85.51,82.13,nu,MCAS,D,501,Q3,1.6,Q3,200,Q3,0,-99999,-99999,0,0.3,17,0.51,17,HarvardCMT,0.032923873,0.033272305,0.033901456,0.034787683,0.03628642,0.050586813,0.087396781,0.1155994,0.205620155,0.131819467,0.113497496,0.081294651,0.061680498,0.037683938,0.046701084,0.015962161,-99999,-99999,-99999,-99999,-99999,-99999,0.041477525,0.04185489,0.042468865,0.043438294,0.045048042,0.062332572,0.099145888,0.130436647,0.264510399,0.17650493,0.157785083,0.106926427,0.078236443,0.04074994,0.052809943,0.019035653,-99999,-99999,-99999,-99999,-99999,-99999,0.032924,0.041474,0.019706,0.021382
722185,1995-03-22T19:43:30.268000Z,D5130B01,5.83,0.15,Slab,S,0,27,64,30,nlloc,-41.0514,174.216,-41.6696,173.2029,6016538.56,2612205.51,5948576,2526890,7.6,7.6,108.97,138.82,105.86,135.11,-99999,-99999,0,85.51,82.13,nu,130B,D,367,Q3,0.85,Q3,100,Q3,0,-99999,-99999,1,0.4,24,0.68,24,HarvardCMT,0.020819579,0.021620185,0.023175536,0.030190925,0.059865849,0.097034517,0.091617028,0.071130111,0.046301012,0.06066352,0.060337798,0.038287738,0.016699712,0.015985629,0.006859279,-99999,-99999,-99999,-99999,-99999,-99999,-99999,0.0230982,0.024058589,0.025972723,0.033773544,0.061904796,0.115408545,0.104241238,0.080932105,0.057683638,0.079518105,0.080027278,0.051285061,0.020689733,0.021902779,0.008316398,-99999,-99999,-99999,-99999,-99999,-99999,-99999,0.020729,0.023068,0.007133,0.008654
722185,1995-03-22T19:43:30.268000Z,D5131A06,5.83,0.15,Slab,S,0,27,64,30,nlloc,-41.0514,174.216,-40.9143,175.005,6016538.56,2612205.51,6030534,2678862,7.6,7.6,67.96,109.33,64.87,106.63,-99999,-99999,0,85.51,82.13,nu,PAPS,D,200,Q3,1.4,Q1,100,Q3,0,-99999,-99999,0,0.45,18,0.765,18,HarvardCMT,0.06297032,0.064151048,0.066256967,0.069825338,0.077324651,0.138894352,0.207141141,0.224012713,0.18804533,0.214455327,0.148654703,0.125300558,0.086874763,0.041852274,0.030255014,-99999,-99999,-99999,-99999,-99999,-99999,-99999,0.082811956,0.084200973,0.086583032,0.0903464,0.095605892,0.144883291,0.239069146,0.283085117,0.22761607,0.302876381,0.189048653,0.169596069,0.094261765,0.048983482,0.038652704,-99999,-99999,-99999,-99999,-99999,-99999,-99999,0.062974,0.080919,0.023458,0.025778
722185,1995-03-22T19:43:30.268000Z,D5132A05,5.83,0.15,Slab,S,0,27,64,30,nlloc,-41.0514,174.216,-41.2975,174.781,6016538.56,2612205.51,5988401,2659132,7.6,7.6,54.63,101.53,52,98.73,-99999,-99999,0,85.51,82.13,nu,132A,C,245,Q2,0.47,Q2,27,Q2,0,-99999,-99999,0,0.3,15,0.51,15,HarvardCMT,0.053638556,0.054298602,0.055439275,0.057158336,0.059725473,0.095113203,0.174737404,0.306435644,0.15522812,0.135050836,0.142852711,0.131787079,0.122947443,0.047630808,0.015976712,0.012805358,-99999,-99999,-99999,-99999,-99999,-99999,0.064248281,0.065231967,0.066879724,0.069519407,0.073418464,0.112071516,0.247108496,0.404853673,0.196105732,0.181419178,0.158205335,0.159071197,0.168067684,0.057238772,0.017300107,0.015215263,-99999,-99999,-99999,-99999,-99999,-99999,0.053645,0.064267,0.022839,0.02753
722185,1995-03-22T19:43:30.268000Z,D5302A03,5.83,0.15,Slab,S,0,27,64,30,nlloc,-41.0514,174.216,-39.9338,175.053,6016538.56,2612205.51,6139282,2685450,7.6,7.6,143.02,166.57,140.12,164.23,-99999,-99999,0,85.51,82.13,nu,302A,D,250,Q2,0.8,Q3,80,Q3,0,-99999,-99999,0,0.4,18,0.68,18,HarvardCMT,0.030163878,0.030589206,0.031399255,0.032712015,0.035382575,0.055143949,0.116051977,0.123330717,0.100696312,0.118112372,0.111865819,0.124693073,0.092194298,0.047973947,0.020604766,-99999,-99999,-99999,-99999,-99999,-99999,-99999,0.034817875,0.035222934,0.035944634,0.037107024,0.038387068,0.058956551,0.139158083,0.164086582,0.129287792,0.13913736,0.126238133,0.164339088,0.11304639,0.060014545,0.023340466,-99999,-99999,-99999,-99999,-99999,-99999,-99999,0.030144,0.034818,0.01655,0.019803
722185,1995-03-22T19:43:30.268000Z,D5643B07,5.83,0.15,Slab,S,0,27,64,30,nlloc,-41.0514,174.216,-41.1513,174.9794,6016538.56,2612205.51,6004275,2676112,7.6,7.6,64.92,107.53,62.09,104.88,-99999,-99999,0,85.51,82.13,nu,643B,B,1000,Q3,<0.1,Q3,1.50E+00,Q3,0,-99999,-99999,0,0.3,30,0.51,30,HarvardCMT,0.043802077,0.045079497,0.048920939,0.056898248,0.068051323,0.114591401,0.147949868,0.357891772,0.17014274,0.107464256,0.078142084,0.037941516,0.022222498,0.015470457,0.007144118,0.004156626,-99999,-99999,-99999,-99999,-99999,-99999,0.052850333,0.054300427,0.057864488,0.068940012,0.080399706,0.144387443,0.181411586,0.466282453,0.186525927,0.131022992,0.097172238,0.051848744,0.030200713,0.019077592,0.007818823,0.005737426,-99999,-99999,-99999,-99999,-99999,-99999,0.043803,0.051789,0.013908,0.016355
