CuspID,Origin_time,Record,Mw,MwUncert,TectClass,Mech,PreferredFaultPlane,Strike,Dip,Rake,Location,HypLat,HypLon,StationLat,StationLon,HypN,HypE,StationN,StationE,LENGTH_km,WIDTH_km,Repi_km,Rhyp_km,Rjb_km,Rrup_km,Rx_km,Ry_km,Rvol_km,HypDepth_km,ZTOR_km,HWFW,SiteCode,SiteClass1170,Vs30,Vs30Uncert,Tsite,TsiteUncert,Z1,Z1Uncertainty,Directivity,Pulse_or,Pulse_T,S_Trigger_Flag,fcButterHP,f_iniLP,fmin,fmax,References,f100.0000SA_RotD50,f50.0000SA_RotD50,f33.3333SA_RotD50,f25.0000SA_RotD50,f20.0000SA_RotD50,f13.3333SA_RotD50,f10.0000SA_RotD50,f6.6667SA_RotD50,f5.0000SA_RotD50,f4.0000SA_RotD50,f3.3333SA_RotD50,f2.5000SA_RotD50,f2.0000SA_RotD50,f1.3333SA_RotD50,f1.0000SA_RotD50,f0.6667SA_RotD50,f0.5000SA_RotD50,f0.3333SA_RotD50,f0.2500SA_RotD50,f0.2000SA_RotD50,f0.1333SA_RotD50,f0.1000SA_RotD50,f100.0000SA_RotD100,f50.0000SA_RotD100,f33.3333SA_RotD100,f25.0000SA_RotD100,f20.0000SA_RotD100,f13.3333SA_RotD100,f10.0000SA_RotD100,f6.6667SA_RotD100,f5.0000SA_RotD100,f4.0000SA_RotD100,f3.3333SA_RotD100,f2.5000SA_RotD100,f2.0000SA_RotD100,f1.3333SA_RotD100,f1.0000SA_RotD100,f0.6667SA_RotD100,f0.5000SA_RotD100,f0.3333SA_RotD100,f0.2500SA_RotD100,f0.2000SA_RotD100,f0.1333SA_RotD100,f0.1000SA_RotD100,PGA_RotD50,PGA_RotD100,PGV_RotD50,PGV_RotD100
608810,1994-06-18T03:25:13.819000Z,D4505A01,6.72,0.08,Crustal,R,1,221,47,112,geonet,-43.0078,171.4762,-42.9489,171.5677,5798820.69,2385786.14,5805487,2393135,21.06,21.06,9.91,11.12,2.02,4.12,2.92,-9.85,0,4.27,1,hw,APPS,C,300,Q2,0.4,Q1,30,Q2,0,-99999,-99999,0,0.11,40,0.187,40,Abercrombie_etal_2000&HarvardCMT,0.434434053,0.44379561,0.466041823,0.45361862,0.457316333,0.484536485,0.511067291,0.638875455,0.768507088,0.749913361,0.614488014,0.67991419,0.622623767,0.30123519,0.17185908,0.086985325,0.062003784,0.035274857,0.024175122,0.01469602,-99999,-99999,0.509251466,0.523195173,0.543812195,0.551395064,0.519697254,0.59513513,0.603115038,0.870334758,1.004048352,0.953932651,0.867420247,0.823797983,0.733138134,0.360932737,0.235214412,0.113977053,0.076473903,0.046091852,0.02775526,0.016791911,-99999,-99999,0.423633,0.509184,0.28269,0.316738
608810,1994-06-18T03:25:13.819000Z,D94042A1,6.72,0.08,Crustal,R,1,221,47,112,geonet,-43.0078,171.4762,-42.5232,172.8305,5798820.69,2385786.14,5853765,2496076,21.06,21.06,122.98,123.31,115.46,115.74,-43.1,-113.82,0,4.27,1,nu,HSES,D,280,Q3,0.9,Q1,85,Q3,0,-99999,-99999,1,0.25,10,0.425,10,Abercrombie_etal_2000&HarvardCMT,0.015482414,0.01549078,0.01551068,0.015538611,0.015560419,0.015645371,0.015874265,0.016224739,0.016761494,0.018828268,0.020922915,0.021702588,0.02666315,0.035827797,0.020169524,0.010154409,0.006880255,-99999,-99999,-99999,-99999,-99999,0.017202072,0.017213742,0.017220072,0.01724267,0.017269703,0.017350904,0.017627952,0.018393501,0.018898154,0.02169059,0.024483867,0.027042288,0.033715833,0.04031867,0.025867746,0.011970369,0.009115194,-99999,-99999,-99999,-99999,-99999,0.015473,0.017197,0.019453,0.022497
608810,1994-06-18T03:25:13.819000Z,D94044A1b,6.72,0.08,Crustal,R,1,221,47,112,geonet,-43.0078,171.4762,-45.8986,170.5097,5798820.69,2385786.14,5475848,2316608,21.06,21.06,330.46,330.33,323.2,323.05,-155.59,289.14,0,4.27,1,nu,SKFS,D,140,Q2,0.8,Q3,25,Q3,0,-99999,-99999,1,0.2,10,0.34,10,Abercrombie_etal_2000&HarvardCMT,0.013959776,0.013984534,0.014004678,0.014033438,0.014076026,0.01427564,0.01457731,0.015056091,0.016140749,0.017883042,0.018636502,0.021045253,0.027553495,0.034705978,0.021742106,0.008447018,0.004603119,-99999,-99999,-99999,-99999,-99999,0.015708253,0.015715565,0.015735952,0.015753751,0.015777106,0.015872789,0.016047352,0.016332898,0.016633708,0.018987345,0.021179841,0.023298007,0.029150982,0.042144193,0.025060686,0.010635337,0.005072288,-99999,-99999,-99999,-99999,-99999,0.013958,0.015708,0.018737,0.02038
608810,1994-06-18T03:25:13.819000Z,D94051D1,6.72,0.08,Crustal,R,1,221,47,112,geonet,-43.0078,171.4762,-41.7557,171.5998,5798820.69,2385786.14,5938069,2393545,21.06,21.06,139.6,139.53,132.84,132.84,89.59,-110.18,0,4.27,1,nu,WBCS,D,300,Q3,1.2,Q2,105,Q3,0,-99999,-99999,0,0.25,20,0.425,20,Abercrombie_etal_2000&HarvardCMT,0.045901802,0.046173821,0.04655201,0.047198582,0.049200936,0.054868041,0.05904644,0.060671939,0.069355852,0.06687419,0.068822555,0.068176624,0.074922316,0.074436548,0.051852879,0.026081865,0.017278991,-99999,-99999,-99999,-99999,-99999,0.058130975,0.058446975,0.05920659,0.060513549,0.062107573,0.069742361,0.081436548,0.062862923,0.0772347,0.073639409,0.081710593,0.074240023,0.103392548,0.093009923,0.057960932,0.034349495,0.021260506,-99999,-99999,-99999,-99999,-99999,0.045551,0.058169,0.050876,0.058746
608810,1994-06-18T03:25:13.819000Z,D94054A3,6.72,0.08,Crustal,R,1,221,47,112,geonet,-43.0078,171.4762,-43.883,169.0441,5798820.69,2385786.14,5695156,2192230,21.06,21.06,219.12,219.61,211.53,212.02,82.16,205.22,0,4.27,1,nu,HDWS,D,210,Q3,0.87,Q1,100,Q3,0,-99999,-99999,1,0.3,11,0.51,11,Abercrombie_etal_2000&HarvardCMT,0.014429112,0.014515049,0.014656034,0.014858263,0.015222047,0.016763368,0.019688224,0.02420516,0.024446112,0.028781425,0.027219678,0.022076465,0.023227679,0.017046704,0.011188263,0.006423507,-99999,-99999,-99999,-99999,-99999,-99999,0.019519814,0.019618296,0.01980257,0.02007931,0.020478045,0.022340739,0.026185361,0.028824909,0.028324066,0.031925202,0.030745881,0.025754398,0.028204879,0.01969858,0.011888674,0.008426255,-99999,-99999,-99999,-99999,-99999,-99999,0.014384,0.01943,0.01289,0.014801
608810,1994-06-18T03:25:13.819000Z,D94129A2,6.72,0.08,Crustal,R,1,221,47,112,geonet,-43.0078,171.4762,-41.7999,172.328,5798820.69,2385786.14,5933893,2454147,21.06,21.06,151.43,151.45,143.62,143.66,41.11,-146.79,0,4.27,1,nu,MCAS,D,501,Q3,1.6,Q3,200,Q3,0,-99999,-99999,0,0.1,13,0.17,13,Abercrombie_etal_2000&HarvardCMT,0.027198335,0.027364989,0.027621222,0.027904848,0.028290906,0.02953237,0.032863218,0.040167882,0.037473899,0.041069685,0.041933137,0.045097211,0.040369891,0.032901044,0.03469049,0.017901561,0.014999712,0.005580784,0.003259775,0.002436036,-99999,-99999,0.02946843,0.029581414,0.029784831,0.030214343,0.030837653,0.033405288,0.035620121,0.043313486,0.040495697,0.047380317,0.059282978,0.056046444,0.052008048,0.035831374,0.035778614,0.019889654,0.016023237,0.006485585,0.003588476,0.003290382,-99999,-99999,0.027166,0.029349,0.027983,0.029524
608810,1994-06-18T03:25:13.819000Z,K94112A1,6.72,0.08,Crustal,R,1,221,47,112,geonet,-43.0078,171.4762,-43.1325,171.7693,5798820.69,2385786.14,5785358,2409884,21.06,21.06,27.55,28.04,23.3,23.35,-22.93,-5.65,0,4.27,1,fw,112B,C,667,Q3,0.36,Q3,60,Q3,0,-99999,-99999,1,0.35,18,0.595,18,Abercrombie_etal_2000&HarvardCMT,0.134086935,0.134859343,0.136374241,0.139091759,0.14288874,0.148222186,0.178536559,0.209500259,0.257718368,0.274716707,0.233867546,0.160052975,0.13869446,0.090052566,0.055637714,0.032070649,-99999,-99999,-99999,-99999,-99999,-99999,0.147892676,0.148480009,0.149548481,0.151455282,0.156453884,0.189313404,0.21852233,0.290514072,0.310780936,0.348118608,0.308423533,0.220386461,0.167575918,0.107298084,0.073933758,0.034925822,-99999,-99999,-99999,-99999,-99999,-99999,0.133497,0.147884,0.080934,0.108476
697172,1994-12-15T11:20:17.858000Z,K5113A01,6.31,0.15,Crustal,S,0,194,77,-1.61E+02,geonet,-37.1987,177.528,-37.8735,177.5847,6434683.68,2912134.85,6359624,2913365,13.1,13.1,75.2,76.03,70.88,72.17,-99999,-99999,10,12,5.68,nu,113A,C,522,Q3,0.15,Q3,10,Q3,0,-99999,-99999,1,0.5,11,0.85,11,HarvardCMT,0.080148207,0.080602388,0.081308659,0.082262281,0.083597622,0.088697662,0.100338335,0.134051535,0.188744426,0.171224057,0.131470551,0.094646658,0.054620746,0.020944872,0.01178829,-99999,-99999,-99999,-99999,-99999,-99999,-99999,0.087851518,0.088253216,0.088869495,0.089727049,0.090842629,0.096053042,0.108322519,0.153558143,0.20660397,0.230481095,0.152336836,0.105492683,0.07030007,0.025933186,0.015314963,-99999,-99999,-99999,-99999,-99999,-99999,-99999,0.079917,0.087819,0.035922,0.044695
731516,1995-02-05T22:51:04.665000Z,D5016A02,7.09,0.15,Crustal,N,0,215,58,-9.00E+01,geonet,-37.6496,179.4886,-38.6774,178.031,6374193.93,3082358.22,6268431,2947608,32.2,32.2,171.17,171.73,155.42,156.01,-99999,-99999,0,12,1.73,nu,016A,C,480,Q3,0.15,Q3,10,Q3,0,-99999,-99999,0,0.35,14,0.595,14,HarvardCMT,0.019710204,0.01979156,0.01990798,0.020104147,0.020403814,0.021103236,0.023549627,0.029211114,0.029884282,0.026933377,0.029731997,0.029887003,0.029229424,0.024001363,0.014486256,0.006359749,-99999,-99999,-99999,-99999,-99999,-99999,0.022107094,0.022186567,0.022324013,0.0225148,0.022775511,0.023225732,0.025858155,0.033113573,0.032695616,0.032191653,0.034601593,0.039338457,0.038068072,0.025916008,0.015662518,0.007435701,-99999,-99999,-99999,-99999,-99999,-99999,0.019614,0.022096,0.013599,0.015489
731516,1995-02-05T22:51:04.665000Z,D5017A02,7.09,0.15,Crustal,N,0,215,58,-9.00E+01,geonet,-37.6496,179.4886,-38.6665,178.0227,6374193.93,3082358.22,6269685,2946952,32.2,32.2,170.91,171.47,155.18,155.77,-99999,-99999,0,12,1.73,nu,GISS,D,138,Q2,1,Q1,40,Q3,0,-99999,-99999,0,0.18,12,0.306,12,HarvardCMT,0.022684338,0.022753481,0.022851238,0.023000021,0.023199718,0.02447783,0.028110276,0.031210304,0.033264487,0.035170363,0.036663461,0.035160637,0.036618525,0.043257558,0.028515185,0.009226587,0.005340945,0.002515248,-99999,-99999,-99999,-99999,0.026676419,0.026738405,0.026835865,0.026963143,0.027145538,0.028081717,0.029777758,0.034484913,0.035669983,0.039245621,0.039262774,0.041670063,0.045754792,0.059330712,0.035593877,0.012021962,0.006695675,0.002646597,-99999,-99999,-99999,-99999,0.022668,0.026673,0.023536,0.028064
731516,1995-02-05T22:51:04.665000Z,D5709A03,7.09,0.15,Crustal,N,0,215,58,-9.00E+01,geonet,-37.6496,179.4886,-38.6257,177.9216,6374193.93,3082358.22,6274694,2938413,32.2,32.2,174.82,175.4,159.22,159.85,-99999,-99999,0,12,1.73,nu,GWTS,D,245,Q3,1.5,Q3,125,Q3,0,-99999,-99999,0,0.15,10,0.255,10,HarvardCMT,0.021731767,0.021759078,0.02181282,0.021836742,0.021854769,0.021946233,0.022798209,0.022689363,0.027327202,0.027678236,0.02948805,0.033202113,0.032906377,0.038181019,0.034054204,0.035052704,0.026527251,0.012223626,-99999,-99999,-99999,-99999,0.023716381,0.023752658,0.023817512,0.023902319,0.024013112,0.024419737,0.024883822,0.027588073,0.031236916,0.030002773,0.03166805,0.037418524,0.034685731,0.044304881,0.037758366,0.043783892,0.027578157,0.013798717,-99999,-99999,-99999,-99999,0.021733,0.023696,0.047036,0.051666
731516,1995-02-05T22:51:04.665000Z,D5712A03,7.09,0.15,Crustal,N,0,215,58,-9.00E+01,geonet,-37.6496,179.4886,-37.9615,176.9855,6374193.93,3082358.22,6352382,2860270,32.2,32.2,222.62,223.48,209.17,210.15,-99999,-99999,0,12,1.73,nu,WKHS,D,210,Q3,0.71,Q2,100,Q3,0,-99999,-99999,0,0.25,12,0.425,12,HarvardCMT,0.017437105,0.01747202,0.017528485,0.017660258,0.017919369,0.01907737,0.020574281,0.022602627,0.021941203,0.024667202,0.029036325,0.031558149,0.03362774,0.020798154,0.0131484,0.005127375,0.003403177,-99999,-99999,-99999,-99999,-99999,0.018988121,0.019024355,0.019090431,0.019186438,0.019336028,0.020346443,0.021965181,0.025129384,0.026641201,0.028840898,0.031453996,0.039768337,0.039454224,0.025597773,0.017391065,0.006786079,0.004032561,-99999,-99999,-99999,-99999,-99999,0.017383,0.01896,0.01429,0.016299
731516,1995-02-05T22:51:04.665000Z,K5113A02,7.09,0.15,Crustal,N,0,215,58,-9.00E+01,geonet,-37.6496,179.4886,-37.8735,177.5847,6374193.93,3082358.22,6359624,2913365,32.2,32.2,169.2,170.05,155.84,156.86,-99999,-99999,0,12,1.73,nu,113A,C,522,Q3,0.15,Q3,10,Q3,0,-99999,-99999,1,0.4,11,0.68,11,HarvardCMT,0.038579965,0.038825755,0.039207689,0.039754242,0.040481703,0.04333144,0.047971319,0.067473478,0.095996605,0.095599855,0.07127806,0.043812988,0.028165423,0.014600625,0.00919361,-99999,-99999,-99999,-99999,-99999,-99999,-99999,0.041665516,0.041866949,0.042202272,0.042671403,0.043336305,0.046593751,0.050742462,0.075557746,0.114020995,0.10365579,0.093689989,0.053496053,0.032929324,0.016410764,0.011275952,-99999,-99999,-99999,-99999,-99999,-99999,-99999,0.038456,0.041675,0.017797,0.020876
721911,1995-02-10T01:44:56.764000Z,D5016A04,6.49,0.15,Crustal,N,0,220,41,-7.80E+01,fdsn,-38.1086,178.6757,-38.6774,178.031,6344659.25,3005555.26,6268431,2947608,16.2,16.2,84.6,96.52,87.77,88.47,-99999,-99999,0,12,6.26,nu,016A,C,480,Q3,0.15,Q3,10,Q3,0,-99999,-99999,1,0.3,10,0.51,10,HarvardCMT,0.013073511,0.013110394,0.013165774,0.013255103,0.013372499,0.013800731,0.014762508,0.018470396,0.021878467,0.021280953,0.022660876,0.022739494,0.025552385,0.017310929,0.010995417,0.006298665,-99999,-99999,-99999,-99999,-99999,-99999,0.015128536,0.015182294,0.015259543,0.0153643,0.015513083,0.016020944,0.016852733,0.019419659,0.02792731,0.025200711,0.026689484,0.026188762,0.027598461,0.021719971,0.012021176,0.006808514,-99999,-99999,-99999,-99999,-99999,-99999,0.01307,0.015125,0.011199,0.012434
721911,1995-02-10T01:44:56.764000Z,D5017A03,6.49,0.15,Crustal,N,0,220,41,-7.80E+01,fdsn,-38.1086,178.6757,-38.6665,178.0227,6344659.25,3005555.26,6269685,2946952,16.2,16.2,84.19,95.91,87.18,87.87,-99999,-99999,0,12,6.26,nu,GISS,D,138,Q2,1,Q1,40,Q3,0,-99999,-99999,1,0.2,10,0.34,10,HarvardCMT,0.015888332,0.015934227,0.015994899,0.016085839,0.016214503,0.016745415,0.017671343,0.021241096,0.022900491,0.025456965,0.024308999,0.025733081,0.026839437,0.023406107,0.020736096,0.009204094,0.004593141,-99999,-99999,-99999,-99999,-99999,0.020425437,0.020445753,0.020497381,0.020554856,0.020633813,0.020881776,0.020726756,0.022604002,0.025153536,0.028042971,0.030252806,0.032891752,0.035703046,0.028393988,0.028520102,0.011609564,0.005005511,-99999,-99999,-99999,-99999,-99999,0.015846,0.020389,0.017052,0.020424
722185,1995-03-22T19:43:30.268000Z,D5040A01,5.83,0.15,Slab,S,0,27,64,30,nlloc,-41.0514,174.216,-41.5763,175.2269,6016538.56,2612205.51,5956588,2695679,7.6,7.6,102.64,133.7,100.01,131.33,-99999,-99999,0,85.51,82.13,nu,040A,B,770,Q3,0.08,Q3,7,Q3,0,-99999,-99999,1,0.25,22,0.425,22,HarvardCMT,0.022504935,0.023052002,0.02442672,0.026750379,0.029970348,0.036837316,0.0384622,0.040787676,0.03481758,0.028686838,0.020752244,0.011488205,0.009365637,0.005186181,0.00330664,0.002476857,0.001608199,-99999,-99999,-99999,-99999,-99999,0.027273249,0.028125013,0.029852988,0.033977961,0.041932527,0.051344195,0.05439001,0.047231012,0.039630394,0.03537896,0.026228124,0.01423629,0.011606453,0.005460328,0.003918021,0.0029009,0.001843898,-99999,-99999,-99999,-99999,-99999,0.022443,0.026833,0.006984,0.007547
722185,1995-03-22T19:43:30.268000Z,D5050A02,5.83,0.15,Slab,S,0,27,64,30,nlloc,-41.0514,174.216,-41.1247,173.0095,6016538.56,2612205.51,6009109,2510784,7.6,7.6,101.44,132.87,98.42,129.2,-99999,-99999,0,85.51,82.13,nu,MOTS,D,300,Q3,1.27,Q3,300,Q3,0,-99999,-99999,0,0.3,25,0.51,25,HarvardCMT,0.074961982,0.0760233,0.077630846,0.079592067,0.085407922,0.108523533,0.120727789,0.129737686,0.160525535,0.158524881,0.131104487,0.098735414,0.064207514,0.023483606,0.010274713,0.009175185,-99999,-99999,-99999,-99999,-99999,-99999,0.081439857,0.08197195,0.0826977,0.086570113,0.100206123,0.138278711,0.136238401,0.146244046,0.185530254,0.173263583,0.148216352,0.122568463,0.075718937,0.025104816,0.013330879,0.011051457,-99999,-99999,-99999,-99999,-99999,-99999,0.074658,0.081151,0.031704,0.038098
722185,1995-03-22T19:43:30.268000Z,D5056A02,5.83,0.15,Slab,S,0,27,64,30,nlloc,-41.0514,174.216,-41.2758,173.2851,6016538.56,2612205.51,5992292,2533876,7.6,7.6,81.82,118.48,78.7,114.72,-99999,-99999,0,85.51,82.13,nu,056A,B,450,Q3,0.07,Q3,5,Q3,0,-99999,-99999,0,0.3,15,0.51,15,HarvardCMT,0.204270883,0.205641923,0.20809781,0.211768262,0.217074449,0.239786601,0.267080312,0.360341958,0.383740264,0.405257265,0.347179975,0.183802745,0.116473274,0.060131851,0.022275592,0.012310614,-99999,-99999,-99999,-99999,-99999,-99999,0.257363882,0.259359686,0.262657816,0.267675803,0.275247601,0.312899289,0.349955349,0.444977339,0.517937376,0.513302938,0.450842596,0.258027851,0.162422774,0.078356553,0.030588258,0.017355536,-99999,-99999,-99999,-99999,-99999,-99999,0.203401,0.256838,0.086241,0.109037
722185,1995-03-22T19:43:30.268000Z,D5129A01,5.83,0.15,Slab,S,0,27,64,30,nlloc,-41.0514,174.216,-41.7999,172.328,6016538.56,2612205.51,5933893,2454147,7.6,7.6,178.06,197.87,174.9,194.27,-99999,-99999,0,85.51,82.13,nu,MCAS,D,501,Q3,1.6,Q3,200,Q3,0,-99999,-99999,0,0.3,17,0.51,17,HarvardCMT,0.03291746,0.033257869,0.033838155,0.034620865,0.035995271,0.040375253,0.050630992,0.056734065,0.06722691,0.050989068,0.050962306,0.042988585,0.036782044,0.016961682,0.015639503,0.009449632,-99999,-99999,-99999,-99999,-99999,-99999,0.041490324,0.041863665,0.042484508,0.043469432,0.045035196,0.051771355,0.056942438,0.065811805,0.074365939,0.069200597,0.071715048,0.050953799,0.045096612,0.019670207,0.019229502,0.010361439,-99999,-99999,-99999,-99999,-99999,-99999,0.032924,0.041474,0.019706,0.021382
722185,1995-03-22T19:43:30.268000Z,D5130B01,5.83,0.15,Slab,S,0,27,64,30,nlloc,-41.0514,174.216,-41.6696,173.2029,6016538.56,2612205.51,5948576,2526890,7.6,7.6,108.97,138.82,105.86,135.11,-99999,-99999,0,85.51,82.13,nu,130B,D,367,Q3,0.85,Q3,100,Q3,0,-99999,-99999,1,0.4,24,0.68,24,HarvardCMT,0.020869618,0.021583085,0.022901795,0.027265002,0.033123213,0.043377934,0.043725043,0.030578991,0.022401077,0.023958031,0.018824194,0.014644349,0.010197511,0.005761664,0.003571885,-99999,-99999,-99999,-99999,-99999,-99999,-99999,0.023159036,0.024115558,0.025771428,0.030309848,0.035201053,0.045227564,0.046146242,0.038634413,0.027223413,0.027926398,0.026617233,0.020554288,0.012759266,0.007695771,0.004603612,-99999,-99999,-99999,-99999,-99999,-99999,-99999,0.020729,0.023068,0.007133,0.008654
722185,1995-03-22T19:43:30.268000Z,D5131A06,5.83,0.15,Slab,S,0,27,64,30,nlloc,-41.0514,174.216,-40.9143,175.005,6016538.56,2612205.51,6030534,2678862,7.6,7.6,67.96,109.33,64.87,106.63,-99999,-99999,0,85.51,82.13,nu,PAPS,D,200,Q3,1.4,Q1,100,Q3,0,-99999,-99999,0,0.45,18,0.765,18,HarvardCMT,0.062899908,0.063987665,0.065941619,0.069397917,0.075833295,0.09557212,0.110731694,0.119470087,0.087544119,0.085218892,0.073875091,0.05289125,0.034607581,0.019114587,0.015087052,-99999,-99999,-99999,-99999,-99999,-99999,-99999,0.082775789,0.084016082,0.08607466,0.089201408,0.094316453,0.103072185,0.137274732,0.153542786,0.108419694,0.112992353,0.084695156,0.062287875,0.040359265,0.022570576,0.019161617,-99999,-99999,-99999,-99999,-99999,-99999,-99999,0.062974,0.080919,0.023458,0.025778
722185,1995-03-22T19:43:30.268000Z,D5132A05,5.83,0.15,Slab,S,0,27,64,30,nlloc,-41.0514,174.216,-41.2975,174.781,6016538.56,2612205.51,5988401,2659132,7.6,7.6,54.63,101.53,52,98.73,-99999,-99999,0,85.51,82.13,nu,132A,C,245,Q2,0.47,Q2,27,Q2,0,-99999,-99999,0,0.3,15,0.51,15,HarvardCMT,0.05358447,0.054192416,0.055291225,0.056914205,0.059362402,0.070579736,0.089311584,0.113528658,0.074401786,0.070441593,0.068451959,0.062355108,0.048184611,0.024340313,0.011332137,0.006137618,-99999,-99999,-99999,-99999,-99999,-99999,0.064336071,0.065379372,0.067081992,0.069660127,0.07346519,0.095112352,0.121271828,0.141447621,0.100100062,0.080337541,0.081377149,0.07598979,0.057794028,0.028259335,0.013434891,0.008511904,-99999,-99999,-99999,-99999,-99999,-99999,0.053645,0.064267,0.022839,0.02753
722185,1995-03-22T19:43:30.268000Z,D5302A03,5.83,0.15,Slab,S,0,27,64,30,nlloc,-41.0514,174.216,-39.9338,175.053,6016538.56,2612205.51,6139282,2685450,7.6,7.6,143.02,166.57,140.12,164.23,-99999,-99999,0,85.51,82.13,nu,302A,D,250,Q2,0.8,Q3,80,Q3,0,-99999,-99999,0,0.4,18,0.68,18,HarvardCMT,0.03019481,0.030570215,0.031410725,0.032727364,0.035180425,0.040642721,0.049829104,0.051919776,0.051142408,0.052801561,0.055168703,0.052120806,0.039440478,0.017761376,0.009716408,-99999,-99999,-99999,-99999,-99999,-99999,-99999,0.034809762,0.035184982,0.035823889,0.036809852,0.038829316,0.044592898,0.060923237,0.054480295,0.056391119,0.057532068,0.058523611,0.065518715,0.043119077,0.019344766,0.011406395,-99999,-99999,-99999,-99999,-99999,-99999,-99999,0.030144,0.034818,0.01655,0.019803
