CuspID,Origin_time,Record,Mw,MwUncert,TectClass,Mech,PreferredFaultPlane,Strike,Dip,Rake,Location,HypLat,HypLon,StationLat,StationLon,HypN,HypE,StationN,StationE,LENGTH_km,WIDTH_km,Repi_km,Rhyp_km,Rjb_km,Rrup_km,Rx_km,Ry_km,Rvol_km,HypDepth_km,ZTOR_km,HWFW,SiteCode,SiteClass1170,Vs30,Vs30Uncert,Tsite,TsiteUncert,Z1,Z1Uncertainty,Directivity,Pulse_or,Pulse_T,S_Trigger_Flag,fcButterHP,f_iniLP,fmin,fmax,References,f100.0000SA_RotD50,f50.0000SA_RotD50,f33.3333SA_RotD50,f25.0000SA_RotD50,f20.0000SA_RotD50,f13.3333SA_RotD50,f10.0000SA_RotD50,f6.6667SA_RotD50,f5.0000SA_RotD50,f4.0000SA_RotD50,f3.3333SA_RotD50,f2.5000SA_RotD50,f2.0000SA_RotD50,f1.3333SA_RotD50,f1.0000SA_RotD50,f0.6667SA_RotD50,f0.5000SA_RotD50,f0.3333SA_RotD50,f0.2500SA_RotD50,f0.2000SA_RotD50,f0.1333SA_RotD50,f0.1000SA_RotD50,f100.0000SA_RotD100,f50.0000SA_RotD100,f33.3333SA_RotD100,f25.0000SA_RotD100,f20.0000SA_RotD100,f13.3333SA_RotD100,f10.0000SA_RotD100,f6.6667SA_RotD100,f5.0000SA_RotD100,f4.0000SA_RotD100,f3.3333SA_RotD100,f2.5000SA_RotD100,f2.0000SA_RotD100,f1.3333SA_RotD100,f1.0000SA_RotD100,f0.6667SA_RotD100,f0.5000SA_RotD100,f0.3333SA_RotD100,f0.2500SA_RotD100,f0.2000SA_RotD100,f0.1333SA_RotD100,f0.1000SA_RotD100,PGA_RotD50,PGA_RotD100,PGV_RotD50,PGV_RotD100
255338,1991-09-08T13:50:30.989999Z,D91467A2,5.61,0.15,Slab,R,1,95,70,108,geonet,-40.2442,175.1672,-41.2425,174.9024,6104594.2,2694363.31,5994293,2669430,5.9,5.9,113.22,142.49,112.16,141.58,113.06,-15.23,0,86.69,83.93,nu,467A,D,218,Q3,1.5,Q3,200,Q3,0,-99999,-99999,1,0.25,15,0.425,15,HarvardCMT,0.025398978,0.025591514,0.025884753,0.026291071,0.026865385,0.028899956,0.033835479,0.034735771,0.039465596,0.035307278,0.034463062,0.039479284,0.038503841,0.024046434,0.010606445,0.00496874,0.002405112,-99999,-99999,-99999,-99999,-99999,0.028938565,0.029170054,0.029545305,0.03010459,0.030887439,0.032511973,0.038156091,0.0417923,0.051100504,0.042599931,0.042483109,0.048656718,0.04872598,0.029995245,0.014997558,0.005736936,0.002637614,-99999,-99999,-99999,-99999,-99999,0.025376,0.028816,0.019351,0.021977
255338,1991-09-08T13:50:30.989999Z,D91468A2,5.61,0.15,Slab,R,1,95,70,108,geonet,-40.2442,175.1672,-41.2011,174.9547,6104594.2,2694363.31,5998793,2673916,5.9,5.9,107.9,138.3,106.86,137.35,108.18,-11.15,0,86.69,83.93,nu,468A,D,190,Q1,0.9,Q3,50,Q3,0,-99999,-99999,0,0.45,13,0.765,13,HarvardCMT,0.041231961,0.041658313,0.042275565,0.043051356,0.044051728,0.050588122,0.062898514,0.060562433,0.06818106,0.063684292,0.061570081,0.055961309,0.04695507,0.027122136,0.017962392,-99999,-99999,-99999,-99999,-99999,-99999,-99999,0.056430144,0.056928805,0.057757559,0.059025874,0.060885952,0.07048088,0.087686549,0.085568589,0.096381399,0.078129771,0.067672735,0.075391743,0.057144769,0.031800432,0.021304052,-99999,-99999,-99999,-99999,-99999,-99999,-99999,0.041167,0.056406,0.028165,0.036325
255338,1991-09-08T13:50:30.989999Z,D91606B1,5.61,0.15,Slab,R,1,95,70,108,geonet,-40.2442,175.1672,-41.2333,174.9199,6104594.2,2694363.31,5995282,2670919,5.9,5.9,111.94,141.47,110.88,140.55,111.94,-13.83,0,86.69,83.93,nu,606B,B,800,Q3,<0.1,Q3,0,Q3,0,-99999,-99999,0,0.45,26,0.765,26,HarvardCMT,0.018283934,0.018499182,0.018818548,0.019539479,0.02042156,0.023644343,0.02376097,0.02151331,0.02624536,0.030260385,0.028703778,0.020794687,0.013485962,0.006668729,0.003734045,-99999,-99999,-99999,-99999,-99999,-99999,-99999,0.022040102,0.022413205,0.023009481,0.023289031,0.023663328,0.026098332,0.026729473,0.025015385,0.033791499,0.03673945,0.035615797,0.026691533,0.017766961,0.008561099,0.005066864,-99999,-99999,-99999,-99999,-99999,-99999,-99999,0.018079,0.022062,0.00858,0.011222
255338,1991-09-08T13:50:30.989999Z,D91642E7,5.61,0.15,Slab,R,1,95,70,108,geonet,-40.2442,175.1672,-41.2341,174.918,6104594.2,2694363.31,5995197,2670758,5.9,5.9,112.06,141.57,111,140.65,112.04,-13.98,0,86.69,83.93,nu,642E,C,350,Q1,0.35,Q2,50,Q3,0,-99999,-99999,0,0.5,12,0.85,12,HarvardCMT,0.049748317,0.049867943,0.050045278,0.050302175,0.050700609,0.051893688,0.051761741,0.063011987,0.08231025,0.09025598,0.097372565,0.079290937,0.044443444,0.019152204,0.009725404,-99999,-99999,-99999,-99999,-99999,-99999,-99999,0.060237158,0.060403619,0.060748476,0.061198834,0.06175553,0.063701702,0.066358932,0.080430784,0.100330955,0.110102366,0.119183627,0.088840713,0.048116707,0.021212048,0.010512267,-99999,-99999,-99999,-99999,-99999,-99999,-99999,0.049631,0.060112,0.028527,0.031818
255338,1991-09-08T13:50:30.989999Z,D91644C3,5.61,0.15,Slab,R,1,95,70,108,geonet,-40.2442,175.1672,-41.2187,174.8826,6104594.2,2694363.31,5996970,2667828,5.9,5.9,110.98,140.72,109.9,139.76,110.53,-17.05,0,86.69,83.93,nu,644C,D,189,Q3,2,Q3,250,Q3,0,-99999,-99999,0,0.35,15,0.595,15,HarvardCMT,0.022103517,0.022266796,0.022535218,0.022876162,0.023405064,0.025933681,0.029104449,0.0344619,0.035885065,0.033839086,0.036149128,0.035173442,0.026399718,0.011333621,0.006436586,0.003584004,-99999,-99999,-99999,-99999,-99999,-99999,0.025338577,0.025476305,0.025720224,0.025965628,0.02613531,0.029601304,0.03155985,0.036927553,0.038240013,0.039133556,0.043211079,0.039765332,0.027890294,0.012504401,0.008427072,0.004299245,-99999,-99999,-99999,-99999,-99999,-99999,0.022024,0.025364,0.012054,0.01511
255338,1991-09-08T13:50:30.989999Z,D91646A2,5.61,0.15,Slab,R,1,95,70,108,geonet,-40.2442,175.1672,-41.2574,174.9485,6104594.2,2694363.31,5992552,2673256,5.9,5.9,114.16,143.28,113.12,142.4,114.46,-11.26,0,86.69,83.93,nu,WDAS,E,120,Q1,1.6,Q2,62,Q2,0,-99999,-99999,0,0.35,18,0.595,18,HarvardCMT,0.051322626,0.051569361,0.05211992,0.053000667,0.05439342,0.056998149,0.060204321,0.069254627,0.0720175,0.07633086,0.080552148,0.062719644,0.04583281,0.025170837,0.018865349,0.009122309,-99999,-99999,-99999,-99999,-99999,-99999,0.055353235,0.055598278,0.056054338,0.056808507,0.058224883,0.064815387,0.071513143,0.078762718,0.08090036,0.096263792,0.103071559,0.075784777,0.053611646,0.028736487,0.02546777,0.012107959,-99999,-99999,-99999,-99999,-99999,-99999,0.051233,0.055137,0.027295,0.029666
255338,1991-09-08T13:50:30.989999Z,D91705B3,5.61,0.15,Slab,R,1,95,70,108,geonet,-40.2442,175.1672,-41.1391,174.8502,6104594.2,2694363.31,6005867,2665298,5.9,5.9,103.03,134.58,101.9,133.49,101.89,-20.35,0,86.69,83.93,nu,707A,C,570,Q3,0.15,Q3,10,Q3,0,-99999,-99999,0,0.5,15,0.85,15,HarvardCMT,0.033750352,0.034034351,0.034459197,0.035129829,0.036048352,0.03723542,0.042218734,0.046697424,0.059672965,0.057942307,0.051528872,0.036206391,0.020216996,0.009004347,0.005367848,-99999,-99999,-99999,-99999,-99999,-99999,-99999,0.039220722,0.039353086,0.03969905,0.040091008,0.040568381,0.043879327,0.054927712,0.063583912,0.081306204,0.076203962,0.061573015,0.044095562,0.025990298,0.011213472,0.006997241,-99999,-99999,-99999,-99999,-99999,-99999,-99999,0.033595,0.039242,0.013553,0.018716
255338,1991-09-08T13:50:30.989999Z,D91706A2,5.61,0.15,Slab,R,1,95,70,108,geonet,-40.2442,175.1672,-41.1288,174.8382,6104594.2,2694363.31,6007032,2664315,5.9,5.9,102.2,133.93,101.05,132.82,100.81,-21.43,0,86.69,83.93,nu,706A,C,210,Q3,0.5,Q2,30,Q3,0,-99999,-99999,0,0.35,12,0.595,12,HarvardCMT,0.074963611,0.075303842,0.075882445,0.076708539,0.078063357,0.084271487,0.093528025,0.110794268,0.112472178,0.107314951,0.112320231,0.109984371,0.067544701,0.032955307,0.015243839,0.00636516,-99999,-99999,-99999,-99999,-99999,-99999,0.089342412,0.089717534,0.090301094,0.091151724,0.092313443,0.097832645,0.104930754,0.139245381,0.150760996,0.123079193,0.150852622,0.14447772,0.093358249,0.037456246,0.018741336,0.008357387,-99999,-99999,-99999,-99999,-99999,-99999,0.074799,0.089337,0.037786,0.048001
255338,1991-09-08T13:50:30.989999Z,D91900B7,5.61,0.15,Slab,R,1,95,70,108,geonet,-40.2442,175.1672,-41.2921,174.779,6104594.2,2694363.31,5989003,2658976,5.9,5.9,121.02,148.76,119.87,147.84,119.24,-25.18,0,86.69,83.93,nu,941A,D,272,Q2,0.85,Q2,9.85E+01,Q2,0,-99999,-99999,0,0.45,12,0.765,12,HarvardCMT,0.036026731,0.036136848,0.036293508,0.036539843,0.036893636,0.037786316,0.039753684,0.049407019,0.057279584,0.064086436,0.063427505,0.053779252,0.046423017,0.025596232,0.014897365,-99999,-99999,-99999,-99999,-99999,-99999,-99999,0.050784713,0.050987074,0.051269348,0.051628065,0.052030815,0.053443565,0.052741298,0.065464373,0.079940838,0.087969178,0.084224087,0.071225864,0.065632982,0.03273273,0.02076609,-99999,-99999,-99999,-99999,-99999,-99999,-99999,0.035998,0.05075,0.022835,0.030844
255338,1991-09-08T13:50:30.989999Z,D91918B7,5.61,0.15,Slab,R,1,95,70,108,geonet,-40.2442,175.1672,-41.284,174.7682,6104594.2,2694363.31,5989908,2658140,5.9,5.9,120.4,148.34,119.25,147.39,118.41,-26.09,0,86.69,83.93,nu,WEL,B,1000,Q3,0.3,Q1,0,Q2,0,-99999,-99999,0,0.5,18,0.85,18,HarvardCMT,0.041829888,0.042060537,0.042438568,0.043046678,0.044079221,0.047523757,0.051896169,0.061817363,0.074920439,0.076015353,0.059239606,0.034743824,0.018703865,0.008476383,0.004288147,-99999,-99999,-99999,-99999,-99999,-99999,-99999,0.057574748,0.05788744,0.058448748,0.059430788,0.061054459,0.065957576,0.070757662,0.083588698,0.104955798,0.105106307,0.080398354,0.045318399,0.02572388,0.011931385,0.005806475,-99999,-99999,-99999,-99999,-99999,-99999,-99999,0.041816,0.05761,0.016822,0.023348
255338,1991-09-08T13:50:30.989999Z,D91935B3,5.61,0.15,Slab,R,1,95,70,108,geonet,-40.2442,175.1672,-41.2108,174.9047,6104594.2,2694363.31,5997808,2669699,5.9,5.9,109.73,139.74,108.66,138.78,109.53,-15.26,0,86.69,83.93,nu,935A,D,240,Q3,1.2,Q3,275,Q3,0,-99999,-99999,1,0.45,15,0.765,15,HarvardCMT,0.035507845,0.035596546,0.035728314,0.035900547,0.035998269,0.037994396,0.043533984,0.049701053,0.06329156,0.073208675,0.069906251,0.05368315,0.039480379,0.015756584,0.008635791,-99999,-99999,-99999,-99999,-99999,-99999,-99999,0.050144348,0.050252023,0.050379413,0.0505325,0.050575492,0.052795784,0.060860644,0.070256821,0.087276716,0.102825564,0.098186702,0.0704888,0.041362448,0.01817491,0.009358426,-99999,-99999,-99999,-99999,-99999,-99999,-99999,0.035455,0.050141,0.022492,0.028499
255338,1991-09-08T13:50:30.989999Z,K91102A3,5.61,0.15,Slab,R,1,95,70,108,geonet,-40.2442,175.1672,-39.4637,175.5669,6104594.2,2694363.31,6190285,2730871,5.9,5.9,93.25,127.72,91.95,125.06,-87.54,28.9,0,86.69,83.93,nu,102A,C,555,Q3,0.15,Q3,12,Q3,0,-99999,-99999,1,0.5,18,0.85,18,HarvardCMT,0.045324913,0.045970944,0.046777174,0.048263383,0.050040225,0.054997383,0.064991682,0.078026034,0.071569959,0.056646597,0.045756853,0.02856489,0.017992525,0.011361249,0.007304427,-99999,-99999,-99999,-99999,-99999,-99999,-99999,0.05170224,0.052572167,0.054227002,0.056524539,0.059447335,0.071124979,0.085467953,0.083226258,0.08300655,0.066900773,0.053543641,0.035779991,0.024221068,0.013290662,0.009601377,-99999,-99999,-99999,-99999,-99999,-99999,-99999,0.044941,0.051243,0.015324,0.0173
314805,1992-03-30T07:02:51.226999Z,D92505A1,5.5,0.15,Crustal,R,1,205,76,77,nlloc,-43.0605,171.212,-42.9489,171.5677,5792540.97,2364375.65,5805487,2393135,5.17,5.17,31.47,32.08,29.52,30.01,-19.97,-23.89,0,5.12,2.61,nu,APPS,C,300,Q2,0.4,Q1,30,Q2,0,-99999,-99999,0,0.6,20,1.02,20,HarvardCMT,0.026724009,0.02705308,0.02760415,0.028609817,0.031229985,0.034986601,0.035710938,0.045947303,0.042043695,0.038166896,0.040927064,0.038252294,0.024934327,0.011722039,-99999,-99999,-99999,-99999,-99999,-99999,-99999,-99999,0.031039125,0.031153085,0.031424623,0.031740958,0.033158585,0.037113068,0.039525599,0.050111467,0.047180548,0.050434557,0.047434992,0.048025771,0.032171583,0.01375647,-99999,-99999,-99999,-99999,-99999,-99999,-99999,-99999,0.026526,0.031057,0.016402,0.018266
339342,1992-05-27T22:30:35.064000Z,D92129A2,5.9,0.08,Slab,S,1,117,85,21,special,-41.63,173.62,-41.7999,172.328,5952812.98,2561652.09,5933893,2454147,8.2,8.2,108.89,128.17,105.65,124.79,66.02,-87.2,0,67,62.92,nu,MCAS,D,501,Q3,1.6,Q3,200,Q3,0,-99999,-99999,0,0.23,19,0.391,19,Webb_Anderson_1998&Dowrick_Rhoades1998&HarvardCMT,0.028721459,0.029174137,0.029853193,0.030689594,0.032289897,0.035904307,0.036137512,0.034901976,0.036663861,0.036232612,0.040202569,0.034085493,0.025041574,0.017498356,0.010873433,0.006309669,0.00430715,-99999,-99999,-99999,-99999,-99999,0.032365871,0.032635519,0.033089301,0.033931958,0.035623629,0.040097224,0.039441549,0.040146712,0.04221244,0.041174639,0.043968414,0.035951055,0.026554242,0.021146302,0.013351044,0.006875609,0.005503358,-99999,-99999,-99999,-99999,-99999,0.028644,0.032355,0.016475,0.019402
339342,1992-05-27T22:30:35.064000Z,D92467A3,5.9,0.08,Slab,S,1,117,85,21,special,-41.63,173.62,-41.2425,174.9024,5952812.98,2561652.09,5994293,2669430,8.2,8.2,115.26,133.52,112.56,130.25,-85.53,77.2,0,67,62.92,nu,467A,D,218,Q3,1.5,Q3,200,Q3,0,-99999,-99999,0,0.35,14,0.595,14,Webb_Anderson_1998&Dowrick_Rhoades1998&HarvardCMT,0.031674515,0.031778925,0.032010973,0.03225529,0.032726398,0.03359583,0.034952653,0.039412163,0.044294677,0.046872728,0.039261882,0.044035624,0.043120748,0.01786087,0.011408875,0.006420411,-99999,-99999,-99999,-99999,-99999,-99999,0.034820374,0.034967254,0.035265008,0.035759946,0.03652476,0.040444777,0.041046699,0.041746664,0.047973499,0.050853381,0.048159408,0.050834601,0.051152013,0.021198222,0.013343707,0.006825879,-99999,-99999,-99999,-99999,-99999,-99999,0.031627,0.034838,0.01937,0.02218
339342,1992-05-27T22:30:35.064000Z,D92468A6,5.9,0.08,Slab,S,1,117,85,21,special,-41.63,173.62,-41.2011,174.9547,5952812.98,2561652.09,5998793,2673916,8.2,8.2,121.08,138.59,118.45,135.4,-91.58,79.15,0,67,62.92,nu,468A,D,190,Q1,0.9,Q3,50,Q3,0,-99999,-99999,0,0.4,19,0.68,19,Webb_Anderson_1998&Dowrick_Rhoades1998&HarvardCMT,0.030555469,0.030759915,0.031020935,0.031397308,0.032123088,0.035168035,0.04097822,0.045254952,0.043724567,0.045237903,0.042661929,0.043831601,0.029080563,0.015280111,0.012776114,-99999,-99999,-99999,-99999,-99999,-99999,-99999,0.03563315,0.035815483,0.036190744,0.036724931,0.037471972,0.040101905,0.044400361,0.050247677,0.051148929,0.049039862,0.048370513,0.048021474,0.036113509,0.020573052,0.015577827,-99999,-99999,-99999,-99999,-99999,-99999,-99999,0.030491,0.035661,0.016906,0.020622
339342,1992-05-27T22:30:35.064000Z,D92644C3,5.9,0.08,Slab,S,1,117,85,21,special,-41.63,173.62,-41.2187,174.8826,5952812.98,2561652.09,5996970,2667828,8.2,8.2,114.77,133.09,112.16,129.87,-87.19,74.56,0,67,62.92,nu,644C,D,189,Q3,2,Q3,250,Q3,0,-99999,-99999,0,0.25,12,0.425,12,Webb_Anderson_1998&Dowrick_Rhoades1998&HarvardCMT,0.02186753,0.021962922,0.022127633,0.022326613,0.022616355,0.023701274,0.027131549,0.031215947,0.0316702,0.03510087,0.032550985,0.033434535,0.032089487,0.014944617,0.008275262,0.004064864,0.002699524,-99999,-99999,-99999,-99999,-99999,0.025539932,0.025668584,0.025898408,0.0262727,0.026835583,0.030210079,0.033886955,0.038250381,0.037396869,0.041453832,0.040127475,0.042692466,0.038103948,0.019144742,0.009504781,0.005070851,0.003624507,-99999,-99999,-99999,-99999,-99999,0.021789,0.025551,0.015829,0.019203
339342,1992-05-27T22:30:35.064000Z,D92646A5,5.9,0.08,Slab,S,1,117,85,21,special,-41.63,173.62,-41.2574,174.9485,5952812.98,2561652.09,5992552,2673256,8.2,8.2,118.23,136.15,115.45,132.85,-85.72,81.4,0,67,62.92,nu,WDAS,E,120,Q1,1.6,Q2,62,Q2,0,-99999,-99999,0,0.5,16,0.85,16,Webb_Anderson_1998&Dowrick_Rhoades1998&HarvardCMT,0.027545245,0.027742294,0.027980695,0.028476728,0.029122159,0.031163175,0.031077404,0.03096515,0.035210263,0.042654031,0.046601508,0.034530046,0.031497626,0.021966584,0.02481867,-99999,-99999,-99999,-99999,-99999,-99999,-99999,0.031834692,0.031970975,0.032190891,0.032625577,0.033314194,0.034912336,0.033725029,0.031999068,0.038021255,0.046248498,0.050689555,0.037534066,0.034172368,0.027638304,0.028524459,-99999,-99999,-99999,-99999,-99999,-99999,-99999,0.027296,0.031602,0.020955,0.023387
339342,1992-05-27T22:30:35.064000Z,D92647A1,5.9,0.08,Slab,S,1,117,85,21,special,-41.63,173.62,-41.2871,174.778,5952812.98,2561652.09,5989560,2658904,8.2,8.2,103.76,123.68,101.04,120.35,-76.54,69.97,0,67,62.92,nu,647A,C,474,Q2,0.12,Q2,5.70E+00,Q2,0,-99999,-99999,0,0.4,19,0.68,19,Webb_Anderson_1998&Dowrick_Rhoades1998&HarvardCMT,0.019826712,0.020116149,0.020569024,0.021207411,0.022063682,0.023261381,0.024985613,0.026867778,0.02683059,0.027234332,0.03159497,0.027372241,0.017813521,0.007235118,0.005627101,-99999,-99999,-99999,-99999,-99999,-99999,-99999,0.024830008,0.025012322,0.025307829,0.025756038,0.026507164,0.030206929,0.029656285,0.03355603,0.031934,0.035289727,0.034423786,0.035205632,0.025188614,0.010128756,0.00782932,-99999,-99999,-99999,-99999,-99999,-99999,-99999,0.01987,0.024677,0.010584,0.014771
339342,1992-05-27T22:30:35.064000Z,D92706A2,5.9,0.08,Slab,S,1,117,85,21,special,-41.63,173.62,-41.1288,174.8382,5952812.98,2561652.09,6007032,2664315,8.2,8.2,115.91,134.05,113.6,131,-94.56,66.86,0,67,62.92,nu,706A,C,210,Q3,0.5,Q2,30,Q3,0,-99999,-99999,0,0.45,12,0.765,12,Webb_Anderson_1998&Dowrick_Rhoades1998&HarvardCMT,0.030393077,0.030602862,0.030923405,0.031317931,0.031806183,0.033863496,0.037030732,0.041529324,0.050844344,0.054888476,0.044035617,0.039697305,0.030290021,0.015969514,0.01054897,-99999,-99999,-99999,-99999,-99999,-99999,-99999,0.033414669,0.033644576,0.03400012,0.03450461,0.035342081,0.038465425,0.040060004,0.045277641,0.055174416,0.062662137,0.052387007,0.045448967,0.033013127,0.018704967,0.012599745,-99999,-99999,-99999,-99999,-99999,-99999,-99999,0.030306,0.033412,0.017727,0.019672
339342,1992-05-27T22:30:35.064000Z,D92707A1,5.9,0.08,Slab,S,1,117,85,21,special,-41.63,173.62,-41.1391,174.8502,5952812.98,2561652.09,6005867,2665298,8.2,8.2,116.24,134.35,113.89,131.28,-93.97,68.26,0,67,62.92,nu,707A,C,570,Q3,0.15,Q3,10,Q3,0,-99999,-99999,0,0.5,21,0.85,21,Webb_Anderson_1998&Dowrick_Rhoades1998&HarvardCMT,0.022473549,0.022630763,0.022983851,0.023362132,0.023776607,0.02870876,0.033688789,0.033779992,0.028223257,0.024042515,0.021992523,0.018555114,0.013156381,0.004669909,0.002542894,-99999,-99999,-99999,-99999,-99999,-99999,-99999,0.027071498,0.027367198,0.027926834,0.028721973,0.029227081,0.034057815,0.039605383,0.038440271,0.03220571,0.02864813,0.028951318,0.025131542,0.017808227,0.006436088,0.003004528,-99999,-99999,-99999,-99999,-99999,-99999,-99999,0.022265,0.027107,0.007825,0.010582
339342,1992-05-27T22:30:35.064000Z,D92918B5,5.9,0.08,Slab,S,1,117,85,21,special,-41.63,173.62,-41.284,174.7682,5952812.98,2561652.09,5989908,2658140,8.2,8.2,103.13,123.26,100.44,119.93,-76.5,69.13,0,67,62.92,nu,WEL,B,1000,Q3,0.3,Q1,0,Q2,0,-99999,-99999,0,0.4,18,0.68,18,Webb_Anderson_1998&Dowrick_Rhoades1998&HarvardCMT,0.020403366,0.0204949,0.02064919,0.020886289,0.02127743,0.022973448,0.024080982,0.031450964,0.036800256,0.036610362,0.032272197,0.028761467,0.016735679,0.00756684,0.005020716,-99999,-99999,-99999,-99999,-99999,-99999,-99999,0.025822643,0.02603141,0.026339207,0.026719079,0.027136245,0.026929261,0.033180552,0.040988211,0.045367556,0.046734507,0.042580274,0.037768139,0.021135926,0.009053729,0.00694328,-99999,-99999,-99999,-99999,-99999,-99999,-99999,0.020406,0.02579,0.01161,0.014177
339342,1992-05-27T22:30:35.064000Z,D92935B2,5.9,0.08,Slab,S,1,117,85,21,special,-41.63,173.62,-41.2108,174.9047,5952812.98,2561652.09,5997808,2669699,8.2,8.2,116.82,134.86,114.21,131.66,-88.79,75.84,0,67,62.92,nu,935A,D,240,Q3,1.2,Q3,275,Q3,0,-99999,-99999,0,0.35,16,0.595,16,Webb_Anderson_1998&Dowrick_Rhoades1998&HarvardCMT,0.018492593,0.018584236,0.018922852,0.019633575,0.020620345,0.023949502,0.027543505,0.030198525,0.030710077,0.034770235,0.033584639,0.024306498,0.017319549,0.009046159,0.006063177,0.003852435,-99999,-99999,-99999,-99999,-99999,-99999,0.022400925,0.022688106,0.023151027,0.023842729,0.024729357,0.026934821,0.032526527,0.036170757,0.037049653,0.041992197,0.039529872,0.030915272,0.021857275,0.011259664,0.008542391,0.004292177,-99999,-99999,-99999,-99999,-99999,-99999,0.018451,0.022359,0.01207,0.013051
