CuspID,Origin_time,Record,Mw,MwUncert,TectClass,Mech,PreferredFaultPlane,Strike,Dip,Rake,Location,HypLat,HypLon,StationLat,StationLon,HypN,HypE,StationN,StationE,LENGTH_km,WIDTH_km,Repi_km,Rhyp_km,Rjb_km,Rrup_km,Rx_km,Ry_km,Rvol_km,HypDepth_km,ZTOR_km,HWFW,SiteCode,SiteClass1170,Vs30,Vs30Uncert,Tsite,TsiteUncert,Z1,Z1Uncertainty,Directivity,Pulse_or,Pulse_T,S_Trigger_Flag,fcButterHP,f_iniLP,fmin,fmax,References,f100.0000SA_LHC,f50.0000SA_LHC,f33.3333SA_LHC,f25.0000SA_LHC,f20.0000SA_LHC,f13.3333SA_LHC,f10.0000SA_LHC,f6.6667SA_LHC,f5.0000SA_LHC,f4.0000SA_LHC,f3.3333SA_LHC,f2.5000SA_LHC,f2.0000SA_LHC,f1.3333SA_LHC,f1.0000SA_LHC,f0.6667SA_LHC,f0.5000SA_LHC,f0.3333SA_LHC,f0.2500SA_LHC,f0.2000SA_LHC,f0.1333SA_LHC,f0.1000SA_LHC,PGA_LHC,PGV_LHC
1502698,2000-03-29T14:30:58.189000Z,I00646B04,5.25,0.15,Slab,N,0,54,14,-7.60E+01,nlloc,-41.0482,175.43,-41.2574,174.9485,6014768.04,2714246.82,5992552,2673256,3.9,3.9,46.55,55.76,44.68,54.05,-99999,-99999,0,30.49,29.31,nu,WDAS,E,120,Q1,1.6,Q2,62,Q2,0,-99999,-99999,0,0.35,18,0.595,18,HarvardCMT,0.026936329,0.02718255,0.027552327,0.028602722,0.032541451,0.052944977,0.05004087,0.070395812,0.081204735,0.066679503,0.096691073,0.086184729,0.049526443,0.034816185,0.01787324,0.013319543,-99999,-99999,-99999,-99999,-99999,-99999,0.026809,0.02216
1502698,2000-03-29T14:30:58.189000Z,I00708A01,5.25,0.15,Slab,N,0,54,14,-7.60E+01,nlloc,-41.0482,175.43,-41.1314,174.8391,6014768.04,2714246.82,6006740,2664387,3.9,3.9,50.38,59,48.68,57.39,-99999,-99999,0,30.49,29.31,nu,POLS,C,250,Q2,0.4,Q1,25,Q2,0,-99999,-99999,0,0.27,21,0.459,21,HarvardCMT,0.032050603,0.032164872,0.032627459,0.033714403,0.035986083,0.045334738,0.049505504,0.063539072,0.10051854,0.090388988,0.112956679,0.098752444,0.039001172,0.016034603,0.007455872,0.003947861,0.0015885,-99999,-99999,-99999,-99999,-99999,0.032018,0.01667
1502698,2000-03-29T14:30:58.189000Z,I00918C06,5.25,0.15,Slab,N,0,54,14,-7.60E+01,nlloc,-41.0482,175.43,-41.284,174.7682,6014768.04,2714246.82,5989908,2658140,3.9,3.9,61.29,68.59,59.45,66.85,-99999,-99999,0,30.49,29.31,nu,WEL,B,1000,Q3,0.3,Q1,0,Q2,0,-99999,-99999,0,0.25,22,0.425,22,HarvardCMT,0.029468016,0.029662718,0.029944227,0.030935943,0.032862724,0.048948898,0.062323088,0.090029445,0.110053016,0.083271026,0.062035242,0.082046977,0.06764065,0.031846222,0.011462265,0.003444788,0.001855014,-99999,-99999,-99999,-99999,-99999,0.02946,0.02055
1597193,2000-08-08T10:31:18.725000Z,D00014A01,5.29,0.15,Slab,U,0,32,25,179,nlloc,-39.1704,176.298,-39.4984,176.8761,6220747.43,2794953.59,6182359,2843283,4.1,4.1,61.66,82.31,59.73,80.9,-99999,-99999,0,54.45,53.01,nu,NCDS,E,162,Q3,1.25,Q2,110,Q3,0,-99999,-99999,0,0.4,10,0.68,10,HarvardCMT,0.14377812,0.144201462,0.14483227,0.145757512,0.146916246,0.150511137,0.161220288,0.204034389,0.207799883,0.369060423,0.521216728,0.387401363,0.194511531,0.216133191,0.079675132,-99999,-99999,-99999,-99999,-99999,-99999,-99999,0.143761,0.08086
1597193,2000-08-08T10:31:18.725000Z,D00027G01,5.29,0.15,Slab,U,0,32,25,179,nlloc,-39.1704,176.298,-39.4884,176.9189,6220747.43,2794953.59,6183307,2847012,4.1,4.1,64.05,84.13,62.12,82.71,-99999,-99999,0,54.45,53.01,nu,NAMS,C,268,Q3,0.4,Q3,20,Q3,0,-99999,-99999,1,0.45,13,0.765,13,HarvardCMT,0.032122224,0.032205386,0.032366881,0.032627589,0.033050739,0.041562892,0.054140216,0.05301644,0.067761031,0.095608651,0.097956339,0.088467677,0.054878682,0.034010977,0.012500218,-99999,-99999,-99999,-99999,-99999,-99999,-99999,0.032049,0.0211
1597193,2000-08-08T10:31:18.725000Z,D00029A01,5.29,0.15,Slab,U,0,32,25,179,nlloc,-39.1704,176.298,-39.6458,176.8429,6220747.43,2794953.59,6166127,2839726,4.1,4.1,70.62,89.19,68.72,87.72,-99999,-99999,0,54.45,53.01,nu,HCDS,D,182,Q2,>2,Q3,1000,Q3,0,-99999,-99999,1,0.23,10,0.391,10,HarvardCMT,0.018889503,0.018997759,0.01916174,0.019413203,0.019772128,0.021668185,0.029081294,0.026114064,0.033588808,0.032856853,0.038629617,0.050093686,0.045110541,0.091866371,0.033978358,0.013142669,0.010924719,-99999,-99999,-99999,-99999,-99999,0.018828,0.01874
1597193,2000-08-08T10:31:18.725000Z,I00926A02,5.29,0.15,Slab,U,0,32,25,179,nlloc,-39.1704,176.298,-39.4883,176.9169,6220747.43,2794953.59,6183331,2846839,4.1,4.1,63.9,84.04,61.97,82.61,-99999,-99999,0,54.45,53.01,nu,926A,C,651,Q3,0.07,Q3,5,Q3,0,-99999,-99999,0,0.17,15,0.289,15,HarvardCMT,0.02754959,0.027909195,0.028547412,0.029527703,0.03103314,0.041662319,0.053500771,0.049023701,0.051117301,0.056740456,0.121603085,0.090302822,0.031260752,0.025775349,0.011111376,0.008161832,0.004441666,0.001176318,-99999,-99999,-99999,-99999,0.027003,0.01598
1793707,2001-09-24T04:49:55.561000Z,I01928B02,5.34,0.15,Slab,R,0,33,89,90,simulps,-40.3285,176.6197,-39.671,176.8801,6091194.76,2817495.83,6163197,2842795,4.3,4.3,76.4,81.14,74.28,79.09,-99999,-99999,0,27.54,26.45,nu,HNPS,D,425,Q3,0.8,Q3,300,Q3,0,-99999,-99999,1,0.27,13,0.459,13,HarvardCMT,0.010549466,0.010618567,0.010716166,0.010919983,0.011177094,0.012457757,0.013867939,0.027263457,0.029012559,0.024584847,0.024092931,0.027315136,0.016773025,0.011641178,0.006947991,0.004256349,0.002603178,-99999,-99999,-99999,-99999,-99999,0.01052,0.006193
1803016,2001-10-15T03:49:37.441000Z,I01928B03,5.54,0.15,Interface,R,1,201,8,90,simulps,-39.6603,176.6415,-39.671,176.8801,6165248.02,2822390.46,6163197,2842795,7.35,7.35,20.46,34.77,16.83,32.34,-16.15,-5.4,0,28.06,27.55,fw,HNPS,D,425,Q3,0.8,Q3,300,Q3,0,-99999,-99999,0,0.25,20,0.425,20,HarvardCMT,0.069148888,0.069429855,0.069949074,0.070689279,0.071311097,0.085674464,0.104183268,0.133573938,0.123829895,0.139893558,0.138692792,0.155004981,0.114969452,0.065702021,0.037484999,0.021226625,0.008531705,-99999,-99999,-99999,-99999,-99999,0.069154,0.0538
2019057,2003-01-25T21:30:30.911999Z,I03640A03,5.22,0.15,Slab,N,0,252,51,-4.20E+01,simulps,-40.3372,176.1508,-41.235,174.9147,6091756.44,2777645.89,5995103,2670479,3.7,3.7,144.21,148.41,142.52,146.61,-99999,-99999,0,34.6,33.07,nu,640A,E,230,Q3,0.5,Q3,60,Q3,0,-99999,-99999,0,0.7,14,1.19,14,HarvardCMT,0.003843796,0.003857702,0.003882543,0.003924053,0.004045341,0.005260325,0.005020948,0.008212579,0.009507722,0.017510676,0.019705621,0.011584123,0.005586044,0.002606234,-99999,-99999,-99999,-99999,-99999,-99999,-99999,-99999,0.00384,0.002398
2019057,2003-01-25T21:30:30.911999Z,I03918C02,5.22,0.15,Slab,N,0,252,51,-4.20E+01,simulps,-40.3372,176.1508,-41.284,174.7682,6091756.44,2777645.89,5989908,2658140,3.7,3.7,156.92,160.82,155.23,159.03,-99999,-99999,0,34.6,33.07,nu,WEL,B,1000,Q3,0.3,Q1,0,Q2,0,-99999,-99999,1,0.8,20,1.36,20,HarvardCMT,0.002148673,0.002176554,0.002231597,0.002349398,0.002610747,0.003255799,0.004584666,0.005282151,0.006876164,0.005834102,0.007969474,0.005553295,0.004707648,-99999,-99999,-99999,-99999,-99999,-99999,-99999,-99999,-99999,0.002141,0.001426
2095626,2003-08-03T11:46:13.974000Z,I03468A09,5.16,0.15,Slab,N,0,241,28,-7.10E+01,simulps,-40.4658,175.9793,-41.2011,174.9547,6077982.79,2762600.17,5998793,2673916,3.5,3.5,118.81,130.44,117.07,128.73,-99999,-99999,0,53.64,52.44,nu,468A,D,190,Q1,0.9,Q3,50,Q3,0,-99999,-99999,1,0.55,21,0.935,21,HarvardCMT,0.00688857,0.007004162,0.007230858,0.007801784,0.00932948,0.013902923,0.016444034,0.026725918,0.027045726,0.016775109,0.019166766,0.010690424,0.007074131,0.007436824,0.003644396,-99999,-99999,-99999,-99999,-99999,-99999,-99999,0.00686,0.002627
2095626,2003-08-03T11:46:13.974000Z,I03640A21,5.16,0.15,Slab,N,0,241,28,-7.10E+01,simulps,-40.4658,175.9793,-41.235,174.9147,6077982.79,2762600.17,5995103,2670479,3.5,3.5,123.83,135.03,122.09,133.32,-99999,-99999,0,53.64,52.44,nu,640A,E,230,Q3,0.5,Q3,60,Q3,0,-99999,-99999,0,0.7,18,1.19,18,HarvardCMT,0.004430788,0.004520082,0.004685685,0.004964496,0.005500159,0.011810415,0.007816395,0.00896814,0.008326546,0.006491925,0.011473096,0.00521562,0.004968112,0.001966687,-99999,-99999,-99999,-99999,-99999,-99999,-99999,-99999,0.004394,0.001658
2095626,2003-08-03T11:46:13.974000Z,I03646B07,5.16,0.15,Slab,N,0,241,28,-7.10E+01,simulps,-40.4658,175.9793,-41.2574,174.9485,6077982.79,2762600.17,5992552,2673256,3.5,3.5,123.54,134.79,121.8,133.07,-99999,-99999,0,53.64,52.44,nu,WDAS,E,120,Q1,1.6,Q2,62,Q2,0,-99999,-99999,1,0.6,18,1.02,18,HarvardCMT,0.003096994,0.003192119,0.00337438,0.003698347,0.004340639,0.008973863,0.005386135,0.011175016,0.005191478,0.003982286,0.003941318,0.003930287,0.004124453,0.003691352,-99999,-99999,-99999,-99999,-99999,-99999,-99999,-99999,0.003074,0.001348
2095626,2003-08-03T11:46:13.974000Z,I03651A03,5.16,0.15,Slab,N,0,241,28,-7.10E+01,simulps,-40.4658,175.9793,-41.2047,174.9233,6077982.79,2762600.17,5998451,2671274,3.5,3.5,121.01,132.45,119.27,130.74,-99999,-99999,0,53.64,52.44,nu,651A,D,330,Q2,1,Q3,120,Q3,0,-99999,-99999,1,0.6,33,1.02,33,HarvardCMT,0.004193601,0.004309379,0.004694264,0.005256161,0.004537998,0.009891887,0.006865317,0.009753861,0.009749934,0.007075557,0.010852514,0.004136706,0.00319656,0.002791518,-99999,-99999,-99999,-99999,-99999,-99999,-99999,-99999,0.004168,0.001689
2103645,2003-08-21T12:12:50.433999Z,D03075A01,7.17,0.06,Interface,R,1,25,29,92,nlloc,-45.2484,166.881,-46.2388,169.7395,5533192.9,2030019.32,5436514,2258284,47.97,47.97,247.63,248.88,225.8,228.59,269.6,8.85,0,22.11,9.99,nu,075A,D,400,Q3,0.6,Q3,60,Q3,0,-99999,-99999,1,0.25,11,0.425,11,McGinty_Robinson_2007&Reyners_etal_2003&Ristau2013&HarvardCMT,0.016454538,0.01651706,0.01662851,0.01675587,0.016975772,0.017985701,0.024370677,0.037884409,0.040638213,0.074316949,0.032853214,0.028941511,0.052149571,0.058278702,0.015613605,0.011179281,0.005622627,-99999,-99999,-99999,-99999,-99999,0.016453,0.01583
2103645,2003-08-21T12:12:50.433999Z,K03940A01,7.17,0.06,Interface,R,1,25,29,92,nlloc,-45.2484,166.881,-45.0322,168.6629,5533192.9,2030019.32,5566104,2168345,47.97,47.97,141.81,143.95,116.79,121.09,133.32,88.29,0,22.11,9.99,nu,QTPS,D,350,Q3,0.95,Q1,90,Q3,0,-99999,-99999,0,0.33,20,0.561,20,McGinty_Robinson_2007&Reyners_etal_2003&Ristau2013&HarvardCMT,0.11519204,0.115304568,0.115406078,0.115478578,0.11750259,0.135188206,0.149082358,0.230309738,0.366465476,0.384224972,0.364642444,0.311540011,0.297159014,0.159443025,0.123901239,0.040609353,-99999,-99999,-99999,-99999,-99999,-99999,0.115168,0.07467
2229114,2004-05-12T09:52:57.378999Z,I04918C19,4.54,0.1,Slab,U,0,212,85,-1.25E+02,simulps,-40.6182,175.7817,-41.284,174.7682,6061623,2745311.52,5989908,2658140,1.7,1.7,112.81,116.92,112.04,116.22,-99999,-99999,0,30.33,29.65,nu,WEL,B,1000,Q3,0.3,Q1,0,Q2,0,-99999,-99999,1,0.6,18,1.02,18,Ristau2013,0.001130254,0.001140779,0.001158569,0.001187272,0.001319955,0.002168842,0.003717696,0.004506968,0.003604425,0.002999112,0.002858656,0.002160064,0.00163182,0.000560877,-99999,-99999,-99999,-99999,-99999,-99999,-99999,-99999,0.001124,0.000588
2352986,2005-01-18T08:36:04.378000Z,I05464A03,5.18,0.06,Interface,R,1,265,30,-1.69E+02,nlloc,-41.4433,175.737,-41.2308,174.9135,5970144.9,2738676.33,5995572,2670389,4.85,4.85,72.7,73.81,70.34,71.54,33.38,65.81,0,11.74,10.53,nu,464A,D,210,Q3,1.2,Q3,170,Q3,0,-99999,-99999,0,0.4,16,0.68,16,Ristau2013&HarvardCMT,0.032050878,0.03217269,0.032385765,0.032677652,0.033090147,0.036238576,0.037773352,0.058893408,0.037306407,0.041983613,0.066292106,0.061138354,0.08313595,0.040375602,0.017991531,-99999,-99999,-99999,-99999,-99999,-99999,-99999,0.032018,0.02034
2352986,2005-01-18T08:36:04.378000Z,I05465B02,5.18,0.06,Interface,R,1,265,30,-1.69E+02,nlloc,-41.4433,175.737,-41.2058,174.9544,5970144.9,2738676.33,5998271,2673878,4.85,4.85,70.49,71.61,68.14,69.37,35.77,62.1,0,11.74,10.53,nu,DAVS,C,600,Q3,0.1,Q3,5,Q3,0,-99999,-99999,0,0.3,18,0.51,18,Ristau2013&HarvardCMT,0.018407169,0.018438687,0.018520364,0.018644297,0.01894334,0.019125529,0.021219529,0.026923465,0.040943769,0.048954295,0.063644959,0.03540293,0.048304803,0.022312091,0.00840973,0.00261259,-99999,-99999,-99999,-99999,-99999,-99999,0.018389,0.01249
2352986,2005-01-18T08:36:04.378000Z,I05467A03,5.18,0.06,Interface,R,1,265,30,-1.69E+02,nlloc,-41.4433,175.737,-41.2425,174.9024,5970144.9,2738676.33,5994293,2669430,4.85,4.85,73.17,74.27,70.8,71.99,32.19,66.88,0,11.74,10.53,nu,467A,D,218,Q3,1.5,Q3,200,Q3,0,-99999,-99999,0,0.27,16,0.459,16,Ristau2013&HarvardCMT,0.020347032,0.020361804,0.020375197,0.020390172,0.02041407,0.02112885,0.024552532,0.031025307,0.032889307,0.039054896,0.032970236,0.051466979,0.083630313,0.034542091,0.015867289,0.007608195,0.003419788,-99999,-99999,-99999,-99999,-99999,0.020336,0.02064
2352986,2005-01-18T08:36:04.378000Z,I05468A02,5.18,0.06,Interface,R,1,265,30,-1.69E+02,nlloc,-41.4433,175.737,-41.2011,174.9547,5970144.9,2738676.33,5998793,2673916,4.85,4.85,70.66,71.78,68.32,69.54,36.28,62.02,0,11.74,10.53,nu,468A,D,190,Q1,0.9,Q3,50,Q3,0,-99999,-99999,0,0.4,17,0.68,17,Ristau2013&HarvardCMT,0.023980125,0.02411891,0.024403342,0.024797519,0.025437256,0.027977642,0.033611565,0.062791211,0.110710466,0.042542529,0.039082104,0.044529743,0.053728359,0.04779228,0.026171835,-99999,-99999,-99999,-99999,-99999,-99999,-99999,0.023945,0.01297
2352986,2005-01-18T08:36:04.378000Z,I05642G03,5.18,0.06,Interface,R,1,265,30,-1.69E+02,nlloc,-41.4433,175.737,-41.235,174.9172,5970144.9,2738676.33,5995098,2670688,4.85,4.85,72.26,73.37,69.89,71.1,32.89,65.55,0,11.74,10.53,nu,642G,C,350,Q1,0.35,Q2,50,Q3,0,-99999,-99999,0,0.4,18,0.68,18,Ristau2013&HarvardCMT,0.02156096,0.021671957,0.021860061,0.022092307,0.022209874,0.02894232,0.028869424,0.048547067,0.040215652,0.040743337,0.032726559,0.048268629,0.052884284,0.016552898,0.006140959,-99999,-99999,-99999,-99999,-99999,-99999,-99999,0.021478,0.009928
2352986,2005-01-18T08:36:04.378000Z,I05646B02,5.18,0.06,Interface,R,1,265,30,-1.69E+02,nlloc,-41.4433,175.737,-41.2574,174.9485,5970144.9,2738676.33,5992552,2673256,4.85,4.85,68.99,70.16,66.62,67.88,30.13,63.22,0,11.74,10.53,nu,WDAS,E,120,Q1,1.6,Q2,62,Q2,0,-99999,-99999,0,0.35,18,0.595,18,Ristau2013&HarvardCMT,0.011649338,0.01169792,0.01177151,0.011895501,0.012051721,0.013340256,0.015260346,0.018350126,0.024948093,0.022797532,0.044474369,0.030287338,0.030782661,0.030207349,0.021219757,0.006958251,-99999,-99999,-99999,-99999,-99999,-99999,0.011651,0.009357
2352986,2005-01-18T08:36:04.378000Z,I05918C02,5.18,0.06,Interface,R,1,265,30,-1.69E+02,nlloc,-41.4433,175.737,-41.284,174.7682,5970144.9,2738676.33,5989908,2658140,4.85,4.85,82.77,83.77,80.38,81.45,28.81,78.51,0,11.74,10.53,nu,WEL,B,1000,Q3,0.3,Q1,0,Q2,0,-99999,-99999,0,0.25,20,0.425,20,Ristau2013&HarvardCMT,0.0071839,0.007221295,0.007286348,0.007388445,0.007528865,0.007911085,0.009196608,0.016962667,0.01975647,0.018626931,0.018706395,0.015710863,0.011514368,0.003273492,0.002492292,0.001162712,0.000934525,-99999,-99999,-99999,-99999,-99999,0.007174,0.003226
2354133,2005-01-20T18:56:31.199999Z,D05644C03,5.31,0.06,Slab,N,1,70,48,-7.50E+01,simulps,-41.0967,175.0648,-41.2187,174.8826,6010174.62,2683429.55,5996970,2667828,4,3,20.42,37.43,18.52,36.19,8.08,-19.18,0,31.36,30.25,nu,644C,D,189,Q3,2,Q3,250,Q3,0,-99999,-99999,0,0.3,15,0.51,15,ReynersBannister2007&Ristau2013&HarvardCMT,0.06701665,0.067271452,0.067664661,0.068243487,0.069331463,0.07881228,0.094652769,0.228612691,0.156504327,0.167504253,0.146953424,0.189101659,0.251960022,0.081419268,0.039334314,0.01348571,-99999,-99999,-99999,-99999,-99999,-99999,0.067013,0.04815
2354133,2005-01-20T18:56:31.199999Z,I05464A05,5.31,0.06,Slab,N,1,70,48,-7.50E+01,simulps,-41.0967,175.0648,-41.2308,174.9135,6010174.62,2683429.55,5995572,2670389,4,3,19.57,36.98,17.76,35.84,10.27,-17.25,0,31.36,30.25,nu,464A,D,210,Q3,1.2,Q3,170,Q3,0,-99999,-99999,0,0.55,50,0.935,50,ReynersBannister2007&Ristau2013&HarvardCMT,0.101705082,0.10220081,0.10479183,0.107930156,0.121034435,0.13851827,0.192368408,0.262779246,0.232259341,0.210383155,0.2675501,0.292246329,0.301697047,0.05977806,0.040041992,-99999,-99999,-99999,-99999,-99999,-99999,-99999,0.101519,0.04946
2354133,2005-01-20T18:56:31.199999Z,I05465B04,5.31,0.06,Slab,N,1,70,48,-7.50E+01,simulps,-41.0967,175.0648,-41.2058,174.9544,6010174.62,2683429.55,5998271,2673878,4,3,15.26,34.89,13.49,33.84,8.92,-13.05,0,31.36,30.25,nu,DAVS,C,600,Q3,0.1,Q3,5,Q3,0,-99999,-99999,0,0.2,20,0.34,20,ReynersBannister2007&Ristau2013&HarvardCMT,0.14418511,0.145485739,0.148642863,0.154381163,0.193908772,0.262789068,0.390509178,0.578337299,0.439973618,0.258543916,0.304243412,0.279725053,0.200499334,0.051639509,0.028551111,0.008512359,0.00426857,-99999,-99999,-99999,-99999,-99999,0.144128,0.05438
2354133,2005-01-20T18:56:31.199999Z,I05467A05,5.31,0.06,Slab,N,1,70,48,-7.50E+01,simulps,-41.0967,175.0648,-41.2425,174.9024,6010174.62,2683429.55,5994293,2669430,4,3,21.16,37.84,19.36,36.69,11.14,-18.59,0,31.36,30.25,nu,467A,D,218,Q3,1.5,Q3,200,Q3,0,-99999,-99999,0,0.25,55,0.425,55,ReynersBannister2007&Ristau2013&HarvardCMT,0.075434279,0.075200607,0.077690893,0.082012094,0.084491002,0.108704147,0.138292645,0.221812311,0.206096575,0.140761962,0.127313374,0.197592124,0.233834848,0.060862078,0.047500869,0.013156175,0.006963898,-99999,-99999,-99999,-99999,-99999,0.075199,0.04226
2354133,2005-01-20T18:56:31.199999Z,I05468A04,5.31,0.06,Slab,N,1,70,48,-7.50E+01,simulps,-41.0967,175.0648,-41.2011,174.9547,6010174.62,2683429.55,5998793,2673916,4,3,14.83,34.7,13.05,33.64,8.45,-12.83,0,31.36,30.25,nu,468A,D,190,Q1,0.9,Q3,50,Q3,0,-99999,-99999,0,0.2,40,0.34,40,ReynersBannister2007&Ristau2013&HarvardCMT,0.199051796,0.200689549,0.230807073,0.211870167,0.204238063,0.285675252,0.389159699,0.684484956,0.701374798,0.538586165,0.3155009,0.359639027,0.324623421,0.072362488,0.056383806,0.016803479,0.006755004,-99999,-99999,-99999,-99999,-99999,0.199032,0.08805
2354133,2005-01-20T18:56:31.199999Z,I05642G05,5.31,0.06,Slab,N,1,70,48,-7.50E+01,simulps,-41.0967,175.0648,-41.235,174.9172,6010174.62,2683429.55,5995098,2670688,4,3,19.73,37.06,17.94,35.95,10.81,-17.13,0,31.36,30.25,nu,642G,C,350,Q1,0.35,Q2,50,Q3,0,-99999,-99999,0,0.25,31,0.425,31,ReynersBannister2007&Ristau2013&HarvardCMT,0.1666167,0.168081444,0.170392626,0.173048769,0.194770365,0.299496196,0.294838375,0.363652802,0.265382539,0.271500653,0.315570923,0.500039534,0.22649602,0.060851735,0.028716462,0.008839476,0.004590816,-99999,-99999,-99999,-99999,-99999,0.166218,0.06284
2354133,2005-01-20T18:56:31.199999Z,I05646B04,5.31,0.06,Slab,N,1,70,48,-7.50E+01,simulps,-41.0967,175.0648,-41.2574,174.9485,6010174.62,2683429.55,5992552,2673256,4,3,20.35,37.46,18.71,36.47,14.08,-15.59,0,31.36,30.25,nu,WDAS,E,120,Q1,1.6,Q2,62,Q2,0,-99999,-99999,0,0.17,35,0.289,35,ReynersBannister2007&Ristau2013&HarvardCMT,0.110488835,0.112159657,0.116044136,0.122604242,0.123169472,0.178141703,0.193537992,0.223540815,0.242765574,0.348798592,0.483642714,0.228513336,0.179708558,0.066522679,0.062730764,0.029208367,0.009516889,0.004071833,-99999,-99999,-99999,-99999,0.109429,0.06342
2354133,2005-01-20T18:56:31.199999Z,I05918C04,5.31,0.06,Slab,N,1,70,48,-7.50E+01,simulps,-41.0967,175.0648,-41.284,174.7682,6010174.62,2683429.55,5989908,2658140,4,3,32.4,45.19,30.49,43.75,11.4,-30.7,0,31.36,30.25,nu,WEL,B,1000,Q3,0.3,Q1,0,Q2,0,-99999,-99999,0,0.2,30,0.34,30,ReynersBannister2007&Ristau2013&HarvardCMT,0.056799636,0.057398034,0.058291526,0.063800657,0.06734766,0.072021702,0.110678058,0.150388167,0.21619401,0.128904243,0.102058359,0.163965665,0.122497416,0.045504033,0.022331832,0.008049624,0.003529904,-99999,-99999,-99999,-99999,-99999,0.056453,0.02833
2359081,2005-01-31T17:31:53.470999Z,I05464A10,5.1,0.06,Interface,R,1,267,38,164,nlloc,-41.4249,175.709,-41.2308,174.9135,5972260.68,2736400.47,5995572,2670389,4.43,4.43,69.85,71.26,67.7,69.22,28.48,64.7,0,13.32,11.96,nu,464A,D,210,Q3,1.2,Q3,170,Q3,0,-99999,-99999,0,0.25,18,0.425,18,Ristau2013&HarvardCMT,0.042730834,0.042912437,0.043187246,0.043580893,0.044013603,0.049392419,0.049957381,0.104711038,0.095107806,0.112522115,0.165819154,0.10014005,0.034107568,0.022878466,0.015446009,0.004447694,0.001437978,-99999,-99999,-99999,-99999,-99999,0.042691,0.01866
