CuspID,Origin_time,Record,Mw,MwUncert,TectClass,Mech,PreferredFaultPlane,Strike,Dip,Rake,Location,HypLat,HypLon,StationLat,StationLon,HypN,HypE,StationN,StationE,LENGTH_km,WIDTH_km,Repi_km,Rhyp_km,Rjb_km,Rrup_km,Rx_km,Ry_km,Rvol_km,HypDepth_km,ZTOR_km,HWFW,SiteCode,SiteClass1170,Vs30,Vs30Uncert,Tsite,TsiteUncert,Z1,Z1Uncertainty,Directivity,Pulse_or,Pulse_T,S_Trigger_Flag,fcButterHP,f_iniLP,fmin,fmax,References,f100.0000SA_RotD50,f50.0000SA_RotD50,f33.3333SA_RotD50,f25.0000SA_RotD50,f20.0000SA_RotD50,f13.3333SA_RotD50,f10.0000SA_RotD50,f6.6667SA_RotD50,f5.0000SA_RotD50,f4.0000SA_RotD50,f3.3333SA_RotD50,f2.5000SA_RotD50,f2.0000SA_RotD50,f1.3333SA_RotD50,f1.0000SA_RotD50,f0.6667SA_RotD50,f0.5000SA_RotD50,f0.3333SA_RotD50,f0.2500SA_RotD50,f0.2000SA_RotD50,f0.1333SA_RotD50,f0.1000SA_RotD50,f100.0000SA_RotD100,f50.0000SA_RotD100,f33.3333SA_RotD100,f25.0000SA_RotD100,f20.0000SA_RotD100,f13.3333SA_RotD100,f10.0000SA_RotD100,f6.6667SA_RotD100,f5.0000SA_RotD100,f4.0000SA_RotD100,f3.3333SA_RotD100,f2.5000SA_RotD100,f2.0000SA_RotD100,f1.3333SA_RotD100,f1.0000SA_RotD100,f0.6667SA_RotD100,f0.5000SA_RotD100,f0.3333SA_RotD100,f0.2500SA_RotD100,f0.2000SA_RotD100,f0.1333SA_RotD100,f0.1000SA_RotD100,PGA_RotD50,PGA_RotD100,PGV_RotD50,PGV_RotD100
1553782,1971-08-13T14:42:41.636000Z,A71053A1,5.7,0.15,Crustal,S,1,242,83,207,special,-42.13,172.1,-42.3786,172.3329,5897058.69,2435589.3,5869623,2455066,6.51,6.51,33.64,34.99,33.13,33.79,-32.97,-4.32,0,9,5.77,fw,053A,C,391,Q3,0.27,Q3,20,Q3,0,-99999,-99999,1,0.4,18,0.68,18,Anderson_etal_1993&Dowrick_Rhoades_1998,0.056234808,0.056797181,0.058027897,0.06014918,0.064248861,0.127572972,0.124760583,0.171503407,0.211561442,0.246177062,0.208147905,0.143319607,0.073088665,0.124239683,0.054149903,-99999,-99999,-99999,-99999,-99999,-99999,-99999,0.070711356,0.071130771,0.071872237,0.07290989,0.073216382,0.140895157,0.171603808,0.237148043,0.242864156,0.291200353,0.262244388,0.184486341,0.081805255,0.16402529,0.070534255,-99999,-99999,-99999,-99999,-99999,-99999,-99999,0.056127,0.07071,0.042573,0.053299
1556608,1975-06-10T10:11:17.094000Z,K75301A2,5.62,0.15,Slab,N,1,250,56,257,special,-40.34,175.93,-40.3553,175.6152,6092087.55,2758882.27,6091232,2732094,5.9,5.9,26.73,46.53,23.88,44.21,10.02,25.47,0,38,35.54,nu,301A,D,341,Q3,0.7,Q2,60,Q3,0,-99999,-99999,1,0.4,19,0.68,19,Webb_Anderson_1998&Dowrick_Rhoades1998,0.037871139,0.038529381,0.039758965,0.04176309,0.044971414,0.081253394,0.124291065,0.134898427,0.170889021,0.089283911,0.085057339,0.083745997,0.070358989,0.037502979,0.04302327,-99999,-99999,-99999,-99999,-99999,-99999,-99999,0.043985939,0.044331736,0.044904501,0.045952494,0.050136489,0.088163911,0.148354384,0.1689815,0.188350004,0.101451639,0.106021837,0.112121479,0.089464232,0.050431805,0.0589362,-99999,-99999,-99999,-99999,-99999,-99999,-99999,0.037864,0.043987,0.023645,0.030684
1556608,1975-06-10T10:11:17.094000Z,K75340A1,5.62,0.15,Slab,N,1,250,56,257,special,-40.34,175.93,-40.3863,175.6165,6092087.55,2758882.27,6087788,2732102,5.9,5.9,27.06,46.71,24.14,44.26,6.78,26.64,0,38,35.54,nu,340A,D,283,Q3,0.96,Q3,90,Q3,0,-99999,-99999,1,0.65,18,1.105,18,Webb_Anderson_1998&Dowrick_Rhoades1998,0.049391835,0.049792926,0.050480861,0.051619684,0.054212516,0.110949501,0.138434187,0.13419118,0.251368785,0.197960659,0.266342487,0.090455618,0.087946294,0.029841978,-99999,-99999,-99999,-99999,-99999,-99999,-99999,-99999,0.063142197,0.063709022,0.064732018,0.0662058,0.066875322,0.138769484,0.149447818,0.174016412,0.341387335,0.22807929,0.332396869,0.104475368,0.099604911,0.039356957,-99999,-99999,-99999,-99999,-99999,-99999,-99999,-99999,0.049392,0.063153,0.024416,0.028186
1557438,1976-05-04T13:56:29.201000Z,A76080B1,6.51,0.15,Interface,O,1,48,47,130,special,-44.67,167.45,-44.6729,167.9264,5600506.59,2070223.23,5602634,2107939,22.44,22.44,37.67,39.08,27.88,31.04,31.31,29.45,0,10,1.79,nu,080B,C,210,Q3,0.57,Q3,30,Q3,0,-99999,-99999,1,0.2,29,0.34,29,Anderson_etal_1993&Dowrick_Rhoades_1998,0.088292434,0.089056995,0.091558751,0.103025875,0.119204195,0.124036763,0.184499593,0.20130854,0.149162664,0.206053911,0.280960749,0.342599944,0.424929948,0.147945481,0.138462342,0.047277755,0.024632315,-99999,-99999,-99999,-99999,-99999,0.098438233,0.098917439,0.100902557,0.116352967,0.135288391,0.152922006,0.248864547,0.226644539,0.208281577,0.260353284,0.317609505,0.421267123,0.58898495,0.202328395,0.179032622,0.051977167,0.032970502,-99999,-99999,-99999,-99999,-99999,0.087882,0.098438,0.089847,0.115009
1557438,1976-05-04T13:56:29.201000Z,K76070A1,6.51,0.15,Interface,O,1,48,47,130,special,-44.67,167.45,-45.4167,167.7191,5600506.59,2070223.23,5519112,2096857,22.44,22.44,85.68,86.25,77.38,79.21,85.96,-34.67,0,10,1.79,nu,TAFS,D,298,Q3,1.4,Q3,200,Q3,0,-99999,-99999,1,0.28,11,0.476,11,Anderson_etal_1993&Dowrick_Rhoades_1998,0.024410153,0.024516222,0.024624149,0.024815243,0.025112152,0.027629988,0.078512248,0.081358222,0.072033195,0.063453496,0.098455069,0.060481906,0.059565977,0.075317282,0.051129146,0.066759558,0.037000237,-99999,-99999,-99999,-99999,-99999,0.029524244,0.029612376,0.029757837,0.029979267,0.030230274,0.032246115,0.087973505,0.103609066,0.084925124,0.084297188,0.12767072,0.074312238,0.066516221,0.096858693,0.058765526,0.070195886,0.048380382,-99999,-99999,-99999,-99999,-99999,0.024409,0.029457,0.031912,0.037482
1557438,1976-05-04T13:56:29.201000Z,K76089A1,6.51,0.15,Interface,O,1,48,47,130,special,-44.67,167.45,-44.6946,169.143,5600506.59,2070223.23,5605452,2204373,22.44,22.44,133.87,134.63,124.04,125.19,93.74,103,0,10,1.79,nu,WNPS,D,330,Q3,2.1,Q3,300,Q3,0,-99999,-99999,1,0.25,15,0.425,15,Anderson_etal_1993&Dowrick_Rhoades_1998,0.031049398,0.031165719,0.031258786,0.031449837,0.03193941,0.042704018,0.056632601,0.071402027,0.088985843,0.121860768,0.078150328,0.066388514,0.092541131,0.116621322,0.094672459,0.076663821,0.040061471,-99999,-99999,-99999,-99999,-99999,0.0397624,0.03989237,0.040148047,0.040523891,0.041032064,0.052447502,0.06897361,0.08989496,0.110863591,0.135052338,0.101986857,0.092457929,0.112660209,0.127728979,0.120860045,0.089524492,0.046494359,-99999,-99999,-99999,-99999,-99999,0.031017,0.039762,0.04426,0.048661
1558224,1977-01-18T05:41:48.207000Z,A77048C1,6.02,0.15,Slab,R,1,213,68,251,special,-41.73,174.3,-41.5138,173.9572,5941084.19,2618142.66,5965463,2589883,9.4,9.4,37.28,50.49,35.45,48.97,38.74,-5.05,0,34,29.64,nu,048C,D,235,Q3,0.9,Q3,64,Q3,0,-99999,-99999,1,0.4,13,0.68,13,Webb_Anderson_1998&Dowrick_Rhoades1998,0.036997181,0.037129791,0.0373153,0.037662433,0.038172023,0.043603614,0.056846305,0.058236491,0.123746825,0.180831339,0.241002509,0.090558713,0.104836828,0.063723133,0.060901773,-99999,-99999,-99999,-99999,-99999,-99999,-99999,0.041507811,0.041712182,0.042084999,0.042580067,0.043283963,0.045640855,0.062059132,0.064980207,0.144560315,0.219639489,0.321534484,0.106209608,0.14791738,0.086012485,0.082648868,-99999,-99999,-99999,-99999,-99999,-99999,-99999,0.036924,0.041508,0.022251,0.027174
1558224,1977-01-18T05:41:48.207000Z,A77601A1,6.02,0.15,Slab,R,1,213,68,251,special,-41.73,174.3,-41.2263,174.8719,5941084.19,2618142.66,5996147,2666912,9.4,9.4,73.53,81.03,68.88,76.33,-9.15,-72.74,0,34,29.64,nu,601A,D,161,Q3,2.3,Q3,297,Q3,0,-99999,-99999,1,0.4,20,0.68,20,Webb_Anderson_1998&Dowrick_Rhoades1998,0.043812467,0.0441136,0.044629319,0.04535488,0.04553296,0.054501235,0.085475294,0.088527313,0.121345646,0.187274545,0.09512906,0.083276989,0.134664016,0.087363319,0.042260483,-99999,-99999,-99999,-99999,-99999,-99999,-99999,0.055784496,0.05617597,0.056920161,0.058125791,0.059379561,0.067700764,0.104206669,0.097646278,0.163664581,0.238260474,0.123118493,0.092678656,0.177382974,0.116372648,0.052776098,-99999,-99999,-99999,-99999,-99999,-99999,-99999,0.043685,0.055421,0.023094,0.026097
1558224,1977-01-18T05:41:48.207000Z,A77902A1,6.02,0.15,Slab,R,1,213,68,251,special,-41.73,174.3,-41.2776,174.7793,5941084.19,2618142.66,5990617,2659034,9.4,9.4,64.22,72.68,59.54,67.99,-5.56,-63.81,0,34,29.64,nu,902A,D,275,Q2,1.25,Q2,1.32E+02,Q2,0,-99999,-99999,1,0.5,20,0.85,20,Webb_Anderson_1998&Dowrick_Rhoades1998,0.081950863,0.082479202,0.083163869,0.084588395,0.09457838,0.099473131,0.216820491,0.27717919,0.322271369,0.409954056,0.263761434,0.207434864,0.201003002,0.102802957,0.049282968,-99999,-99999,-99999,-99999,-99999,-99999,-99999,0.112013837,0.112445776,0.113383168,0.115317523,0.129751897,0.120380385,0.252015829,0.300898341,0.346856828,0.502958878,0.355889605,0.289400172,0.245011103,0.144297667,0.054293194,-99999,-99999,-99999,-99999,-99999,-99999,-99999,0.081898,0.112007,0.047444,0.060139
1558224,1977-01-18T05:41:48.207000Z,A77907A1,6.02,0.15,Slab,R,1,213,68,251,special,-41.73,174.3,-41.2788,174.7785,5941084.19,2618142.66,5990481,2658964,9.4,9.4,64.07,72.55,59.39,67.86,-5.57,-63.66,0,34,29.64,nu,907A,D,250,Q2,1.2,Q2,116,Q2,0,-99999,-99999,1,0.47,18,0.799,18,Webb_Anderson_1998&Dowrick_Rhoades1998,0.079748752,0.080001963,0.080368805,0.08087768,0.081993347,0.109467442,0.225866286,0.174552345,0.286775795,0.315526252,0.270009688,0.299779944,0.196818633,0.091995763,0.037474788,-99999,-99999,-99999,-99999,-99999,-99999,-99999,0.088848003,0.08908593,0.089513925,0.090136697,0.091286216,0.120981147,0.261981238,0.235286491,0.390945562,0.354101109,0.301798694,0.333440403,0.231220466,0.106194766,0.048957151,-99999,-99999,-99999,-99999,-99999,-99999,-99999,0.079581,0.088573,0.052515,0.058943
1558224,1977-01-18T05:41:48.207000Z,A77911A1,6.02,0.15,Slab,R,1,213,68,251,special,-41.73,174.3,-41.2886,174.7769,5941084.19,2618142.66,5989396,2658808,9.4,9.4,63.13,71.72,58.46,67.03,-6.03,-62.67,0,34,29.64,nu,911A,C,358,Q2,0.29,Q2,1.85E+01,Q2,0,-99999,-99999,1,0.6,19,1.02,19,Webb_Anderson_1998&Dowrick_Rhoades1998,0.060043603,0.060280457,0.060656915,0.061174545,0.062802472,0.074587189,0.106513172,0.100475314,0.217872448,0.265149403,0.218831375,0.187569736,0.095615079,0.038153182,-99999,-99999,-99999,-99999,-99999,-99999,-99999,-99999,0.075264034,0.075521154,0.075985145,0.0766627,0.078308255,0.08375915,0.138970549,0.114184846,0.275289133,0.332851995,0.289895138,0.259982705,0.127647564,0.040213901,-99999,-99999,-99999,-99999,-99999,-99999,-99999,-99999,0.060043,0.074911,0.030987,0.042595
1558224,1977-01-18T05:41:48.207000Z,A77912A1,6.02,0.15,Slab,R,1,213,68,251,special,-41.73,174.3,-41.3264,174.809,5941084.19,2618142.66,5985141,2661416,9.4,9.4,61.72,70.5,57.11,65.8,-10.54,-60.52,0,34,29.64,nu,WNAS,D,239,Q2,0.78,Q2,64,Q2,0,-99999,-99999,0,0.45,24.5,0.765,24.5,Webb_Anderson_1998&Dowrick_Rhoades1998,0.052680444,0.053500984,0.05682095,0.06383242,0.072113815,0.115283606,0.27271802,0.231486851,0.220530296,0.14733593,0.146618066,0.06451782,0.079674301,0.112524705,0.03749231,-99999,-99999,-99999,-99999,-99999,-99999,-99999,0.067649488,0.068703514,0.07081021,0.074550629,0.085403681,0.132860957,0.36612371,0.304965204,0.302898322,0.172664874,0.183686749,0.08249675,0.09376579,0.155059614,0.045017216,-99999,-99999,-99999,-99999,-99999,-99999,-99999,0.052681,0.067417,0.023664,0.029786
1558224,1977-01-18T05:41:48.207000Z,A77913A1,6.02,0.15,Slab,R,1,213,68,251,special,-41.73,174.3,-41.2875,174.7727,5941084.19,2618142.66,5989525,2658459,9.4,9.4,63.01,71.61,58.34,66.93,-5.67,-62.58,0,34,29.64,nu,913A,B,1000,Q3,<0.1,Q3,2,Q2,0,-99999,-99999,1,0.35,21,0.595,21,Webb_Anderson_1998&Dowrick_Rhoades1998,0.052366716,0.053172907,0.054646483,0.057230705,0.064010958,0.081167054,0.15512643,0.172313396,0.246878265,0.294967281,0.210951103,0.078588498,0.065461139,0.025275414,0.019008133,0.010217601,-99999,-99999,-99999,-99999,-99999,-99999,0.070576864,0.071100301,0.071977639,0.073321397,0.077865471,0.096769976,0.198554666,0.196226117,0.275238826,0.367608263,0.271416154,0.104636453,0.070857746,0.034199504,0.024989693,0.013143332,-99999,-99999,-99999,-99999,-99999,-99999,0.052221,0.070372,0.02514,0.032603
1558224,1977-01-18T05:41:48.207000Z,A77914A1,6.02,0.15,Slab,R,1,213,68,251,special,-41.73,174.3,-41.295,174.7735,5941084.19,2618142.66,5988691,2658509,9.4,9.4,62.4,76.37,57.73,71.7,-6.16,-61.91,0,34,29.64,nu,914B,D,282,Q2,0.61,Q2,4.65E+01,Q2,0,-99999,-99999,1,0.7,24.5,1.19,24.5,Webb_Anderson_1998&Dowrick_Rhoades1998,0.0692605,0.06958054,0.070379626,0.074960871,0.077333982,0.132620847,0.236710084,0.238677349,0.356124213,0.229952693,0.228833524,0.142286092,0.143174746,0.05987159,-99999,-99999,-99999,-99999,-99999,-99999,-99999,-99999,0.092105111,0.092337675,0.092660686,0.098211626,0.107624799,0.160332277,0.28609374,0.279442241,0.403929372,0.254333088,0.27363083,0.166432281,0.180997131,0.067550338,-99999,-99999,-99999,-99999,-99999,-99999,-99999,-99999,0.068777,0.092105,0.039386,0.043406
1558224,1977-01-18T05:41:48.207000Z,A77916A1,6.02,0.15,Slab,R,1,213,68,251,special,-41.73,174.3,-41.2941,174.7757,5941084.19,2618142.66,5988787,2658695,9.4,9.4,62.59,71.26,57.93,66.57,-6.27,-62.09,0,34,29.64,nu,916A,D,291,Q2,0.8,Q2,8.54E+01,Q2,0,-99999,-99999,1,0.55,17,0.935,17,Webb_Anderson_1998&Dowrick_Rhoades1998,0.047508767,0.04791567,0.048611498,0.049694234,0.051329626,0.099218051,0.115569415,0.145551716,0.207527587,0.14833035,0.188172872,0.126404137,0.084794208,0.064365846,0.034557762,-99999,-99999,-99999,-99999,-99999,-99999,-99999,0.059428875,0.059968972,0.060841589,0.062174992,0.06377045,0.1112607,0.131575638,0.158710026,0.24713354,0.180818516,0.233174763,0.144286236,0.105500153,0.076911306,0.03858186,-99999,-99999,-99999,-99999,-99999,-99999,-99999,0.047512,0.059028,0.027303,0.035633
1561001,1980-06-23T16:45:19.942000Z,K80087C1,5.49,0.15,Slab,R,1,49,87,101,nlloc,-39.8738,175.576,-39.7171,175.1382,6144762.72,2730330.66,6163158,2693314,5.1,5.1,41.27,96.17,40.35,93.78,-38.03,-15.87,0,86.8,84.25,nu,087C,C,425,Q3,0.33,Q3,30,Q3,0,-99999,-99999,1,0.7,18,1.19,18,HarvardCMT,0.097379824,0.097963857,0.09860608,0.099940707,0.102125315,0.131450855,0.180594732,0.180512657,0.300863069,0.400894613,0.327868234,0.529191595,0.281327836,0.102320365,-99999,-99999,-99999,-99999,-99999,-99999,-99999,-99999,0.109990724,0.110356292,0.110853001,0.111469731,0.111524262,0.137148987,0.209565365,0.196563771,0.387652008,0.460139015,0.395689444,0.589887737,0.330275612,0.116492464,-99999,-99999,-99999,-99999,-99999,-99999,-99999,-99999,0.096925,0.109994,0.059819,0.06454
1561256,1980-10-05T15:32:49.243000Z,S80027C1,5.66,0.15,Slab,N,0,235,45,-5.20E+01,geonet,-39.72,176.87,-39.5046,176.896,6157802.95,2841693.87,6181602,2844964,6.2,6.2,24.06,38.47,21.18,36.39,-99999,-99999,0,30,27.61,nu,027C,E,150,Q3,1.7,Q3,200,Q3,0,-99999,-99999,1,0.43,19,0.731,19,HarvardCMT,0.136781707,0.137423166,0.138298098,0.139256904,0.144170029,0.18657395,0.241207314,0.585361293,0.553495802,0.488704719,0.644386221,0.281871074,0.226105587,0.132641658,0.079032446,-99999,-99999,-99999,-99999,-99999,-99999,-99999,0.156753987,0.157425758,0.158484931,0.159902564,0.161605053,0.222559517,0.281006954,0.66021432,0.662400372,0.649461594,0.728236076,0.385151756,0.281808019,0.175206829,0.106894135,-99999,-99999,-99999,-99999,-99999,-99999,-99999,0.136702,0.155901,0.066808,0.091566
1563250,1982-09-02T15:58:54.183999Z,S82032A1,5.46,0.15,Slab,N,0,76,32,-3.80E+01,nlloc,-39.7432,176.995,-39.9425,176.5874,6154756.79,2852286.05,6134136,2816486,4.9,4.9,41.25,56.9,39.07,55.11,-99999,-99999,0,38.98,37.16,nu,032A,C,495,Q3,0.13,Q3,10,Q3,0,-99999,-99999,1,0.6,16,1.02,16,HarvardCMT,0.07740942,0.078104262,0.079254672,0.081109643,0.083797581,0.094066857,0.139595574,0.323726169,0.347099989,0.184019426,0.193293082,0.168001948,0.095843565,0.038865294,-99999,-99999,-99999,-99999,-99999,-99999,-99999,-99999,0.09154852,0.092015436,0.092754411,0.093750872,0.09487364,0.119199017,0.19631479,0.367468292,0.419144991,0.22393476,0.233888966,0.231619671,0.124841816,0.046120158,-99999,-99999,-99999,-99999,-99999,-99999,-99999,-99999,0.077398,0.091552,0.036493,0.047274
1567345,1985-07-19T14:33:59.829999Z,A86018A1,5.97,0.08,Slab,N,1,213,73,255,special,-38.72,177.3,-38.6665,178.0227,6267008.8,2883855.15,6269685,2946952,11,11,63,70.36,59.68,65.91,-49.85,-36.61,0,31,25.74,nu,GISS,D,138,Q2,1,Q1,40,Q3,0,-99999,-99999,1,0.46,11,0.782,11,Webb_Anderson_1998&Dowrick_Rhoades1998&HarvardCMT,0.077318669,0.077551581,0.077895545,0.078386434,0.07906492,0.081399669,0.105668519,0.150873335,0.274040971,0.257741687,0.28870873,0.305621072,0.193796017,0.204248122,0.235820268,-99999,-99999,-99999,-99999,-99999,-99999,-99999,0.094467445,0.0946542,0.094982471,0.095405696,0.09597956,0.09826553,0.128967322,0.191013089,0.343654124,0.311895003,0.333114663,0.407588909,0.226476512,0.240151409,0.288171333,-99999,-99999,-99999,-99999,-99999,-99999,-99999,0.077059,0.09437,0.067476,0.081824
16899,1988-06-03T23:27:54.351999Z,A88070A1,6.69,0.08,Slab,R,1,310,86,118,special,-45.1,167.17,-45.4167,167.7191,5551299.74,2051472.44,5519112,2096857,25,55,55.56,81.99,43.13,61.55,6.43,-55.46,0,60,32.57,nu,TAFS,D,298,Q3,1.4,Q3,200,Q3,0,-99999,-99999,1,0.2,22,0.34,22,Robinson_etal_2003&Dowrick_Rhoades1998&HarvardCMT&Reyners_etal1991,0.097903946,0.098284187,0.0989199,0.09961539,0.109889564,0.12912293,0.182425144,0.257939097,0.439099821,0.425217914,0.356175685,0.383426179,0.277755331,0.163760441,0.184777215,0.162354001,0.129589159,-99999,-99999,-99999,-99999,-99999,0.110201065,0.11064291,0.111389097,0.112518452,0.117892239,0.149359539,0.249112065,0.333083944,0.537547574,0.461050508,0.381676217,0.515965882,0.391819975,0.171123081,0.256742229,0.195178573,0.166529829,-99999,-99999,-99999,-99999,-99999,0.097738,0.110206,0.094318,0.104734
16899,1988-06-03T23:27:54.351999Z,A88089A1,6.69,0.08,Slab,R,1,310,86,118,special,-45.1,167.17,-44.6946,169.143,5551299.74,2051472.44,5605452,2204373,25,55,161.81,173.05,155.62,164.27,141.68,-82.32,0,60,32.57,nu,WNPS,D,330,Q3,2.1,Q3,300,Q3,0,-99999,-99999,1,0.21,18,0.357,18,Robinson_etal_2003&Dowrick_Rhoades1998&HarvardCMT&Reyners_etal1991,0.033996231,0.034208448,0.034585815,0.035187883,0.036226467,0.042004009,0.061748641,0.099436452,0.140978472,0.139680709,0.112869809,0.104620136,0.104698925,0.109933047,0.109388891,0.075596751,0.050918625,-99999,-99999,-99999,-99999,-99999,0.040688083,0.040984668,0.041486,0.042177023,0.043463478,0.053159879,0.070952941,0.114936015,0.157498288,0.185308743,0.124145939,0.11656499,0.116295686,0.125955454,0.145685326,0.101714715,0.061063851,-99999,-99999,-99999,-99999,-99999,0.033813,0.040656,0.043268,0.047679
16899,1988-06-03T23:27:54.351999Z,A88118B1,6.69,0.08,Slab,R,1,310,86,118,special,-45.1,167.17,-45.0387,169.2193,5551299.74,2051472.44,5567539,2212164,25,55,161.07,172.37,152.52,161.6,117.65,-112.66,0,60,32.57,nu,118B,C,520,Q3,0.3,Q3,40,Q3,0,-99999,-99999,1,0.63,11,1.071,11,Robinson_etal_2003&Dowrick_Rhoades1998&HarvardCMT&Reyners_etal1991,0.053900299,0.054158236,0.054566184,0.055102502,0.055892274,0.060130743,0.073898614,0.115169362,0.164143143,0.29454251,0.186900124,0.314542305,0.159656206,0.042906473,-99999,-99999,-99999,-99999,-99999,-99999,-99999,-99999,0.063236172,0.063546148,0.064057357,0.064775496,0.065736661,0.06989933,0.091444019,0.128433704,0.212820934,0.384340081,0.233610732,0.413970376,0.212339203,0.053540617,-99999,-99999,-99999,-99999,-99999,-99999,-99999,-99999,0.053692,0.063231,0.03024,0.033502
53209,1989-05-31T05:54:48.402999Z,A89940A1,6.39,0.08,Interface,O,1,139,67,47,special,-45.27,166.88,-45.0322,168.6629,5530793.17,2030120.65,5566104,2168345,19.54,19.54,142.29,144.72,138.11,139.83,-124.55,64.03,0,24,17.1,nu,QTPS,D,350,Q3,0.95,Q1,90,Q3,0,-99999,-99999,1,0.55,10,0.935,10,Robinson_etal_2003&Dowrick_Rhoades1998&HarvardCMT,0.024585359,0.024719588,0.024964426,0.025282451,0.025728542,0.027514098,0.03267914,0.066980014,0.117671591,0.16610064,0.081648424,0.08036104,0.04842111,0.048100461,0.036430925,-99999,-99999,-99999,-99999,-99999,-99999,-99999,0.034488851,0.034698479,0.035006175,0.035471408,0.036091331,0.038583931,0.042157928,0.075603641,0.150733764,0.197209012,0.08856958,0.10857276,0.062933059,0.057644279,0.046724686,-99999,-99999,-99999,-99999,-99999,-99999,-99999,0.024587,0.034329,0.013138,0.014399
