CuspID,Origin_time,Record,Mw,MwUncert,TectClass,Mech,PreferredFaultPlane,Strike,Dip,Rake,Location,HypLat,HypLon,StationLat,StationLon,HypN,HypE,StationN,StationE,LENGTH_km,WIDTH_km,Repi_km,Rhyp_km,Rjb_km,Rrup_km,Rx_km,Ry_km,Rvol_km,HypDepth_km,ZTOR_km,HWFW,SiteCode,SiteClass1170,Vs30,Vs30Uncert,Tsite,TsiteUncert,Z1,Z1Uncertainty,Directivity,Pulse_or,Pulse_T,S_Trigger_Flag,fcButterHP,f_iniLP,fmin,fmax,References,f100.0000SA_RotD50,f50.0000SA_RotD50,f33.3333SA_RotD50,f25.0000SA_RotD50,f20.0000SA_RotD50,f13.3333SA_RotD50,f10.0000SA_RotD50,f6.6667SA_RotD50,f5.0000SA_RotD50,f4.0000SA_RotD50,f3.3333SA_RotD50,f2.5000SA_RotD50,f2.0000SA_RotD50,f1.3333SA_RotD50,f1.0000SA_RotD50,f0.6667SA_RotD50,f0.5000SA_RotD50,f0.3333SA_RotD50,f0.2500SA_RotD50,f0.2000SA_RotD50,f0.1333SA_RotD50,f0.1000SA_RotD50,f100.0000SA_RotD100,f50.0000SA_RotD100,f33.3333SA_RotD100,f25.0000SA_RotD100,f20.0000SA_RotD100,f13.3333SA_RotD100,f10.0000SA_RotD100,f6.6667SA_RotD100,f5.0000SA_RotD100,f4.0000SA_RotD100,f3.3333SA_RotD100,f2.5000SA_RotD100,f2.0000SA_RotD100,f1.3333SA_RotD100,f1.0000SA_RotD100,f0.6667SA_RotD100,f0.5000SA_RotD100,f0.3333SA_RotD100,f0.2500SA_RotD100,f0.2000SA_RotD100,f0.1333SA_RotD100,f0.1000SA_RotD100,PGA_RotD50,PGA_RotD100,PGV_RotD50,PGV_RotD100
1553782,1971-08-13T14:42:41.636000Z,A71053A1,5.7,0.15,Crustal,S,1,242,83,207,special,-42.13,172.1,-42.3786,172.3329,5897058.69,2435589.3,5869623,2455066,6.51,6.51,33.64,34.99,33.13,33.79,-32.97,-4.32,0,9,5.77,fw,053A,C,391,Q3,0.27,Q3,20,Q3,0,-99999,-99999,1,0.4,18,0.68,18,Anderson_etal_1993&Dowrick_Rhoades_1998,0.056187437,0.056656967,0.057940416,0.059909889,0.062166635,0.073194878,0.076870521,0.096230011,0.101872205,0.103462243,0.101614421,0.079853631,0.054964549,0.053257573,0.032571705,-99999,-99999,-99999,-99999,-99999,-99999,-99999,0.070753939,0.071188961,0.071891788,0.072960836,0.075264256,0.089954783,0.090730827,0.102783462,0.125474878,0.127304308,0.121677578,0.102249197,0.073680858,0.065867056,0.040034634,-99999,-99999,-99999,-99999,-99999,-99999,-99999,0.056127,0.07071,0.042573,0.053299
1556608,1975-06-10T10:11:17.094000Z,K75301A2,5.62,0.15,Slab,N,1,250,56,257,special,-40.34,175.93,-40.3553,175.6152,6092087.55,2758882.27,6091232,2732094,5.9,5.9,26.73,46.53,23.88,44.21,10.02,25.47,0,38,35.54,nu,301A,D,341,Q3,0.7,Q2,60,Q3,0,-99999,-99999,1,0.4,19,0.68,19,Webb_Anderson_1998&Dowrick_Rhoades1998,0.037900941,0.038539036,0.039688359,0.041473893,0.043887715,0.054128151,0.065248035,0.066105788,0.064348492,0.049323721,0.047985199,0.043131703,0.039087991,0.025878742,0.018249079,-99999,-99999,-99999,-99999,-99999,-99999,-99999,0.043972374,0.044282532,0.044841303,0.045781436,0.047457604,0.061985777,0.07399242,0.070121775,0.074559288,0.0670141,0.06756507,0.060948694,0.053604345,0.036167123,0.020176092,-99999,-99999,-99999,-99999,-99999,-99999,-99999,0.037864,0.043987,0.023645,0.030684
1556608,1975-06-10T10:11:17.094000Z,K75340A1,5.62,0.15,Slab,N,1,250,56,257,special,-40.34,175.93,-40.3863,175.6165,6092087.55,2758882.27,6087788,2732102,5.9,5.9,27.06,46.71,24.14,44.26,6.78,26.64,0,38,35.54,nu,340A,D,283,Q3,0.96,Q3,90,Q3,0,-99999,-99999,1,0.65,18,1.105,18,Webb_Anderson_1998&Dowrick_Rhoades1998,0.049384231,0.049736095,0.050307686,0.051270863,0.052751143,0.064952363,0.073867333,0.086610556,0.105975744,0.094939234,0.086756647,0.054192242,0.042670811,0.021923449,-99999,-99999,-99999,-99999,-99999,-99999,-99999,-99999,0.063061523,0.063748525,0.064749446,0.065979481,0.067467978,0.076243308,0.090683998,0.113839174,0.131273862,0.108597639,0.12228305,0.062733535,0.053122813,0.028220635,-99999,-99999,-99999,-99999,-99999,-99999,-99999,-99999,0.049392,0.063153,0.024416,0.028186
1557438,1976-05-04T13:56:29.201000Z,A76080B1,6.51,0.15,Interface,O,1,48,47,130,special,-44.67,167.45,-44.6729,167.9264,5600506.59,2070223.23,5602634,2107939,22.44,22.44,37.67,39.08,27.88,31.04,31.31,29.45,0,10,1.79,nu,080B,C,210,Q3,0.57,Q3,30,Q3,0,-99999,-99999,1,0.2,29,0.34,29,Anderson_etal_1993&Dowrick_Rhoades_1998,0.088262152,0.088895907,0.091127163,0.092572699,0.093230515,0.096179358,0.098915419,0.126767313,0.123219963,0.134613833,0.153547198,0.174236376,0.192859716,0.095965811,0.066633825,0.027301087,0.016644454,-99999,-99999,-99999,-99999,-99999,0.098426913,0.098949897,0.100631891,0.104764107,0.107234545,0.110443755,0.114059637,0.156086814,0.158281212,0.164528753,0.186894303,0.208774912,0.235785489,0.114363554,0.093165637,0.038312503,0.019468044,-99999,-99999,-99999,-99999,-99999,0.087882,0.098438,0.089847,0.115009
1557438,1976-05-04T13:56:29.201000Z,K76070A1,6.51,0.15,Interface,O,1,48,47,130,special,-44.67,167.45,-45.4167,167.7191,5600506.59,2070223.23,5519112,2096857,22.44,22.44,85.68,86.25,77.38,79.21,85.96,-34.67,0,10,1.79,nu,TAFS,D,298,Q3,1.4,Q3,200,Q3,0,-99999,-99999,1,0.28,11,0.476,11,Anderson_etal_1993&Dowrick_Rhoades_1998,0.024410862,0.024505783,0.024626751,0.024811858,0.02511609,0.027014631,0.036439827,0.035113181,0.033934623,0.039305287,0.045539774,0.037866894,0.032118336,0.034102109,0.025207405,0.025235303,0.015925293,-99999,-99999,-99999,-99999,-99999,0.029517427,0.029600931,0.029750333,0.029986217,0.030339502,0.032882742,0.043406569,0.04709438,0.040943122,0.043898634,0.050963932,0.042829301,0.038035145,0.045733113,0.033532082,0.027533678,0.020532075,-99999,-99999,-99999,-99999,-99999,0.024409,0.029457,0.031912,0.037482
1557438,1976-05-04T13:56:29.201000Z,K76089A1,6.51,0.15,Interface,O,1,48,47,130,special,-44.67,167.45,-44.6946,169.143,5600506.59,2070223.23,5605452,2204373,22.44,22.44,133.87,134.63,124.04,125.19,93.74,103,0,10,1.79,nu,WNPS,D,330,Q3,2.1,Q3,300,Q3,0,-99999,-99999,1,0.25,15,0.425,15,Anderson_etal_1993&Dowrick_Rhoades_1998,0.031039662,0.031140058,0.031243337,0.031410084,0.03189404,0.034152925,0.038068611,0.043355517,0.048178668,0.059469867,0.050863554,0.046651057,0.048841622,0.052796377,0.041706104,0.035717655,0.019449918,-99999,-99999,-99999,-99999,-99999,0.039761632,0.039889434,0.040098232,0.040395042,0.040853629,0.04533862,0.048912212,0.056830484,0.05299001,0.065751103,0.05952276,0.055747497,0.052975549,0.05643534,0.054628105,0.040987749,0.022141746,-99999,-99999,-99999,-99999,-99999,0.031017,0.039762,0.04426,0.048661
1558224,1977-01-18T05:41:48.207000Z,A77048C1,6.02,0.15,Slab,R,1,213,68,251,special,-41.73,174.3,-41.5138,173.9572,5941084.19,2618142.66,5965463,2589883,9.4,9.4,37.28,50.49,35.45,48.97,38.74,-5.05,0,34,29.64,nu,048C,D,235,Q3,0.9,Q3,64,Q3,0,-99999,-99999,1,0.4,13,0.68,13,Webb_Anderson_1998&Dowrick_Rhoades1998,0.037002196,0.037128197,0.03732591,0.037619779,0.03815155,0.041124053,0.044290093,0.048512398,0.066950877,0.086929795,0.088476199,0.050228833,0.038277932,0.033979884,0.025474541,-99999,-99999,-99999,-99999,-99999,-99999,-99999,0.041501463,0.041694313,0.042009229,0.042460536,0.043135838,0.045772408,0.050262315,0.054212725,0.069826569,0.094495319,0.107678817,0.063875429,0.049746807,0.036361158,0.033174997,-99999,-99999,-99999,-99999,-99999,-99999,-99999,0.036924,0.041508,0.022251,0.027174
1558224,1977-01-18T05:41:48.207000Z,A77601A1,6.02,0.15,Slab,R,1,213,68,251,special,-41.73,174.3,-41.2263,174.8719,5941084.19,2618142.66,5996147,2666912,9.4,9.4,73.53,81.03,68.88,76.33,-9.15,-72.74,0,34,29.64,nu,601A,D,161,Q3,2.3,Q3,297,Q3,0,-99999,-99999,1,0.4,20,0.68,20,Webb_Anderson_1998&Dowrick_Rhoades1998,0.043792621,0.044048819,0.04452844,0.045076845,0.045422371,0.046555082,0.055832297,0.063600828,0.082905752,0.083767091,0.059066464,0.051694066,0.051862082,0.044061279,0.022639923,-99999,-99999,-99999,-99999,-99999,-99999,-99999,0.055759852,0.056128294,0.056799691,0.057875678,0.059410472,0.0649365,0.078622539,0.08588102,0.108746855,0.101615404,0.077861191,0.057167251,0.06896356,0.047503681,0.026390931,-99999,-99999,-99999,-99999,-99999,-99999,-99999,0.043685,0.055421,0.023094,0.026097
1558224,1977-01-18T05:41:48.207000Z,A77902A1,6.02,0.15,Slab,R,1,213,68,251,special,-41.73,174.3,-41.2776,174.7793,5941084.19,2618142.66,5990617,2659034,9.4,9.4,64.22,72.68,59.54,67.99,-5.56,-63.81,0,34,29.64,nu,902A,D,275,Q2,1.25,Q2,1.32E+02,Q2,0,-99999,-99999,1,0.5,20,0.85,20,Webb_Anderson_1998&Dowrick_Rhoades1998,0.081941554,0.082440499,0.08309078,0.084186343,0.086169334,0.089790762,0.115275233,0.160917312,0.145797073,0.167440893,0.161615914,0.119938552,0.10188745,0.057537691,0.025747607,-99999,-99999,-99999,-99999,-99999,-99999,-99999,0.112050788,0.112539416,0.1134468,0.115288632,0.119079386,0.121633097,0.147470529,0.188726911,0.171180811,0.212314586,0.219666942,0.168315893,0.140270273,0.080754326,0.02811199,-99999,-99999,-99999,-99999,-99999,-99999,-99999,0.081898,0.112007,0.047444,0.060139
1558224,1977-01-18T05:41:48.207000Z,A77907A1,6.02,0.15,Slab,R,1,213,68,251,special,-41.73,174.3,-41.2788,174.7785,5941084.19,2618142.66,5990481,2658964,9.4,9.4,64.07,72.55,59.39,67.86,-5.57,-63.66,0,34,29.64,nu,907A,D,250,Q2,1.2,Q2,116,Q2,0,-99999,-99999,1,0.47,18,0.799,18,Webb_Anderson_1998&Dowrick_Rhoades1998,0.079753039,0.079996552,0.080379683,0.080901463,0.08158692,0.091184456,0.107300887,0.124153231,0.139986235,0.163146527,0.155086041,0.144439392,0.1099849,0.052907836,0.024415558,-99999,-99999,-99999,-99999,-99999,-99999,-99999,0.088840158,0.089077505,0.089496665,0.090165178,0.091187323,0.095425049,0.126593197,0.135635101,0.171176427,0.177697308,0.187386359,0.163892685,0.12498942,0.057569967,0.034259336,-99999,-99999,-99999,-99999,-99999,-99999,-99999,0.079581,0.088573,0.052515,0.058943
1558224,1977-01-18T05:41:48.207000Z,A77911A1,6.02,0.15,Slab,R,1,213,68,251,special,-41.73,174.3,-41.2886,174.7769,5941084.19,2618142.66,5989396,2658808,9.4,9.4,63.13,71.72,58.46,67.03,-6.03,-62.67,0,34,29.64,nu,911A,C,358,Q2,0.29,Q2,1.85E+01,Q2,0,-99999,-99999,1,0.6,19,1.02,19,Webb_Anderson_1998&Dowrick_Rhoades1998,0.060040427,0.06025189,0.060568362,0.060976224,0.061509196,0.06647435,0.073521193,0.081158605,0.10589375,0.108548763,0.117592896,0.100021975,0.066053749,0.026279281,-99999,-99999,-99999,-99999,-99999,-99999,-99999,-99999,0.075259533,0.075490196,0.075863873,0.076417754,0.07722369,0.079279863,0.086081249,0.092355347,0.116396135,0.148423491,0.160215469,0.132759768,0.089635855,0.034720003,-99999,-99999,-99999,-99999,-99999,-99999,-99999,-99999,0.060043,0.074911,0.030987,0.042595
1558224,1977-01-18T05:41:48.207000Z,A77912A1,6.02,0.15,Slab,R,1,213,68,251,special,-41.73,174.3,-41.3264,174.809,5941084.19,2618142.66,5985141,2661416,9.4,9.4,61.72,70.5,57.11,65.8,-10.54,-60.52,0,34,29.64,nu,WNAS,D,239,Q2,0.78,Q2,64,Q2,0,-99999,-99999,0,0.45,24.5,0.765,24.5,Webb_Anderson_1998&Dowrick_Rhoades1998,0.052657366,0.053435133,0.056371406,0.060482796,0.066011493,0.08692217,0.11411341,0.09780963,0.087743286,0.072189027,0.064478417,0.044462975,0.041135746,0.035126955,0.019828973,-99999,-99999,-99999,-99999,-99999,-99999,-99999,0.06774746,0.068918883,0.07087582,0.077574512,0.09003705,0.113887995,0.161305943,0.130789426,0.12205618,0.083881557,0.073411885,0.049641493,0.047440357,0.042880715,0.022142877,-99999,-99999,-99999,-99999,-99999,-99999,-99999,0.052681,0.067417,0.023664,0.029786
1558224,1977-01-18T05:41:48.207000Z,A77913A1,6.02,0.15,Slab,R,1,213,68,251,special,-41.73,174.3,-41.2875,174.7727,5941084.19,2618142.66,5989525,2658459,9.4,9.4,63.01,71.61,58.34,66.93,-5.67,-62.58,0,34,29.64,nu,913A,B,1000,Q3,<0.1,Q3,2,Q2,0,-99999,-99999,1,0.35,21,0.595,21,Webb_Anderson_1998&Dowrick_Rhoades1998,0.052425474,0.053284211,0.05476166,0.057202935,0.060928871,0.073002179,0.08312726,0.098261432,0.116165483,0.104300213,0.089479618,0.047710199,0.038916973,0.020190201,0.011433906,0.005670335,-99999,-99999,-99999,-99999,-99999,-99999,0.070513593,0.071032025,0.07192844,0.072864994,0.073800506,0.087961184,0.112034737,0.118695155,0.125959685,0.143165735,0.114355103,0.066798882,0.052522686,0.026816768,0.012580014,0.006369602,-99999,-99999,-99999,-99999,-99999,-99999,0.052221,0.070372,0.02514,0.032603
1558224,1977-01-18T05:41:48.207000Z,A77914A1,6.02,0.15,Slab,R,1,213,68,251,special,-41.73,174.3,-41.295,174.7735,5941084.19,2618142.66,5988691,2658509,9.4,9.4,62.4,76.37,57.73,71.7,-6.16,-61.91,0,34,29.64,nu,914B,D,282,Q2,0.61,Q2,4.65E+01,Q2,0,-99999,-99999,1,0.7,24.5,1.19,24.5,Webb_Anderson_1998&Dowrick_Rhoades1998,0.069259933,0.069612657,0.070472941,0.072165974,0.076850894,0.087430831,0.103166149,0.139774326,0.146741443,0.113251359,0.116161979,0.090603998,0.079563916,0.034341884,-99999,-99999,-99999,-99999,-99999,-99999,-99999,-99999,0.09210064,0.092387007,0.092909332,0.096445293,0.099673667,0.105746725,0.130002101,0.168370563,0.154396422,0.129367436,0.129294634,0.098672621,0.091144672,0.042443826,-99999,-99999,-99999,-99999,-99999,-99999,-99999,-99999,0.068777,0.092105,0.039386,0.043406
1558224,1977-01-18T05:41:48.207000Z,A77916A1,6.02,0.15,Slab,R,1,213,68,251,special,-41.73,174.3,-41.2941,174.7757,5941084.19,2618142.66,5988787,2658695,9.4,9.4,62.59,71.26,57.93,66.57,-6.27,-62.09,0,34,29.64,nu,916A,D,291,Q2,0.8,Q2,8.54E+01,Q2,0,-99999,-99999,1,0.55,17,0.935,17,Webb_Anderson_1998&Dowrick_Rhoades1998,0.047480208,0.047830583,0.04843172,0.049505878,0.051161735,0.063771098,0.066181742,0.079146005,0.089922951,0.075947867,0.078169016,0.072447897,0.054770848,0.033952336,0.018087167,-99999,-99999,-99999,-99999,-99999,-99999,-99999,0.059385435,0.059856158,0.060664918,0.061971036,0.063856352,0.074893312,0.084594576,0.106307731,0.096637592,0.081184035,0.087239412,0.08766971,0.072146319,0.040478835,0.022023267,-99999,-99999,-99999,-99999,-99999,-99999,-99999,0.047512,0.059028,0.027303,0.035633
1561001,1980-06-23T16:45:19.942000Z,K80087C1,5.49,0.15,Slab,R,1,49,87,101,nlloc,-39.8738,175.576,-39.7171,175.1382,6144762.72,2730330.66,6163158,2693314,5.1,5.1,41.27,96.17,40.35,93.78,-38.03,-15.87,0,86.8,84.25,nu,087C,C,425,Q3,0.33,Q3,30,Q3,0,-99999,-99999,1,0.7,18,1.19,18,HarvardCMT,0.097376919,0.097920768,0.098608538,0.099844731,0.102123553,0.103445198,0.108913216,0.128154885,0.154770786,0.159361326,0.149322509,0.166724728,0.131099892,0.067859362,-99999,-99999,-99999,-99999,-99999,-99999,-99999,-99999,0.109963614,0.110267235,0.110735923,0.111445885,0.112841477,0.118349339,0.126944379,0.141280735,0.172555837,0.173728848,0.191461439,0.180029947,0.148888231,0.07817751,-99999,-99999,-99999,-99999,-99999,-99999,-99999,-99999,0.096925,0.109994,0.059819,0.06454
1561256,1980-10-05T15:32:49.243000Z,S80027C1,5.66,0.15,Slab,N,0,235,45,-5.20E+01,geonet,-39.72,176.87,-39.5046,176.896,6157802.95,2841693.87,6181602,2844964,6.2,6.2,24.06,38.47,21.18,36.39,-99999,-99999,0,30,27.61,nu,027C,E,150,Q3,1.7,Q3,200,Q3,0,-99999,-99999,1,0.43,19,0.731,19,HarvardCMT,0.136740034,0.137400611,0.138111887,0.138514423,0.138695507,0.169248609,0.193846379,0.299326096,0.299443825,0.247567361,0.235919917,0.172779945,0.125062457,0.062551245,0.04601236,-99999,-99999,-99999,-99999,-99999,-99999,-99999,0.156751569,0.157389229,0.1584099,0.159856357,0.161670098,0.180300774,0.218945917,0.333047812,0.33487005,0.328086095,0.330801993,0.190599935,0.152723666,0.082676606,0.055581755,-99999,-99999,-99999,-99999,-99999,-99999,-99999,0.136702,0.155901,0.066808,0.091566
1563250,1982-09-02T15:58:54.183999Z,S82032A1,5.46,0.15,Slab,N,0,76,32,-3.80E+01,nlloc,-39.7432,176.995,-39.9425,176.5874,6154756.79,2852286.05,6134136,2816486,4.9,4.9,41.25,56.9,39.07,55.11,-99999,-99999,0,38.98,37.16,nu,032A,C,495,Q3,0.13,Q3,10,Q3,0,-99999,-99999,1,0.6,16,1.02,16,HarvardCMT,0.077465402,0.07819151,0.079356883,0.081096594,0.08368204,0.093855259,0.110563183,0.167721892,0.154946015,0.105359584,0.111948281,0.081869345,0.061335297,0.025202963,-99999,-99999,-99999,-99999,-99999,-99999,-99999,-99999,0.091517818,0.091947213,0.09266574,0.093760565,0.095507004,0.112854656,0.133937775,0.196906048,0.212018335,0.14024506,0.128573076,0.107157445,0.072716878,0.035531704,-99999,-99999,-99999,-99999,-99999,-99999,-99999,-99999,0.077398,0.091552,0.036493,0.047274
1567345,1985-07-19T14:33:59.829999Z,A86018A1,5.97,0.08,Slab,N,1,213,73,255,special,-38.72,177.3,-38.6665,178.0227,6267008.8,2883855.15,6269685,2946952,11,11,63,70.36,59.68,65.91,-49.85,-36.61,0,31,25.74,nu,GISS,D,138,Q2,1,Q1,40,Q3,0,-99999,-99999,1,0.46,11,0.782,11,Webb_Anderson_1998&Dowrick_Rhoades1998&HarvardCMT,0.077328586,0.077546392,0.077889592,0.078372322,0.079018166,0.081701395,0.089440917,0.104081788,0.11902324,0.123225163,0.133880931,0.137165582,0.117676075,0.100808575,0.087609326,-99999,-99999,-99999,-99999,-99999,-99999,-99999,0.094478582,0.094670021,0.094974933,0.095401485,0.095973871,0.098584357,0.104776307,0.111863881,0.131803291,0.154924458,0.166934581,0.180893315,0.159358952,0.125472638,0.095331938,-99999,-99999,-99999,-99999,-99999,-99999,-99999,0.077059,0.09437,0.067476,0.081824
16899,1988-06-03T23:27:54.351999Z,A88070A1,6.69,0.08,Slab,R,1,310,86,118,special,-45.1,167.17,-45.4167,167.7191,5551299.74,2051472.44,5519112,2096857,25,55,55.56,81.99,43.13,61.55,6.43,-55.46,0,60,32.57,nu,TAFS,D,298,Q3,1.4,Q3,200,Q3,0,-99999,-99999,1,0.2,22,0.34,22,Robinson_etal_2003&Dowrick_Rhoades1998&HarvardCMT&Reyners_etal1991,0.097901198,0.098235659,0.098827759,0.099665797,0.101025319,0.103616146,0.11992188,0.142621837,0.164995503,0.187984638,0.159268441,0.140030039,0.12148807,0.092546125,0.080702874,0.075031097,0.054758461,-99999,-99999,-99999,-99999,-99999,0.110163166,0.110541528,0.111284086,0.112259959,0.112854282,0.120251139,0.130497953,0.157149744,0.219209732,0.200010907,0.187928459,0.187464728,0.170651437,0.124623971,0.110920198,0.086577159,0.068394792,-99999,-99999,-99999,-99999,-99999,0.097738,0.110206,0.094318,0.104734
16899,1988-06-03T23:27:54.351999Z,A88089A1,6.69,0.08,Slab,R,1,310,86,118,special,-45.1,167.17,-44.6946,169.143,5551299.74,2051472.44,5605452,2204373,25,55,161.81,173.05,155.62,164.27,141.68,-82.32,0,60,32.57,nu,WNPS,D,330,Q3,2.1,Q3,300,Q3,0,-99999,-99999,1,0.21,18,0.357,18,Robinson_etal_2003&Dowrick_Rhoades1998&HarvardCMT&Reyners_etal1991,0.033977585,0.034150372,0.034528264,0.035094733,0.035776328,0.037446959,0.043460469,0.058123078,0.068658876,0.066302409,0.057068809,0.046423349,0.044669337,0.048509412,0.046177717,0.029077864,0.020167586,-99999,-99999,-99999,-99999,-99999,0.040686503,0.04095665,0.041380687,0.042035756,0.043124093,0.045724509,0.053125142,0.069892408,0.093624179,0.085007541,0.062260848,0.051721157,0.052783942,0.054364064,0.054861563,0.033148743,0.022831445,-99999,-99999,-99999,-99999,-99999,0.033813,0.040656,0.043268,0.047679
16899,1988-06-03T23:27:54.351999Z,A88118B1,6.69,0.08,Slab,R,1,310,86,118,special,-45.1,167.17,-45.0387,169.2193,5551299.74,2051472.44,5567539,2212164,25,55,161.07,172.37,152.52,161.6,117.65,-112.66,0,60,32.57,nu,118B,C,520,Q3,0.3,Q3,40,Q3,0,-99999,-99999,1,0.63,11,1.071,11,Robinson_etal_2003&Dowrick_Rhoades1998&HarvardCMT&Reyners_etal1991,0.053908414,0.054151058,0.05451386,0.055029383,0.055701153,0.059138191,0.062953014,0.073605679,0.094301852,0.113647029,0.106703646,0.103143087,0.07091655,0.027344758,-99999,-99999,-99999,-99999,-99999,-99999,-99999,-99999,0.063260366,0.063570018,0.06403329,0.064674259,0.065482536,0.068665016,0.070260545,0.082287663,0.099743696,0.142902874,0.137673481,0.127748976,0.075838097,0.030864792,-99999,-99999,-99999,-99999,-99999,-99999,-99999,-99999,0.053692,0.063231,0.03024,0.033502
53209,1989-05-31T05:54:48.402999Z,A89940A1,6.39,0.08,Interface,O,1,139,67,47,special,-45.27,166.88,-45.0322,168.6629,5530793.17,2030120.65,5566104,2168345,19.54,19.54,142.29,144.72,138.11,139.83,-124.55,64.03,0,24,17.1,nu,QTPS,D,350,Q3,0.95,Q1,90,Q3,0,-99999,-99999,1,0.55,10,0.935,10,Robinson_etal_2003&Dowrick_Rhoades1998&HarvardCMT,0.024573019,0.024693814,0.024917491,0.025247018,0.025683229,0.02729677,0.029642129,0.043702037,0.061080765,0.053970158,0.045977384,0.032277629,0.0258285,0.017119494,0.012649204,-99999,-99999,-99999,-99999,-99999,-99999,-99999,0.034471547,0.034643499,0.034949961,0.035417187,0.036027907,0.03830595,0.041776637,0.054352731,0.081932005,0.069376832,0.051851586,0.042582459,0.032912649,0.018891909,0.015311529,-99999,-99999,-99999,-99999,-99999,-99999,-99999,0.024587,0.034329,0.013138,0.014399
