CuspID,Origin_time,Record,Mw,MwUncert,TectClass,Mech,PreferredFaultPlane,Strike,Dip,Rake,Location,HypLat,HypLon,StationLat,StationLon,HypN,HypE,StationN,StationE,LENGTH_km,WIDTH_km,Repi_km,Rhyp_km,Rjb_km,Rrup_km,Rx_km,Ry_km,Rvol_km,HypDepth_km,ZTOR_km,HWFW,SiteCode,SiteClass1170,Vs30,Vs30Uncert,Tsite,TsiteUncert,Z1,Z1Uncertainty,Directivity,Pulse_or,Pulse_T,S_Trigger_Flag,fcButterHP,f_iniLP,fmin,fmax,References,f100.0000SA_RotD50,f50.0000SA_RotD50,f33.3333SA_RotD50,f25.0000SA_RotD50,f20.0000SA_RotD50,f13.3333SA_RotD50,f10.0000SA_RotD50,f6.6667SA_RotD50,f5.0000SA_RotD50,f4.0000SA_RotD50,f3.3333SA_RotD50,f2.5000SA_RotD50,f2.0000SA_RotD50,f1.3333SA_RotD50,f1.0000SA_RotD50,f0.6667SA_RotD50,f0.5000SA_RotD50,f0.3333SA_RotD50,f0.2500SA_RotD50,f0.2000SA_RotD50,f0.1333SA_RotD50,f0.1000SA_RotD50,f100.0000SA_RotD100,f50.0000SA_RotD100,f33.3333SA_RotD100,f25.0000SA_RotD100,f20.0000SA_RotD100,f13.3333SA_RotD100,f10.0000SA_RotD100,f6.6667SA_RotD100,f5.0000SA_RotD100,f4.0000SA_RotD100,f3.3333SA_RotD100,f2.5000SA_RotD100,f2.0000SA_RotD100,f1.3333SA_RotD100,f1.0000SA_RotD100,f0.6667SA_RotD100,f0.5000SA_RotD100,f0.3333SA_RotD100,f0.2500SA_RotD100,f0.2000SA_RotD100,f0.1333SA_RotD100,f0.1000SA_RotD100,PGA_RotD50,PGA_RotD100,PGV_RotD50,PGV_RotD100
241414,1991-07-12T04:42:23.301999Z,D91302A4,5.3,0.15,Slab,S,1,135,57,25,geonet,-39.3052,175.9748,-39.9338,175.053,6206777.74,2766544.08,6139282,2685450,4.1,4.1,105.45,126.78,104.32,126.64,106.19,-9.62,0,70.28,68.56,nu,302A,D,250,Q2,0.8,Q3,80,Q3,0,-99999,-99999,1,0.3,12,0.51,12,HarvardCMT,0.017612575,0.017675058,0.017789919,0.017901584,0.01809325,0.018925913,0.024128162,0.02532358,0.024653508,0.038125237,0.038776356,0.039404793,0.029768626,0.024819898,0.015661421,0.006303826,-99999,-99999,-99999,-99999,-99999,-99999,0.019828001,0.019899742,0.02005226,0.020240252,0.020520934,0.021679293,0.025167533,0.031273465,0.033022674,0.045066507,0.041713175,0.050442638,0.038708585,0.03360457,0.022143128,0.008536419,-99999,-99999,-99999,-99999,-99999,-99999,0.01761,0.019802,0.015326,0.018936
255338,1991-09-08T13:50:30.989999Z,A92087A4,5.61,0.15,Slab,R,1,95,70,108,geonet,-40.2442,175.1672,-39.7163,175.1455,6104594.2,2694363.31,6163232,2693941,5.9,5.9,58.73,104.69,57.7,101.84,-57.37,-5.53,0,86.69,83.93,nu,087A,B,1000,Q3,<0.1,Q3,0,Q2,0,-99999,-99999,1,0.6,27,1.02,27,HarvardCMT,0.142824563,0.146264883,0.154173805,0.173417794,0.180684321,0.240541208,0.292413804,0.419913261,0.28111874,0.240035971,0.189877658,0.214497393,0.111409974,0.046804935,-99999,-99999,-99999,-99999,-99999,-99999,-99999,-99999,0.165794287,0.16845837,0.174657898,0.192526207,0.21232091,0.260444035,0.347277102,0.575928433,0.33719946,0.310464518,0.210635132,0.248449246,0.148578446,0.050999917,-99999,-99999,-99999,-99999,-99999,-99999,-99999,-99999,0.138426,0.165445,0.052495,0.059593
255338,1991-09-08T13:50:30.989999Z,D91302A5,5.61,0.15,Slab,R,1,95,70,108,geonet,-40.2442,175.1672,-39.9338,175.053,6104594.2,2694363.31,6139282,2685450,5.9,5.9,35.86,93.81,34.54,90.88,-32.78,-11.9,0,86.69,83.93,nu,302A,D,250,Q2,0.8,Q3,80,Q3,0,-99999,-99999,0,0.35,20,0.595,20,HarvardCMT,0.099128946,0.100150708,0.101873713,0.106569847,0.125061539,0.155812819,0.210957498,0.209349137,0.23413541,0.269313759,0.206622434,0.166043627,0.149625247,0.070445949,0.046886133,0.013055315,-99999,-99999,-99999,-99999,-99999,-99999,0.102963447,0.104335203,0.107629503,0.115812431,0.135526628,0.179886063,0.254152421,0.220111919,0.331090836,0.357617891,0.264455806,0.233573673,0.207785642,0.084745281,0.058484132,0.018189736,-99999,-99999,-99999,-99999,-99999,-99999,0.098958,0.102989,0.049331,0.058808
255338,1991-09-08T13:50:30.989999Z,D91467A2,5.61,0.15,Slab,R,1,95,70,108,geonet,-40.2442,175.1672,-41.2425,174.9024,6104594.2,2694363.31,5994293,2669430,5.9,5.9,113.22,142.49,112.16,141.58,113.06,-15.23,0,86.69,83.93,nu,467A,D,218,Q3,1.5,Q3,200,Q3,0,-99999,-99999,1,0.25,15,0.425,15,HarvardCMT,0.02538593,0.025580244,0.025899074,0.026363483,0.027088329,0.029322534,0.040270078,0.043049166,0.066560227,0.049077866,0.051678421,0.069550205,0.067229048,0.035402117,0.013485989,0.007067336,0.002628028,-99999,-99999,-99999,-99999,-99999,0.028928255,0.029168664,0.029592586,0.030267086,0.031388717,0.037700988,0.053187399,0.048465765,0.084407898,0.053369947,0.060234772,0.082608262,0.075909255,0.042889726,0.019018197,0.007886553,0.002989591,-99999,-99999,-99999,-99999,-99999,0.025376,0.028816,0.019351,0.021977
255338,1991-09-08T13:50:30.989999Z,D91468A2,5.61,0.15,Slab,R,1,95,70,108,geonet,-40.2442,175.1672,-41.2011,174.9547,6104594.2,2694363.31,5998793,2673916,5.9,5.9,107.9,138.3,106.86,137.35,108.18,-11.15,0,86.69,83.93,nu,468A,D,190,Q1,0.9,Q3,50,Q3,0,-99999,-99999,0,0.45,13,0.765,13,HarvardCMT,0.041194335,0.041636313,0.042374818,0.043416561,0.044776104,0.052985551,0.084659677,0.089995893,0.112622787,0.10287446,0.093901758,0.112406748,0.080085505,0.046109402,0.026266498,-99999,-99999,-99999,-99999,-99999,-99999,-99999,0.056420142,0.056946805,0.05782197,0.059151166,0.061087998,0.073511647,0.116988171,0.10349612,0.14143573,0.123245494,0.10361958,0.158828692,0.090651391,0.054524208,0.030719143,-99999,-99999,-99999,-99999,-99999,-99999,-99999,0.041167,0.056406,0.028165,0.036325
255338,1991-09-08T13:50:30.989999Z,D91606B1,5.61,0.15,Slab,R,1,95,70,108,geonet,-40.2442,175.1672,-41.2333,174.9199,6104594.2,2694363.31,5995282,2670919,5.9,5.9,111.94,141.47,110.88,140.55,111.94,-13.83,0,86.69,83.93,nu,606B,B,800,Q3,<0.1,Q3,0,Q3,0,-99999,-99999,0,0.45,26,0.765,26,HarvardCMT,0.018281361,0.018550195,0.019092394,0.020929184,0.020805544,0.02689765,0.032545597,0.023064833,0.035197351,0.045986659,0.04889848,0.030686871,0.016444887,0.008178632,0.004425218,-99999,-99999,-99999,-99999,-99999,-99999,-99999,0.022042046,0.022387095,0.02323963,0.024125224,0.023986841,0.032972679,0.04320845,0.024904648,0.047421211,0.058612357,0.05550504,0.038468706,0.019881142,0.010471838,0.005995235,-99999,-99999,-99999,-99999,-99999,-99999,-99999,0.018079,0.022062,0.00858,0.011222
255338,1991-09-08T13:50:30.989999Z,D91642E7,5.61,0.15,Slab,R,1,95,70,108,geonet,-40.2442,175.1672,-41.2341,174.918,6104594.2,2694363.31,5995197,2670758,5.9,5.9,112.06,141.57,111,140.65,112.04,-13.98,0,86.69,83.93,nu,642E,C,350,Q1,0.35,Q2,50,Q3,0,-99999,-99999,0,0.5,12,0.85,12,HarvardCMT,0.049748886,0.049878609,0.050080675,0.050366612,0.050796814,0.052413587,0.05314443,0.071271323,0.113512511,0.127573749,0.142053685,0.13515191,0.051395443,0.022979404,0.011082817,-99999,-99999,-99999,-99999,-99999,-99999,-99999,0.060260161,0.060450732,0.06077428,0.061215401,0.061843322,0.063880924,0.062327241,0.091459663,0.142946306,0.160942463,0.191320761,0.158801697,0.053627425,0.027204126,0.012182851,-99999,-99999,-99999,-99999,-99999,-99999,-99999,0.049631,0.060112,0.028527,0.031818
255338,1991-09-08T13:50:30.989999Z,D91644C3,5.61,0.15,Slab,R,1,95,70,108,geonet,-40.2442,175.1672,-41.2187,174.8826,6104594.2,2694363.31,5996970,2667828,5.9,5.9,110.98,140.72,109.9,139.76,110.53,-17.05,0,86.69,83.93,nu,644C,D,189,Q3,2,Q3,250,Q3,0,-99999,-99999,0,0.35,15,0.595,15,HarvardCMT,0.022111356,0.022269754,0.022551872,0.022983682,0.023511407,0.028215008,0.03589237,0.043613896,0.056029318,0.045079496,0.057502335,0.068631653,0.040419495,0.018663251,0.009491672,0.005604075,-99999,-99999,-99999,-99999,-99999,-99999,0.025356887,0.025496942,0.02576096,0.026168323,0.026497384,0.03121689,0.042758789,0.046682273,0.06110132,0.049328146,0.068229574,0.082944041,0.047640849,0.022410474,0.012184787,0.006582451,-99999,-99999,-99999,-99999,-99999,-99999,0.022024,0.025364,0.012054,0.01511
255338,1991-09-08T13:50:30.989999Z,D91646A2,5.61,0.15,Slab,R,1,95,70,108,geonet,-40.2442,175.1672,-41.2574,174.9485,6104594.2,2694363.31,5992552,2673256,5.9,5.9,114.16,143.28,113.12,142.4,114.46,-11.26,0,86.69,83.93,nu,WDAS,E,120,Q1,1.6,Q2,62,Q2,0,-99999,-99999,0,0.35,18,0.595,18,HarvardCMT,0.051346471,0.051610298,0.052131975,0.053080262,0.054390451,0.060518284,0.068900851,0.082004586,0.080061008,0.118320978,0.148187257,0.100002251,0.065209887,0.036342715,0.026714528,0.012635147,-99999,-99999,-99999,-99999,-99999,-99999,0.055378953,0.0556635,0.056159088,0.056867,0.058524886,0.070977003,0.085863275,0.099488395,0.089486605,0.155070425,0.19542396,0.116211866,0.080063552,0.040659388,0.036403055,0.015665974,-99999,-99999,-99999,-99999,-99999,-99999,0.051233,0.055137,0.027295,0.029666
255338,1991-09-08T13:50:30.989999Z,D91705B3,5.61,0.15,Slab,R,1,95,70,108,geonet,-40.2442,175.1672,-41.1391,174.8502,6104594.2,2694363.31,6005867,2665298,5.9,5.9,103.03,134.58,101.9,133.49,101.89,-20.35,0,86.69,83.93,nu,707A,C,570,Q3,0.15,Q3,10,Q3,0,-99999,-99999,0,0.5,15,0.85,15,HarvardCMT,0.033753378,0.03405203,0.034529138,0.035317812,0.036491293,0.038800774,0.054759913,0.057658395,0.101449628,0.10670968,0.083181088,0.060216944,0.023543273,0.011469749,0.007259159,-99999,-99999,-99999,-99999,-99999,-99999,-99999,0.039236838,0.039437327,0.039753588,0.040415826,0.04133523,0.048225607,0.073575613,0.075072087,0.130127533,0.129528167,0.091248507,0.074055283,0.031847107,0.014404928,0.008421853,-99999,-99999,-99999,-99999,-99999,-99999,-99999,0.033595,0.039242,0.013553,0.018716
255338,1991-09-08T13:50:30.989999Z,D91706A2,5.61,0.15,Slab,R,1,95,70,108,geonet,-40.2442,175.1672,-41.1288,174.8382,6104594.2,2694363.31,6007032,2664315,5.9,5.9,102.2,133.93,101.05,132.82,100.81,-21.43,0,86.69,83.93,nu,706A,C,210,Q3,0.5,Q2,30,Q3,0,-99999,-99999,0,0.35,12,0.595,12,HarvardCMT,0.07497057,0.075363648,0.075976496,0.076878661,0.078356747,0.086027367,0.097235225,0.14532483,0.183949987,0.161405172,0.177617347,0.212349802,0.123298511,0.043582342,0.021547704,0.007833038,-99999,-99999,-99999,-99999,-99999,-99999,0.089343593,0.089763188,0.090424953,0.091385463,0.092720752,0.099288228,0.105853608,0.182881494,0.248170761,0.212120881,0.229534782,0.294342084,0.143617927,0.055432295,0.024739588,0.00933865,-99999,-99999,-99999,-99999,-99999,-99999,0.074799,0.089337,0.037786,0.048001
255338,1991-09-08T13:50:30.989999Z,D91900B7,5.61,0.15,Slab,R,1,95,70,108,geonet,-40.2442,175.1672,-41.2921,174.779,6104594.2,2694363.31,5989003,2658976,5.9,5.9,121.02,148.76,119.87,147.84,119.24,-25.18,0,86.69,83.93,nu,941A,D,272,Q2,0.85,Q2,9.85E+01,Q2,0,-99999,-99999,0,0.45,12,0.765,12,HarvardCMT,0.036027347,0.036157237,0.036360786,0.036651132,0.037034997,0.039373123,0.045329858,0.067330384,0.081659708,0.100734379,0.102462414,0.102870611,0.064195436,0.043739284,0.020147821,-99999,-99999,-99999,-99999,-99999,-99999,-99999,0.050788233,0.050973881,0.05130159,0.051763596,0.052378255,0.055652531,0.058750791,0.083807077,0.108121285,0.138292338,0.143648086,0.143889343,0.090781165,0.0600309,0.025721566,-99999,-99999,-99999,-99999,-99999,-99999,-99999,0.035998,0.05075,0.022835,0.030844
255338,1991-09-08T13:50:30.989999Z,D91918B7,5.61,0.15,Slab,R,1,95,70,108,geonet,-40.2442,175.1672,-41.284,174.7682,6104594.2,2694363.31,5989908,2658140,5.9,5.9,120.4,148.34,119.25,147.39,118.41,-26.09,0,86.69,83.93,nu,WEL,B,1000,Q3,0.3,Q1,0,Q2,0,-99999,-99999,0,0.5,18,0.85,18,HarvardCMT,0.041820894,0.042056729,0.042436014,0.043017232,0.044185487,0.04814982,0.056442728,0.075541641,0.108264387,0.149324301,0.098538236,0.055612495,0.022368668,0.00989992,0.005223059,-99999,-99999,-99999,-99999,-99999,-99999,-99999,0.057601992,0.057969778,0.058607851,0.059649508,0.061445067,0.067453351,0.076865555,0.092671822,0.151871759,0.199389138,0.136131522,0.070823109,0.024202774,0.013974886,0.007340158,-99999,-99999,-99999,-99999,-99999,-99999,-99999,0.041816,0.05761,0.016822,0.023348
255338,1991-09-08T13:50:30.989999Z,D91935B3,5.61,0.15,Slab,R,1,95,70,108,geonet,-40.2442,175.1672,-41.2108,174.9047,6104594.2,2694363.31,5997808,2669699,5.9,5.9,109.73,139.74,108.66,138.78,109.53,-15.26,0,86.69,83.93,nu,935A,D,240,Q3,1.2,Q3,275,Q3,0,-99999,-99999,1,0.45,15,0.765,15,HarvardCMT,0.035514036,0.03560669,0.035756055,0.035980488,0.036273114,0.04323829,0.054227508,0.052257745,0.081138135,0.118646982,0.118952219,0.095624856,0.053669281,0.020327343,0.01141718,-99999,-99999,-99999,-99999,-99999,-99999,-99999,0.050143515,0.050271824,0.050440362,0.050636107,0.050885713,0.056072673,0.075681131,0.073599519,0.114394957,0.165664635,0.166087967,0.133582446,0.065271788,0.023767619,0.012938642,-99999,-99999,-99999,-99999,-99999,-99999,-99999,0.035455,0.050141,0.022492,0.028499
255338,1991-09-08T13:50:30.989999Z,K91102A3,5.61,0.15,Slab,R,1,95,70,108,geonet,-40.2442,175.1672,-39.4637,175.5669,6104594.2,2694363.31,6190285,2730871,5.9,5.9,93.25,127.72,91.95,125.06,-87.54,28.9,0,86.69,83.93,nu,102A,C,555,Q3,0.15,Q3,12,Q3,0,-99999,-99999,1,0.5,18,0.85,18,HarvardCMT,0.045304393,0.045952093,0.046893923,0.048513161,0.050864394,0.06395771,0.09424134,0.140744471,0.123744005,0.103414371,0.074980968,0.044864879,0.026791851,0.018923687,0.011816658,-99999,-99999,-99999,-99999,-99999,-99999,-99999,0.051815089,0.052714506,0.054229302,0.056873295,0.061154574,0.084156698,0.13257464,0.146518981,0.148710182,0.124398457,0.083917848,0.060185419,0.029446643,0.02399197,0.015454714,-99999,-99999,-99999,-99999,-99999,-99999,-99999,0.044941,0.051243,0.015324,0.0173
314805,1992-03-30T07:02:51.226999Z,D92505A1,5.5,0.15,Crustal,R,1,205,76,77,nlloc,-43.0605,171.212,-42.9489,171.5677,5792540.97,2364375.65,5805487,2393135,5.17,5.17,31.47,32.08,29.52,30.01,-19.97,-23.89,0,5.12,2.61,nu,APPS,C,300,Q2,0.4,Q1,30,Q2,0,-99999,-99999,0,0.6,20,1.02,20,HarvardCMT,0.026713727,0.027073703,0.027802263,0.029407778,0.035730629,0.043490712,0.048740751,0.084226898,0.063804648,0.05685357,0.068112702,0.066094927,0.034985194,0.016250781,-99999,-99999,-99999,-99999,-99999,-99999,-99999,-99999,0.031052314,0.031196508,0.031446978,0.031968473,0.038907558,0.047953537,0.052574883,0.093441617,0.076935276,0.070288964,0.078232349,0.084474901,0.043423728,0.017855392,-99999,-99999,-99999,-99999,-99999,-99999,-99999,-99999,0.026526,0.031057,0.016402,0.018266
339342,1992-05-27T22:30:35.064000Z,D92129A2,5.9,0.08,Slab,S,1,117,85,21,special,-41.63,173.62,-41.7999,172.328,5952812.98,2561652.09,5933893,2454147,8.2,8.2,108.89,128.17,105.65,124.79,66.02,-87.2,0,67,62.92,nu,MCAS,D,501,Q3,1.6,Q3,200,Q3,0,-99999,-99999,0,0.23,19,0.391,19,Webb_Anderson_1998&Dowrick_Rhoades1998&HarvardCMT,0.028696281,0.029142731,0.029889698,0.030891809,0.032817063,0.045588749,0.051073008,0.054302783,0.061810405,0.049156452,0.062031618,0.052207367,0.041321233,0.034411185,0.01823795,0.010134311,0.007406573,-99999,-99999,-99999,-99999,-99999,0.032361734,0.032646194,0.033118173,0.033875787,0.036325562,0.049135022,0.055207708,0.05951908,0.069186888,0.056620466,0.070344189,0.057806424,0.051738381,0.039137812,0.021637978,0.012576917,0.010003504,-99999,-99999,-99999,-99999,-99999,0.028644,0.032355,0.016475,0.019402
339342,1992-05-27T22:30:35.064000Z,D92467A3,5.9,0.08,Slab,S,1,117,85,21,special,-41.63,173.62,-41.2425,174.9024,5952812.98,2561652.09,5994293,2669430,8.2,8.2,115.26,133.52,112.56,130.25,-85.53,77.2,0,67,62.92,nu,467A,D,218,Q3,1.5,Q3,200,Q3,0,-99999,-99999,0,0.35,14,0.595,14,Webb_Anderson_1998&Dowrick_Rhoades1998&HarvardCMT,0.031672224,0.031812258,0.032009041,0.03234664,0.032942076,0.040322587,0.039765438,0.042592714,0.055746454,0.075207219,0.046076907,0.07834461,0.071829822,0.020429908,0.016061599,0.010571682,-99999,-99999,-99999,-99999,-99999,-99999,0.034832326,0.035011237,0.035313453,0.035813317,0.036611498,0.051029318,0.048148831,0.048631573,0.059156925,0.079399972,0.052674307,0.087041715,0.082131067,0.025613581,0.018548319,0.011743472,-99999,-99999,-99999,-99999,-99999,-99999,0.031627,0.034838,0.01937,0.02218
339342,1992-05-27T22:30:35.064000Z,D92468A6,5.9,0.08,Slab,S,1,117,85,21,special,-41.63,173.62,-41.2011,174.9547,5952812.98,2561652.09,5998793,2673916,8.2,8.2,121.08,138.59,118.45,135.4,-91.58,79.15,0,67,62.92,nu,468A,D,190,Q1,0.9,Q3,50,Q3,0,-99999,-99999,0,0.4,19,0.68,19,Webb_Anderson_1998&Dowrick_Rhoades1998&HarvardCMT,0.030551048,0.030774204,0.031076229,0.031400063,0.031925,0.035053521,0.045245962,0.065762626,0.062710113,0.069637142,0.066504935,0.083481691,0.046502714,0.024411179,0.021615068,-99999,-99999,-99999,-99999,-99999,-99999,-99999,0.035653622,0.035884944,0.036253834,0.03675295,0.037102503,0.042590077,0.048427155,0.074271369,0.068109791,0.083248566,0.079801467,0.095040377,0.056759388,0.030517841,0.024504652,-99999,-99999,-99999,-99999,-99999,-99999,-99999,0.030491,0.035661,0.016906,0.020622
339342,1992-05-27T22:30:35.064000Z,D92644C3,5.9,0.08,Slab,S,1,117,85,21,special,-41.63,173.62,-41.2187,174.8826,5952812.98,2561652.09,5996970,2667828,8.2,8.2,114.77,133.09,112.16,129.87,-87.19,74.56,0,67,62.92,nu,644C,D,189,Q3,2,Q3,250,Q3,0,-99999,-99999,0,0.25,12,0.425,12,Webb_Anderson_1998&Dowrick_Rhoades1998&HarvardCMT,0.021865809,0.021974126,0.022175785,0.02239936,0.022699402,0.025610145,0.039152632,0.042000121,0.040837317,0.054718821,0.044124586,0.061736749,0.061626096,0.020485134,0.009669774,0.005443865,0.004254442,-99999,-99999,-99999,-99999,-99999,0.025548703,0.025696175,0.025945819,0.026344535,0.026920276,0.031298398,0.045478717,0.052956217,0.048268148,0.075465581,0.062389795,0.075645756,0.072181948,0.026616147,0.012031695,0.006806602,0.005486611,-99999,-99999,-99999,-99999,-99999,0.021789,0.025551,0.015829,0.019203
339342,1992-05-27T22:30:35.064000Z,D92646A5,5.9,0.08,Slab,S,1,117,85,21,special,-41.63,173.62,-41.2574,174.9485,5952812.98,2561652.09,5992552,2673256,8.2,8.2,118.23,136.15,115.45,132.85,-85.72,81.4,0,67,62.92,nu,WDAS,E,120,Q1,1.6,Q2,62,Q2,0,-99999,-99999,0,0.5,16,0.85,16,Webb_Anderson_1998&Dowrick_Rhoades1998&HarvardCMT,0.027545435,0.027764263,0.028080481,0.028658055,0.029385806,0.036157397,0.034532991,0.03713553,0.042550047,0.054086438,0.09168481,0.045235821,0.056329163,0.033917459,0.04219401,-99999,-99999,-99999,-99999,-99999,-99999,-99999,0.031841756,0.032009562,0.032276982,0.032745561,0.033578544,0.042185041,0.041855866,0.046252378,0.045957562,0.065832995,0.101491945,0.056294475,0.066949864,0.039379741,0.056540603,-99999,-99999,-99999,-99999,-99999,-99999,-99999,0.027296,0.031602,0.020955,0.023387
339342,1992-05-27T22:30:35.064000Z,D92647A1,5.9,0.08,Slab,S,1,117,85,21,special,-41.63,173.62,-41.2871,174.778,5952812.98,2561652.09,5989560,2658904,8.2,8.2,103.76,123.68,101.04,120.35,-76.54,69.97,0,67,62.92,nu,647A,C,474,Q2,0.12,Q2,5.70E+00,Q2,0,-99999,-99999,0,0.4,19,0.68,19,Webb_Anderson_1998&Dowrick_Rhoades1998&HarvardCMT,0.019854414,0.020092479,0.020602856,0.021419061,0.022832007,0.026026515,0.036225523,0.041491609,0.039052775,0.043211873,0.047304439,0.051079642,0.026175579,0.009052722,0.007792264,-99999,-99999,-99999,-99999,-99999,-99999,-99999,0.024827609,0.025027638,0.025362787,0.025884895,0.026478978,0.03460637,0.046107805,0.056785968,0.048188356,0.059593972,0.052512468,0.063093682,0.037016537,0.012660312,0.010435121,-99999,-99999,-99999,-99999,-99999,-99999,-99999,0.01987,0.024677,0.010584,0.014771
339342,1992-05-27T22:30:35.064000Z,D92706A2,5.9,0.08,Slab,S,1,117,85,21,special,-41.63,173.62,-41.1288,174.8382,5952812.98,2561652.09,6007032,2664315,8.2,8.2,115.91,134.05,113.6,131,-94.56,66.86,0,67,62.92,nu,706A,C,210,Q3,0.5,Q2,30,Q3,0,-99999,-99999,0,0.45,12,0.765,12,Webb_Anderson_1998&Dowrick_Rhoades1998&HarvardCMT,0.030395403,0.030617918,0.030973616,0.031375197,0.03203315,0.033830039,0.042626219,0.057268099,0.067697943,0.099537385,0.065578016,0.063797236,0.042910394,0.026219795,0.015878757,-99999,-99999,-99999,-99999,-99999,-99999,-99999,0.033415836,0.033678034,0.034101546,0.034731078,0.035617897,0.040276979,0.048207786,0.063559443,0.083336792,0.129450902,0.080555019,0.079761273,0.047761147,0.031132974,0.021741079,-99999,-99999,-99999,-99999,-99999,-99999,-99999,0.030306,0.033412,0.017727,0.019672
