CuspID,Origin_time,Record,Mw,MwUncert,TectClass,Mech,PreferredFaultPlane,Strike,Dip,Rake,Location,HypLat,HypLon,StationLat,StationLon,HypN,HypE,StationN,StationE,LENGTH_km,WIDTH_km,Repi_km,Rhyp_km,Rjb_km,Rrup_km,Rx_km,Ry_km,Rvol_km,HypDepth_km,ZTOR_km,HWFW,SiteCode,SiteClass1170,Vs30,Vs30Uncert,Tsite,TsiteUncert,Z1,Z1Uncertainty,Directivity,Pulse_or,Pulse_T,S_Trigger_Flag,fcButterHP,f_iniLP,fmin,fmax,References,f100.0000SA_LHC,f50.0000SA_LHC,f33.3333SA_LHC,f25.0000SA_LHC,f20.0000SA_LHC,f13.3333SA_LHC,f10.0000SA_LHC,f6.6667SA_LHC,f5.0000SA_LHC,f4.0000SA_LHC,f3.3333SA_LHC,f2.5000SA_LHC,f2.0000SA_LHC,f1.3333SA_LHC,f1.0000SA_LHC,f0.6667SA_LHC,f0.5000SA_LHC,f0.3333SA_LHC,f0.2500SA_LHC,f0.2000SA_LHC,f0.1333SA_LHC,f0.1000SA_LHC,PGA_LHC,PGV_LHC
722185,1995-03-22T19:43:30.268000Z,D5643B07,5.83,0.15,Slab,S,0,27,64,30,nlloc,-41.0514,174.216,-41.1513,174.9794,6016538.56,2612205.51,6004275,2676112,7.6,7.6,64.92,107.53,62.09,104.88,-99999,-99999,0,85.51,82.13,nu,643B,B,1000,Q3,<0.1,Q3,1.50E+00,Q3,0,-99999,-99999,0,0.3,30,0.51,30,HarvardCMT,0.050760006,0.051304398,0.055919439,0.058801075,0.072553284,0.098833614,0.119743393,0.282975723,0.123293868,0.096292514,0.062649455,0.043579174,0.022504333,0.012444716,0.006186464,0.004246428,-99999,-99999,-99999,-99999,-99999,-99999,0.050744,0.01635
722185,1995-03-22T19:43:30.268000Z,D5646A05,5.83,0.15,Slab,S,0,27,64,30,nlloc,-41.0514,174.216,-41.2574,174.9485,6016538.56,2612205.51,5992552,2673256,7.6,7.6,65.46,107.84,62.76,105.2,-99999,-99999,0,85.51,82.13,nu,WDAS,E,120,Q1,1.6,Q2,62,Q2,0,-99999,-99999,0,0.25,19,0.425,19,HarvardCMT,0.060462205,0.061053798,0.06204959,0.063567196,0.065166457,0.085062035,0.075310496,0.135126867,0.158565137,0.130539073,0.129009314,0.104410717,0.104779948,0.108159938,0.06024039,0.035909666,0.011538667,-99999,-99999,-99999,-99999,-99999,0.060245,0.04304
722185,1995-03-22T19:43:30.268000Z,D5647D02,5.83,0.15,Slab,S,0,27,64,30,nlloc,-41.0514,174.216,-41.2875,174.7769,6016538.56,2612205.51,5989514,2658817,7.6,7.6,53.8,101.07,51.16,98.26,-99999,-99999,0,85.51,82.13,nu,647D,D,474,Q2,0.12,Q2,5.70E+00,Q2,0,-99999,-99999,0,0.3,18,0.51,18,HarvardCMT,0.046656325,0.046871665,0.047369483,0.048433046,0.051504311,0.079062676,0.085619592,0.132387139,0.224860751,0.108719259,0.114213287,0.117748778,0.04886712,0.024151785,0.013454161,0.00824782,-99999,-99999,-99999,-99999,-99999,-99999,0.046524,0.02226
722185,1995-03-22T19:43:30.268000Z,D5648A03,5.83,0.15,Slab,S,0,27,64,30,nlloc,-41.0514,174.216,-41.2775,174.7735,6016538.56,2612205.51,5990634,2658549,7.6,7.6,53.01,109.27,50.36,106.39,-99999,-99999,0,85.51,82.13,nu,921A,C,330,Q3,0.5,Q3,38,Q3,0,-99999,-99999,0,0.35,32,0.595,32,HarvardCMT,0.058853104,0.060001833,0.067062031,0.09553654,0.085700842,0.100033721,0.138069644,0.230153899,0.20946596,0.156096698,0.166278085,0.121546797,0.079034572,0.033248441,0.018479484,0.009417187,-99999,-99999,-99999,-99999,-99999,-99999,0.058838,0.02755
722185,1995-03-22T19:43:30.268000Z,D5707A02,5.83,0.15,Slab,S,0,27,64,30,nlloc,-41.0514,174.216,-41.1391,174.8502,6016538.56,2612205.51,6005867,2665298,7.6,7.6,54.03,101.23,51.21,98.48,-99999,-99999,0,85.51,82.13,nu,707A,C,570,Q3,0.15,Q3,10,Q3,0,-99999,-99999,0,0.25,20,0.425,20,HarvardCMT,0.036877949,0.037717209,0.039188987,0.041325581,0.052774998,0.086302267,0.117279418,0.118543237,0.040842076,0.050676872,0.036281938,0.037378366,0.022376686,0.016169844,0.008844916,0.006815823,0.004283306,-99999,-99999,-99999,-99999,-99999,0.036279,0.01102
722185,1995-03-22T19:43:30.268000Z,D5900C02,5.83,0.15,Slab,S,0,27,64,30,nlloc,-41.0514,174.216,-41.2891,174.7799,6016538.56,2612205.51,5989335,2659058,7.6,7.6,54.09,101.23,51.45,98.43,-99999,-99999,0,85.51,82.13,nu,900C,D,250,Q3,0.8,Q3,60,Q3,0,-99999,-99999,0,0.3,15,0.51,15,HarvardCMT,0.067847465,0.068148113,0.068646211,0.069338011,0.070246368,0.090032999,0.105442982,0.164458655,0.244487936,0.268482759,0.178828016,0.182426594,0.070409816,0.044107948,0.017835159,0.007842077,-99999,-99999,-99999,-99999,-99999,-99999,0.067452,0.03001
722185,1995-03-22T19:43:30.268000Z,D5935C03,5.83,0.15,Slab,S,0,27,64,30,nlloc,-41.0514,174.216,-41.2108,174.9047,6016538.56,2612205.51,5997808,2669699,7.6,7.6,60.34,104.73,57.6,102.04,-99999,-99999,0,85.51,82.13,nu,935A,D,240,Q3,1.2,Q3,275,Q3,0,-99999,-99999,0,0.25,24.5,0.425,24.5,HarvardCMT,0.042306314,0.042785652,0.043656851,0.047809355,0.045789727,0.064305777,0.073454518,0.084785553,0.10245017,0.095443742,0.125137635,0.132199261,0.092702525,0.02846045,0.028345648,0.015894227,0.007234816,-99999,-99999,-99999,-99999,-99999,0.042294,0.02506
722185,1995-03-22T19:43:30.268000Z,I5027F03,5.83,0.15,Slab,S,0,27,64,30,nlloc,-41.0514,174.216,-39.4884,176.9189,6016538.56,2612205.51,6183307,2847012,7.6,7.6,287.72,300.43,284.58,297.6,-99999,-99999,0,85.51,82.13,nu,NAMS,C,268,Q3,0.4,Q3,20,Q3,0,-99999,-99999,1,0.5,21,0.85,21,HarvardCMT,0.00753985,0.007592707,0.007690161,0.007863896,0.008094249,0.009063333,0.010962468,0.013998589,0.01608875,0.01615342,0.02617321,0.040230631,0.018692825,0.006132059,0.002693834,-99999,-99999,-99999,-99999,-99999,-99999,-99999,0.007526,0.004927
722185,1995-03-22T19:43:30.268000Z,I5467A07,5.83,0.15,Slab,S,0,27,64,30,nlloc,-41.0514,174.216,-41.2425,174.9024,6016538.56,2612205.51,5994293,2669430,7.6,7.6,61.27,105.27,58.57,102.59,-99999,-99999,0,85.51,82.13,nu,467A,D,218,Q3,1.5,Q3,200,Q3,0,-99999,-99999,0,0.19,28,0.323,28,HarvardCMT,0.041645726,0.042055156,0.042680969,0.043647374,0.049078967,0.053921331,0.071637975,0.123185446,0.15890011,0.068090548,0.046061952,0.065428185,0.078440792,0.059587685,0.028642374,0.029329248,0.008727496,0.002303478,-99999,-99999,-99999,-99999,0.041121,0.02203
722185,1995-03-22T19:43:30.268000Z,I5468A06,5.83,0.15,Slab,S,0,27,64,30,nlloc,-41.0514,174.216,-41.2011,174.9547,6016538.56,2612205.51,5998793,2673916,7.6,7.6,64.07,106.94,61.31,104.29,-99999,-99999,0,85.51,82.13,nu,468A,D,190,Q1,0.9,Q3,50,Q3,0,-99999,-99999,0,0.25,24,0.425,24,HarvardCMT,0.07144656,0.072014223,0.072971606,0.075847434,0.083431415,0.124592161,0.135705457,0.252653595,0.251802516,0.155586624,0.128178793,0.147688889,0.131707709,0.073524509,0.080909965,0.014269869,0.0065283,-99999,-99999,-99999,-99999,-99999,0.071386,0.03261
722185,1995-03-22T19:43:30.268000Z,I5602C01,5.83,0.15,Slab,S,0,27,64,30,nlloc,-41.0514,174.216,-41.1903,174.928,6016538.56,2612205.51,6000041,2671703,7.6,7.6,61.61,105.49,58.84,102.81,-99999,-99999,0,85.51,82.13,nu,602C,B,1000,Q3,<0.1,Q3,0,Q3,0,-99999,-99999,0,0.2,45,0.34,45,HarvardCMT,0.021288435,0.021777022,0.022922445,0.025821397,0.023910541,0.061308381,0.063397997,0.041558511,0.056730921,0.042747123,0.045087318,0.026231626,0.020878211,0.011489445,0.011568934,0.006228343,0.00507825,-99999,-99999,-99999,-99999,-99999,0.021131,0.01088
722185,1995-03-22T19:43:30.268000Z,I5603B03,5.83,0.15,Slab,S,0,27,64,30,nlloc,-41.0514,174.216,-41.2237,174.86,6016538.56,2612205.51,5996453,2665923,7.6,7.6,57.23,102.97,54.52,100.24,-99999,-99999,0,85.51,82.13,nu,603B,B,1000,Q3,<0.1,Q3,0,Q3,0,-99999,-99999,0,0.25,30,0.425,30,HarvardCMT,0.019500881,0.019738521,0.020554491,0.021240078,0.025619254,0.031753778,0.044606183,0.077888415,0.050776262,0.027743721,0.025198194,0.028775466,0.023394452,0.012154265,0.010679972,0.007223509,0.005508518,-99999,-99999,-99999,-99999,-99999,0.01949,0.009656
722185,1995-03-22T19:43:30.268000Z,I5605B05,5.83,0.15,Slab,S,0,27,64,30,nlloc,-41.0514,174.216,-41.2074,174.9401,6016538.56,2612205.51,5998119,2672679,7.6,7.6,63.08,106.39,60.33,103.72,-99999,-99999,0,85.51,82.13,nu,FAIS,B,760,Q3,0.27,Q1,0,Q2,0,-99999,-99999,0,0.15,32,0.255,32,HarvardCMT,0.037407651,0.037792104,0.038380108,0.04046981,0.045375067,0.057950494,0.0605824,0.108821249,0.102449061,0.089993146,0.059423675,0.059149568,0.043355091,0.01317454,0.007832178,0.00403187,0.003125471,0.001398552,-99999,-99999,-99999,-99999,0.037401,0.01933
722185,1995-03-22T19:43:30.268000Z,I5606B07,5.83,0.15,Slab,S,0,27,64,30,nlloc,-41.0514,174.216,-41.2333,174.9199,6016538.56,2612205.51,5995282,2670919,7.6,7.6,62.31,105.88,59.59,103.21,-99999,-99999,0,85.51,82.13,nu,606B,B,800,Q3,<0.1,Q3,0,Q3,0,-99999,-99999,0,0.25,35,0.425,35,HarvardCMT,0.037296383,0.039064316,0.040504752,0.044056176,0.059877793,0.076434048,0.076227445,0.122966544,0.091763727,0.044075948,0.043068556,0.029340759,0.020905692,0.010333786,0.005174366,0.003375189,0.002395737,-99999,-99999,-99999,-99999,-99999,0.035739,0.008254
722185,1995-03-22T19:43:30.268000Z,I5642G18,5.83,0.15,Slab,S,0,27,64,30,nlloc,-41.0514,174.216,-41.235,174.9172,6016538.56,2612205.51,5995098,2670688,7.6,7.6,62.16,105.8,59.44,103.12,-99999,-99999,0,85.51,82.13,nu,642G,C,350,Q1,0.35,Q2,50,Q3,0,-99999,-99999,0,0.25,35,0.425,35,HarvardCMT,0.083146059,0.08458574,0.086954021,0.088509639,0.107148821,0.125825903,0.154216951,0.281466013,0.179324634,0.139109386,0.087223545,0.077516267,0.050955231,0.020547207,0.006998536,0.003744653,0.003032735,-99999,-99999,-99999,-99999,-99999,0.082589,0.02297
722185,1995-03-22T19:43:30.268000Z,I5642H18,5.83,0.15,Slab,S,0,27,64,30,nlloc,-41.0514,174.216,-41.235,174.9172,6016538.56,2612205.51,5995098,2670688,7.6,7.6,62.16,105.8,59.44,103.12,-99999,-99999,0,85.51,82.13,nu,642H,C,350,Q1,0.35,Q2,50,Q3,0,-99999,-99999,0,0.25,35,0.425,35,HarvardCMT,0.0662993,0.06748469,0.070014237,0.072894334,0.081100321,0.092595921,0.128677046,0.227449135,0.179490479,0.203322507,0.124469534,0.088720537,0.058187806,0.019845881,0.008572329,0.003986804,0.00314307,-99999,-99999,-99999,-99999,-99999,0.065759,0.02262
722185,1995-03-22T19:43:30.268000Z,I5708A04,5.83,0.15,Slab,S,0,27,64,30,nlloc,-41.0514,174.216,-41.1314,174.8391,6016538.56,2612205.51,6006740,2664387,7.6,7.6,52.97,100.66,50.14,97.89,-99999,-99999,0,85.51,82.13,nu,POLS,C,250,Q2,0.4,Q1,25,Q2,0,-99999,-99999,0,0.15,30,0.255,30,HarvardCMT,0.043508652,0.043812043,0.045931813,0.051603925,0.05388719,0.075810968,0.0943159,0.117998126,0.085232895,0.087853676,0.122053771,0.139419956,0.050710741,0.024440257,0.013739681,0.007805416,0.004975205,0.001707419,-99999,-99999,-99999,-99999,0.043211,0.02341
722185,1995-03-22T19:43:30.268000Z,I5711A01,5.83,0.15,Slab,S,0,27,64,30,nlloc,-41.0514,174.216,-41.2294,174.9042,6016538.56,2612205.51,5995739,2669619,7.6,7.6,60.94,105.08,58.22,102.39,-99999,-99999,0,85.51,82.13,nu,LRSS,D,230,Q3,1.4,Q3,175,Q3,0,-99999,-99999,0,0.25,24.5,0.425,24.5,HarvardCMT,0.055797869,0.056387799,0.057342412,0.057774399,0.061535315,0.093083944,0.109392224,0.129301657,0.075526455,0.136291894,0.149936577,0.125952231,0.115372734,0.043926448,0.024087446,0.01844952,0.010366171,-99999,-99999,-99999,-99999,-99999,0.055148,0.03576
722185,1995-03-22T19:43:30.268000Z,I5918B08,5.83,0.15,Slab,S,0,27,64,30,nlloc,-41.0514,174.216,-41.284,174.7682,6016538.56,2612205.51,5989908,2658140,7.6,7.6,52.97,100.77,50.33,97.95,-99999,-99999,0,85.51,82.13,nu,WEL,B,1000,Q3,0.3,Q1,0,Q2,0,-99999,-99999,0,0.25,24.5,0.425,24.5,HarvardCMT,0.074197944,0.075143942,0.076668886,0.078168637,0.082292024,0.100321434,0.113482784,0.353360482,0.238226156,0.165660635,0.109596838,0.066778038,0.048840834,0.017207179,0.013374324,0.008288265,0.007320667,-99999,-99999,-99999,-99999,-99999,0.074169,0.02537
722185,1995-03-22T19:43:30.268000Z,I5926A03,5.83,0.15,Slab,S,0,27,64,30,nlloc,-41.0514,174.216,-39.4883,176.9169,6016538.56,2612205.51,6183331,2846839,7.6,7.6,287.59,300.32,284.45,297.49,-99999,-99999,0,85.51,82.13,nu,926A,C,651,Q3,0.07,Q3,5,Q3,0,-99999,-99999,1,0.35,15,0.595,15,HarvardCMT,0.004434373,0.004449795,0.004475651,0.004512266,0.004669348,0.005222379,0.007952212,0.010048366,0.012141708,0.010360515,0.015042064,0.022703024,0.011071898,0.003505703,0.002401221,0.000964528,-99999,-99999,-99999,-99999,-99999,-99999,0.00443,0.002964
722185,1995-03-22T19:43:30.268000Z,K5046A01,5.83,0.15,Slab,S,0,27,64,30,nlloc,-41.0514,174.216,-41.2709,173.2837,6016538.56,2612205.51,5992838,2533754,7.6,7.6,81.77,118.44,78.66,114.68,-99999,-99999,0,85.51,82.13,nu,NCBS,D,210,Q3,0.7,Q2,50,Q3,0,-99999,-99999,1,0.7,14,1.19,14,HarvardCMT,0.043179011,0.043377836,0.043675297,0.044125587,0.044732327,0.04707771,0.055431064,0.097818646,0.093669691,0.148440986,0.135468529,0.083758784,0.069592402,0.038471747,-99999,-99999,-99999,-99999,-99999,-99999,-99999,-99999,0.04317,0.02287
722185,1995-03-22T19:43:30.268000Z,K5087A01,5.83,0.15,Slab,S,0,27,64,30,nlloc,-41.0514,174.216,-39.7163,175.1455,6016538.56,2612205.51,6163232,2693941,7.6,7.6,168.04,188.46,165.17,186.14,-99999,-99999,0,85.51,82.13,nu,087A,B,1000,Q3,<0.1,Q3,0,Q2,0,-99999,-99999,1,0.5,20,0.85,20,HarvardCMT,0.066062436,0.066670924,0.067882366,0.070473029,0.07675589,0.090699963,0.197009873,0.153660973,0.238784634,0.156158642,0.124708915,0.201039515,0.077694912,0.029509731,0.031334159,-99999,-99999,-99999,-99999,-99999,-99999,-99999,0.065841,0.03002
722185,1995-03-22T19:43:30.268000Z,K5087C01,5.83,0.15,Slab,S,0,27,64,30,nlloc,-41.0514,174.216,-39.7171,175.1382,6016538.56,2612205.51,6163158,2693314,7.6,7.6,167.67,188.13,164.8,185.82,-99999,-99999,0,85.51,82.13,nu,087C,C,425,Q3,0.33,Q3,30,Q3,0,-99999,-99999,1,0.7,14,1.19,14,HarvardCMT,0.070013871,0.070353838,0.070944672,0.071853038,0.073273892,0.084754329,0.100722792,0.193498598,0.259410071,0.269361306,0.226181739,0.230936033,0.219202954,0.064906841,-99999,-99999,-99999,-99999,-99999,-99999,-99999,-99999,0.069602,0.04301
722185,1995-03-22T19:43:30.268000Z,K5608A01,5.83,0.15,Slab,S,0,27,64,30,nlloc,-41.0514,174.216,-41.2241,174.8794,6016538.56,2612205.51,5996377,2667546,7.6,7.6,58.78,103.83,56.06,101.12,-99999,-99999,0,85.51,82.13,nu,608A,D,200,Q2,2,Q2,250,Q3,0,-99999,-99999,1,0.4,11,0.68,11,HarvardCMT,0.035096006,0.035272626,0.035565697,0.035992484,0.036605186,0.039207224,0.044911916,0.07311375,0.066515584,0.045766936,0.045212988,0.088346244,0.119748022,0.052010791,0.024950867,-99999,-99999,-99999,-99999,-99999,-99999,-99999,0.034934,0.02848
771645,1995-11-24T06:18:56.622999Z,D5505A37,6.19,0.08,Crustal,O,1,176,46,44,geonet,-42.953,171.8188,-42.9489,171.5677,5805359.34,2413627.76,5805487,2393135,11.44,11.44,20.44,22,18.34,21,22.52,-1.56,0,7.26,5.1,hw,APPS,C,300,Q2,0.4,Q1,30,Q2,0,-99999,-99999,0,0.29,20,0.493,20,Gledhill_etal_2000,0.148436369,0.150605962,0.154376324,0.160213698,0.180745752,0.278593946,0.377901762,0.414958677,0.649688084,0.35420749,0.260058246,0.305245022,0.24445034,0.140730834,0.064503301,0.023523786,0.012021418,-99999,-99999,-99999,-99999,-99999,0.147248,0.06788
771645,1995-11-24T06:18:56.622999Z,D6051D01,6.19,0.08,Crustal,O,1,176,46,44,geonet,-42.953,171.8188,-41.7557,171.5998,5805359.34,2413627.76,5938069,2393545,11.44,11.44,134.35,134.42,128.36,128.45,12.86,-133.79,0,7.26,5.1,nu,WBCS,D,300,Q3,1.2,Q2,105,Q3,0,-99999,-99999,0,0.2,20,0.34,20,Gledhill_etal_2000,0.020996683,0.021215428,0.021557519,0.022110553,0.02263686,0.033823582,0.030909908,0.047523371,0.04739301,0.043269603,0.047716099,0.04105972,0.050666275,0.039354353,0.049105041,0.019239894,0.009495047,-99999,-99999,-99999,-99999,-99999,0.020999,0.01661
771645,1995-11-24T06:18:56.622999Z,D6129A01,6.19,0.08,Crustal,O,1,176,46,44,geonet,-42.953,171.8188,-41.7999,172.328,5805359.34,2413627.76,5933893,2454147,11.44,11.44,134.87,134.97,129.24,129.34,-47.3,-125.39,0,7.26,5.1,nu,MCAS,D,501,Q3,1.6,Q3,200,Q3,0,-99999,-99999,1,0.2,10,0.34,10,Gledhill_etal_2000,0.020544948,0.020572645,0.02066382,0.020737509,0.020865223,0.021341362,0.024371894,0.032197699,0.036714552,0.042115797,0.04970242,0.060045827,0.049491998,0.04388635,0.053074437,0.038054926,0.019460249,-99999,-99999,-99999,-99999,-99999,0.02054,0.03257
771645,1995-11-24T06:18:56.622999Z,K5112B01,6.19,0.08,Crustal,O,1,176,46,44,geonet,-42.953,171.8188,-43.1325,171.7693,5805359.34,2413627.76,5785358,2409884,11.44,11.44,20.36,21.83,14.58,16.61,7.21,19.69,0,7.26,5.1,nu,112B,C,667,Q3,0.36,Q3,60,Q3,0,-99999,-99999,1,0.25,20,0.425,20,Gledhill_etal_2000,0.134331405,0.136485947,0.140637071,0.149270483,0.189724411,0.276150876,0.436886006,0.427007399,0.416253317,0.527857802,0.291844302,0.163981279,0.169221214,0.059592352,0.036921956,0.047340842,0.021389948,-99999,-99999,-99999,-99999,-99999,0.134414,0.06791
1037562,1996-08-29T04:47:00.878000Z,D6042A01,5.25,0.15,Crustal,S,0,317,67,-2.00E+01,geonet,-42.4891,172.7921,-42.5232,172.8305,5857551.8,2492912.82,5853765,2496076,3.9,3.9,4.93,10.98,3.66,9.43,-99999,-99999,0,9.43,7.61,nu,HSES,D,280,Q3,0.9,Q1,85,Q3,0,-99999,-99999,0,0.2,18,0.34,18,HarvardCMT,0.232832485,0.235269122,0.239488084,0.246537866,0.260953609,0.284435166,0.351282396,0.453364778,0.444074915,0.471941111,0.532030829,0.55486257,0.448909612,0.447998057,0.492478637,0.18920977,0.086805355,-99999,-99999,-99999,-99999,-99999,0.232742,0.25374
1348340,1999-01-03T07:00:20.568000Z,D9131A03,5.22,0.15,Slab,N,1,211,80,-8.30E+01,nlloc,-41.0938,174.519,-40.9143,175.005,6011432.3,2637591.18,6030534,2678862,3.7,3.7,45.4,72.68,43.85,70.85,-25.21,-37.63,0,56.68,54.84,nu,PAPS,D,200,Q3,1.4,Q1,100,Q3,0,-99999,-99999,0,0.4,15,0.68,15,HarvardCMT,0.024157506,0.024405221,0.024819928,0.025563358,0.02669475,0.043143698,0.060218431,0.109736527,0.085561853,0.055383313,0.036248704,0.03562905,0.026711588,0.02046758,0.016156358,-99999,-99999,-99999,-99999,-99999,-99999,-99999,0.024149,0.0126
1348340,1999-01-03T07:00:20.568000Z,D9469A01,5.22,0.15,Slab,N,1,211,80,-8.30E+01,nlloc,-41.0938,174.519,-41.2117,174.9033,6011432.3,2637591.18,5997711,2669586,3.7,3.7,34.75,66.53,34.35,64.79,-34.17,-4.72,0,56.68,54.84,nu,LHES,D,240,Q3,1.16,Q3,280,Q3,0,-99999,-99999,0,0.35,12.5,0.595,12.5,HarvardCMT,0.025422772,0.025498416,0.025614966,0.025822579,0.026145443,0.027645668,0.027882002,0.041746981,0.049090738,0.050256022,0.053960981,0.05651006,0.051119332,0.030015342,0.018651271,0.006541177,-99999,-99999,-99999,-99999,-99999,-99999,0.025423,0.02148
1348340,1999-01-03T07:00:20.568000Z,D9643B07,5.22,0.15,Slab,N,1,211,80,-8.30E+01,nlloc,-41.0938,174.519,-41.1513,174.9794,6011432.3,2637591.18,6004275,2676112,3.7,3.7,39.09,68.98,38.4,67.25,-36.38,-13.7,0,56.68,54.84,nu,643B,B,1000,Q3,<0.1,Q3,1.50E+00,Q3,0,-99999,-99999,0,0.45,18,0.765,18,HarvardCMT,0.035419966,0.035794658,0.036431313,0.037367527,0.03901328,0.062021778,0.077318717,0.106766903,0.130024689,0.059959144,0.027973242,0.019008049,0.012718207,0.010368053,0.006316387,-99999,-99999,-99999,-99999,-99999,-99999,-99999,0.035423,0.01026
1348340,1999-01-03T07:00:20.568000Z,D9644C05,5.22,0.15,Slab,N,1,211,80,-8.30E+01,nlloc,-41.0938,174.519,-41.2187,174.8826,6011432.3,2637591.18,5996970,2667828,3.7,3.7,33.46,65.85,33.1,64.1,-33.04,-3.18,0,56.68,54.84,nu,644C,D,189,Q3,2,Q3,250,Q3,0,-99999,-99999,0,0.3,18,0.51,18,HarvardCMT,0.022785577,0.022872863,0.023099926,0.023481409,0.024764483,0.041170077,0.037885751,0.043074995,0.05293475,0.027492011,0.033043923,0.049019076,0.041863898,0.022741431,0.01213208,0.005309216,-99999,-99999,-99999,-99999,-99999,-99999,0.022732,0.01232
1348340,1999-01-03T07:00:20.568000Z,D9900C01,5.22,0.15,Slab,N,1,211,80,-8.30E+01,nlloc,-41.0938,174.519,-41.2891,174.7799,6011432.3,2637591.18,5989335,2659058,3.7,3.7,30.79,64.52,30.25,62.73,-29.46,7.88,0,56.68,54.84,nu,900C,D,250,Q3,0.8,Q3,60,Q3,0,-99999,-99999,0,0.52,10,0.884,10,HarvardCMT,0.019298046,0.019462104,0.01974324,0.020150413,0.020701982,0.023627381,0.032572017,0.056471852,0.057957747,0.046340997,0.040131662,0.04141153,0.038916248,0.017453484,0.008446533,-99999,-99999,-99999,-99999,-99999,-99999,-99999,0.019072,0.01022
1348340,1999-01-03T07:00:20.568000Z,G9646C02,5.22,0.15,Slab,N,1,211,80,-8.30E+01,nlloc,-41.0938,174.519,-41.2574,174.9485,6011432.3,2637591.18,5992552,2673256,3.7,3.7,40.29,69.65,39.95,67.96,-39.97,-2.19,0,56.68,54.84,nu,WDAS,E,120,Q1,1.6,Q2,62,Q2,0,-99999,-99999,0,0.45,24.5,0.765,24.5,HarvardCMT,0.026091008,0.026400489,0.026968822,0.029978699,0.047105389,0.042912958,0.050103061,0.051363091,0.054753644,0.052039033,0.05092078,0.036265399,0.031922125,0.045669749,0.044091238,-99999,-99999,-99999,-99999,-99999,-99999,-99999,0.026035,0.01937
