CuspID,Origin_time,Record,Mw,MwUncert,TectClass,Mech,PreferredFaultPlane,Strike,Dip,Rake,Location,HypLat,HypLon,StationLat,StationLon,HypN,HypE,StationN,StationE,LENGTH_km,WIDTH_km,Repi_km,Rhyp_km,Rjb_km,Rrup_km,Rx_km,Ry_km,Rvol_km,HypDepth_km,ZTOR_km,HWFW,SiteCode,SiteClass1170,Vs30,Vs30Uncert,Tsite,TsiteUncert,Z1,Z1Uncertainty,Directivity,Pulse_or,Pulse_T,S_Trigger_Flag,fcButterHP,f_iniLP,fmin,fmax,References,f100.0000SA_RotD50,f50.0000SA_RotD50,f33.3333SA_RotD50,f25.0000SA_RotD50,f20.0000SA_RotD50,f13.3333SA_RotD50,f10.0000SA_RotD50,f6.6667SA_RotD50,f5.0000SA_RotD50,f4.0000SA_RotD50,f3.3333SA_RotD50,f2.5000SA_RotD50,f2.0000SA_RotD50,f1.3333SA_RotD50,f1.0000SA_RotD50,f0.6667SA_RotD50,f0.5000SA_RotD50,f0.3333SA_RotD50,f0.2500SA_RotD50,f0.2000SA_RotD50,f0.1333SA_RotD50,f0.1000SA_RotD50,f100.0000SA_RotD100,f50.0000SA_RotD100,f33.3333SA_RotD100,f25.0000SA_RotD100,f20.0000SA_RotD100,f13.3333SA_RotD100,f10.0000SA_RotD100,f6.6667SA_RotD100,f5.0000SA_RotD100,f4.0000SA_RotD100,f3.3333SA_RotD100,f2.5000SA_RotD100,f2.0000SA_RotD100,f1.3333SA_RotD100,f1.0000SA_RotD100,f0.6667SA_RotD100,f0.5000SA_RotD100,f0.3333SA_RotD100,f0.2500SA_RotD100,f0.2000SA_RotD100,f0.1333SA_RotD100,f0.1000SA_RotD100,PGA_RotD50,PGA_RotD100,PGV_RotD50,PGV_RotD100
164529,1990-10-04T23:48:26.123000Z,D90935B2,5.57,0.15,Interface,O,1,190,21,58,special,-41.61,175.44,-41.2108,174.9047,5952370.8,2713346.37,5997808,2669699,7.6,7.6,62.96,64.5,60.81,62.54,52.97,-37.17,0,13.8,12.99,nu,935A,D,240,Q3,1.2,Q3,275,Q3,0,-99999,-99999,0,0.4,15,0.68,15,HarvardCMT&Luo(1992),0.032899405,0.033049222,0.033388578,0.03388228,0.034509554,0.036331777,0.038347251,0.044439554,0.05230793,0.057753553,0.061092666,0.04575748,0.038098325,0.028723054,0.028695284,-99999,-99999,-99999,-99999,-99999,-99999,-99999,0.037506468,0.037630851,0.037849618,0.038206097,0.038801964,0.040191496,0.041258403,0.051140748,0.058372217,0.066264583,0.075244528,0.05209643,0.044755818,0.039821888,0.037050936,-99999,-99999,-99999,-99999,-99999,-99999,-99999,0.032746,0.037519,0.034941,0.042109
164529,1990-10-04T23:48:26.123000Z,D90941A5,5.57,0.15,Interface,O,1,190,21,58,special,-41.61,175.44,-41.2921,174.779,5952370.8,2713346.37,5989003,2658976,7.6,7.6,65.46,67,63.34,65.08,62.01,-26.63,0,13.8,12.99,nu,941A,D,272,Q2,0.85,Q2,9.85E+01,Q2,0,-99999,-99999,0,0.41,11,0.697,11,HarvardCMT&Luo(1992),0.022976953,0.023066268,0.023200934,0.023418057,0.02376403,0.025143017,0.027275752,0.033207693,0.03281852,0.031200341,0.031667063,0.03450954,0.030289653,0.026332295,0.016160286,-99999,-99999,-99999,-99999,-99999,-99999,-99999,0.031405302,0.031495869,0.031660762,0.031871031,0.032130429,0.032855548,0.034624207,0.042869109,0.04276145,0.043684141,0.044488135,0.048636277,0.042397573,0.030729554,0.0228439,-99999,-99999,-99999,-99999,-99999,-99999,-99999,0.022982,0.031422,0.021391,0.023599
160610,1990-10-06T02:41:12.583000Z,D90642EB,5.46,0.15,Interface,O,1,250,38,145,special,-41.61,175.43,-41.2341,174.918,5952394.08,2712513.04,5995197,2670758,6.7,6.7,59.75,61.46,58.1,60.11,56.08,24.6,0,14.2,12.97,nu,642E,C,350,Q1,0.35,Q2,50,Q3,0,-99999,-99999,0,0.6,11,1.02,11,HarvardCMT&Luo(1992),0.028061149,0.02817649,0.028311977,0.028515143,0.028782984,0.029826211,0.031956881,0.039416713,0.042939337,0.045600126,0.04792923,0.048885593,0.034461437,0.013059392,-99999,-99999,-99999,-99999,-99999,-99999,-99999,-99999,0.030126322,0.03028704,0.030534898,0.03088047,0.031331833,0.033025903,0.03547003,0.044067065,0.045623523,0.049863658,0.056650906,0.058993822,0.045291515,0.018325824,-99999,-99999,-99999,-99999,-99999,-99999,-99999,-99999,0.027979,0.030104,0.016174,0.019076
160610,1990-10-06T02:41:12.583000Z,D90900B6,5.46,0.15,Interface,O,1,250,38,145,special,-41.61,175.43,-41.2921,174.779,5952394.08,2712513.04,5989003,2658976,6.7,6.7,64.76,66.39,63.03,64.9,54.29,37.79,0,14.2,12.97,nu,941A,D,272,Q2,0.85,Q2,9.85E+01,Q2,0,-99999,-99999,0,0.4,10,0.68,10,HarvardCMT&Luo(1992),0.014072172,0.014102572,0.014151289,0.014218238,0.014306283,0.014553513,0.015056682,0.016005377,0.019272264,0.02022909,0.019663638,0.016518943,0.015533473,0.017040987,0.0122732,-99999,-99999,-99999,-99999,-99999,-99999,-99999,0.019031691,0.019061849,0.019115998,0.019193245,0.019300471,0.019666134,0.02046887,0.02186336,0.027024717,0.028261481,0.027229424,0.021810202,0.01996529,0.023509408,0.016198401,-99999,-99999,-99999,-99999,-99999,-99999,-99999,0.014052,0.019034,0.012221,0.01399
160610,1990-10-06T02:41:12.583000Z,D90935B3,5.46,0.15,Interface,O,1,250,38,145,special,-41.61,175.43,-41.2108,174.9047,5952394.08,2712513.04,5997808,2669699,6.7,6.7,62.37,64.01,60.72,62.65,58.89,24.7,0,14.2,12.97,nu,935A,D,240,Q3,1.2,Q3,275,Q3,0,-99999,-99999,0,0.3,15,0.51,15,HarvardCMT&Luo(1992),0.01982688,0.019924184,0.020033106,0.020190213,0.020392137,0.02127913,0.021535733,0.026668345,0.029999667,0.030672586,0.032044629,0.028270219,0.02653763,0.016249318,0.012475677,0.009042473,-99999,-99999,-99999,-99999,-99999,-99999,0.021462779,0.021548445,0.021684049,0.021876574,0.022125294,0.023201676,0.024350849,0.031896718,0.034022006,0.03453681,0.036761921,0.035528561,0.030143842,0.022762078,0.015994963,0.010494865,-99999,-99999,-99999,-99999,-99999,-99999,0.019813,0.021374,0.01878,0.023053
160610,1990-10-06T02:41:12.583000Z,D90941A6,5.46,0.15,Interface,O,1,250,38,145,special,-41.61,175.43,-41.2921,174.779,5952394.08,2712513.04,5989003,2658976,6.7,6.7,64.76,66.39,63.03,64.9,54.29,37.79,0,14.2,12.97,nu,941A,D,272,Q2,0.85,Q2,9.85E+01,Q2,0,-99999,-99999,0,0.35,12,0.595,12,HarvardCMT&Luo(1992),0.013384436,0.01342911,0.013496938,0.013595272,0.013726976,0.014312414,0.015720777,0.018640485,0.019795637,0.018516912,0.018238538,0.015382541,0.013929364,0.013586542,0.009364436,0.00398699,-99999,-99999,-99999,-99999,-99999,-99999,0.016522323,0.01659272,0.016699532,0.016864462,0.01710929,0.018338387,0.020098373,0.020615065,0.020812327,0.021308071,0.024088083,0.01964776,0.016585616,0.018171957,0.011099752,0.004851785,-99999,-99999,-99999,-99999,-99999,-99999,0.013333,0.016519,0.009242,0.010038
194283,1991-01-28T12:58:46.823000Z,A91051B1,5.76,0.08,Crustal,R,1,42,30,99,special,-41.89,171.58,-41.7557,171.5998,5923123.14,2392149.06,5938069,2393545,6.97,6.97,15.03,18.04,11.7,14.67,-5.94,12.04,0,10,8.26,nu,WBCS,D,300,Q3,1.2,Q2,105,Q3,0,-99999,-99999,1,0.4,27,0.68,27,Anderson_etal_1993&Dowrick_Rhoades1998&HarvardCMT,0.143817958,0.14577671,0.148786752,0.15624677,0.167471955,0.20176868,0.212190777,0.198772274,0.175914938,0.159154696,0.158643263,0.152556558,0.159691639,0.141714692,0.099167362,-99999,-99999,-99999,-99999,-99999,-99999,-99999,0.162613326,0.164791385,0.169897798,0.174246782,0.183913846,0.222338256,0.284560002,0.217583342,0.208348873,0.192142771,0.172473065,0.200217512,0.202674501,0.197033784,0.134039195,-99999,-99999,-99999,-99999,-99999,-99999,-99999,0.142879,0.161382,0.10733,0.128337
194283,1991-01-28T12:58:46.823000Z,A91083A1,5.76,0.08,Crustal,R,1,42,30,99,special,-41.89,171.58,-41.8311,171.6606,5923123.14,2392149.06,5929772,2398735,6.97,6.97,9.35,13.7,5.87,11.28,3.46,9.35,0,10,8.26,nu,083A,B,1200,Q3,<0.1,Q3,0,Q2,0,-99999,-99999,0,0.5,40,0.85,40,Anderson_etal_1993&Dowrick_Rhoades1998&HarvardCMT,0.202011729,0.210425323,0.270085578,0.276149136,0.291005411,0.257823691,0.222121654,0.204125826,0.166771049,0.107190758,0.107810372,0.097352825,0.094788951,0.066757194,0.048888567,-99999,-99999,-99999,-99999,-99999,-99999,-99999,0.258596148,0.293235995,0.381929494,0.390535383,0.390391491,0.289401445,0.268732541,0.239759305,0.201240635,0.138510516,0.12737188,0.109802253,0.120848435,0.0940148,0.068243895,-99999,-99999,-99999,-99999,-99999,-99999,-99999,0.193315,0.234507,0.065445,0.081315
194283,1991-01-28T12:58:46.823000Z,A91090A1,5.76,0.08,Crustal,R,1,42,30,99,special,-41.89,171.58,-41.8553,171.9539,5923123.14,2392149.06,5927428,2423132,6.97,6.97,31.2,32.86,27.91,30.07,23.16,23.93,0,10,8.26,nu,090A,C,270,Q3,0.33,Q3,40,Q3,0,-99999,-99999,1,0.3,22,0.51,22,Anderson_etal_1993&Dowrick_Rhoades1998&HarvardCMT,0.083427638,0.084323218,0.085886017,0.08768708,0.09002012,0.094583014,0.107990079,0.119703635,0.124502517,0.109244402,0.098183133,0.112222994,0.100394556,0.056483612,0.038752104,0.021536176,-99999,-99999,-99999,-99999,-99999,-99999,0.115063444,0.116418804,0.118294213,0.120369556,0.123428148,0.131480978,0.139150884,0.16256367,0.175591934,0.143230893,0.138549582,0.158598357,0.141310545,0.07604387,0.05055504,0.027693764,-99999,-99999,-99999,-99999,-99999,-99999,0.08299,0.115127,0.061288,0.084013
194283,1991-01-28T12:58:46.823000Z,A91122A1,5.76,0.08,Crustal,R,1,42,30,99,special,-41.89,171.58,-41.8025,172.3248,5923123.14,2392149.06,5933606,2453884,6.97,6.97,62.46,63.44,59.16,60.33,41.88,49.1,0,10,8.26,nu,122A,D,500,Q3,1.6,Q3,250,Q3,0,-99999,-99999,1,0.4,40,0.68,40,Anderson_etal_1993&Dowrick_Rhoades1998&HarvardCMT,0.128555533,0.138858476,0.144535421,0.153763093,0.151170709,0.173752723,0.208990166,0.172886565,0.160517425,0.163289663,0.155770362,0.13638356,0.126192574,0.062988382,0.036112394,-99999,-99999,-99999,-99999,-99999,-99999,-99999,0.171771867,0.176283605,0.17856261,0.180781493,0.182823763,0.22092593,0.254672838,0.241267959,0.224481943,0.229308568,0.219781828,0.192660725,0.178169196,0.070564979,0.041596914,-99999,-99999,-99999,-99999,-99999,-99999,-99999,0.128037,0.172541,0.069375,0.08888
194283,1991-01-28T12:58:46.823000Z,D91042A3,5.76,0.08,Crustal,R,1,42,30,99,special,-41.89,171.58,-42.5232,172.8305,5923123.14,2392149.06,5853765,2496076,6.97,6.97,124.76,125.38,121.74,122.51,126.66,18,0,10,8.26,nu,HSES,D,280,Q3,0.9,Q1,85,Q3,0,-99999,-99999,1,0.2,11,0.34,11,Anderson_etal_1993&Dowrick_Rhoades1998&HarvardCMT,0.023587634,0.023652537,0.023756978,0.02391896,0.024140007,0.024928933,0.026568732,0.029583111,0.029149686,0.031555688,0.034182619,0.032626005,0.039582645,0.033427842,0.022106747,0.009112786,0.005280987,-99999,-99999,-99999,-99999,-99999,0.026784198,0.026843714,0.026943036,0.027073804,0.027242119,0.027739919,0.028757505,0.036259835,0.038386872,0.036917245,0.039778445,0.044289274,0.047186866,0.041524283,0.030768089,0.011533472,0.00743889,-99999,-99999,-99999,-99999,-99999,0.023586,0.026774,0.023361,0.029622
201724,1991-01-28T18:00:53.158000Z,A91051B2,5.89,0.08,Crustal,S,1,48,77,11,special,-41.9,171.67,-41.7557,171.5998,5922133.85,2399635.78,5938069,2393545,8.1,8.1,17.07,20.86,15.62,17.84,-15.01,6.14,0,12,8.05,fw,WBCS,D,300,Q3,1.2,Q2,105,Q3,0,-99999,-99999,1,0.3,20,0.51,20,Anderson_etal_1993&Dowrick_Rhoades1998&HarvardCMT,0.147602061,0.149820492,0.154255884,0.160691898,0.172379891,0.225005395,0.239942796,0.178077608,0.185961446,0.172970438,0.132965762,0.104368451,0.110614203,0.109860221,0.066050219,0.030576916,-99999,-99999,-99999,-99999,-99999,-99999,0.163643755,0.16496066,0.166846903,0.169466512,0.182209466,0.282386703,0.321501134,0.225009538,0.220947157,0.193267939,0.161370151,0.1247812,0.151466248,0.137417233,0.088067605,0.038405799,-99999,-99999,-99999,-99999,-99999,-99999,0.146803,0.16229,0.090179,0.110719
201724,1991-01-28T18:00:53.158000Z,A91052A2,5.89,0.08,Crustal,S,1,48,77,11,special,-41.9,171.67,-42.1166,171.8604,5922133.85,2399635.78,5898305,2415760,8.1,8.1,28.77,31.24,27.75,30.62,29.41,-3.96,0,12,8.05,hw,052A,C,333,Q3,0.3,Q3,30,Q3,0,-99999,-99999,1,0.5,35,0.85,35,Anderson_etal_1993&Dowrick_Rhoades1998&HarvardCMT,0.172869908,0.177393753,0.188638628,0.224857853,0.240989653,0.276340008,0.31791309,0.186564775,0.145677293,0.125272638,0.109201733,0.071423232,0.045875336,0.029318394,0.02045745,-99999,-99999,-99999,-99999,-99999,-99999,-99999,0.182667341,0.18999999,0.197291584,0.240143353,0.258202433,0.322120868,0.406880678,0.262560433,0.185238609,0.156324352,0.119200731,0.087192587,0.059808919,0.037809554,0.022367324,-99999,-99999,-99999,-99999,-99999,-99999,-99999,0.172849,0.182562,0.048354,0.054283
201724,1991-01-28T18:00:53.158000Z,A91083A2,5.89,0.08,Crustal,S,1,48,77,11,special,-41.9,171.67,-41.8311,171.6606,5922133.85,2399635.78,5929772,2398735,8.1,8.1,7.7,14.26,5.85,10.38,-5.37,4.44,0,12,8.05,fw,083A,B,1200,Q3,<0.1,Q3,0,Q2,0,-99999,-99999,1,1,35,1.7,35,Anderson_etal_1993&Dowrick_Rhoades1998&HarvardCMT,0.142781832,0.154734495,0.169753112,0.191268029,0.221922599,0.248641367,0.191541284,0.136136199,0.10959599,0.089929259,0.072511636,0.048501626,0.032420832,-99999,-99999,-99999,-99999,-99999,-99999,-99999,-99999,-99999,0.201533373,0.212052587,0.234366486,0.238226836,0.25627275,0.337879804,0.267098761,0.186563501,0.14442393,0.126501841,0.101511794,0.060083995,0.038524624,-99999,-99999,-99999,-99999,-99999,-99999,-99999,-99999,-99999,0.14279,0.201932,0.029918,0.038692
201724,1991-01-28T18:00:53.158000Z,A91090A2,5.89,0.08,Crustal,S,1,48,77,11,special,-41.9,171.67,-41.8553,171.9539,5922133.85,2399635.78,5927428,2423132,8.1,8.1,24.03,26.94,20.56,23.59,12.7,21,0,12,8.05,nu,090A,C,270,Q3,0.33,Q3,40,Q3,0,-99999,-99999,1,0.3,20,0.51,20,Anderson_etal_1993&Dowrick_Rhoades1998&HarvardCMT,0.166881078,0.16738893,0.168199527,0.170377938,0.173871907,0.182658411,0.200616822,0.225810846,0.276250251,0.271122398,0.25978284,0.250258629,0.225054043,0.135374061,0.099090578,0.045946861,-99999,-99999,-99999,-99999,-99999,-99999,0.185640866,0.186144195,0.186969156,0.188488357,0.192065866,0.198997103,0.215507597,0.257536545,0.325203421,0.298002426,0.291214267,0.323369458,0.243811425,0.166538537,0.117954121,0.055076806,-99999,-99999,-99999,-99999,-99999,-99999,0.16676,0.185405,0.123361,0.148819
201724,1991-01-28T18:00:53.158000Z,A91122A2,5.89,0.08,Crustal,S,1,48,77,11,special,-41.9,171.67,-41.8025,172.3248,5922133.85,2399635.78,5933606,2453884,8.1,8.1,55.31,56.76,51.82,53.36,28.68,47.99,0,12,8.05,nu,122A,D,500,Q3,1.6,Q3,250,Q3,0,-99999,-99999,1,0.3,33,0.51,33,Anderson_etal_1993&Dowrick_Rhoades1998&HarvardCMT,0.25920515,0.282567288,0.340667407,0.32325923,0.311681427,0.298130981,0.335791868,0.432744194,0.288753349,0.235928508,0.212638909,0.156458593,0.124894883,0.068810102,0.044694701,0.021943954,-99999,-99999,-99999,-99999,-99999,-99999,0.320792236,0.336722635,0.381447662,0.411416555,0.348645084,0.421603081,0.44053285,0.516817956,0.341204283,0.284116559,0.253664495,0.179522875,0.168444347,0.096704384,0.055313163,0.024797835,-99999,-99999,-99999,-99999,-99999,-99999,0.259538,0.310917,0.0751,0.09991
201724,1991-01-28T18:00:53.158000Z,D91042A4,5.89,0.08,Crustal,S,1,48,77,11,special,-41.9,171.67,-42.5232,172.8305,5922133.85,2399635.78,5853765,2496076,8.1,8.1,118.06,118.86,116.84,117.93,116.25,25.92,0,12,8.05,nu,HSES,D,280,Q3,0.9,Q1,85,Q3,0,-99999,-99999,0,0.3,12,0.51,12,Anderson_etal_1993&Dowrick_Rhoades1998&HarvardCMT,0.027229825,0.027281835,0.027365408,0.027484881,0.027623802,0.028279021,0.029273762,0.031249176,0.033098096,0.03760621,0.041211366,0.04127733,0.039299116,0.042712667,0.028029242,0.013155626,-99999,-99999,-99999,-99999,-99999,-99999,0.030577425,0.03060129,0.030631268,0.030676354,0.030868317,0.031973949,0.032901132,0.040103975,0.043409099,0.044499523,0.051895087,0.054881631,0.049697016,0.058446995,0.039635832,0.018442171,-99999,-99999,-99999,-99999,-99999,-99999,0.027216,0.030578,0.029481,0.035726
201354,1991-02-15T10:48:09.669000Z,A91051B3,5.42,0.15,Crustal,R,0,213,37,90,geonet,-42.0386,171.5897,-41.7557,171.5998,5906631.78,2393229.54,5938069,2393545,4.7,4.7,31.47,32.19,29.3,30.05,-99999,-99999,0,6.92,5.27,nu,WBCS,D,300,Q3,1.2,Q2,105,Q3,0,-99999,-99999,1,0.3,22,0.51,22,HarvardCMT,0.0978757,0.098970732,0.101116596,0.105962085,0.119747997,0.170969642,0.132859562,0.139838738,0.105393931,0.08656205,0.077971596,0.060540191,0.058197194,0.046535703,0.028205768,0.017169763,-99999,-99999,-99999,-99999,-99999,-99999,0.11957809,0.122997755,0.128466386,0.136753479,0.158016875,0.216484293,0.15884516,0.165420339,0.141513415,0.109235119,0.085816445,0.067086641,0.071155805,0.05705304,0.036558424,0.020227472,-99999,-99999,-99999,-99999,-99999,-99999,0.09661,0.119132,0.037472,0.047378
201354,1991-02-15T10:48:09.669000Z,A91052A3,5.42,0.15,Crustal,R,0,213,37,90,geonet,-42.0386,171.5897,-42.1166,171.8604,5906631.78,2393229.54,5898305,2415760,4.7,4.7,23.97,25.04,22.28,23.52,-99999,-99999,0,6.92,5.27,nu,052A,C,333,Q3,0.3,Q3,30,Q3,0,-99999,-99999,0,0.5,32,0.85,32,HarvardCMT,0.158955436,0.163029903,0.173522028,0.196331103,0.216516157,0.247840695,0.260726806,0.283994942,0.194212446,0.130241497,0.110722169,0.063576348,0.055570309,0.033540646,0.020838767,-99999,-99999,-99999,-99999,-99999,-99999,-99999,0.19141813,0.195091342,0.203528515,0.221931134,0.26020591,0.29473388,0.356170917,0.340567852,0.25873357,0.176489129,0.122190088,0.075882909,0.065500583,0.046214517,0.027579985,-99999,-99999,-99999,-99999,-99999,-99999,-99999,0.159601,0.19139,0.046705,0.056129
201354,1991-02-15T10:48:09.669000Z,A91090A3,5.42,0.15,Crustal,R,0,213,37,90,geonet,-42.0386,171.5897,-41.8553,171.9539,5906631.78,2393229.54,5927428,2423132,4.7,4.7,36.37,37.09,34.1,34.84,-99999,-99999,0,6.92,5.27,nu,090A,C,270,Q3,0.33,Q3,40,Q3,0,-99999,-99999,1,0.45,13,0.765,13,HarvardCMT,0.080286378,0.080617928,0.081203914,0.082113587,0.083280488,0.0875398,0.093619811,0.119596113,0.133411208,0.136984747,0.11717611,0.087357639,0.069035609,0.040271061,0.021144643,-99999,-99999,-99999,-99999,-99999,-99999,-99999,0.10775501,0.108251297,0.109011053,0.11008083,0.111479857,0.116391437,0.127493765,0.168232996,0.178668814,0.178760932,0.156356883,0.107916489,0.084690354,0.049056408,0.027066968,-99999,-99999,-99999,-99999,-99999,-99999,-99999,0.080027,0.10772,0.042587,0.057742
241414,1991-07-12T04:42:23.301999Z,D91302A4,5.3,0.15,Slab,S,1,135,57,25,geonet,-39.3052,175.9748,-39.9338,175.053,6206777.74,2766544.08,6139282,2685450,4.1,4.1,105.45,126.78,104.32,126.64,106.19,-9.62,0,70.28,68.56,nu,302A,D,250,Q2,0.8,Q3,80,Q3,0,-99999,-99999,1,0.3,12,0.51,12,HarvardCMT,0.017615108,0.017673851,0.017775616,0.017851254,0.0180498,0.01857919,0.020905407,0.021697771,0.023517514,0.027057167,0.02736011,0.024552649,0.022018552,0.014658678,0.010107401,0.005103499,-99999,-99999,-99999,-99999,-99999,-99999,0.019817945,0.019906548,0.020044122,0.020216157,0.020434175,0.021190378,0.022583378,0.024136808,0.026552407,0.030170902,0.031291908,0.032332904,0.026927933,0.019069745,0.014259729,0.006843284,-99999,-99999,-99999,-99999,-99999,-99999,0.01761,0.019802,0.015326,0.018936
255338,1991-09-08T13:50:30.989999Z,A92087A4,5.61,0.15,Slab,R,1,95,70,108,geonet,-40.2442,175.1672,-39.7163,175.1455,6104594.2,2694363.31,6163232,2693941,5.9,5.9,58.73,104.69,57.7,101.84,-57.37,-5.53,0,86.69,83.93,nu,087A,B,1000,Q3,<0.1,Q3,0,Q2,0,-99999,-99999,1,0.6,27,1.02,27,HarvardCMT,0.142702933,0.145817382,0.151979164,0.163455805,0.168996922,0.186534887,0.210335581,0.247962413,0.17110705,0.154078486,0.126710377,0.117253137,0.070885206,0.028070721,-99999,-99999,-99999,-99999,-99999,-99999,-99999,-99999,0.165863692,0.168517594,0.17407835,0.181855303,0.195248172,0.202642486,0.228606958,0.302619779,0.21822154,0.18815445,0.156574939,0.125112347,0.089021098,0.033318338,-99999,-99999,-99999,-99999,-99999,-99999,-99999,-99999,0.138426,0.165445,0.052495,0.059593
255338,1991-09-08T13:50:30.989999Z,D91302A5,5.61,0.15,Slab,R,1,95,70,108,geonet,-40.2442,175.1672,-39.9338,175.053,6104594.2,2694363.31,6139282,2685450,5.9,5.9,35.86,93.81,34.54,90.88,-32.78,-11.9,0,86.69,83.93,nu,302A,D,250,Q2,0.8,Q3,80,Q3,0,-99999,-99999,0,0.35,20,0.595,20,HarvardCMT,0.099092426,0.099963305,0.101538478,0.105857553,0.115395632,0.125721667,0.152486845,0.137878833,0.142851999,0.141717955,0.124129371,0.100290017,0.083413299,0.052677694,0.032766995,0.010492916,-99999,-99999,-99999,-99999,-99999,-99999,0.102874069,0.10419807,0.10761252,0.114566847,0.127433519,0.15248558,0.167723108,0.156774128,0.199571581,0.200392185,0.16106387,0.139129481,0.116590626,0.056021559,0.037554652,0.013607502,-99999,-99999,-99999,-99999,-99999,-99999,0.098958,0.102989,0.049331,0.058808
