CuspID,Origin_time,Record,Mw,MwUncert,TectClass,Mech,PreferredFaultPlane,Strike,Dip,Rake,Location,HypLat,HypLon,StationLat,StationLon,HypN,HypE,StationN,StationE,LENGTH_km,WIDTH_km,Repi_km,Rhyp_km,Rjb_km,Rrup_km,Rx_km,Ry_km,Rvol_km,HypDepth_km,ZTOR_km,HWFW,SiteCode,SiteClass1170,Vs30,Vs30Uncert,Tsite,TsiteUncert,Z1,Z1Uncertainty,Directivity,Pulse_or,Pulse_T,S_Trigger_Flag,fcButterHP,f_iniLP,fmin,fmax,References,f100.0000SA_RotD50,f50.0000SA_RotD50,f33.3333SA_RotD50,f25.0000SA_RotD50,f20.0000SA_RotD50,f13.3333SA_RotD50,f10.0000SA_RotD50,f6.6667SA_RotD50,f5.0000SA_RotD50,f4.0000SA_RotD50,f3.3333SA_RotD50,f2.5000SA_RotD50,f2.0000SA_RotD50,f1.3333SA_RotD50,f1.0000SA_RotD50,f0.6667SA_RotD50,f0.5000SA_RotD50,f0.3333SA_RotD50,f0.2500SA_RotD50,f0.2000SA_RotD50,f0.1333SA_RotD50,f0.1000SA_RotD50,f100.0000SA_RotD100,f50.0000SA_RotD100,f33.3333SA_RotD100,f25.0000SA_RotD100,f20.0000SA_RotD100,f13.3333SA_RotD100,f10.0000SA_RotD100,f6.6667SA_RotD100,f5.0000SA_RotD100,f4.0000SA_RotD100,f3.3333SA_RotD100,f2.5000SA_RotD100,f2.0000SA_RotD100,f1.3333SA_RotD100,f1.0000SA_RotD100,f0.6667SA_RotD100,f0.5000SA_RotD100,f0.3333SA_RotD100,f0.2500SA_RotD100,f0.2000SA_RotD100,f0.1333SA_RotD100,f0.1000SA_RotD100,PGA_RotD50,PGA_RotD100,PGV_RotD50,PGV_RotD100
608810,1994-06-18T03:25:13.819000Z,D94054A3,6.72,0.08,Crustal,R,1,221,47,112,geonet,-43.0078,171.4762,-43.883,169.0441,5798820.69,2385786.14,5695156,2192230,21.06,21.06,219.12,219.61,211.53,212.02,82.16,205.22,0,4.27,1,nu,HDWS,D,210,Q3,0.87,Q1,100,Q3,0,-99999,-99999,1,0.3,11,0.51,11,Abercrombie_etal_2000&HarvardCMT,0.014429003,0.014510868,0.014642659,0.014852078,0.015191327,0.016515496,0.018597738,0.02199914,0.022141938,0.024846056,0.024312778,0.018451516,0.019674413,0.014675364,0.009972415,0.005603049,-99999,-99999,-99999,-99999,-99999,-99999,0.019515803,0.019606526,0.019781289,0.020070236,0.020465561,0.022171849,0.025157523,0.027360101,0.027033427,0.0269366,0.028042074,0.024555022,0.024082702,0.016472574,0.010300542,0.007228438,-99999,-99999,-99999,-99999,-99999,-99999,0.014384,0.01943,0.01289,0.014801
608810,1994-06-18T03:25:13.819000Z,D94129A2,6.72,0.08,Crustal,R,1,221,47,112,geonet,-43.0078,171.4762,-41.7999,172.328,5798820.69,2385786.14,5933893,2454147,21.06,21.06,151.43,151.45,143.62,143.66,41.11,-146.79,0,4.27,1,nu,MCAS,D,501,Q3,1.6,Q3,200,Q3,0,-99999,-99999,0,0.1,13,0.17,13,Abercrombie_etal_2000&HarvardCMT,0.027203329,0.02736681,0.027609915,0.027875396,0.028180561,0.029291465,0.031608586,0.035461566,0.033961708,0.035714775,0.036584392,0.039974857,0.034022516,0.029104962,0.029145327,0.015221983,0.012001874,0.005011031,0.002929297,0.00211643,-99999,-99999,0.02946769,0.029572279,0.029788987,0.030200573,0.030772654,0.032827196,0.034973636,0.03990915,0.036809452,0.043992517,0.051644448,0.046940476,0.043335329,0.031546226,0.03008891,0.016061561,0.013544496,0.005486229,0.003197911,0.002844307,-99999,-99999,0.027166,0.029349,0.027983,0.029524
608810,1994-06-18T03:25:13.819000Z,K94112A1,6.72,0.08,Crustal,R,1,221,47,112,geonet,-43.0078,171.4762,-43.1325,171.7693,5798820.69,2385786.14,5785358,2409884,21.06,21.06,27.55,28.04,23.3,23.35,-22.93,-5.65,0,4.27,1,fw,112B,C,667,Q3,0.36,Q3,60,Q3,0,-99999,-99999,1,0.35,18,0.595,18,Abercrombie_etal_2000&HarvardCMT,0.134080134,0.134810014,0.136314532,0.138756673,0.14174234,0.14713967,0.168554779,0.191145704,0.233946556,0.237787766,0.205607221,0.140720216,0.120361041,0.078375102,0.048381281,0.02854471,-99999,-99999,-99999,-99999,-99999,-99999,0.147888927,0.148481942,0.149613302,0.151669311,0.156292379,0.182514272,0.199529688,0.265795487,0.284663127,0.292722583,0.260491633,0.198367469,0.151486063,0.096394198,0.066319906,0.030514924,-99999,-99999,-99999,-99999,-99999,-99999,0.133497,0.147884,0.080934,0.108476
697172,1994-12-15T11:20:17.858000Z,K5113A01,6.31,0.15,Crustal,S,0,194,77,-1.61E+02,geonet,-37.1987,177.528,-37.8735,177.5847,6434683.68,2912134.85,6359624,2913365,13.1,13.1,75.2,76.03,70.88,72.17,-99999,-99999,10,12,5.68,nu,113A,C,522,Q3,0.15,Q3,10,Q3,0,-99999,-99999,1,0.5,11,0.85,11,HarvardCMT,0.080140101,0.080562282,0.081272273,0.082190066,0.083550926,0.088521196,0.098581173,0.125178058,0.157589534,0.137396383,0.113205225,0.078537769,0.049361036,0.019462399,0.01074295,-99999,-99999,-99999,-99999,-99999,-99999,-99999,0.087860419,0.088254197,0.088848613,0.089671228,0.090757237,0.095607945,0.106218826,0.141115274,0.181045018,0.187788372,0.138536109,0.090700057,0.064051979,0.025037889,0.013551201,-99999,-99999,-99999,-99999,-99999,-99999,-99999,0.079917,0.087819,0.035922,0.044695
731516,1995-02-05T22:51:04.665000Z,D5016A02,7.09,0.15,Crustal,N,0,215,58,-9.00E+01,geonet,-37.6496,179.4886,-38.6774,178.031,6374193.93,3082358.22,6268431,2947608,32.2,32.2,171.17,171.73,155.42,156.01,-99999,-99999,0,12,1.73,nu,016A,C,480,Q3,0.15,Q3,10,Q3,0,-99999,-99999,0,0.35,14,0.595,14,HarvardCMT,0.019709285,0.019785168,0.019898536,0.020080142,0.020348839,0.020917988,0.023019234,0.027719699,0.027695412,0.024894325,0.025994567,0.025792869,0.024042027,0.019768485,0.01240224,0.005500678,-99999,-99999,-99999,-99999,-99999,-99999,0.022107969,0.022188786,0.022320606,0.022502002,0.022739449,0.023267657,0.025487354,0.030471096,0.030749516,0.030755798,0.03110836,0.032714955,0.03098795,0.021327226,0.013395135,0.00638474,-99999,-99999,-99999,-99999,-99999,-99999,0.019614,0.022096,0.013599,0.015489
731516,1995-02-05T22:51:04.665000Z,D5017A02,7.09,0.15,Crustal,N,0,215,58,-9.00E+01,geonet,-37.6496,179.4886,-38.6665,178.0227,6374193.93,3082358.22,6269685,2946952,32.2,32.2,170.91,171.47,155.18,155.77,-99999,-99999,0,12,1.73,nu,GISS,D,138,Q2,1,Q1,40,Q3,0,-99999,-99999,0,0.18,12,0.306,12,HarvardCMT,0.022685982,0.022752923,0.022850291,0.022995562,0.023192571,0.024370967,0.027309027,0.029637132,0.031196861,0.032635245,0.033107176,0.031498925,0.032181632,0.035121724,0.023805485,0.008339504,0.004546227,0.002269009,-99999,-99999,-99999,-99999,0.026676768,0.026735719,0.026825329,0.026942845,0.027118107,0.027937338,0.028943622,0.031959504,0.033161181,0.035789543,0.036883881,0.039688459,0.042222918,0.04804459,0.029678008,0.010761188,0.006114204,0.002335607,-99999,-99999,-99999,-99999,0.022668,0.026673,0.023536,0.028064
731516,1995-02-05T22:51:04.665000Z,D5709A03,7.09,0.15,Crustal,N,0,215,58,-9.00E+01,geonet,-37.6496,179.4886,-38.6257,177.9216,6374193.93,3082358.22,6274694,2938413,32.2,32.2,174.82,175.4,159.22,159.85,-99999,-99999,0,12,1.73,nu,GWTS,D,245,Q3,1.5,Q3,125,Q3,0,-99999,-99999,0,0.15,10,0.255,10,HarvardCMT,0.021732626,0.021760373,0.021810076,0.02183536,0.021850765,0.021933659,0.022601332,0.022757167,0.025985529,0.02667287,0.027731066,0.029756249,0.030177261,0.032044523,0.029953281,0.029291431,0.021804425,0.010993834,-99999,-99999,-99999,-99999,0.023714305,0.023753605,0.023815078,0.023893345,0.02399055,0.024342926,0.024672839,0.026496803,0.029289226,0.028579263,0.029615844,0.034236253,0.032326562,0.038001738,0.034406697,0.035721959,0.023070264,0.012323083,-99999,-99999,-99999,-99999,0.021733,0.023696,0.047036,0.051666
731516,1995-02-05T22:51:04.665000Z,D5712A03,7.09,0.15,Crustal,N,0,215,58,-9.00E+01,geonet,-37.6496,179.4886,-37.9615,176.9855,6374193.93,3082358.22,6352382,2860270,32.2,32.2,222.62,223.48,209.17,210.15,-99999,-99999,0,12,1.73,nu,WKHS,D,210,Q3,0.71,Q2,100,Q3,0,-99999,-99999,0,0.25,12,0.425,12,HarvardCMT,0.017435963,0.017472805,0.017528778,0.017656333,0.017885071,0.018816831,0.019667326,0.02084678,0.02035378,0.023655738,0.026810989,0.028858488,0.028370241,0.017864992,0.012007716,0.00469361,0.002976675,-99999,-99999,-99999,-99999,-99999,0.0189861,0.019020734,0.019091954,0.019188802,0.019336995,0.02018064,0.021300389,0.022288525,0.024900603,0.027040208,0.028650992,0.033985123,0.031892485,0.021664682,0.015069995,0.005957458,0.003489819,-99999,-99999,-99999,-99999,-99999,0.017383,0.01896,0.01429,0.016299
731516,1995-02-05T22:51:04.665000Z,K5113A02,7.09,0.15,Crustal,N,0,215,58,-9.00E+01,geonet,-37.6496,179.4886,-37.8735,177.5847,6374193.93,3082358.22,6359624,2913365,32.2,32.2,169.2,170.05,155.84,156.86,-99999,-99999,0,12,1.73,nu,113A,C,522,Q3,0.15,Q3,10,Q3,0,-99999,-99999,1,0.4,11,0.68,11,HarvardCMT,0.038582789,0.038820045,0.039181929,0.039700544,0.040399087,0.04307532,0.047317808,0.063430645,0.080979987,0.076135719,0.05902909,0.03751847,0.025690712,0.012135336,0.007919056,-99999,-99999,-99999,-99999,-99999,-99999,-99999,0.041659826,0.041845452,0.042151611,0.042643788,0.043300535,0.04625666,0.050197465,0.068416462,0.093363934,0.082233933,0.077532442,0.044488972,0.028828275,0.013929725,0.009667149,-99999,-99999,-99999,-99999,-99999,-99999,-99999,0.038456,0.041675,0.017797,0.020876
721911,1995-02-10T01:44:56.764000Z,D5016A04,6.49,0.15,Crustal,N,0,220,41,-7.80E+01,fdsn,-38.1086,178.6757,-38.6774,178.031,6344659.25,3005555.26,6268431,2947608,16.2,16.2,84.6,96.52,87.77,88.47,-99999,-99999,0,12,6.26,nu,016A,C,480,Q3,0.15,Q3,10,Q3,0,-99999,-99999,1,0.3,10,0.51,10,HarvardCMT,0.013074136,0.013108805,0.013162164,0.013249536,0.013358711,0.013743035,0.014552853,0.017022534,0.019283208,0.019388898,0.019783139,0.019666199,0.020646107,0.014191669,0.009233285,0.005674874,-99999,-99999,-99999,-99999,-99999,-99999,0.015129167,0.015180802,0.015253695,0.015353761,0.015492082,0.015989975,0.016859341,0.019684643,0.025083185,0.023772221,0.023262704,0.021864842,0.023037319,0.018579128,0.010031645,0.006139659,-99999,-99999,-99999,-99999,-99999,-99999,0.01307,0.015125,0.011199,0.012434
721911,1995-02-10T01:44:56.764000Z,D5017A03,6.49,0.15,Crustal,N,0,220,41,-7.80E+01,fdsn,-38.1086,178.6757,-38.6665,178.0227,6344659.25,3005555.26,6269685,2946952,16.2,16.2,84.19,95.91,87.18,87.87,-99999,-99999,0,12,6.26,nu,GISS,D,138,Q2,1,Q1,40,Q3,0,-99999,-99999,1,0.2,10,0.34,10,HarvardCMT,0.01588815,0.015929871,0.015986487,0.016074005,0.016198372,0.016653876,0.017385651,0.019940155,0.0212584,0.022300388,0.022256706,0.023009007,0.023275854,0.019917478,0.017352128,0.007935458,0.0043083,-99999,-99999,-99999,-99999,-99999,0.020424765,0.020444933,0.020491122,0.020548888,0.020624282,0.020832232,0.020857051,0.022169029,0.024514699,0.02681798,0.028121778,0.030227355,0.029615572,0.024443555,0.023881903,0.009994598,0.004522936,-99999,-99999,-99999,-99999,-99999,0.015846,0.020389,0.017052,0.020424
722185,1995-03-22T19:43:30.268000Z,D5040A01,5.83,0.15,Slab,S,0,27,64,30,nlloc,-41.0514,174.216,-41.5763,175.2269,6016538.56,2612205.51,5956588,2695679,7.6,7.6,102.64,133.7,100.01,131.33,-99999,-99999,0,85.51,82.13,nu,040A,B,770,Q3,0.08,Q3,7,Q3,0,-99999,-99999,1,0.25,22,0.425,22,HarvardCMT,0.02248563,0.023079275,0.024375276,0.026292266,0.02803746,0.031837729,0.034398416,0.035537665,0.030136576,0.024271209,0.017892481,0.009963841,0.008236677,0.004527051,0.00292846,0.002187815,0.00140951,-99999,-99999,-99999,-99999,-99999,0.027284742,0.028129017,0.029827265,0.033535004,0.039607881,0.044898284,0.045538243,0.040862256,0.034003694,0.028515964,0.022018728,0.01254136,0.010266272,0.00484833,0.003578911,0.002511008,0.001615133,-99999,-99999,-99999,-99999,-99999,0.022443,0.026833,0.006984,0.007547
722185,1995-03-22T19:43:30.268000Z,D5050A02,5.83,0.15,Slab,S,0,27,64,30,nlloc,-41.0514,174.216,-41.1247,173.0095,6016538.56,2612205.51,6009109,2510784,7.6,7.6,101.44,132.87,98.42,129.2,-99999,-99999,0,85.51,82.13,nu,MOTS,D,300,Q3,1.27,Q3,300,Q3,0,-99999,-99999,0,0.3,25,0.51,25,HarvardCMT,0.07497182,0.075973627,0.07726119,0.079417332,0.083690689,0.101295996,0.11142718,0.119377404,0.135630666,0.130833943,0.110681325,0.082149578,0.05634999,0.021864428,0.010346805,0.008081903,-99999,-99999,-99999,-99999,-99999,-99999,0.081439561,0.081899979,0.082500712,0.085080571,0.095290929,0.125405115,0.123858306,0.132514122,0.148848967,0.140914649,0.12013331,0.104784925,0.066955535,0.024386097,0.013440321,0.009592914,-99999,-99999,-99999,-99999,-99999,-99999,0.074658,0.081151,0.031704,0.038098
722185,1995-03-22T19:43:30.268000Z,D5056A02,5.83,0.15,Slab,S,0,27,64,30,nlloc,-41.0514,174.216,-41.2758,173.2851,6016538.56,2612205.51,5992292,2533876,7.6,7.6,81.82,118.48,78.7,114.72,-99999,-99999,0,85.51,82.13,nu,056A,B,450,Q3,0.07,Q3,5,Q3,0,-99999,-99999,0,0.3,15,0.51,15,HarvardCMT,0.20421192,0.205612064,0.207959884,0.211432966,0.216601061,0.236939758,0.259335049,0.331366514,0.357127759,0.352980084,0.293301356,0.161915504,0.108318245,0.052717415,0.021865782,0.011490963,-99999,-99999,-99999,-99999,-99999,-99999,0.257410348,0.259389099,0.26261184,0.267488506,0.27470942,0.307075426,0.339755721,0.41511614,0.460920875,0.42122353,0.366033326,0.228965982,0.143966066,0.072480618,0.029569416,0.016210259,-99999,-99999,-99999,-99999,-99999,-99999,0.203401,0.256838,0.086241,0.109037
722185,1995-03-22T19:43:30.268000Z,D5129A01,5.83,0.15,Slab,S,0,27,64,30,nlloc,-41.0514,174.216,-41.7999,172.328,6016538.56,2612205.51,5933893,2454147,7.6,7.6,178.06,197.87,174.9,194.27,-99999,-99999,0,85.51,82.13,nu,MCAS,D,501,Q3,1.6,Q3,200,Q3,0,-99999,-99999,0,0.3,17,0.51,17,HarvardCMT,0.032913604,0.033234474,0.033771368,0.034539688,0.035830415,0.038961537,0.045185338,0.050086944,0.053705987,0.044340951,0.041501788,0.037095741,0.032470525,0.015667705,0.013125771,0.00812888,-99999,-99999,-99999,-99999,-99999,-99999,0.0414913,0.041849964,0.042441454,0.043367284,0.044770091,0.050464062,0.055246453,0.062464708,0.065782741,0.061103397,0.058487984,0.044456062,0.038689451,0.019039464,0.016241012,0.008852655,-99999,-99999,-99999,-99999,-99999,-99999,0.032924,0.041474,0.019706,0.021382
722185,1995-03-22T19:43:30.268000Z,D5130B01,5.83,0.15,Slab,S,0,27,64,30,nlloc,-41.0514,174.216,-41.6696,173.2029,6016538.56,2612205.51,5948576,2526890,7.6,7.6,108.97,138.82,105.86,135.11,-99999,-99999,0,85.51,82.13,nu,130B,D,367,Q3,0.85,Q3,100,Q3,0,-99999,-99999,1,0.4,24,0.68,24,HarvardCMT,0.020866138,0.021568996,0.022868557,0.026311398,0.029996378,0.036167731,0.03658814,0.026415396,0.020162429,0.019855023,0.015860622,0.012372187,0.009150871,0.004966253,0.003179891,-99999,-99999,-99999,-99999,-99999,-99999,-99999,0.023179532,0.024095704,0.025558784,0.028586688,0.031980182,0.039993392,0.040591352,0.033560908,0.024282521,0.022608006,0.022102956,0.016852846,0.011378743,0.006833746,0.004214747,-99999,-99999,-99999,-99999,-99999,-99999,-99999,0.020729,0.023068,0.007133,0.008654
722185,1995-03-22T19:43:30.268000Z,D5131A06,5.83,0.15,Slab,S,0,27,64,30,nlloc,-41.0514,174.216,-40.9143,175.005,6016538.56,2612205.51,6030534,2678862,7.6,7.6,67.96,109.33,64.87,106.63,-99999,-99999,0,85.51,82.13,nu,PAPS,D,200,Q3,1.4,Q1,100,Q3,0,-99999,-99999,0,0.45,18,0.765,18,HarvardCMT,0.062857067,0.063849668,0.065639079,0.069136844,0.075099349,0.09178864,0.102563619,0.101057864,0.076904222,0.073402501,0.062208594,0.044755059,0.030342664,0.016140902,0.012612029,-99999,-99999,-99999,-99999,-99999,-99999,-99999,0.082747384,0.083880347,0.085735786,0.089028653,0.093572535,0.103162205,0.127618016,0.132460742,0.094150829,0.092502184,0.071938261,0.052055843,0.034553944,0.019300976,0.016522621,-99999,-99999,-99999,-99999,-99999,-99999,-99999,0.062974,0.080919,0.023458,0.025778
722185,1995-03-22T19:43:30.268000Z,D5132A05,5.83,0.15,Slab,S,0,27,64,30,nlloc,-41.0514,174.216,-41.2975,174.781,6016538.56,2612205.51,5988401,2659132,7.6,7.6,54.63,101.53,52,98.73,-99999,-99999,0,85.51,82.13,nu,132A,C,245,Q2,0.47,Q2,27,Q2,0,-99999,-99999,0,0.3,15,0.51,15,HarvardCMT,0.053556535,0.054170334,0.055201996,0.056819754,0.059029418,0.068622653,0.082071813,0.096152425,0.064568526,0.062379922,0.059450021,0.05395474,0.042425732,0.021443585,0.010449733,0.005386944,-99999,-99999,-99999,-99999,-99999,-99999,0.06436612,0.065398619,0.067039714,0.069487374,0.073034766,0.091616826,0.109810588,0.118505691,0.091224097,0.071371325,0.068699425,0.065415114,0.047907685,0.024722361,0.012349238,0.007434234,-99999,-99999,-99999,-99999,-99999,-99999,0.053645,0.064267,0.022839,0.02753
722185,1995-03-22T19:43:30.268000Z,D5302A03,5.83,0.15,Slab,S,0,27,64,30,nlloc,-41.0514,174.216,-39.9338,175.053,6016538.56,2612205.51,6139282,2685450,7.6,7.6,143.02,166.57,140.12,164.23,-99999,-99999,0,85.51,82.13,nu,302A,D,250,Q2,0.8,Q3,80,Q3,0,-99999,-99999,0,0.4,18,0.68,18,HarvardCMT,0.030202462,0.030561271,0.031349379,0.032526177,0.03450015,0.038771987,0.043184988,0.043235918,0.045257077,0.046897348,0.046312315,0.044276415,0.032269178,0.014577013,0.008895005,-99999,-99999,-99999,-99999,-99999,-99999,-99999,0.034802294,0.035147234,0.035720884,0.036744099,0.038596226,0.042751669,0.052093,0.046879562,0.050209471,0.050446504,0.050850253,0.05195935,0.036920999,0.016437046,0.010451424,-99999,-99999,-99999,-99999,-99999,-99999,-99999,0.030144,0.034818,0.01655,0.019803
722185,1995-03-22T19:43:30.268000Z,D5643B07,5.83,0.15,Slab,S,0,27,64,30,nlloc,-41.0514,174.216,-41.1513,174.9794,6016538.56,2612205.51,6004275,2676112,7.6,7.6,64.92,107.53,62.09,104.88,-99999,-99999,0,85.51,82.13,nu,643B,B,1000,Q3,<0.1,Q3,1.50E+00,Q3,0,-99999,-99999,0,0.3,30,0.51,30,HarvardCMT,0.043747637,0.044622052,0.04673713,0.047045037,0.050682957,0.060045199,0.064246366,0.086503999,0.063312384,0.042237297,0.032487991,0.019807041,0.013579388,0.00659699,0.004085817,0.002210226,-99999,-99999,-99999,-99999,-99999,-99999,0.052889293,0.054186426,0.056312472,0.057814511,0.06483445,0.073640784,0.088883766,0.103224198,0.070672232,0.055324299,0.04092624,0.025314316,0.01487285,0.007455211,0.004548299,0.003074916,-99999,-99999,-99999,-99999,-99999,-99999,0.043803,0.051789,0.013908,0.016355
722185,1995-03-22T19:43:30.268000Z,D5646A05,5.83,0.15,Slab,S,0,27,64,30,nlloc,-41.0514,174.216,-41.2574,174.9485,6016538.56,2612205.51,5992552,2673256,7.6,7.6,65.46,107.84,62.76,105.2,-99999,-99999,0,85.51,82.13,nu,WDAS,E,120,Q1,1.6,Q2,62,Q2,0,-99999,-99999,0,0.25,19,0.425,19,HarvardCMT,0.044262491,0.044784388,0.045579867,0.046734442,0.048200531,0.056393053,0.060972396,0.068322133,0.060205693,0.059704642,0.062612279,0.054695448,0.047918843,0.038593898,0.036425182,0.016553041,0.007104862,-99999,-99999,-99999,-99999,-99999,0.061382486,0.062007716,0.062927895,0.064130626,0.065303209,0.072282769,0.068869308,0.087961378,0.074867612,0.07267465,0.074942624,0.071776673,0.056791271,0.054580158,0.04434911,0.021167937,0.009286609,-99999,-99999,-99999,-99999,-99999,0.044194,0.061457,0.031242,0.043211
722185,1995-03-22T19:43:30.268000Z,D5647D02,5.83,0.15,Slab,S,0,27,64,30,nlloc,-41.0514,174.216,-41.2875,174.7769,6016538.56,2612205.51,5989514,2658817,7.6,7.6,53.8,101.07,51.16,98.26,-99999,-99999,0,85.51,82.13,nu,647D,D,474,Q2,0.12,Q2,5.70E+00,Q2,0,-99999,-99999,0,0.3,18,0.51,18,HarvardCMT,0.043977238,0.044392934,0.045058365,0.046053519,0.047771318,0.053582943,0.059753016,0.073319532,0.080762866,0.063976833,0.065594279,0.043722378,0.027402587,0.01348472,0.007431883,0.004112648,-99999,-99999,-99999,-99999,-99999,-99999,0.053287629,0.053402121,0.053771241,0.0546156,0.05692512,0.065087406,0.066680759,0.084255172,0.108105987,0.087261934,0.079709897,0.057347719,0.029208368,0.016041233,0.008322747,0.005337302,-99999,-99999,-99999,-99999,-99999,-99999,0.044004,0.053275,0.021937,0.024439
722185,1995-03-22T19:43:30.268000Z,D5648A03,5.83,0.15,Slab,S,0,27,64,30,nlloc,-41.0514,174.216,-41.2775,174.7735,6016538.56,2612205.51,5990634,2658549,7.6,7.6,53.01,109.27,50.36,106.39,-99999,-99999,0,85.51,82.13,nu,921A,C,330,Q3,0.5,Q3,38,Q3,0,-99999,-99999,0,0.35,32,0.595,32,HarvardCMT,0.057767041,0.058720025,0.059824476,0.061308522,0.063644053,0.073576664,0.081536508,0.096067267,0.095929273,0.075182726,0.067013768,0.046693294,0.033386793,0.014931628,0.009041529,0.005243395,-99999,-99999,-99999,-99999,-99999,-99999,0.060667578,0.06128485,0.063547309,0.065758074,0.067001642,0.08276373,0.100066372,0.121767545,0.113861108,0.095398519,0.07634316,0.050717591,0.036812866,0.019735979,0.011004454,0.005763162,-99999,-99999,-99999,-99999,-99999,-99999,0.057084,0.060531,0.025057,0.029225
