CuspID,Origin_time,Record,Mw,MwUncert,TectClass,Mech,PreferredFaultPlane,Strike,Dip,Rake,Location,HypLat,HypLon,StationLat,StationLon,HypN,HypE,StationN,StationE,LENGTH_km,WIDTH_km,Repi_km,Rhyp_km,Rjb_km,Rrup_km,Rx_km,Ry_km,Rvol_km,HypDepth_km,ZTOR_km,HWFW,SiteCode,SiteClass1170,Vs30,Vs30Uncert,Tsite,TsiteUncert,Z1,Z1Uncertainty,Directivity,Pulse_or,Pulse_T,S_Trigger_Flag,fcButterHP,f_iniLP,fmin,fmax,References,f100.0000SA_RotD50,f50.0000SA_RotD50,f33.3333SA_RotD50,f25.0000SA_RotD50,f20.0000SA_RotD50,f13.3333SA_RotD50,f10.0000SA_RotD50,f6.6667SA_RotD50,f5.0000SA_RotD50,f4.0000SA_RotD50,f3.3333SA_RotD50,f2.5000SA_RotD50,f2.0000SA_RotD50,f1.3333SA_RotD50,f1.0000SA_RotD50,f0.6667SA_RotD50,f0.5000SA_RotD50,f0.3333SA_RotD50,f0.2500SA_RotD50,f0.2000SA_RotD50,f0.1333SA_RotD50,f0.1000SA_RotD50,f100.0000SA_RotD100,f50.0000SA_RotD100,f33.3333SA_RotD100,f25.0000SA_RotD100,f20.0000SA_RotD100,f13.3333SA_RotD100,f10.0000SA_RotD100,f6.6667SA_RotD100,f5.0000SA_RotD100,f4.0000SA_RotD100,f3.3333SA_RotD100,f2.5000SA_RotD100,f2.0000SA_RotD100,f1.3333SA_RotD100,f1.0000SA_RotD100,f0.6667SA_RotD100,f0.5000SA_RotD100,f0.3333SA_RotD100,f0.2500SA_RotD100,f0.2000SA_RotD100,f0.1333SA_RotD100,f0.1000SA_RotD100,PGA_RotD50,PGA_RotD100,PGV_RotD50,PGV_RotD100
771645,1995-11-24T06:18:56.622999Z,D5505A37,6.19,0.08,Crustal,O,1,176,46,44,geonet,-42.953,171.8188,-42.9489,171.5677,5805359.34,2413627.76,5805487,2393135,11.44,11.44,20.44,22,18.34,21,22.52,-1.56,0,7.26,5.1,hw,APPS,C,300,Q2,0.4,Q1,30,Q2,0,-99999,-99999,0,0.29,20,0.493,20,Gledhill_etal_2000,0.133677846,0.135229117,0.137701135,0.141977175,0.162077382,0.208606585,0.254413795,0.356720974,0.423658423,0.263820739,0.225995455,0.223171631,0.192471556,0.108581182,0.050187858,0.018029126,0.010374983,-99999,-99999,-99999,-99999,-99999,0.150039518,0.152747638,0.157246795,0.163549981,0.168685714,0.257743641,0.355362237,0.417923846,0.532689613,0.344542198,0.272681179,0.314154244,0.212841981,0.131706815,0.064433458,0.022436238,0.011451588,-99999,-99999,-99999,-99999,-99999,0.132025,0.149811,0.066529,0.086571
771645,1995-11-24T06:18:56.622999Z,D6051D01,6.19,0.08,Crustal,O,1,176,46,44,geonet,-42.953,171.8188,-41.7557,171.5998,5805359.34,2413627.76,5938069,2393545,11.44,11.44,134.35,134.42,128.36,128.45,12.86,-133.79,0,7.26,5.1,nu,WBCS,D,300,Q3,1.2,Q2,105,Q3,0,-99999,-99999,0,0.2,20,0.34,20,Gledhill_etal_2000,0.018583041,0.018692735,0.018865359,0.019240775,0.020768657,0.029636458,0.027686119,0.038357845,0.037778329,0.034669182,0.042153185,0.034472705,0.039038409,0.029386674,0.032955173,0.013992761,0.007225566,-99999,-99999,-99999,-99999,-99999,0.023435014,0.023616349,0.023934691,0.024298165,0.024296818,0.032816774,0.03437195,0.046739642,0.041728798,0.041517136,0.047420758,0.03806424,0.048036404,0.035337019,0.042381878,0.018925764,0.008662645,-99999,-99999,-99999,-99999,-99999,0.018493,0.023427,0.015306,0.017548
771645,1995-11-24T06:18:56.622999Z,D6129A01,6.19,0.08,Crustal,O,1,176,46,44,geonet,-42.953,171.8188,-41.7999,172.328,5805359.34,2413627.76,5933893,2454147,11.44,11.44,134.87,134.97,129.24,129.34,-47.3,-125.39,0,7.26,5.1,nu,MCAS,D,501,Q3,1.6,Q3,200,Q3,0,-99999,-99999,1,0.2,10,0.34,10,Gledhill_etal_2000,0.018072964,0.018102984,0.018169735,0.01824796,0.01834412,0.018682096,0.020405326,0.026414657,0.031449464,0.035249129,0.038544101,0.043020198,0.039718253,0.037930026,0.046183463,0.032012876,0.014563861,-99999,-99999,-99999,-99999,-99999,0.022486189,0.022529104,0.022579197,0.022643636,0.02275528,0.023181555,0.025436081,0.030119318,0.03691112,0.039633039,0.047935436,0.051507488,0.044539962,0.04114308,0.055293193,0.034260515,0.017344347,-99999,-99999,-99999,-99999,-99999,0.018047,0.022471,0.028369,0.03326
771645,1995-11-24T06:18:56.622999Z,K5112B01,6.19,0.08,Crustal,O,1,176,46,44,geonet,-42.953,171.8188,-43.1325,171.7693,5805359.34,2413627.76,5785358,2409884,11.44,11.44,20.36,21.83,14.58,16.61,7.21,19.69,0,7.26,5.1,nu,112B,C,667,Q3,0.36,Q3,60,Q3,0,-99999,-99999,1,0.25,20,0.425,20,Gledhill_etal_2000,0.13731941,0.139806979,0.144148289,0.153231582,0.177517096,0.231464089,0.34233757,0.3525471,0.31283623,0.373028662,0.24764286,0.132279594,0.107607202,0.041057797,0.031432137,0.031612612,0.01599344,-99999,-99999,-99999,-99999,-99999,0.155581297,0.158030467,0.162294159,0.169147885,0.196886077,0.308419718,0.431901446,0.399864176,0.403653021,0.454280614,0.277079639,0.154472035,0.137608273,0.057289016,0.035466623,0.042938464,0.018916496,-99999,-99999,-99999,-99999,-99999,0.136134,0.153001,0.051684,0.068418
1037562,1996-08-29T04:47:00.878000Z,D6042A01,5.25,0.15,Crustal,S,0,317,67,-2.00E+01,geonet,-42.4891,172.7921,-42.5232,172.8305,5857551.8,2492912.82,5853765,2496076,3.9,3.9,4.93,10.98,3.66,9.43,-99999,-99999,0,9.43,7.61,nu,HSES,D,280,Q3,0.9,Q1,85,Q3,0,-99999,-99999,0,0.2,18,0.34,18,HarvardCMT,0.237067821,0.237558749,0.239011541,0.240558323,0.242008017,0.260509865,0.321089547,0.417255268,0.391215333,0.41033436,0.462540369,0.489280267,0.395194866,0.41332481,0.360730009,0.135255351,0.069713872,-99999,-99999,-99999,-99999,-99999,0.274803765,0.276303098,0.278891688,0.283342283,0.293321394,0.323759718,0.403352452,0.524377316,0.420228398,0.446967673,0.509195061,0.529205159,0.427895823,0.467248023,0.443347093,0.180980619,0.08591505,-99999,-99999,-99999,-99999,-99999,0.236709,0.274839,0.238508,0.283921
1348340,1999-01-03T07:00:20.568000Z,D9131A03,5.22,0.15,Slab,N,1,211,80,-8.30E+01,nlloc,-41.0938,174.519,-40.9143,175.005,6011432.3,2637591.18,6030534,2678862,3.7,3.7,45.4,72.68,43.85,70.85,-25.21,-37.63,0,56.68,54.84,nu,PAPS,D,200,Q3,1.4,Q1,100,Q3,0,-99999,-99999,0,0.4,15,0.68,15,HarvardCMT,0.025652341,0.025989612,0.026689935,0.027634643,0.029109493,0.039198047,0.047281142,0.07732166,0.070786613,0.044218686,0.029985122,0.025105999,0.021840321,0.016636781,0.013576059,-99999,-99999,-99999,-99999,-99999,-99999,-99999,0.027284617,0.027648395,0.028233463,0.029074386,0.030248098,0.041628724,0.05675427,0.100503009,0.092209839,0.052449968,0.032708571,0.035224181,0.023044242,0.0187475,0.015944534,-99999,-99999,-99999,-99999,-99999,-99999,-99999,0.025641,0.027261,0.012535,0.014003
1348340,1999-01-03T07:00:20.568000Z,D9469A01,5.22,0.15,Slab,N,1,211,80,-8.30E+01,nlloc,-41.0938,174.519,-41.2117,174.9033,6011432.3,2637591.18,5997711,2669586,3.7,3.7,34.75,66.53,34.35,64.79,-34.17,-4.72,0,56.68,54.84,nu,LHES,D,240,Q3,1.16,Q3,280,Q3,0,-99999,-99999,0,0.35,12.5,0.595,12.5,HarvardCMT,0.018480061,0.018537427,0.0186334,0.018806104,0.019040801,0.020303767,0.025843286,0.030786779,0.039020618,0.035172186,0.039247758,0.037837225,0.034220271,0.020971929,0.013004641,0.005144862,-99999,-99999,-99999,-99999,-99999,-99999,0.026134061,0.026215567,0.02633943,0.026591037,0.026930546,0.028589609,0.029514515,0.040329011,0.043478169,0.047973284,0.051092503,0.053356264,0.048274916,0.028233107,0.017634941,0.006288194,-99999,-99999,-99999,-99999,-99999,-99999,0.018481,0.026135,0.01573,0.02148
1348340,1999-01-03T07:00:20.568000Z,D9643B07,5.22,0.15,Slab,N,1,211,80,-8.30E+01,nlloc,-41.0938,174.519,-41.1513,174.9794,6011432.3,2637591.18,6004275,2676112,3.7,3.7,39.09,68.98,38.4,67.25,-36.38,-13.7,0,56.68,54.84,nu,643B,B,1000,Q3,<0.1,Q3,1.50E+00,Q3,0,-99999,-99999,0,0.45,18,0.765,18,HarvardCMT,0.02759557,0.028205934,0.029297095,0.031253441,0.034731938,0.054748632,0.05712626,0.081152819,0.083196001,0.041073498,0.022796348,0.015509666,0.009572829,0.008258526,0.004946925,-99999,-99999,-99999,-99999,-99999,-99999,-99999,0.036235312,0.036644958,0.037338247,0.038399865,0.040309384,0.06021826,0.074495563,0.099940044,0.116098021,0.057198859,0.028369394,0.018303973,0.012571981,0.010720061,0.006398172,-99999,-99999,-99999,-99999,-99999,-99999,-99999,0.027619,0.036236,0.008702,0.010464
1348340,1999-01-03T07:00:20.568000Z,D9644C05,5.22,0.15,Slab,N,1,211,80,-8.30E+01,nlloc,-41.0938,174.519,-41.2187,174.8826,6011432.3,2637591.18,5996970,2667828,3.7,3.7,33.46,65.85,33.1,64.1,-33.04,-3.18,0,56.68,54.84,nu,644C,D,189,Q3,2,Q3,250,Q3,0,-99999,-99999,0,0.3,18,0.51,18,HarvardCMT,0.019753131,0.019851356,0.02002667,0.020406942,0.021068122,0.028997245,0.033927572,0.040458525,0.044561209,0.026176543,0.027524861,0.037711418,0.03441243,0.017930472,0.009492974,0.004009526,-99999,-99999,-99999,-99999,-99999,-99999,0.027195857,0.027259195,0.027390584,0.027526694,0.027964564,0.040248176,0.039349863,0.055809315,0.062726758,0.032024916,0.035302128,0.051353073,0.04503707,0.023208676,0.013017401,0.005379003,-99999,-99999,-99999,-99999,-99999,-99999,0.019756,0.027164,0.011757,0.016601
1348340,1999-01-03T07:00:20.568000Z,D9900C01,5.22,0.15,Slab,N,1,211,80,-8.30E+01,nlloc,-41.0938,174.519,-41.2891,174.7799,6011432.3,2637591.18,5989335,2659058,3.7,3.7,30.79,64.52,30.25,62.73,-29.46,7.88,0,56.68,54.84,nu,900C,D,250,Q3,0.8,Q3,60,Q3,0,-99999,-99999,0,0.52,10,0.884,10,HarvardCMT,0.01712873,0.017224793,0.017370426,0.017606789,0.017975631,0.019450729,0.026898208,0.039934561,0.038377243,0.035535522,0.038882607,0.033672407,0.026565983,0.012642627,0.006124246,-99999,-99999,-99999,-99999,-99999,-99999,-99999,0.020902266,0.021060542,0.021363972,0.021843996,0.022493698,0.025589527,0.034817484,0.052064127,0.051515003,0.046998703,0.044251878,0.043967139,0.037338549,0.016685492,0.008494338,-99999,-99999,-99999,-99999,-99999,-99999,-99999,0.017089,0.02082,0.011181,0.013802
1348340,1999-01-03T07:00:20.568000Z,G9713A02,5.22,0.15,Slab,N,1,211,80,-8.30E+01,nlloc,-41.0938,174.519,-41.1257,174.8392,6011432.3,2637591.18,6007373,2664412,3.7,3.7,27.06,62.84,26.34,61.02,-24.76,-10.33,0,56.68,54.84,nu,713A,D,210,Q3,0.6,Q3,40,Q3,0,-99999,-99999,0,0.6,12.5,1.02,12.5,HarvardCMT,0.020879953,0.021091656,0.021478185,0.022200919,0.023041201,0.026838505,0.034902747,0.055852662,0.046581611,0.036595271,0.035358322,0.03072282,0.043327323,0.033837109,-99999,-99999,-99999,-99999,-99999,-99999,-99999,-99999,0.028207937,0.028395604,0.028732704,0.029215984,0.029882733,0.032716754,0.047918414,0.064869672,0.062414849,0.041543366,0.039458001,0.035337017,0.052545297,0.04059486,-99999,-99999,-99999,-99999,-99999,-99999,-99999,-99999,0.020826,0.028155,0.012396,0.013872
1348340,1999-01-03T07:00:20.568000Z,I9467A03,5.22,0.15,Slab,N,1,211,80,-8.30E+01,nlloc,-41.0938,174.519,-41.2425,174.9024,6011432.3,2637591.18,5994293,2669430,3.7,3.7,36.1,67.24,35.77,65.51,-35.79,-1.71,0,56.68,54.84,nu,467A,D,218,Q3,1.5,Q3,200,Q3,0,-99999,-99999,0,0.35,18,0.595,18,HarvardCMT,0.015966676,0.01602713,0.016210265,0.016506228,0.017387131,0.024559256,0.024840147,0.030739811,0.045408566,0.028825922,0.028272957,0.039626252,0.043341604,0.027137729,0.015613583,0.006179692,-99999,-99999,-99999,-99999,-99999,-99999,0.022045381,0.022123744,0.022263229,0.022499035,0.023193641,0.030985732,0.026507221,0.035480658,0.051586965,0.03662122,0.03637091,0.053863647,0.057976696,0.038118259,0.02096161,0.006938433,-99999,-99999,-99999,-99999,-99999,-99999,0.015965,0.021979,0.016572,0.021891
1348340,1999-01-03T07:00:20.568000Z,I9468A01,5.22,0.15,Slab,N,1,211,80,-8.30E+01,nlloc,-41.0938,174.519,-41.2011,174.9547,6011432.3,2637591.18,5998793,2673916,3.7,3.7,38.38,68.5,37.91,66.79,-37.32,-7.87,0,56.68,54.84,nu,468A,D,190,Q1,0.9,Q3,50,Q3,0,-99999,-99999,0,0.3,20,0.51,20,HarvardCMT,0.034289187,0.035049717,0.036409699,0.038858704,0.045110749,0.060714069,0.077449188,0.075512279,0.088348811,0.060626432,0.054068543,0.04854715,0.036245419,0.032856334,0.031384195,0.009212645,-99999,-99999,-99999,-99999,-99999,-99999,0.037383388,0.038216203,0.039681773,0.042112727,0.047405005,0.071515035,0.102735199,0.105565377,0.121253359,0.068910206,0.066887695,0.056216743,0.041430052,0.043112861,0.036666968,0.011804276,-99999,-99999,-99999,-99999,-99999,-99999,0.033923,0.037196,0.017852,0.019378
1348340,1999-01-03T07:00:20.568000Z,I9602C01,5.22,0.15,Slab,N,1,211,80,-8.30E+01,nlloc,-41.0938,174.519,-41.1903,174.928,6011432.3,2637591.18,6000041,2671703,3.7,3.7,35.89,67.15,35.4,65.41,-34.78,-7.8,0,56.68,54.84,nu,602C,B,1000,Q3,<0.1,Q3,0,Q3,0,-99999,-99999,0,0.3,40,0.51,40,HarvardCMT,0.01207671,0.01229092,0.013069274,0.014414427,0.015117106,0.022689154,0.023509293,0.020715226,0.021110679,0.015846339,0.012917283,0.015195683,0.013016644,0.007147132,0.005255912,0.002253188,-99999,-99999,-99999,-99999,-99999,-99999,0.016508233,0.016713408,0.017171187,0.019762797,0.020568005,0.031621915,0.031394884,0.028677344,0.027149187,0.022330899,0.017398453,0.021488707,0.016812505,0.010045905,0.006637721,0.00316378,-99999,-99999,-99999,-99999,-99999,-99999,0.012032,0.01644,0.005437,0.007595
1348340,1999-01-03T07:00:20.568000Z,I9603B02,5.22,0.15,Slab,N,1,211,80,-8.30E+01,nlloc,-41.0938,174.519,-41.2237,174.86,6011432.3,2637591.18,5996453,2665923,3.7,3.7,31.99,65.12,31.66,63.36,-31.67,-1.75,0,56.68,54.84,nu,603B,B,1000,Q3,<0.1,Q3,0,Q3,0,-99999,-99999,0,0.19,55,0.323,55,HarvardCMT,0.007819635,0.008072686,0.008277448,0.009405872,0.01033947,0.012425483,0.014151542,0.020882542,0.016351208,0.01101701,0.00828318,0.009268943,0.009182308,0.007516449,0.004714882,0.002089786,0.00104769,0.000364858,-99999,-99999,-99999,-99999,0.009790474,0.01008025,0.009849278,0.010079011,0.011087298,0.014364771,0.015696701,0.027963537,0.019685554,0.011929624,0.009945479,0.012147066,0.010687604,0.009915648,0.006279403,0.002786985,0.00136887,0.00047805,-99999,-99999,-99999,-99999,0.00778,0.00974,0.004733,0.0053
1348340,1999-01-03T07:00:20.568000Z,I9605B22,5.22,0.15,Slab,N,1,211,80,-8.30E+01,nlloc,-41.0938,174.519,-41.2074,174.9401,6011432.3,2637591.18,5998119,2672679,3.7,3.7,37.45,68.03,37.01,66.31,-36.61,-6.66,0,56.68,54.84,nu,FAIS,B,760,Q3,0.27,Q1,0,Q2,0,-99999,-99999,0,0.3,45,0.51,45,HarvardCMT,0.011415611,0.011829584,0.01215785,0.01327949,0.014875746,0.018570953,0.024019868,0.026404656,0.01953924,0.015481855,0.018646122,0.019550945,0.013421587,0.007428726,0.004228309,0.001726805,-99999,-99999,-99999,-99999,-99999,-99999,0.013876059,0.014177459,0.014235821,0.016819144,0.020486944,0.02008001,0.026898317,0.034126518,0.024370486,0.02111869,0.025050238,0.027520884,0.018920395,0.010503191,0.005949063,0.002173747,-99999,-99999,-99999,-99999,-99999,-99999,0.011282,0.013748,0.005969,0.008408
1348340,1999-01-03T07:00:20.568000Z,I9606B03,5.22,0.15,Slab,N,1,211,80,-8.30E+01,nlloc,-41.0938,174.519,-41.2333,174.9199,6011432.3,2637591.18,5995282,2670919,3.7,3.7,36.97,67.71,36.61,65.99,-36.56,-3.32,0,56.68,54.84,nu,606B,B,800,Q3,<0.1,Q3,0,Q3,0,-99999,-99999,0,0.18,52,0.306,52,HarvardCMT,0.012872996,0.013294347,0.013476022,0.018394104,0.018898909,0.027410871,0.025838985,0.021680044,0.017485508,0.013714882,0.014863437,0.012000018,0.008398511,0.004887317,0.002770316,0.000943095,0.000548991,0.000242127,-99999,-99999,-99999,-99999,0.017248066,0.018116039,0.018062432,0.022186018,0.023989156,0.036038517,0.030995267,0.024876556,0.01930492,0.019064379,0.0189511,0.016052909,0.011674592,0.006869412,0.003870188,0.001112788,0.000680656,0.000341916,-99999,-99999,-99999,-99999,0.012759,0.017084,0.004154,0.004607
1348340,1999-01-03T07:00:20.568000Z,I9640A06,5.22,0.15,Slab,N,1,211,80,-8.30E+01,nlloc,-41.0938,174.519,-41.235,174.9147,6011432.3,2637591.18,5995103,2670479,3.7,3.7,36.65,67.54,36.31,65.82,-36.28,-2.94,0,56.68,54.84,nu,640A,E,230,Q3,0.5,Q3,60,Q3,0,-99999,-99999,0,0.3,20,0.51,20,HarvardCMT,0.021825773,0.022148937,0.022699243,0.023361208,0.025633689,0.041768105,0.043821455,0.039442922,0.040053942,0.034299043,0.042357689,0.041313546,0.03056821,0.01199954,0.006967679,0.002381062,-99999,-99999,-99999,-99999,-99999,-99999,0.029023869,0.029375246,0.029997606,0.031044007,0.033590851,0.044612097,0.048696507,0.041894204,0.043812248,0.043204846,0.052046851,0.053223274,0.037769646,0.016777848,0.009279266,0.003182227,-99999,-99999,-99999,-99999,-99999,-99999,0.021522,0.029039,0.010105,0.014102
1348340,1999-01-03T07:00:20.568000Z,I9646B03,5.22,0.15,Slab,N,1,211,80,-8.30E+01,nlloc,-41.0938,174.519,-41.2574,174.9485,6011432.3,2637591.18,5992552,2673256,3.7,3.7,40.29,69.65,39.95,67.96,-39.97,-2.19,0,56.68,54.84,nu,WDAS,E,120,Q1,1.6,Q2,62,Q2,0,-99999,-99999,0,0.4,35,0.68,35,HarvardCMT,0.019619209,0.020102821,0.020853991,0.022880804,0.023959952,0.036025487,0.033090584,0.052876981,0.043774578,0.037854739,0.036419173,0.030117969,0.030161607,0.03772214,0.031554775,-99999,-99999,-99999,-99999,-99999,-99999,-99999,0.020570787,0.020906161,0.022017861,0.024546153,0.026163914,0.040446389,0.039279595,0.067589872,0.056424716,0.041870051,0.040228826,0.032475796,0.037827028,0.041958,0.041872351,-99999,-99999,-99999,-99999,-99999,-99999,-99999,0.019566,0.020568,0.016838,0.020664
1348340,1999-01-03T07:00:20.568000Z,I9708A04,5.22,0.15,Slab,N,1,211,80,-8.30E+01,nlloc,-41.0938,174.519,-41.1314,174.8391,6011432.3,2637591.18,6006740,2664387,3.7,3.7,27.14,62.88,26.45,61.06,-25.06,-9.78,0,56.68,54.84,nu,POLS,C,250,Q2,0.4,Q1,25,Q2,0,-99999,-99999,0,0.25,20,0.425,20,HarvardCMT,0.015923043,0.016194166,0.016708282,0.017874765,0.021093518,0.032717786,0.028738036,0.045855579,0.03339327,0.037241369,0.036260584,0.016594513,0.017455769,0.011932388,0.005872122,0.001870478,0.000922745,-99999,-99999,-99999,-99999,-99999,0.02021406,0.02049079,0.020997634,0.022018621,0.024632043,0.04006405,0.035218398,0.056304789,0.046726321,0.052388498,0.046018851,0.021576688,0.020207656,0.016866646,0.00775527,0.002625657,0.001303988,-99999,-99999,-99999,-99999,-99999,0.015729,0.019999,0.007194,0.008358
1348340,1999-01-03T07:00:20.568000Z,I9918C01,5.22,0.15,Slab,N,1,211,80,-8.30E+01,nlloc,-41.0938,174.519,-41.284,174.7682,6011432.3,2637591.18,5989908,2658140,3.7,3.7,29.7,64.14,29.14,62.35,-28.37,7.87,0,56.68,54.84,nu,WEL,B,1000,Q3,0.3,Q1,0,Q2,0,-99999,-99999,0,0.35,35,0.595,35,HarvardCMT,0.018654874,0.019595821,0.023326966,0.025025957,0.027996002,0.045529787,0.048525249,0.054715071,0.038733274,0.022510119,0.01579118,0.012911301,0.010810099,0.004782113,0.003906039,0.00195374,-99999,-99999,-99999,-99999,-99999,-99999,0.022731631,0.023279988,0.025519835,0.02862585,0.032710176,0.063275291,0.053926558,0.071476168,0.054426718,0.031784432,0.021616124,0.01664243,0.015006858,0.005868129,0.00484387,0.002157039,-99999,-99999,-99999,-99999,-99999,-99999,0.018532,0.022602,0.006648,0.009403
1444773,1999-10-25T20:31:43.627000Z,D9014A02,6.02,0.15,Slab,O,0,158,54,35,nlloc,-38.5427,175.885,-39.4984,176.8761,6291620.32,2761553.77,6182359,2843283,9.4,9.4,136.47,204.75,133.03,201.69,-99999,-99999,0,152.66,148.68,nu,NCDS,E,162,Q3,1.25,Q2,110,Q3,0,-99999,-99999,1,0.25,14,0.425,14,HarvardCMT,0.037368913,0.037542574,0.037704146,0.037959211,0.038500307,0.044051548,0.060331687,0.080565364,0.109771685,0.108332977,0.074699694,0.053893545,0.048316352,0.086378935,0.032452661,0.01513863,0.009473339,-99999,-99999,-99999,-99999,-99999,0.048760743,0.049009016,0.049427028,0.050016091,0.050801302,0.058260807,0.070154944,0.107462828,0.142046169,0.133860868,0.094623084,0.061257477,0.053367626,0.117795226,0.040313178,0.017690086,0.011742901,-99999,-99999,-99999,-99999,-99999,0.037263,0.048479,0.027826,0.03757
1444773,1999-10-25T20:31:43.627000Z,D9027G06,6.02,0.15,Slab,O,0,158,54,35,nlloc,-38.5427,175.885,-39.4884,176.9189,6291620.32,2761553.77,6183307,2847012,9.4,9.4,137.97,205.77,134.56,202.73,-99999,-99999,0,152.66,148.68,nu,NAMS,C,268,Q3,0.4,Q3,20,Q3,0,-99999,-99999,1,0.25,12,0.425,12,HarvardCMT,0.017806147,0.017888828,0.018074357,0.018327359,0.018647843,0.020364186,0.027007861,0.038343023,0.059003488,0.048475828,0.03455507,0.033528837,0.026976999,0.015795918,0.009253347,0.008229381,0.004993825,-99999,-99999,-99999,-99999,-99999,0.020256839,0.020347171,0.020495242,0.020715475,0.021015015,0.022996616,0.028666271,0.048158779,0.071460796,0.053355038,0.037239426,0.036067724,0.036796731,0.021818188,0.012579277,0.010482651,0.006459968,-99999,-99999,-99999,-99999,-99999,0.017732,0.020169,0.011055,0.013032
