CuspID,Origin_time,Record,Mw,MwUncert,TectClass,Mech,PreferredFaultPlane,Strike,Dip,Rake,Location,HypLat,HypLon,StationLat,StationLon,HypN,HypE,StationN,StationE,LENGTH_km,WIDTH_km,Repi_km,Rhyp_km,Rjb_km,Rrup_km,Rx_km,Ry_km,Rvol_km,HypDepth_km,ZTOR_km,HWFW,SiteCode,SiteClass1170,Vs30,Vs30Uncert,Tsite,TsiteUncert,Z1,Z1Uncertainty,Directivity,Pulse_or,Pulse_T,S_Trigger_Flag,fcButterHP,f_iniLP,fmin,fmax,References,f100.0000SA_RotD50,f50.0000SA_RotD50,f33.3333SA_RotD50,f25.0000SA_RotD50,f20.0000SA_RotD50,f13.3333SA_RotD50,f10.0000SA_RotD50,f6.6667SA_RotD50,f5.0000SA_RotD50,f4.0000SA_RotD50,f3.3333SA_RotD50,f2.5000SA_RotD50,f2.0000SA_RotD50,f1.3333SA_RotD50,f1.0000SA_RotD50,f0.6667SA_RotD50,f0.5000SA_RotD50,f0.3333SA_RotD50,f0.2500SA_RotD50,f0.2000SA_RotD50,f0.1333SA_RotD50,f0.1000SA_RotD50,f100.0000SA_RotD100,f50.0000SA_RotD100,f33.3333SA_RotD100,f25.0000SA_RotD100,f20.0000SA_RotD100,f13.3333SA_RotD100,f10.0000SA_RotD100,f6.6667SA_RotD100,f5.0000SA_RotD100,f4.0000SA_RotD100,f3.3333SA_RotD100,f2.5000SA_RotD100,f2.0000SA_RotD100,f1.3333SA_RotD100,f1.0000SA_RotD100,f0.6667SA_RotD100,f0.5000SA_RotD100,f0.3333SA_RotD100,f0.2500SA_RotD100,f0.2000SA_RotD100,f0.1333SA_RotD100,f0.1000SA_RotD100,PGA_RotD50,PGA_RotD100,PGV_RotD50,PGV_RotD100
164529,1990-10-04T23:48:26.123000Z,D90606B5,5.57,0.15,Interface,O,1,190,21,58,special,-41.61,175.44,-41.2333,174.9199,5952370.8,2713346.37,5995282,2670919,7.6,7.6,60.3,61.9,58.15,59.96,51.33,-34.89,0,13.8,12.99,nu,606B,B,800,Q3,<0.1,Q3,0,Q3,0,-99999,-99999,0,0.4,12,0.68,12,HarvardCMT&Luo(1992),0.013748702,0.013860974,0.014082757,0.014400131,0.014819965,0.017370946,0.020946976,0.040426553,0.031438451,0.024208346,0.029906199,0.028816957,0.020934246,0.011791588,0.013727259,-99999,-99999,-99999,-99999,-99999,-99999,-99999,0.018029301,0.018206997,0.018511741,0.018950829,0.019599663,0.023450672,0.024941644,0.053668475,0.038320227,0.028973563,0.041438667,0.04015123,0.023712784,0.015834008,0.015200044,-99999,-99999,-99999,-99999,-99999,-99999,-99999,0.013701,0.018028,0.009334,0.010354
164529,1990-10-04T23:48:26.123000Z,D90642E8,5.57,0.15,Interface,O,1,190,21,58,special,-41.61,175.44,-41.2341,174.918,5952370.8,2713346.37,5995197,2670758,7.6,7.6,60.35,61.96,58.2,60.01,51.48,-34.78,0,13.8,12.99,nu,642E,C,350,Q1,0.35,Q2,50,Q3,0,-99999,-99999,0,0.4,13,0.68,13,HarvardCMT&Luo(1992),0.037692593,0.037890145,0.038152118,0.038583441,0.039079655,0.041826273,0.044305901,0.06780434,0.075404635,0.082568477,0.126820752,0.107238033,0.08358427,0.024616312,0.020233408,-99999,-99999,-99999,-99999,-99999,-99999,-99999,0.042374114,0.042571928,0.042883375,0.04337333,0.044033371,0.049444103,0.050095708,0.092392583,0.099291475,0.105055789,0.15567404,0.140654832,0.116884533,0.029376604,0.02770673,-99999,-99999,-99999,-99999,-99999,-99999,-99999,0.037615,0.042374,0.022462,0.02414
164529,1990-10-04T23:48:26.123000Z,D90900B5,5.57,0.15,Interface,O,1,190,21,58,special,-41.61,175.44,-41.2921,174.779,5952370.8,2713346.37,5989003,2658976,7.6,7.6,65.46,67,63.34,65.08,62.01,-26.63,0,13.8,12.99,nu,941A,D,272,Q2,0.85,Q2,9.85E+01,Q2,0,-99999,-99999,0,0.4,11.5,0.68,11.5,HarvardCMT&Luo(1992),0.022651272,0.022709839,0.022827709,0.023015075,0.023253495,0.024148183,0.025000509,0.043628244,0.045883119,0.044873952,0.047342447,0.051628309,0.059963252,0.050237452,0.035701933,-99999,-99999,-99999,-99999,-99999,-99999,-99999,0.025337518,0.025406875,0.025519628,0.025684602,0.025933143,0.027128268,0.026571781,0.04943945,0.049286475,0.047275254,0.054221758,0.06940553,0.084688429,0.053895147,0.039134663,-99999,-99999,-99999,-99999,-99999,-99999,-99999,0.02265,0.025338,0.022889,0.025328
164529,1990-10-04T23:48:26.123000Z,D90935B2,5.57,0.15,Interface,O,1,190,21,58,special,-41.61,175.44,-41.2108,174.9047,5952370.8,2713346.37,5997808,2669699,7.6,7.6,62.96,64.5,60.81,62.54,52.97,-37.17,0,13.8,12.99,nu,935A,D,240,Q3,1.2,Q3,275,Q3,0,-99999,-99999,0,0.4,15,0.68,15,HarvardCMT&Luo(1992),0.032910866,0.033090989,0.033446837,0.033973433,0.034771063,0.037610559,0.039623007,0.053571755,0.070658486,0.080568947,0.118113761,0.057798395,0.059005032,0.037150954,0.05511714,-99999,-99999,-99999,-99999,-99999,-99999,-99999,0.037515929,0.037657101,0.0378964,0.038317636,0.039038584,0.042152437,0.044013886,0.065121458,0.077303534,0.090645806,0.145229354,0.067053745,0.069479466,0.050188606,0.064967457,-99999,-99999,-99999,-99999,-99999,-99999,-99999,0.032746,0.037519,0.034941,0.042109
164529,1990-10-04T23:48:26.123000Z,D90941A5,5.57,0.15,Interface,O,1,190,21,58,special,-41.61,175.44,-41.2921,174.779,5952370.8,2713346.37,5989003,2658976,7.6,7.6,65.46,67,63.34,65.08,62.01,-26.63,0,13.8,12.99,nu,941A,D,272,Q2,0.85,Q2,9.85E+01,Q2,0,-99999,-99999,0,0.41,11,0.697,11,HarvardCMT&Luo(1992),0.022981159,0.02307595,0.023244717,0.02349348,0.023845143,0.025404877,0.02860896,0.043286139,0.043503333,0.043888425,0.052539509,0.061462894,0.046294615,0.044968176,0.025527153,-99999,-99999,-99999,-99999,-99999,-99999,-99999,0.031417229,0.031510261,0.031662174,0.031886598,0.032185744,0.033123935,0.033586928,0.056658027,0.051487572,0.055392135,0.066328772,0.078068663,0.062577801,0.050246693,0.032869344,-99999,-99999,-99999,-99999,-99999,-99999,-99999,0.022982,0.031422,0.021391,0.023599
160610,1990-10-06T02:41:12.583000Z,D90642EB,5.46,0.15,Interface,O,1,250,38,145,special,-41.61,175.43,-41.2341,174.918,5952394.08,2712513.04,5995197,2670758,6.7,6.7,59.75,61.46,58.1,60.11,56.08,24.6,0,14.2,12.97,nu,642E,C,350,Q1,0.35,Q2,50,Q3,0,-99999,-99999,0,0.6,11,1.02,11,HarvardCMT&Luo(1992),0.028069516,0.028179992,0.028320841,0.0285686,0.028814542,0.030007952,0.033333302,0.050889636,0.059138465,0.070180495,0.077689277,0.08721426,0.063229296,0.019040519,-99999,-99999,-99999,-99999,-99999,-99999,-99999,-99999,0.030113355,0.030273392,0.030535488,0.030923968,0.031433073,0.033604333,0.035507836,0.060109926,0.06858794,0.078544806,0.089407007,0.115813282,0.085792372,0.026925463,-99999,-99999,-99999,-99999,-99999,-99999,-99999,-99999,0.027979,0.030104,0.016174,0.019076
160610,1990-10-06T02:41:12.583000Z,D90900B6,5.46,0.15,Interface,O,1,250,38,145,special,-41.61,175.43,-41.2921,174.779,5952394.08,2712513.04,5989003,2658976,6.7,6.7,64.76,66.39,63.03,64.9,54.29,37.79,0,14.2,12.97,nu,941A,D,272,Q2,0.85,Q2,9.85E+01,Q2,0,-99999,-99999,0,0.4,10,0.68,10,HarvardCMT&Luo(1992),0.014071419,0.014103714,0.014160253,0.014232922,0.014331284,0.014629897,0.01522996,0.019383819,0.025167101,0.026646567,0.025893144,0.026696404,0.02314483,0.032128335,0.022144412,-99999,-99999,-99999,-99999,-99999,-99999,-99999,0.019033556,0.019068664,0.019134012,0.019222629,0.019326238,0.019673583,0.021191067,0.022689467,0.035401989,0.030513472,0.035764213,0.031867694,0.032730188,0.041386708,0.024972055,-99999,-99999,-99999,-99999,-99999,-99999,-99999,0.014052,0.019034,0.012221,0.01399
160610,1990-10-06T02:41:12.583000Z,D90935B3,5.46,0.15,Interface,O,1,250,38,145,special,-41.61,175.43,-41.2108,174.9047,5952394.08,2712513.04,5997808,2669699,6.7,6.7,62.37,64.01,60.72,62.65,58.89,24.7,0,14.2,12.97,nu,935A,D,240,Q3,1.2,Q3,275,Q3,0,-99999,-99999,0,0.3,15,0.51,15,HarvardCMT&Luo(1992),0.019819327,0.01991801,0.020031261,0.020216206,0.020480518,0.022082183,0.02434278,0.032669207,0.03547621,0.047153775,0.050954233,0.05113765,0.039349815,0.028104475,0.01854748,0.012092741,-99999,-99999,-99999,-99999,-99999,-99999,0.021462773,0.021557325,0.021711745,0.02193327,0.022213415,0.024522516,0.027236434,0.043250308,0.04316512,0.06523732,0.070011885,0.062672462,0.043554783,0.032329384,0.025788051,0.016483718,-99999,-99999,-99999,-99999,-99999,-99999,0.019813,0.021374,0.01878,0.023053
160610,1990-10-06T02:41:12.583000Z,D90941A6,5.46,0.15,Interface,O,1,250,38,145,special,-41.61,175.43,-41.2921,174.779,5952394.08,2712513.04,5989003,2658976,6.7,6.7,64.76,66.39,63.03,64.9,54.29,37.79,0,14.2,12.97,nu,941A,D,272,Q2,0.85,Q2,9.85E+01,Q2,0,-99999,-99999,0,0.35,12,0.595,12,HarvardCMT&Luo(1992),0.013387462,0.013427977,0.013499513,0.013606047,0.013762467,0.014266157,0.016898623,0.022427658,0.028001055,0.030643661,0.030836831,0.029780537,0.017136724,0.029285143,0.015462703,0.005580935,-99999,-99999,-99999,-99999,-99999,-99999,0.01652052,0.01659526,0.016706884,0.016881542,0.017135932,0.01864473,0.022375222,0.026829542,0.031998889,0.035515705,0.033614462,0.032298249,0.020427573,0.033173808,0.017164639,0.006725316,-99999,-99999,-99999,-99999,-99999,-99999,0.013333,0.016519,0.009242,0.010038
194283,1991-01-28T12:58:46.823000Z,A91051B1,5.76,0.08,Crustal,R,1,42,30,99,special,-41.89,171.58,-41.7557,171.5998,5923123.14,2392149.06,5938069,2393545,6.97,6.97,15.03,18.04,11.7,14.67,-5.94,12.04,0,10,8.26,nu,WBCS,D,300,Q3,1.2,Q2,105,Q3,0,-99999,-99999,1,0.4,27,0.68,27,Anderson_etal_1993&Dowrick_Rhoades1998&HarvardCMT,0.143885843,0.146105763,0.149589527,0.16995968,0.182594669,0.291715546,0.324154921,0.285550139,0.258617601,0.230761351,0.199518578,0.243384597,0.212385545,0.265408946,0.159302723,-99999,-99999,-99999,-99999,-99999,-99999,-99999,0.162881905,0.165252393,0.170514626,0.18744411,0.229125736,0.327081537,0.456220145,0.335099911,0.289948762,0.293408762,0.277536306,0.310402335,0.283574137,0.370805912,0.212104951,-99999,-99999,-99999,-99999,-99999,-99999,-99999,0.142879,0.161382,0.10733,0.128337
194283,1991-01-28T12:58:46.823000Z,A91083A1,5.76,0.08,Crustal,R,1,42,30,99,special,-41.89,171.58,-41.8311,171.6606,5923123.14,2392149.06,5929772,2398735,6.97,6.97,9.35,13.7,5.87,11.28,3.46,9.35,0,10,8.26,nu,083A,B,1200,Q3,<0.1,Q3,0,Q2,0,-99999,-99999,0,0.5,40,0.85,40,Anderson_etal_1993&Dowrick_Rhoades1998&HarvardCMT,0.20246615,0.222434674,0.344173768,0.333144328,0.381111484,0.37730462,0.310664831,0.285621212,0.244392179,0.127678292,0.134674639,0.144537136,0.118256353,0.094087019,0.080541937,-99999,-99999,-99999,-99999,-99999,-99999,-99999,0.261643635,0.314527051,0.486788943,0.471200036,0.511764947,0.436181244,0.374514964,0.3574491,0.3204838,0.131878479,0.160265916,0.168639823,0.158034352,0.132725696,0.11314047,-99999,-99999,-99999,-99999,-99999,-99999,-99999,0.193315,0.234507,0.065445,0.081315
194283,1991-01-28T12:58:46.823000Z,A91090A1,5.76,0.08,Crustal,R,1,42,30,99,special,-41.89,171.58,-41.8553,171.9539,5923123.14,2392149.06,5927428,2423132,6.97,6.97,31.2,32.86,27.91,30.07,23.16,23.93,0,10,8.26,nu,090A,C,270,Q3,0.33,Q3,40,Q3,0,-99999,-99999,1,0.3,22,0.51,22,Anderson_etal_1993&Dowrick_Rhoades1998&HarvardCMT,0.083420379,0.084459041,0.086209344,0.088807051,0.093836887,0.1103254,0.132370545,0.162439475,0.204189162,0.16757464,0.134517695,0.159760877,0.176509955,0.083368042,0.048046537,0.027530072,-99999,-99999,-99999,-99999,-99999,-99999,0.115049084,0.11636453,0.118649614,0.121526307,0.12913604,0.156044099,0.159599978,0.195587487,0.254363511,0.231638252,0.148226058,0.225444406,0.211552411,0.105749784,0.065920806,0.036159292,-99999,-99999,-99999,-99999,-99999,-99999,0.08299,0.115127,0.061288,0.084013
194283,1991-01-28T12:58:46.823000Z,A91122A1,5.76,0.08,Crustal,R,1,42,30,99,special,-41.89,171.58,-41.8025,172.3248,5923123.14,2392149.06,5933606,2453884,6.97,6.97,62.46,63.44,59.16,60.33,41.88,49.1,0,10,8.26,nu,122A,D,500,Q3,1.6,Q3,250,Q3,0,-99999,-99999,1,0.4,40,0.68,40,Anderson_etal_1993&Dowrick_Rhoades1998&HarvardCMT,0.128361752,0.138584521,0.154335942,0.202191877,0.171069387,0.241954995,0.311527028,0.263065152,0.196189228,0.227194275,0.228524776,0.189480253,0.189510289,0.086836207,0.048683222,-99999,-99999,-99999,-99999,-99999,-99999,-99999,0.172316491,0.176761172,0.181799784,0.263516122,0.20364508,0.296524129,0.393960667,0.359651852,0.259150377,0.314143319,0.321941896,0.267148172,0.260145954,0.102167425,0.053519696,-99999,-99999,-99999,-99999,-99999,-99999,-99999,0.128037,0.172541,0.069375,0.08888
194283,1991-01-28T12:58:46.823000Z,D91042A3,5.76,0.08,Crustal,R,1,42,30,99,special,-41.89,171.58,-42.5232,172.8305,5923123.14,2392149.06,5853765,2496076,6.97,6.97,124.76,125.38,121.74,122.51,126.66,18,0,10,8.26,nu,HSES,D,280,Q3,0.9,Q1,85,Q3,0,-99999,-99999,1,0.2,11,0.34,11,Anderson_etal_1993&Dowrick_Rhoades1998&HarvardCMT,0.023587551,0.023660198,0.023768882,0.023949527,0.024184672,0.025122095,0.028176593,0.034840455,0.042016453,0.036747207,0.056071381,0.045443945,0.06842971,0.059335726,0.033268846,0.010955964,0.00632309,-99999,-99999,-99999,-99999,-99999,0.026779286,0.026831937,0.026944549,0.02708207,0.027271013,0.02792269,0.030316772,0.042496212,0.048799001,0.040929611,0.063539464,0.06117025,0.088187768,0.072597045,0.046828177,0.013020919,0.008932219,-99999,-99999,-99999,-99999,-99999,0.023586,0.026774,0.023361,0.029622
201724,1991-01-28T18:00:53.158000Z,A91051B2,5.89,0.08,Crustal,S,1,48,77,11,special,-41.9,171.67,-41.7557,171.5998,5922133.85,2399635.78,5938069,2393545,8.1,8.1,17.07,20.86,15.62,17.84,-15.01,6.14,0,12,8.05,fw,WBCS,D,300,Q3,1.2,Q2,105,Q3,0,-99999,-99999,1,0.3,20,0.51,20,Anderson_etal_1993&Dowrick_Rhoades1998&HarvardCMT,0.147509547,0.150085524,0.155012107,0.161940567,0.179128432,0.300397691,0.432086178,0.276207275,0.299155381,0.263256854,0.202559085,0.139945486,0.167168225,0.177490798,0.104804149,0.053923424,-99999,-99999,-99999,-99999,-99999,-99999,0.163631264,0.165181943,0.167689537,0.170502671,0.188445278,0.36074145,0.549768956,0.378077197,0.318879806,0.308629896,0.254393092,0.148719677,0.200996724,0.234081951,0.143366124,0.07437074,-99999,-99999,-99999,-99999,-99999,-99999,0.146803,0.16229,0.090179,0.110719
201724,1991-01-28T18:00:53.158000Z,A91052A2,5.89,0.08,Crustal,S,1,48,77,11,special,-41.9,171.67,-42.1166,171.8604,5922133.85,2399635.78,5898305,2415760,8.1,8.1,28.77,31.24,27.75,30.62,29.41,-3.96,0,12,8.05,hw,052A,C,333,Q3,0.3,Q3,30,Q3,0,-99999,-99999,1,0.5,35,0.85,35,Anderson_etal_1993&Dowrick_Rhoades1998&HarvardCMT,0.173601023,0.178736289,0.199685108,0.283847983,0.315547748,0.394877721,0.547816046,0.303842913,0.252803724,0.211285988,0.18288991,0.091341821,0.055747314,0.045624534,0.031833215,-99999,-99999,-99999,-99999,-99999,-99999,-99999,0.182699076,0.192803556,0.212662599,0.31021367,0.355015638,0.491545514,0.7402914,0.355820581,0.271799873,0.258710088,0.196616092,0.116263889,0.065685731,0.064064942,0.041253615,-99999,-99999,-99999,-99999,-99999,-99999,-99999,0.172849,0.182562,0.048354,0.054283
201724,1991-01-28T18:00:53.158000Z,A91083A2,5.89,0.08,Crustal,S,1,48,77,11,special,-41.9,171.67,-41.8311,171.6606,5922133.85,2399635.78,5929772,2398735,8.1,8.1,7.7,14.26,5.85,10.38,-5.37,4.44,0,12,8.05,fw,083A,B,1200,Q3,<0.1,Q3,0,Q2,0,-99999,-99999,1,1,35,1.7,35,Anderson_etal_1993&Dowrick_Rhoades1998&HarvardCMT,0.142775352,0.154338818,0.195137287,0.238693158,0.300989162,0.416294102,0.281447674,0.242587624,0.188314632,0.133354726,0.120332701,0.064502771,0.044961996,-99999,-99999,-99999,-99999,-99999,-99999,-99999,-99999,-99999,0.201926694,0.215858082,0.258074328,0.290791937,0.346307985,0.58145799,0.384083387,0.287519807,0.206475938,0.175631256,0.16660386,0.088405792,0.052267515,-99999,-99999,-99999,-99999,-99999,-99999,-99999,-99999,-99999,0.14279,0.201932,0.029918,0.038692
201724,1991-01-28T18:00:53.158000Z,A91090A2,5.89,0.08,Crustal,S,1,48,77,11,special,-41.9,171.67,-41.8553,171.9539,5922133.85,2399635.78,5927428,2423132,8.1,8.1,24.03,26.94,20.56,23.59,12.7,21,0,12,8.05,nu,090A,C,270,Q3,0.33,Q3,40,Q3,0,-99999,-99999,1,0.3,20,0.51,20,Anderson_etal_1993&Dowrick_Rhoades1998&HarvardCMT,0.16690181,0.167400764,0.168315974,0.17175096,0.180600044,0.187465044,0.243286775,0.28019211,0.464455883,0.421273708,0.333837798,0.46088955,0.282893734,0.217017244,0.151567535,0.058126501,-99999,-99999,-99999,-99999,-99999,-99999,0.185613256,0.186107243,0.186872626,0.188332485,0.19315055,0.193332318,0.262883348,0.308891074,0.535112268,0.461659779,0.44289037,0.625951496,0.378929408,0.281885445,0.208046522,0.072268097,-99999,-99999,-99999,-99999,-99999,-99999,0.16676,0.185405,0.123361,0.148819
201724,1991-01-28T18:00:53.158000Z,A91122A2,5.89,0.08,Crustal,S,1,48,77,11,special,-41.9,171.67,-41.8025,172.3248,5922133.85,2399635.78,5933606,2453884,8.1,8.1,55.31,56.76,51.82,53.36,28.68,47.99,0,12,8.05,nu,122A,D,500,Q3,1.6,Q3,250,Q3,0,-99999,-99999,1,0.3,33,0.51,33,Anderson_etal_1993&Dowrick_Rhoades1998&HarvardCMT,0.260895244,0.291715535,0.397871131,0.474987461,0.460224469,0.367568904,0.524550707,0.75327102,0.416963332,0.351604976,0.355035262,0.22760556,0.188587951,0.104362599,0.070784494,0.034910551,-99999,-99999,-99999,-99999,-99999,-99999,0.320341672,0.339654843,0.452175539,0.671803137,0.59757867,0.519258779,0.636545038,0.91796846,0.536831033,0.453452285,0.394804677,0.297127051,0.266681884,0.142846685,0.07966384,0.039987421,-99999,-99999,-99999,-99999,-99999,-99999,0.259538,0.310917,0.0751,0.09991
201724,1991-01-28T18:00:53.158000Z,D91042A4,5.89,0.08,Crustal,S,1,48,77,11,special,-41.9,171.67,-42.5232,172.8305,5922133.85,2399635.78,5853765,2496076,8.1,8.1,118.06,118.86,116.84,117.93,116.25,25.92,0,12,8.05,nu,HSES,D,280,Q3,0.9,Q1,85,Q3,0,-99999,-99999,0,0.3,12,0.51,12,Anderson_etal_1993&Dowrick_Rhoades1998&HarvardCMT,0.027226021,0.027272944,0.027361046,0.027483852,0.027668773,0.028438217,0.030993945,0.038344628,0.043777689,0.048735378,0.06144771,0.057250979,0.054464336,0.087911769,0.042194069,0.019669103,-99999,-99999,-99999,-99999,-99999,-99999,0.030576711,0.030607604,0.030630677,0.030670369,0.03091135,0.03254236,0.034538262,0.048272201,0.057366791,0.060200827,0.071285091,0.075887397,0.071539476,0.121646088,0.057705356,0.026230837,-99999,-99999,-99999,-99999,-99999,-99999,0.027216,0.030578,0.029481,0.035726
201354,1991-02-15T10:48:09.669000Z,A91051B3,5.42,0.15,Crustal,R,0,213,37,90,geonet,-42.0386,171.5897,-41.7557,171.5998,5906631.78,2393229.54,5938069,2393545,4.7,4.7,31.47,32.19,29.3,30.05,-99999,-99999,0,6.92,5.27,nu,WBCS,D,300,Q3,1.2,Q2,105,Q3,0,-99999,-99999,1,0.3,22,0.51,22,HarvardCMT,0.097932709,0.09931146,0.101738579,0.110503013,0.140835577,0.290545984,0.186172226,0.239293154,0.160029722,0.102693842,0.120777146,0.088921461,0.089411975,0.086254465,0.043509558,0.031965157,-99999,-99999,-99999,-99999,-99999,-99999,0.11932329,0.122828707,0.128787882,0.136224008,0.185509789,0.364030727,0.259893841,0.300603336,0.226326861,0.129843661,0.145794025,0.10465006,0.121022608,0.09155596,0.055019397,0.040353138,-99999,-99999,-99999,-99999,-99999,-99999,0.09661,0.119132,0.037472,0.047378
201354,1991-02-15T10:48:09.669000Z,A91052A3,5.42,0.15,Crustal,R,0,213,37,90,geonet,-42.0386,171.5897,-42.1166,171.8604,5906631.78,2393229.54,5898305,2415760,4.7,4.7,23.97,25.04,22.28,23.52,-99999,-99999,0,6.92,5.27,nu,052A,C,333,Q3,0.3,Q3,30,Q3,0,-99999,-99999,0,0.5,32,0.85,32,HarvardCMT,0.159409094,0.162812135,0.180928725,0.225374241,0.282101896,0.380595512,0.416568955,0.411116674,0.332382676,0.218385299,0.163261154,0.088863624,0.074686819,0.052520638,0.032291058,-99999,-99999,-99999,-99999,-99999,-99999,-99999,0.191410149,0.194975462,0.204077214,0.245107981,0.311724835,0.408601676,0.534728812,0.530198054,0.393635198,0.262331261,0.187039035,0.115317868,0.092493886,0.06382654,0.044314103,-99999,-99999,-99999,-99999,-99999,-99999,-99999,0.159601,0.19139,0.046705,0.056129
201354,1991-02-15T10:48:09.669000Z,A91090A3,5.42,0.15,Crustal,R,0,213,37,90,geonet,-42.0386,171.5897,-41.8553,171.9539,5906631.78,2393229.54,5927428,2423132,4.7,4.7,36.37,37.09,34.1,34.84,-99999,-99999,0,6.92,5.27,nu,090A,C,270,Q3,0.33,Q3,40,Q3,0,-99999,-99999,1,0.45,13,0.765,13,HarvardCMT,0.080305392,0.080698508,0.081350056,0.082297344,0.083688144,0.089290138,0.096406904,0.150570133,0.183125947,0.207824846,0.168697141,0.127047124,0.10146824,0.052278188,0.026067467,-99999,-99999,-99999,-99999,-99999,-99999,-99999,0.107711151,0.108202738,0.108990883,0.110131029,0.111654732,0.11750915,0.130816402,0.212930218,0.237163872,0.289203515,0.231522376,0.155633846,0.126507598,0.068159797,0.032504418,-99999,-99999,-99999,-99999,-99999,-99999,-99999,0.080027,0.10772,0.042587,0.057742
