CuspID,Origin_time,Record,Mw,MwUncert,TectClass,Mech,PreferredFaultPlane,Strike,Dip,Rake,Location,HypLat,HypLon,StationLat,StationLon,HypN,HypE,StationN,StationE,LENGTH_km,WIDTH_km,Repi_km,Rhyp_km,Rjb_km,Rrup_km,Rx_km,Ry_km,Rvol_km,HypDepth_km,ZTOR_km,HWFW,SiteCode,SiteClass1170,Vs30,Vs30Uncert,Tsite,TsiteUncert,Z1,Z1Uncertainty,Directivity,Pulse_or,Pulse_T,S_Trigger_Flag,fcButterHP,f_iniLP,fmin,fmax,References,f100.0000SA_RotD50,f50.0000SA_RotD50,f33.3333SA_RotD50,f25.0000SA_RotD50,f20.0000SA_RotD50,f13.3333SA_RotD50,f10.0000SA_RotD50,f6.6667SA_RotD50,f5.0000SA_RotD50,f4.0000SA_RotD50,f3.3333SA_RotD50,f2.5000SA_RotD50,f2.0000SA_RotD50,f1.3333SA_RotD50,f1.0000SA_RotD50,f0.6667SA_RotD50,f0.5000SA_RotD50,f0.3333SA_RotD50,f0.2500SA_RotD50,f0.2000SA_RotD50,f0.1333SA_RotD50,f0.1000SA_RotD50,f100.0000SA_RotD100,f50.0000SA_RotD100,f33.3333SA_RotD100,f25.0000SA_RotD100,f20.0000SA_RotD100,f13.3333SA_RotD100,f10.0000SA_RotD100,f6.6667SA_RotD100,f5.0000SA_RotD100,f4.0000SA_RotD100,f3.3333SA_RotD100,f2.5000SA_RotD100,f2.0000SA_RotD100,f1.3333SA_RotD100,f1.0000SA_RotD100,f0.6667SA_RotD100,f0.5000SA_RotD100,f0.3333SA_RotD100,f0.2500SA_RotD100,f0.2000SA_RotD100,f0.1333SA_RotD100,f0.1000SA_RotD100,PGA_RotD50,PGA_RotD100,PGV_RotD50,PGV_RotD100
722185,1995-03-22T19:43:30.268000Z,D5646A05,5.83,0.15,Slab,S,0,27,64,30,nlloc,-41.0514,174.216,-41.2574,174.9485,6016538.56,2612205.51,5992552,2673256,7.6,7.6,65.46,107.84,62.76,105.2,-99999,-99999,0,85.51,82.13,nu,WDAS,E,120,Q1,1.6,Q2,62,Q2,0,-99999,-99999,0,0.25,19,0.425,19,HarvardCMT,0.044257949,0.044780299,0.045739352,0.047222867,0.049461252,0.069711202,0.070287315,0.097367415,0.099262165,0.093459415,0.091237195,0.082168736,0.080438239,0.068098128,0.049299447,0.025087289,0.008308816,-99999,-99999,-99999,-99999,-99999,0.061423917,0.061953809,0.063014426,0.06462191,0.066636481,0.085715309,0.073658254,0.122488127,0.139879213,0.118328245,0.115820386,0.107760836,0.095273537,0.093102147,0.058889665,0.032776334,0.01098009,-99999,-99999,-99999,-99999,-99999,0.044194,0.061457,0.031242,0.043211
722185,1995-03-22T19:43:30.268000Z,D5647D02,5.83,0.15,Slab,S,0,27,64,30,nlloc,-41.0514,174.216,-41.2875,174.7769,6016538.56,2612205.51,5989514,2658817,7.6,7.6,53.8,101.07,51.16,98.26,-99999,-99999,0,85.51,82.13,nu,647D,D,474,Q2,0.12,Q2,5.70E+00,Q2,0,-99999,-99999,0,0.3,18,0.51,18,HarvardCMT,0.043999667,0.044489896,0.045240171,0.046499253,0.048675793,0.063281896,0.073325777,0.105079776,0.155511527,0.093761286,0.101572316,0.086157526,0.039308965,0.01972734,0.010953326,0.006416985,-99999,-99999,-99999,-99999,-99999,-99999,0.053281021,0.053406419,0.053672154,0.054453842,0.057601634,0.07631605,0.077913703,0.11866245,0.197985381,0.120889156,0.108820368,0.106314931,0.042678286,0.022952404,0.012038735,0.008119612,-99999,-99999,-99999,-99999,-99999,-99999,0.044004,0.053275,0.021937,0.024439
722185,1995-03-22T19:43:30.268000Z,D5648A03,5.83,0.15,Slab,S,0,27,64,30,nlloc,-41.0514,174.216,-41.2775,174.7735,6016538.56,2612205.51,5990634,2658549,7.6,7.6,53.01,109.27,50.36,106.39,-99999,-99999,0,85.51,82.13,nu,921A,C,330,Q3,0.5,Q3,38,Q3,0,-99999,-99999,0,0.35,32,0.595,32,HarvardCMT,0.057759893,0.058799496,0.060865761,0.069337093,0.072374146,0.094254215,0.114095778,0.156077296,0.166101555,0.134158012,0.111966245,0.084453444,0.05634786,0.023551378,0.013705835,0.007894469,-99999,-99999,-99999,-99999,-99999,-99999,0.060714888,0.061322554,0.065753249,0.081659654,0.075776751,0.107629092,0.139588661,0.21755517,0.192812388,0.153223729,0.143227024,0.098987949,0.066643266,0.032149623,0.016397326,0.009570852,-99999,-99999,-99999,-99999,-99999,-99999,0.057084,0.060531,0.025057,0.029225
722185,1995-03-22T19:43:30.268000Z,D5707A02,5.83,0.15,Slab,S,0,27,64,30,nlloc,-41.0514,174.216,-41.1391,174.8502,6016538.56,2612205.51,6005867,2665298,7.6,7.6,54.03,101.23,51.21,98.48,-99999,-99999,0,85.51,82.13,nu,707A,C,570,Q3,0.15,Q3,10,Q3,0,-99999,-99999,0,0.25,20,0.425,20,HarvardCMT,0.032789752,0.033776435,0.03553742,0.038790091,0.046036135,0.06495864,0.085946514,0.079425149,0.036507124,0.040614274,0.028084927,0.029714219,0.018830835,0.013288784,0.007037025,0.005520291,0.002985471,-99999,-99999,-99999,-99999,-99999,0.038030827,0.038898502,0.040416363,0.04263405,0.049425391,0.079566014,0.113087143,0.0954065,0.044368355,0.048309593,0.031893218,0.035397558,0.022593312,0.016352784,0.007922384,0.006551013,0.003825924,-99999,-99999,-99999,-99999,-99999,0.032794,0.037966,0.009417,0.01102
722185,1995-03-22T19:43:30.268000Z,D5900C02,5.83,0.15,Slab,S,0,27,64,30,nlloc,-41.0514,174.216,-41.2891,174.7799,6016538.56,2612205.51,5989335,2659058,7.6,7.6,54.09,101.23,51.45,98.43,-99999,-99999,0,85.51,82.13,nu,900C,D,250,Q3,0.8,Q3,60,Q3,0,-99999,-99999,0,0.3,15,0.51,15,HarvardCMT,0.054887384,0.055164386,0.055622622,0.056319728,0.057383242,0.068319289,0.078136536,0.116288124,0.170709137,0.178350102,0.137535078,0.13027343,0.057097704,0.035825295,0.017301319,0.007236454,-99999,-99999,-99999,-99999,-99999,-99999,0.070234643,0.070605107,0.071212387,0.072193993,0.073634703,0.094411577,0.106605498,0.158386071,0.240766003,0.233926072,0.152202827,0.175121765,0.069326696,0.047589434,0.020106486,0.008729102,-99999,-99999,-99999,-99999,-99999,-99999,0.054898,0.07014,0.030361,0.034038
722185,1995-03-22T19:43:30.268000Z,D5935C03,5.83,0.15,Slab,S,0,27,64,30,nlloc,-41.0514,174.216,-41.2108,174.9047,6016538.56,2612205.51,5997808,2669699,7.6,7.6,60.34,104.73,57.6,102.04,-99999,-99999,0,85.51,82.13,nu,935A,D,240,Q3,1.2,Q3,275,Q3,0,-99999,-99999,0,0.25,24.5,0.425,24.5,HarvardCMT,0.038862681,0.039182434,0.03978297,0.041359303,0.043279054,0.052891366,0.057921844,0.067957425,0.080905133,0.083052217,0.093658534,0.103958758,0.078983322,0.025775319,0.024292094,0.011385695,0.006403191,-99999,-99999,-99999,-99999,-99999,0.042459404,0.042915487,0.04375769,0.04719722,0.045365848,0.063552326,0.066891467,0.085515524,0.110738473,0.099212251,0.126679745,0.130848005,0.086265331,0.030086347,0.034348404,0.015504604,0.007576882,-99999,-99999,-99999,-99999,-99999,0.038712,0.042452,0.023412,0.027531
722185,1995-03-22T19:43:30.268000Z,I5027F03,5.83,0.15,Slab,S,0,27,64,30,nlloc,-41.0514,174.216,-39.4884,176.9189,6016538.56,2612205.51,6183307,2847012,7.6,7.6,287.72,300.43,284.58,297.6,-99999,-99999,0,85.51,82.13,nu,NAMS,C,268,Q3,0.4,Q3,20,Q3,0,-99999,-99999,1,0.5,21,0.85,21,HarvardCMT,0.007503949,0.007532207,0.007587141,0.007701354,0.007994196,0.008570401,0.008873094,0.012158422,0.01391311,0.014583161,0.021599046,0.030772989,0.015222497,0.005500788,0.002447451,-99999,-99999,-99999,-99999,-99999,-99999,-99999,0.010086112,0.010124292,0.01019127,0.010298274,0.010364629,0.012076771,0.012322515,0.015064298,0.015578634,0.018998492,0.027033758,0.040825728,0.020259722,0.007518889,0.003202642,-99999,-99999,-99999,-99999,-99999,-99999,-99999,0.00749,0.010072,0.004646,0.005415
722185,1995-03-22T19:43:30.268000Z,I5467A07,5.83,0.15,Slab,S,0,27,64,30,nlloc,-41.0514,174.216,-41.2425,174.9024,6016538.56,2612205.51,5994293,2669430,7.6,7.6,61.27,105.27,58.57,102.59,-99999,-99999,0,85.51,82.13,nu,467A,D,218,Q3,1.5,Q3,200,Q3,0,-99999,-99999,0,0.19,28,0.323,28,HarvardCMT,0.037767698,0.038137927,0.03893558,0.039478043,0.04301648,0.052722634,0.064896806,0.105283155,0.112148545,0.063331617,0.044570919,0.05016944,0.063449223,0.03956541,0.0228895,0.021220208,0.007445609,0.002145528,-99999,-99999,-99999,-99999,0.043067448,0.043516695,0.044234167,0.045197827,0.049814895,0.058262902,0.070427597,0.123067941,0.141741546,0.071790032,0.047062676,0.062908891,0.081916774,0.051780163,0.025074457,0.027343283,0.008047457,0.002289983,-99999,-99999,-99999,-99999,0.037621,0.042592,0.02036,0.023217
722185,1995-03-22T19:43:30.268000Z,I5468A06,5.83,0.15,Slab,S,0,27,64,30,nlloc,-41.0514,174.216,-41.2011,174.9547,6016538.56,2612205.51,5998793,2673916,7.6,7.6,64.07,106.94,61.31,104.29,-99999,-99999,0,85.51,82.13,nu,468A,D,190,Q1,0.9,Q3,50,Q3,0,-99999,-99999,0,0.25,24,0.425,24,HarvardCMT,0.057133605,0.0577632,0.058847428,0.062960756,0.070238397,0.093448334,0.104335155,0.186921864,0.191756936,0.129061314,0.107424,0.108706407,0.096316869,0.063533729,0.054554859,0.012437238,0.006070153,-99999,-99999,-99999,-99999,-99999,0.074542997,0.075291025,0.076576319,0.079258949,0.081287304,0.120140385,0.143465418,0.255840547,0.224357259,0.167124767,0.114434623,0.134059141,0.122333784,0.068671283,0.06866833,0.014164427,0.00773478,-99999,-99999,-99999,-99999,-99999,0.057084,0.07455,0.031492,0.037271
722185,1995-03-22T19:43:30.268000Z,I5602C01,5.83,0.15,Slab,S,0,27,64,30,nlloc,-41.0514,174.216,-41.1903,174.928,6016538.56,2612205.51,6000041,2671703,7.6,7.6,61.61,105.49,58.84,102.81,-99999,-99999,0,85.51,82.13,nu,602C,B,1000,Q3,<0.1,Q3,0,Q3,0,-99999,-99999,0,0.2,45,0.34,45,HarvardCMT,0.018192677,0.018651144,0.020606286,0.021043939,0.023075679,0.049169511,0.044893288,0.034678314,0.042269826,0.035942165,0.031610751,0.02165843,0.016190019,0.010219138,0.008113617,0.004703157,0.003287819,-99999,-99999,-99999,-99999,-99999,0.022761404,0.023238805,0.024832616,0.028064348,0.026311749,0.060293016,0.056319257,0.044036398,0.058214346,0.042953386,0.039566543,0.027201307,0.021777391,0.011516543,0.010483564,0.006048884,0.004627459,-99999,-99999,-99999,-99999,-99999,0.017965,0.022615,0.008932,0.011987
722185,1995-03-22T19:43:30.268000Z,I5603B03,5.83,0.15,Slab,S,0,27,64,30,nlloc,-41.0514,174.216,-41.2237,174.86,6016538.56,2612205.51,5996453,2665923,7.6,7.6,57.23,102.97,54.52,100.24,-99999,-99999,0,85.51,82.13,nu,603B,B,1000,Q3,<0.1,Q3,0,Q3,0,-99999,-99999,0,0.25,30,0.425,30,HarvardCMT,0.016763064,0.017023937,0.017583166,0.018631829,0.021886978,0.028339566,0.041967927,0.053099664,0.033598109,0.022537394,0.021660198,0.024116678,0.019626067,0.010024156,0.008909414,0.006068035,0.004065158,-99999,-99999,-99999,-99999,-99999,0.023698577,0.024034965,0.024804375,0.025471656,0.030052293,0.036537428,0.057252708,0.074469829,0.044682202,0.026878971,0.023635993,0.025440122,0.021699045,0.011139067,0.010598389,0.008402632,0.005439895,-99999,-99999,-99999,-99999,-99999,0.016751,0.023688,0.00872,0.011914
722185,1995-03-22T19:43:30.268000Z,I5605B05,5.83,0.15,Slab,S,0,27,64,30,nlloc,-41.0514,174.216,-41.2074,174.9401,6016538.56,2612205.51,5998119,2672679,7.6,7.6,63.08,106.39,60.33,103.72,-99999,-99999,0,85.51,82.13,nu,FAIS,B,760,Q3,0.27,Q1,0,Q2,0,-99999,-99999,0,0.15,32,0.255,32,HarvardCMT,0.031833082,0.032341049,0.033541734,0.034711305,0.036893732,0.046514126,0.055488931,0.083158266,0.069336558,0.061090293,0.047280756,0.04002561,0.032050357,0.012595969,0.006382357,0.003529762,0.002427381,0.001004257,-99999,-99999,-99999,-99999,0.037425641,0.037810967,0.038383716,0.04024392,0.044228359,0.057583934,0.058221128,0.096009784,0.094790338,0.083346076,0.053584472,0.055266048,0.040837061,0.014528678,0.007519237,0.004373294,0.00287572,0.001415489,-99999,-99999,-99999,-99999,0.03163,0.037414,0.013971,0.019442
722185,1995-03-22T19:43:30.268000Z,I5606B07,5.83,0.15,Slab,S,0,27,64,30,nlloc,-41.0514,174.216,-41.2333,174.9199,6016538.56,2612205.51,5995282,2670919,7.6,7.6,62.31,105.88,59.59,103.21,-99999,-99999,0,85.51,82.13,nu,606B,B,800,Q3,<0.1,Q3,0,Q3,0,-99999,-99999,0,0.25,35,0.425,35,HarvardCMT,0.033495986,0.034861267,0.038291688,0.040004655,0.052824128,0.062229123,0.068946622,0.102729324,0.070840622,0.038065171,0.02970001,0.021823777,0.012788357,0.007909348,0.003405749,0.002453049,0.001999643,-99999,-99999,-99999,-99999,-99999,0.037331986,0.039059058,0.040819652,0.042783145,0.05519692,0.068147972,0.085328482,0.114638514,0.082648626,0.042539141,0.03792472,0.027414399,0.01800854,0.010931354,0.004664,0.003014774,0.002232444,-99999,-99999,-99999,-99999,-99999,0.032391,0.036712,0.008125,0.009724
722185,1995-03-22T19:43:30.268000Z,I5642G18,5.83,0.15,Slab,S,0,27,64,30,nlloc,-41.0514,174.216,-41.235,174.9172,6016538.56,2612205.51,5995098,2670688,7.6,7.6,62.16,105.8,59.44,103.12,-99999,-99999,0,85.51,82.13,nu,642G,C,350,Q1,0.35,Q2,50,Q3,0,-99999,-99999,0,0.25,35,0.425,35,HarvardCMT,0.074221529,0.075776828,0.079548274,0.082399162,0.09708857,0.107176241,0.131257068,0.220781153,0.147387207,0.115186593,0.079013425,0.0629588,0.041391963,0.016253196,0.007186147,0.003320488,0.002506663,-99999,-99999,-99999,-99999,-99999,0.083231869,0.084669426,0.087040045,0.089250208,0.105982821,0.132015559,0.156494374,0.255422018,0.192166406,0.12650939,0.083097758,0.072244196,0.044935917,0.020591151,0.008236531,0.003882624,0.002886674,-99999,-99999,-99999,-99999,-99999,0.073975,0.0828,0.018827,0.023045
722185,1995-03-22T19:43:30.268000Z,I5642H18,5.83,0.15,Slab,S,0,27,64,30,nlloc,-41.0514,174.216,-41.235,174.9172,6016538.56,2612205.51,5995098,2670688,7.6,7.6,62.16,105.8,59.44,103.12,-99999,-99999,0,85.51,82.13,nu,642H,C,350,Q1,0.35,Q2,50,Q3,0,-99999,-99999,0,0.25,35,0.425,35,HarvardCMT,0.053406835,0.054382215,0.056847546,0.059121933,0.064456464,0.079869133,0.09182021,0.13721848,0.133344282,0.143714283,0.094746248,0.070817978,0.046060993,0.01673915,0.007360073,0.003530253,0.002774911,-99999,-99999,-99999,-99999,-99999,0.069740969,0.070914272,0.073421825,0.073328106,0.08350009,0.095499765,0.128659486,0.191699464,0.174963635,0.178954606,0.10660129,0.087013833,0.053156698,0.022204226,0.008249098,0.004152677,0.002989044,-99999,-99999,-99999,-99999,-99999,0.053201,0.069069,0.020039,0.022652
722185,1995-03-22T19:43:30.268000Z,I5708A04,5.83,0.15,Slab,S,0,27,64,30,nlloc,-41.0514,174.216,-41.1314,174.8391,6016538.56,2612205.51,6006740,2664387,7.6,7.6,52.97,100.66,50.14,97.89,-99999,-99999,0,85.51,82.13,nu,POLS,C,250,Q2,0.4,Q1,25,Q2,0,-99999,-99999,0,0.15,30,0.255,30,HarvardCMT,0.039474925,0.039905566,0.041057851,0.042440468,0.044895683,0.061962911,0.074060947,0.090438205,0.068841674,0.077732545,0.096901468,0.088229714,0.043042827,0.020934904,0.011577854,0.00650861,0.003650323,0.001534493,-99999,-99999,-99999,-99999,0.044070193,0.044774445,0.047019103,0.05205765,0.053722245,0.067992894,0.09061817,0.127257934,0.080199081,0.096872843,0.11590297,0.114644194,0.047159734,0.022911959,0.01313712,0.008342238,0.004617793,0.002086298,-99999,-99999,-99999,-99999,0.039215,0.044089,0.018455,0.02399
722185,1995-03-22T19:43:30.268000Z,I5711A01,5.83,0.15,Slab,S,0,27,64,30,nlloc,-41.0514,174.216,-41.2294,174.9042,6016538.56,2612205.51,5995739,2669619,7.6,7.6,60.94,105.08,58.22,102.39,-99999,-99999,0,85.51,82.13,nu,LRSS,D,230,Q3,1.4,Q3,175,Q3,0,-99999,-99999,0,0.25,24.5,0.425,24.5,HarvardCMT,0.043215604,0.043696025,0.044556953,0.045171668,0.048421328,0.073923081,0.091506249,0.104374578,0.070342994,0.096902659,0.101737799,0.096171803,0.075594679,0.029869542,0.01707734,0.014156265,0.007609293,-99999,-99999,-99999,-99999,-99999,0.061123672,0.061801628,0.062875203,0.063595342,0.067924102,0.095038766,0.119130988,0.112778631,0.087060625,0.132213052,0.142912277,0.112555855,0.102585936,0.038897288,0.022215465,0.015512404,0.009437262,-99999,-99999,-99999,-99999,-99999,0.042852,0.06009,0.026957,0.036004
722185,1995-03-22T19:43:30.268000Z,I5918B08,5.83,0.15,Slab,S,0,27,64,30,nlloc,-41.0514,174.216,-41.284,174.7682,6016538.56,2612205.51,5989908,2658140,7.6,7.6,52.97,100.77,50.33,97.95,-99999,-99999,0,85.51,82.13,nu,WEL,B,1000,Q3,0.3,Q1,0,Q2,0,-99999,-99999,0,0.25,24.5,0.425,24.5,HarvardCMT,0.058460163,0.059286136,0.060750367,0.063260236,0.067952557,0.085817604,0.10115994,0.228458541,0.160411861,0.136126975,0.088683069,0.053496926,0.033486828,0.013319942,0.010682717,0.007231794,0.004871229,-99999,-99999,-99999,-99999,-99999,0.079342257,0.080123142,0.081292307,0.082075371,0.088082799,0.096368333,0.112114367,0.282259661,0.203743431,0.181458364,0.115536603,0.07115021,0.045997144,0.017568895,0.012831116,0.00910524,0.006589749,-99999,-99999,-99999,-99999,-99999,0.058394,0.078329,0.02109,0.029719
722185,1995-03-22T19:43:30.268000Z,I5926A03,5.83,0.15,Slab,S,0,27,64,30,nlloc,-41.0514,174.216,-39.4883,176.9169,6016538.56,2612205.51,6183331,2846839,7.6,7.6,287.59,300.32,284.45,297.49,-99999,-99999,0,85.51,82.13,nu,926A,C,651,Q3,0.07,Q3,5,Q3,0,-99999,-99999,1,0.35,15,0.595,15,HarvardCMT,0.004263017,0.004281792,0.004313295,0.004359203,0.004448224,0.005071637,0.006759546,0.008143623,0.010332474,0.009705526,0.01232796,0.017860236,0.008816982,0.00291371,0.001839126,0.000779336,-99999,-99999,-99999,-99999,-99999,-99999,0.00546395,0.005501598,0.005568146,0.005672833,0.005834123,0.006311992,0.00760319,0.010637611,0.012710421,0.011283051,0.016416738,0.025195097,0.012248327,0.004072002,0.002545294,0.001053623,-99999,-99999,-99999,-99999,-99999,-99999,0.004257,0.005447,0.002834,0.003776
722185,1995-03-22T19:43:30.268000Z,K5046A01,5.83,0.15,Slab,S,0,27,64,30,nlloc,-41.0514,174.216,-41.2709,173.2837,6016538.56,2612205.51,5992838,2533754,7.6,7.6,81.77,118.44,78.66,114.68,-99999,-99999,0,85.51,82.13,nu,NCBS,D,210,Q3,0.7,Q2,50,Q3,0,-99999,-99999,1,0.7,14,1.19,14,HarvardCMT,0.039035762,0.03934517,0.039845183,0.040509995,0.041464108,0.046874911,0.049630789,0.083879329,0.081000703,0.098172895,0.09837729,0.072156511,0.053621643,0.030219308,-99999,-99999,-99999,-99999,-99999,-99999,-99999,-99999,0.043799665,0.044021409,0.044393126,0.044960103,0.045763721,0.048247137,0.061293219,0.091562484,0.088479826,0.131657012,0.119152055,0.081142474,0.068998312,0.039144553,-99999,-99999,-99999,-99999,-99999,-99999,-99999,-99999,0.038739,0.043798,0.018358,0.023447
722185,1995-03-22T19:43:30.268000Z,K5087A01,5.83,0.15,Slab,S,0,27,64,30,nlloc,-41.0514,174.216,-39.7163,175.1455,6016538.56,2612205.51,6163232,2693941,7.6,7.6,168.04,188.46,165.17,186.14,-99999,-99999,0,85.51,82.13,nu,087A,B,1000,Q3,<0.1,Q3,0,Q2,0,-99999,-99999,1,0.5,20,0.85,20,HarvardCMT,0.057451383,0.058308721,0.059465179,0.061959509,0.067156245,0.085828306,0.130102732,0.131195379,0.164782818,0.126144008,0.114472131,0.149122446,0.059218535,0.025381687,0.021089334,-99999,-99999,-99999,-99999,-99999,-99999,-99999,0.075239163,0.076301121,0.078096457,0.081181475,0.088333965,0.100635242,0.17751458,0.147231138,0.195205652,0.145795435,0.156601758,0.205871577,0.080923279,0.028751584,0.027209516,-99999,-99999,-99999,-99999,-99999,-99999,-99999,0.057253,0.07431,0.025754,0.03317
722185,1995-03-22T19:43:30.268000Z,K5087C01,5.83,0.15,Slab,S,0,27,64,30,nlloc,-41.0514,174.216,-39.7171,175.1382,6016538.56,2612205.51,6163158,2693314,7.6,7.6,167.67,188.13,164.8,185.82,-99999,-99999,0,85.51,82.13,nu,087C,C,425,Q3,0.33,Q3,30,Q3,0,-99999,-99999,1,0.7,14,1.19,14,HarvardCMT,0.064529468,0.064812826,0.065292601,0.065957813,0.066820064,0.079917417,0.093507603,0.138887918,0.194638956,0.192677733,0.188277162,0.177145438,0.163000052,0.050051681,-99999,-99999,-99999,-99999,-99999,-99999,-99999,-99999,0.07139136,0.071678908,0.072148625,0.072769883,0.07362245,0.086043955,0.113013765,0.178220142,0.241387269,0.231362492,0.211714386,0.192138619,0.187367612,0.066532336,-99999,-99999,-99999,-99999,-99999,-99999,-99999,-99999,0.064436,0.071363,0.034959,0.043902
722185,1995-03-22T19:43:30.268000Z,K5608A01,5.83,0.15,Slab,S,0,27,64,30,nlloc,-41.0514,174.216,-41.2241,174.8794,6016538.56,2612205.51,5996377,2667546,7.6,7.6,58.78,103.83,56.06,101.12,-99999,-99999,0,85.51,82.13,nu,608A,D,200,Q2,2,Q2,250,Q3,0,-99999,-99999,1,0.4,11,0.68,11,HarvardCMT,0.029269192,0.02935688,0.029558219,0.029868292,0.030289134,0.032088384,0.036465334,0.049531005,0.057585934,0.040388987,0.042246205,0.065179412,0.090475505,0.044779627,0.021974794,-99999,-99999,-99999,-99999,-99999,-99999,-99999,0.036011071,0.036186023,0.03647124,0.036890511,0.037477831,0.039846982,0.044106176,0.07005284,0.064757916,0.043694035,0.051796229,0.078480512,0.115648515,0.052111816,0.023219472,-99999,-99999,-99999,-99999,-99999,-99999,-99999,0.029264,0.035812,0.024995,0.030959
