CuspID,Origin_time,Record,Mw,MwUncert,TectClass,Mech,PreferredFaultPlane,Strike,Dip,Rake,Location,HypLat,HypLon,StationLat,StationLon,HypN,HypE,StationN,StationE,LENGTH_km,WIDTH_km,Repi_km,Rhyp_km,Rjb_km,Rrup_km,Rx_km,Ry_km,Rvol_km,HypDepth_km,ZTOR_km,HWFW,SiteCode,SiteClass1170,Vs30,Vs30Uncert,Tsite,TsiteUncert,Z1,Z1Uncertainty,Directivity,Pulse_or,Pulse_T,S_Trigger_Flag,fcButterHP,f_iniLP,fmin,fmax,References,f100.0000SA_RotD50,f50.0000SA_RotD50,f33.3333SA_RotD50,f25.0000SA_RotD50,f20.0000SA_RotD50,f13.3333SA_RotD50,f10.0000SA_RotD50,f6.6667SA_RotD50,f5.0000SA_RotD50,f4.0000SA_RotD50,f3.3333SA_RotD50,f2.5000SA_RotD50,f2.0000SA_RotD50,f1.3333SA_RotD50,f1.0000SA_RotD50,f0.6667SA_RotD50,f0.5000SA_RotD50,f0.3333SA_RotD50,f0.2500SA_RotD50,f0.2000SA_RotD50,f0.1333SA_RotD50,f0.1000SA_RotD50,f100.0000SA_RotD100,f50.0000SA_RotD100,f33.3333SA_RotD100,f25.0000SA_RotD100,f20.0000SA_RotD100,f13.3333SA_RotD100,f10.0000SA_RotD100,f6.6667SA_RotD100,f5.0000SA_RotD100,f4.0000SA_RotD100,f3.3333SA_RotD100,f2.5000SA_RotD100,f2.0000SA_RotD100,f1.3333SA_RotD100,f1.0000SA_RotD100,f0.6667SA_RotD100,f0.5000SA_RotD100,f0.3333SA_RotD100,f0.2500SA_RotD100,f0.2000SA_RotD100,f0.1333SA_RotD100,f0.1000SA_RotD100,PGA_RotD50,PGA_RotD100,PGV_RotD50,PGV_RotD100
722185,1995-03-22T19:43:30.268000Z,D5643B07,5.83,0.15,Slab,S,0,27,64,30,nlloc,-41.0514,174.216,-41.1513,174.9794,6016538.56,2612205.51,6004275,2676112,7.6,7.6,64.92,107.53,62.09,104.88,-99999,-99999,0,85.51,82.13,nu,643B,B,1000,Q3,<0.1,Q3,1.50E+00,Q3,0,-99999,-99999,0,0.3,30,0.51,30,HarvardCMT,0.043771353,0.044796566,0.047382932,0.048938405,0.052418571,0.065283065,0.070980783,0.105902589,0.073877794,0.049567713,0.03755463,0.022550784,0.015166869,0.007341689,0.004551313,0.002521834,-99999,-99999,-99999,-99999,-99999,-99999,0.052889029,0.054277384,0.057018196,0.058505566,0.067398522,0.077625172,0.096163643,0.128849286,0.07971112,0.064354851,0.047093427,0.029556239,0.016695543,0.007938279,0.004792994,0.003519064,-99999,-99999,-99999,-99999,-99999,-99999,0.043803,0.051789,0.013908,0.016355
722185,1995-03-22T19:43:30.268000Z,D5646A05,5.83,0.15,Slab,S,0,27,64,30,nlloc,-41.0514,174.216,-41.2574,174.9485,6016538.56,2612205.51,5992552,2673256,7.6,7.6,65.46,107.84,62.76,105.2,-99999,-99999,0,85.51,82.13,nu,WDAS,E,120,Q1,1.6,Q2,62,Q2,0,-99999,-99999,0,0.25,19,0.425,19,HarvardCMT,0.044262888,0.044794835,0.045669102,0.046915871,0.048695643,0.059526507,0.064254238,0.076223799,0.070353697,0.065771308,0.071838723,0.062517973,0.056572676,0.043900874,0.040905219,0.018850699,0.00744359,-99999,-99999,-99999,-99999,-99999,0.061378868,0.061999878,0.062991819,0.064362879,0.065743498,0.075857554,0.06872147,0.099305125,0.087485755,0.082701085,0.086652478,0.083915205,0.066139868,0.062028311,0.048829746,0.024375217,0.009731432,-99999,-99999,-99999,-99999,-99999,0.044194,0.061457,0.031242,0.043211
722185,1995-03-22T19:43:30.268000Z,D5647D02,5.83,0.15,Slab,S,0,27,64,30,nlloc,-41.0514,174.216,-41.2875,174.7769,6016538.56,2612205.51,5989514,2658817,7.6,7.6,53.8,101.07,51.16,98.26,-99999,-99999,0,85.51,82.13,nu,647D,D,474,Q2,0.12,Q2,5.70E+00,Q2,0,-99999,-99999,0,0.3,18,0.51,18,HarvardCMT,0.043988204,0.044440507,0.045142641,0.046218034,0.048025283,0.05526255,0.062637192,0.081256855,0.096491597,0.070493193,0.07548939,0.053568061,0.029748848,0.015416059,0.00845447,0.004739288,-99999,-99999,-99999,-99999,-99999,-99999,0.053285398,0.053407989,0.053746363,0.054586865,0.057437081,0.067863703,0.069818245,0.092052962,0.127716053,0.094056572,0.085602653,0.067293669,0.032281439,0.018108238,0.009337002,0.006112707,-99999,-99999,-99999,-99999,-99999,-99999,0.044004,0.053275,0.021937,0.024439
722185,1995-03-22T19:43:30.268000Z,D5648A03,5.83,0.15,Slab,S,0,27,64,30,nlloc,-41.0514,174.216,-41.2775,174.7735,6016538.56,2612205.51,5990634,2658549,7.6,7.6,53.01,109.27,50.36,106.39,-99999,-99999,0,85.51,82.13,nu,921A,C,330,Q3,0.5,Q3,38,Q3,0,-99999,-99999,0,0.35,32,0.595,32,HarvardCMT,0.057766536,0.058762952,0.060056212,0.062716457,0.065361162,0.079965285,0.089765686,0.109654971,0.114408211,0.094202882,0.0787008,0.055157282,0.039763402,0.017063684,0.010593988,0.00596626,-99999,-99999,-99999,-99999,-99999,-99999,0.06068875,0.06131339,0.063936816,0.068352284,0.069853064,0.088083091,0.109287871,0.143290757,0.134341039,0.109264825,0.090998008,0.058593962,0.042601388,0.02297991,0.012100987,0.006692711,-99999,-99999,-99999,-99999,-99999,-99999,0.057084,0.060531,0.025057,0.029225
722185,1995-03-22T19:43:30.268000Z,D5707A02,5.83,0.15,Slab,S,0,27,64,30,nlloc,-41.0514,174.216,-41.1391,174.8502,6016538.56,2612205.51,6005867,2665298,7.6,7.6,54.03,101.23,51.21,98.48,-99999,-99999,0,85.51,82.13,nu,707A,C,570,Q3,0.15,Q3,10,Q3,0,-99999,-99999,0,0.25,20,0.425,20,HarvardCMT,0.032738749,0.033732622,0.035332445,0.038313498,0.042024065,0.051441419,0.059988718,0.050490443,0.028519923,0.026925008,0.02058697,0.01952769,0.015366947,0.009565698,0.005820328,0.004003009,0.00230607,-99999,-99999,-99999,-99999,-99999,0.038074028,0.038980971,0.040477301,0.04265516,0.046833805,0.065053131,0.076712598,0.062718003,0.035263364,0.028653542,0.022375292,0.024978561,0.018611687,0.012695699,0.006889741,0.004499267,0.002649833,-99999,-99999,-99999,-99999,-99999,0.032794,0.037966,0.009417,0.01102
722185,1995-03-22T19:43:30.268000Z,D5900C02,5.83,0.15,Slab,S,0,27,64,30,nlloc,-41.0514,174.216,-41.2891,174.7799,6016538.56,2612205.51,5989335,2659058,7.6,7.6,54.09,101.23,51.45,98.43,-99999,-99999,0,85.51,82.13,nu,900C,D,250,Q3,0.8,Q3,60,Q3,0,-99999,-99999,0,0.3,15,0.51,15,HarvardCMT,0.054876199,0.055138444,0.055587515,0.056259831,0.057287797,0.064816347,0.071395485,0.095533031,0.122007998,0.113862779,0.104801031,0.078120206,0.043807407,0.026461302,0.013771523,0.006027563,-99999,-99999,-99999,-99999,-99999,-99999,0.070253762,0.070642403,0.071281765,0.07224009,0.073608565,0.088507568,0.100172995,0.13173649,0.170603808,0.153285962,0.113595022,0.100611552,0.051011184,0.035924624,0.016051261,0.00679097,-99999,-99999,-99999,-99999,-99999,-99999,0.054898,0.07014,0.030361,0.034038
722185,1995-03-22T19:43:30.268000Z,D5935C03,5.83,0.15,Slab,S,0,27,64,30,nlloc,-41.0514,174.216,-41.2108,174.9047,6016538.56,2612205.51,5997808,2669699,7.6,7.6,60.34,104.73,57.6,102.04,-99999,-99999,0,85.51,82.13,nu,935A,D,240,Q3,1.2,Q3,275,Q3,0,-99999,-99999,0,0.25,24.5,0.425,24.5,HarvardCMT,0.038844723,0.039119354,0.039660117,0.040613374,0.040815376,0.045209708,0.05229251,0.061725933,0.066584213,0.063902578,0.065611949,0.066533184,0.053127119,0.022532168,0.017229656,0.008784335,0.004837877,-99999,-99999,-99999,-99999,-99999,0.042462885,0.04290561,0.043733282,0.045426371,0.045196369,0.055381688,0.057463105,0.07106154,0.077615612,0.074725875,0.084859181,0.08402162,0.057096117,0.028530028,0.023917297,0.011938393,0.005600937,-99999,-99999,-99999,-99999,-99999,0.038712,0.042452,0.023412,0.027531
722185,1995-03-22T19:43:30.268000Z,I5027F03,5.83,0.15,Slab,S,0,27,64,30,nlloc,-41.0514,174.216,-39.4884,176.9189,6016538.56,2612205.51,6183307,2847012,7.6,7.6,287.72,300.43,284.58,297.6,-99999,-99999,0,85.51,82.13,nu,NAMS,C,268,Q3,0.4,Q3,20,Q3,0,-99999,-99999,1,0.5,21,0.85,21,HarvardCMT,0.007503434,0.007530798,0.007584281,0.007686932,0.007893613,0.008081561,0.008288515,0.010565608,0.012341437,0.012891945,0.016285852,0.017981066,0.011280439,0.004613993,0.002079522,-99999,-99999,-99999,-99999,-99999,-99999,-99999,0.010085063,0.01012481,0.010191893,0.01029803,0.010464905,0.011266611,0.011321366,0.012956248,0.013718577,0.016054047,0.021392587,0.023471692,0.015041368,0.006319012,0.002846362,-99999,-99999,-99999,-99999,-99999,-99999,-99999,0.00749,0.010072,0.004646,0.005415
722185,1995-03-22T19:43:30.268000Z,I5467A07,5.83,0.15,Slab,S,0,27,64,30,nlloc,-41.0514,174.216,-41.2425,174.9024,6016538.56,2612205.51,5994293,2669430,7.6,7.6,61.27,105.27,58.57,102.59,-99999,-99999,0,85.51,82.13,nu,467A,D,218,Q3,1.5,Q3,200,Q3,0,-99999,-99999,0,0.19,28,0.323,28,HarvardCMT,0.037744075,0.038130921,0.038824808,0.039722161,0.041684319,0.047724578,0.056017759,0.078588006,0.073929017,0.046014724,0.036627268,0.039303293,0.044105458,0.026594979,0.01779819,0.013997234,0.005860987,0.001996221,-99999,-99999,-99999,-99999,0.04306612,0.04347966,0.044082059,0.045121179,0.047214574,0.050287758,0.064474659,0.082919554,0.085549473,0.053111281,0.039673256,0.048905839,0.05381692,0.033407639,0.019641333,0.016111676,0.006832578,0.002188872,-99999,-99999,-99999,-99999,0.037621,0.042592,0.02036,0.023217
722185,1995-03-22T19:43:30.268000Z,I5468A06,5.83,0.15,Slab,S,0,27,64,30,nlloc,-41.0514,174.216,-41.2011,174.9547,6016538.56,2612205.51,5998793,2673916,7.6,7.6,64.07,106.94,61.31,104.29,-99999,-99999,0,85.51,82.13,nu,468A,D,190,Q1,0.9,Q3,50,Q3,0,-99999,-99999,0,0.25,24,0.425,24,HarvardCMT,0.057152875,0.05778484,0.058727427,0.061737794,0.066097754,0.083900447,0.099294523,0.117320089,0.116252505,0.085418861,0.075373596,0.075885302,0.069161785,0.044721222,0.038635416,0.01094312,0.004977011,-99999,-99999,-99999,-99999,-99999,0.074524874,0.075220695,0.076415979,0.078276541,0.079466802,0.105440148,0.1270886,0.161142714,0.143304165,0.115149337,0.079413013,0.089495755,0.087600793,0.058618984,0.04479948,0.013149632,0.006164883,-99999,-99999,-99999,-99999,-99999,0.057084,0.07455,0.031492,0.037271
722185,1995-03-22T19:43:30.268000Z,I5602C01,5.83,0.15,Slab,S,0,27,64,30,nlloc,-41.0514,174.216,-41.1903,174.928,6016538.56,2612205.51,6000041,2671703,7.6,7.6,61.61,105.49,58.84,102.81,-99999,-99999,0,85.51,82.13,nu,602C,B,1000,Q3,<0.1,Q3,0,Q3,0,-99999,-99999,0,0.2,45,0.34,45,HarvardCMT,0.018187063,0.018580825,0.019798397,0.020341933,0.021935672,0.034634008,0.032652681,0.025814704,0.029723438,0.024674971,0.022614716,0.01640914,0.01199556,0.008422831,0.005577251,0.003427827,0.002381042,-99999,-99999,-99999,-99999,-99999,0.02274977,0.023140206,0.024358632,0.026439132,0.026558856,0.046052864,0.041533119,0.03258868,0.041125105,0.033711987,0.029905716,0.020460317,0.015364774,0.009574964,0.007256066,0.004374904,0.003296929,-99999,-99999,-99999,-99999,-99999,0.017965,0.022615,0.008932,0.011987
722185,1995-03-22T19:43:30.268000Z,I5603B03,5.83,0.15,Slab,S,0,27,64,30,nlloc,-41.0514,174.216,-41.2237,174.86,6016538.56,2612205.51,5996453,2665923,7.6,7.6,57.23,102.97,54.52,100.24,-99999,-99999,0,85.51,82.13,nu,603B,B,1000,Q3,<0.1,Q3,0,Q3,0,-99999,-99999,0,0.25,30,0.425,30,HarvardCMT,0.016762956,0.017016694,0.017591637,0.01838593,0.021044164,0.026126711,0.033739984,0.035847866,0.02235733,0.016909673,0.014742929,0.015696022,0.013638988,0.00817286,0.005661914,0.004307847,0.00302681,-99999,-99999,-99999,-99999,-99999,0.023705802,0.02406393,0.024876286,0.025966762,0.029357308,0.035414611,0.047361046,0.048589184,0.029041102,0.021257442,0.018043134,0.017827183,0.017674687,0.009476944,0.006807381,0.005855432,0.003828768,-99999,-99999,-99999,-99999,-99999,0.016751,0.023688,0.00872,0.011914
722185,1995-03-22T19:43:30.268000Z,I5605B05,5.83,0.15,Slab,S,0,27,64,30,nlloc,-41.0514,174.216,-41.2074,174.9401,6016538.56,2612205.51,5998119,2672679,7.6,7.6,63.08,106.39,60.33,103.72,-99999,-99999,0,85.51,82.13,nu,FAIS,B,760,Q3,0.27,Q1,0,Q2,0,-99999,-99999,0,0.15,32,0.255,32,HarvardCMT,0.031803889,0.032236758,0.033297891,0.034430777,0.035528083,0.04027883,0.044168295,0.060063814,0.048673188,0.042417696,0.034501075,0.031636813,0.025814301,0.010503812,0.00524118,0.002849372,0.0019968,0.000816349,-99999,-99999,-99999,-99999,0.037433104,0.037809153,0.038369733,0.039715839,0.042385203,0.050669591,0.051595166,0.069177823,0.065272379,0.051813513,0.042511138,0.041661861,0.031182456,0.011705647,0.006172482,0.003319652,0.002396473,0.001151168,-99999,-99999,-99999,-99999,0.03163,0.037414,0.013971,0.019442
722185,1995-03-22T19:43:30.268000Z,I5606B07,5.83,0.15,Slab,S,0,27,64,30,nlloc,-41.0514,174.216,-41.2333,174.9199,6016538.56,2612205.51,5995282,2670919,7.6,7.6,62.31,105.88,59.59,103.21,-99999,-99999,0,85.51,82.13,nu,606B,B,800,Q3,<0.1,Q3,0,Q3,0,-99999,-99999,0,0.25,35,0.425,35,HarvardCMT,0.033502694,0.034796434,0.03719856,0.038203926,0.044228564,0.05251192,0.05222587,0.062321726,0.043955076,0.028784062,0.019721964,0.014551882,0.008629509,0.005338962,0.002956091,0.001963338,0.001409765,-99999,-99999,-99999,-99999,-99999,0.037334789,0.038867417,0.040439825,0.041906691,0.048445793,0.061540333,0.064684949,0.075732305,0.050595799,0.030388842,0.026306185,0.019732917,0.011355182,0.007070538,0.003509759,0.002248025,0.001675742,-99999,-99999,-99999,-99999,-99999,0.032391,0.036712,0.008125,0.009724
722185,1995-03-22T19:43:30.268000Z,I5642G18,5.83,0.15,Slab,S,0,27,64,30,nlloc,-41.0514,174.216,-41.235,174.9172,6016538.56,2612205.51,5995098,2670688,7.6,7.6,62.16,105.8,59.44,103.12,-99999,-99999,0,85.51,82.13,nu,642G,C,350,Q1,0.35,Q2,50,Q3,0,-99999,-99999,0,0.25,35,0.425,35,HarvardCMT,0.074184057,0.075546168,0.078566362,0.082085917,0.092176678,0.102762723,0.11160227,0.15787725,0.10964623,0.085578383,0.06197048,0.046204146,0.02923441,0.013268567,0.006913326,0.002770033,0.00210372,-99999,-99999,-99999,-99999,-99999,0.083159796,0.084488726,0.086739081,0.090428812,0.101896386,0.126193291,0.146688389,0.175000724,0.120657478,0.091287772,0.066233044,0.052950199,0.031583131,0.01467208,0.007702014,0.003073192,0.002452006,-99999,-99999,-99999,-99999,-99999,0.073975,0.0828,0.018827,0.023045
722185,1995-03-22T19:43:30.268000Z,I5642H18,5.83,0.15,Slab,S,0,27,64,30,nlloc,-41.0514,174.216,-41.235,174.9172,6016538.56,2612205.51,5995098,2670688,7.6,7.6,62.16,105.8,59.44,103.12,-99999,-99999,0,85.51,82.13,nu,642H,C,350,Q1,0.35,Q2,50,Q3,0,-99999,-99999,0,0.25,35,0.425,35,HarvardCMT,0.053375868,0.054342093,0.056198132,0.058502103,0.063219527,0.074520277,0.083493971,0.089932237,0.093714709,0.094138215,0.068427852,0.054427268,0.031965617,0.013549854,0.006628255,0.002949977,0.002348216,-99999,-99999,-99999,-99999,-99999,0.06972177,0.070840432,0.073112358,0.074726181,0.080938694,0.096173422,0.117895125,0.115993626,0.114791867,0.107428097,0.074142926,0.060229428,0.036512534,0.015431825,0.007549016,0.003415092,0.002539048,-99999,-99999,-99999,-99999,-99999,0.053201,0.069069,0.020039,0.022652
722185,1995-03-22T19:43:30.268000Z,I5708A04,5.83,0.15,Slab,S,0,27,64,30,nlloc,-41.0514,174.216,-41.1314,174.8391,6016538.56,2612205.51,6006740,2664387,7.6,7.6,52.97,100.66,50.14,97.89,-99999,-99999,0,85.51,82.13,nu,POLS,C,250,Q2,0.4,Q1,25,Q2,0,-99999,-99999,0,0.15,30,0.255,30,HarvardCMT,0.039456818,0.039865666,0.040773428,0.041894893,0.04333619,0.049813732,0.059532701,0.065386737,0.056927344,0.06130843,0.064999568,0.054150286,0.034698379,0.016892349,0.009566686,0.005274626,0.003014734,0.001308942,-99999,-99999,-99999,-99999,0.044039179,0.044743428,0.046837181,0.050612155,0.052214035,0.061352886,0.071114002,0.085491891,0.067741843,0.072483489,0.068196676,0.068530811,0.038238144,0.018519812,0.010325173,0.006103108,0.00358016,0.001798789,-99999,-99999,-99999,-99999,0.039215,0.044089,0.018455,0.02399
722185,1995-03-22T19:43:30.268000Z,I5711A01,5.83,0.15,Slab,S,0,27,64,30,nlloc,-41.0514,174.216,-41.2294,174.9042,6016538.56,2612205.51,5995739,2669619,7.6,7.6,60.94,105.08,58.22,102.39,-99999,-99999,0,85.51,82.13,nu,LRSS,D,230,Q3,1.4,Q3,175,Q3,0,-99999,-99999,0,0.25,24.5,0.425,24.5,HarvardCMT,0.04320362,0.043627158,0.044471305,0.044987372,0.047425786,0.057908725,0.072385282,0.071226092,0.057261647,0.071292539,0.078713644,0.070790686,0.056804456,0.022781918,0.012238104,0.009195745,0.005938813,-99999,-99999,-99999,-99999,-99999,0.061107303,0.061705766,0.062541411,0.063344035,0.066896633,0.081768919,0.086002622,0.085278628,0.0728418,0.099298498,0.110661922,0.083906571,0.064711221,0.028118695,0.014174915,0.010130823,0.007765786,-99999,-99999,-99999,-99999,-99999,0.042852,0.06009,0.026957,0.036004
722185,1995-03-22T19:43:30.268000Z,I5918B08,5.83,0.15,Slab,S,0,27,64,30,nlloc,-41.0514,174.216,-41.284,174.7682,6016538.56,2612205.51,5989908,2658140,7.6,7.6,52.97,100.77,50.33,97.95,-99999,-99999,0,85.51,82.13,nu,WEL,B,1000,Q3,0.3,Q1,0,Q2,0,-99999,-99999,0,0.25,24.5,0.425,24.5,HarvardCMT,0.058453305,0.059302828,0.060610417,0.062454545,0.065766811,0.079193888,0.094000303,0.139878053,0.112539645,0.094541706,0.065366097,0.038982434,0.022213828,0.010954635,0.007805055,0.005402418,0.003563109,-99999,-99999,-99999,-99999,-99999,0.079330343,0.080037848,0.081028531,0.08216196,0.085525883,0.09143846,0.10560468,0.169532002,0.138850326,0.13121089,0.087474844,0.052433214,0.028701838,0.013565002,0.011037579,0.00667971,0.004745722,-99999,-99999,-99999,-99999,-99999,0.058394,0.078329,0.02109,0.029719
722185,1995-03-22T19:43:30.268000Z,I5926A03,5.83,0.15,Slab,S,0,27,64,30,nlloc,-41.0514,174.216,-39.4883,176.9169,6016538.56,2612205.51,6183331,2846839,7.6,7.6,287.59,300.32,284.45,297.49,-99999,-99999,0,85.51,82.13,nu,926A,C,651,Q3,0.07,Q3,5,Q3,0,-99999,-99999,1,0.35,15,0.595,15,HarvardCMT,0.004263261,0.004280861,0.004308731,0.004351902,0.004428865,0.004962871,0.005848898,0.006515833,0.007375042,0.007908765,0.009001739,0.010616662,0.006177118,0.002346603,0.001329632,0.000593283,-99999,-99999,-99999,-99999,-99999,-99999,0.005463993,0.005500275,0.005564219,0.005662974,0.005810857,0.006274085,0.006992137,0.009153267,0.009925183,0.010065467,0.012061732,0.014794312,0.008388922,0.003280435,0.001832214,0.00079389,-99999,-99999,-99999,-99999,-99999,-99999,0.004257,0.005447,0.002834,0.003776
722185,1995-03-22T19:43:30.268000Z,K5046A01,5.83,0.15,Slab,S,0,27,64,30,nlloc,-41.0514,174.216,-41.2709,173.2837,6016538.56,2612205.51,5992838,2533754,7.6,7.6,81.77,118.44,78.66,114.68,-99999,-99999,0,85.51,82.13,nu,NCBS,D,210,Q3,0.7,Q2,50,Q3,0,-99999,-99999,1,0.7,14,1.19,14,HarvardCMT,0.039033471,0.03932182,0.039773275,0.040361537,0.041253884,0.045577462,0.047821428,0.059549409,0.057093937,0.069250286,0.064062352,0.05711904,0.038120171,0.022316606,-99999,-99999,-99999,-99999,-99999,-99999,-99999,-99999,0.043798731,0.044012366,0.044376298,0.044916128,0.045674567,0.048155608,0.057856579,0.064845258,0.075965506,0.086574855,0.087424075,0.06660224,0.053119191,0.029525283,-99999,-99999,-99999,-99999,-99999,-99999,-99999,-99999,0.038739,0.043798,0.018358,0.023447
722185,1995-03-22T19:43:30.268000Z,K5087A01,5.83,0.15,Slab,S,0,27,64,30,nlloc,-41.0514,174.216,-39.7163,175.1455,6016538.56,2612205.51,6163232,2693941,7.6,7.6,168.04,188.46,165.17,186.14,-99999,-99999,0,85.51,82.13,nu,087A,B,1000,Q3,<0.1,Q3,0,Q2,0,-99999,-99999,1,0.5,20,0.85,20,HarvardCMT,0.057451543,0.058299737,0.059475642,0.061664793,0.066026138,0.078080436,0.109389878,0.110127191,0.114031815,0.095840452,0.092463832,0.091472355,0.048338397,0.018707917,0.013487144,-99999,-99999,-99999,-99999,-99999,-99999,-99999,0.075185491,0.076106999,0.077936651,0.080950024,0.086088834,0.087716416,0.132009562,0.125304177,0.133227917,0.121930353,0.118679695,0.125121538,0.06557434,0.021259535,0.018426706,-99999,-99999,-99999,-99999,-99999,-99999,-99999,0.057253,0.07431,0.025754,0.03317
722185,1995-03-22T19:43:30.268000Z,K5087C01,5.83,0.15,Slab,S,0,27,64,30,nlloc,-41.0514,174.216,-39.7171,175.1382,6016538.56,2612205.51,6163158,2693314,7.6,7.6,167.67,188.13,164.8,185.82,-99999,-99999,0,85.51,82.13,nu,087C,C,425,Q3,0.33,Q3,30,Q3,0,-99999,-99999,1,0.7,14,1.19,14,HarvardCMT,0.064520794,0.064783499,0.065226821,0.065886192,0.066753679,0.074963935,0.086400187,0.113084963,0.125391542,0.124637682,0.131396372,0.111585182,0.099720923,0.039952293,-99999,-99999,-99999,-99999,-99999,-99999,-99999,-99999,0.071390478,0.071699356,0.072170071,0.072799684,0.073656199,0.080824498,0.097422338,0.126623201,0.163834359,0.154735993,0.142262158,0.12353371,0.11068823,0.053348821,-99999,-99999,-99999,-99999,-99999,-99999,-99999,-99999,0.064436,0.071363,0.034959,0.043902
