CuspID,Origin_time,Record,Mw,MwUncert,TectClass,Mech,PreferredFaultPlane,Strike,Dip,Rake,Location,HypLat,HypLon,StationLat,StationLon,HypN,HypE,StationN,StationE,LENGTH_km,WIDTH_km,Repi_km,Rhyp_km,Rjb_km,Rrup_km,Rx_km,Ry_km,Rvol_km,HypDepth_km,ZTOR_km,HWFW,SiteCode,SiteClass1170,Vs30,Vs30Uncert,Tsite,TsiteUncert,Z1,Z1Uncertainty,Directivity,Pulse_or,Pulse_T,S_Trigger_Flag,fcButterHP,f_iniLP,fmin,fmax,References,f100.0000SA_RotD50,f50.0000SA_RotD50,f33.3333SA_RotD50,f25.0000SA_RotD50,f20.0000SA_RotD50,f13.3333SA_RotD50,f10.0000SA_RotD50,f6.6667SA_RotD50,f5.0000SA_RotD50,f4.0000SA_RotD50,f3.3333SA_RotD50,f2.5000SA_RotD50,f2.0000SA_RotD50,f1.3333SA_RotD50,f1.0000SA_RotD50,f0.6667SA_RotD50,f0.5000SA_RotD50,f0.3333SA_RotD50,f0.2500SA_RotD50,f0.2000SA_RotD50,f0.1333SA_RotD50,f0.1000SA_RotD50,f100.0000SA_RotD100,f50.0000SA_RotD100,f33.3333SA_RotD100,f25.0000SA_RotD100,f20.0000SA_RotD100,f13.3333SA_RotD100,f10.0000SA_RotD100,f6.6667SA_RotD100,f5.0000SA_RotD100,f4.0000SA_RotD100,f3.3333SA_RotD100,f2.5000SA_RotD100,f2.0000SA_RotD100,f1.3333SA_RotD100,f1.0000SA_RotD100,f0.6667SA_RotD100,f0.5000SA_RotD100,f0.3333SA_RotD100,f0.2500SA_RotD100,f0.2000SA_RotD100,f0.1333SA_RotD100,f0.1000SA_RotD100,PGA_RotD50,PGA_RotD100,PGV_RotD50,PGV_RotD100
241414,1991-07-12T04:42:23.301999Z,D91302A4,5.3,0.15,Slab,S,1,135,57,25,geonet,-39.3052,175.9748,-39.9338,175.053,6206777.74,2766544.08,6139282,2685450,4.1,4.1,105.45,126.78,104.32,126.64,106.19,-9.62,0,70.28,68.56,nu,302A,D,250,Q2,0.8,Q3,80,Q3,0,-99999,-99999,1,0.3,12,0.51,12,HarvardCMT,0.017613313,0.017675845,0.017789445,0.01789088,0.018079993,0.018794885,0.022915542,0.023357325,0.024262145,0.03426274,0.034364436,0.033885027,0.027479789,0.020449511,0.014021825,0.005991221,-99999,-99999,-99999,-99999,-99999,-99999,0.01982569,0.01989926,0.020052652,0.020241656,0.020510375,0.02153692,0.024195472,0.028499195,0.031293429,0.03994445,0.038777415,0.044668749,0.035320813,0.028769911,0.019826455,0.008094956,-99999,-99999,-99999,-99999,-99999,-99999,0.01761,0.019802,0.015326,0.018936
255338,1991-09-08T13:50:30.989999Z,A92087A4,5.61,0.15,Slab,R,1,95,70,108,geonet,-40.2442,175.1672,-39.7163,175.1455,6104594.2,2694363.31,6163232,2693941,5.9,5.9,58.73,104.69,57.7,101.84,-57.37,-5.53,0,86.69,83.93,nu,087A,B,1000,Q3,<0.1,Q3,0,Q2,0,-99999,-99999,1,0.6,27,1.02,27,HarvardCMT,0.142808731,0.146224074,0.154235435,0.170366177,0.177022772,0.215652973,0.262031722,0.35955822,0.234722363,0.208635193,0.163858163,0.178730113,0.095810752,0.039524353,-99999,-99999,-99999,-99999,-99999,-99999,-99999,-99999,0.165722571,0.168296048,0.174206577,0.184542219,0.209027143,0.227173446,0.292933878,0.475692443,0.298296921,0.264957058,0.175445956,0.196360353,0.128601816,0.043232748,-99999,-99999,-99999,-99999,-99999,-99999,-99999,-99999,0.138426,0.165445,0.052495,0.059593
255338,1991-09-08T13:50:30.989999Z,D91302A5,5.61,0.15,Slab,R,1,95,70,108,geonet,-40.2442,175.1672,-39.9338,175.053,6104594.2,2694363.31,6139282,2685450,5.9,5.9,35.86,93.81,34.54,90.88,-32.78,-11.9,0,86.69,83.93,nu,302A,D,250,Q2,0.8,Q3,80,Q3,0,-99999,-99999,0,0.35,20,0.595,20,HarvardCMT,0.099123735,0.100133126,0.101861377,0.106776026,0.122493747,0.151533142,0.194929014,0.181069043,0.200240103,0.2240623,0.174518546,0.144746328,0.124806183,0.065079511,0.042337251,0.012106145,-99999,-99999,-99999,-99999,-99999,-99999,0.102947668,0.104280692,0.107470289,0.115644835,0.133345364,0.163843563,0.226370062,0.198608896,0.283183304,0.303410957,0.230883532,0.204642422,0.173442123,0.075417492,0.051835556,0.016847886,-99999,-99999,-99999,-99999,-99999,-99999,0.098958,0.102989,0.049331,0.058808
255338,1991-09-08T13:50:30.989999Z,D91467A2,5.61,0.15,Slab,R,1,95,70,108,geonet,-40.2442,175.1672,-41.2425,174.9024,6104594.2,2694363.31,5994293,2669430,5.9,5.9,113.22,142.49,112.16,141.58,113.06,-15.23,0,86.69,83.93,nu,467A,D,218,Q3,1.5,Q3,200,Q3,0,-99999,-99999,1,0.25,15,0.425,15,HarvardCMT,0.025389611,0.025586015,0.025904501,0.026363754,0.027026393,0.029464938,0.038557697,0.040655549,0.056033603,0.044253953,0.043219794,0.056317802,0.059014192,0.032297067,0.012705181,0.006363566,0.002570382,-99999,-99999,-99999,-99999,-99999,0.028931466,0.029173564,0.029591154,0.030252912,0.031312696,0.035079397,0.046878037,0.045103497,0.072370931,0.051041081,0.054232182,0.068642322,0.065675835,0.039576732,0.017964774,0.006834963,0.002889522,-99999,-99999,-99999,-99999,-99999,0.025376,0.028816,0.019351,0.021977
255338,1991-09-08T13:50:30.989999Z,D91468A2,5.61,0.15,Slab,R,1,95,70,108,geonet,-40.2442,175.1672,-41.2011,174.9547,6104594.2,2694363.31,5998793,2673916,5.9,5.9,107.9,138.3,106.86,137.35,108.18,-11.15,0,86.69,83.93,nu,468A,D,190,Q1,0.9,Q3,50,Q3,0,-99999,-99999,0,0.45,13,0.765,13,HarvardCMT,0.04120452,0.041649288,0.042366857,0.043360403,0.044651477,0.052601095,0.077219131,0.077562371,0.096217512,0.087581613,0.076274396,0.08774828,0.067929678,0.039471812,0.023581477,-99999,-99999,-99999,-99999,-99999,-99999,-99999,0.056424283,0.056950082,0.057828464,0.059164566,0.061131203,0.073083555,0.107121397,0.082390786,0.12944144,0.108133502,0.085136517,0.123811608,0.074721708,0.044237632,0.027607349,-99999,-99999,-99999,-99999,-99999,-99999,-99999,0.041167,0.056406,0.028165,0.036325
255338,1991-09-08T13:50:30.989999Z,D91606B1,5.61,0.15,Slab,R,1,95,70,108,geonet,-40.2442,175.1672,-41.2333,174.9199,6104594.2,2694363.31,5995282,2670919,5.9,5.9,111.94,141.47,110.88,140.55,111.94,-13.83,0,86.69,83.93,nu,606B,B,800,Q3,<0.1,Q3,0,Q3,0,-99999,-99999,0,0.45,26,0.765,26,HarvardCMT,0.018282831,0.018542538,0.019026584,0.020491644,0.020823263,0.026057621,0.030026986,0.022630323,0.032205665,0.040521361,0.041664121,0.027531465,0.015524616,0.007682854,0.004251639,-99999,-99999,-99999,-99999,-99999,-99999,-99999,0.022032498,0.022400003,0.023206237,0.023783404,0.023509657,0.030799786,0.036165888,0.024959324,0.043137715,0.050451317,0.048688344,0.034792395,0.019818725,0.010038434,0.005758769,-99999,-99999,-99999,-99999,-99999,-99999,-99999,0.018079,0.022062,0.00858,0.011222
255338,1991-09-08T13:50:30.989999Z,D91642E7,5.61,0.15,Slab,R,1,95,70,108,geonet,-40.2442,175.1672,-41.2341,174.918,6104594.2,2694363.31,5995197,2670758,5.9,5.9,112.06,141.57,111,140.65,112.04,-13.98,0,86.69,83.93,nu,642E,C,350,Q1,0.35,Q2,50,Q3,0,-99999,-99999,0,0.5,12,0.85,12,HarvardCMT,0.049746725,0.049877968,0.050077105,0.050354844,0.050774276,0.052339683,0.051939698,0.06823642,0.104136188,0.116243114,0.128780914,0.115606612,0.048755661,0.022119188,0.010751493,-99999,-99999,-99999,-99999,-99999,-99999,-99999,0.06025559,0.060439342,0.06074964,0.06122216,0.061842087,0.063995011,0.064589853,0.088935615,0.128339477,0.143722074,0.169286805,0.134393926,0.051597237,0.02567519,0.011653223,-99999,-99999,-99999,-99999,-99999,-99999,-99999,0.049631,0.060112,0.028527,0.031818
255338,1991-09-08T13:50:30.989999Z,D91644C3,5.61,0.15,Slab,R,1,95,70,108,geonet,-40.2442,175.1672,-41.2187,174.8826,6104594.2,2694363.31,5996970,2667828,5.9,5.9,110.98,140.72,109.9,139.76,110.53,-17.05,0,86.69,83.93,nu,644C,D,189,Q3,2,Q3,250,Q3,0,-99999,-99999,0,0.35,15,0.595,15,HarvardCMT,0.022109108,0.022268006,0.02255075,0.02297627,0.023521634,0.027080976,0.033156337,0.040821152,0.048469087,0.041846533,0.050310238,0.055690706,0.035953662,0.016096899,0.008438824,0.004916176,-99999,-99999,-99999,-99999,-99999,-99999,0.025353178,0.025482106,0.025755933,0.026124098,0.026401387,0.030738456,0.039344416,0.044310893,0.052982375,0.047083986,0.060985544,0.066270666,0.038147496,0.018403323,0.01112132,0.005800779,-99999,-99999,-99999,-99999,-99999,-99999,0.022024,0.025364,0.012054,0.01511
255338,1991-09-08T13:50:30.989999Z,D91646A2,5.61,0.15,Slab,R,1,95,70,108,geonet,-40.2442,175.1672,-41.2574,174.9485,6104594.2,2694363.31,5992552,2673256,5.9,5.9,114.16,143.28,113.12,142.4,114.46,-11.26,0,86.69,83.93,nu,WDAS,E,120,Q1,1.6,Q2,62,Q2,0,-99999,-99999,0,0.35,18,0.595,18,HarvardCMT,0.051341959,0.051600609,0.052143445,0.053098688,0.054603129,0.059176995,0.064742225,0.077537555,0.07823115,0.100737165,0.124614019,0.08669105,0.059968831,0.032930539,0.02380327,0.011873043,-99999,-99999,-99999,-99999,-99999,-99999,0.055374087,0.05565305,0.056146802,0.056881814,0.05845471,0.067797187,0.080066143,0.091881436,0.086997277,0.131112772,0.164910339,0.103787781,0.072683266,0.035969767,0.033484885,0.015067194,-99999,-99999,-99999,-99999,-99999,-99999,0.051233,0.055137,0.027295,0.029666
255338,1991-09-08T13:50:30.989999Z,D91705B3,5.61,0.15,Slab,R,1,95,70,108,geonet,-40.2442,175.1672,-41.1391,174.8502,6104594.2,2694363.31,6005867,2665298,5.9,5.9,103.03,134.58,101.9,133.49,101.89,-20.35,0,86.69,83.93,nu,707A,C,570,Q3,0.15,Q3,10,Q3,0,-99999,-99999,0,0.5,15,0.85,15,HarvardCMT,0.033753129,0.03405603,0.034514385,0.035285931,0.036375623,0.038283222,0.050046553,0.05360401,0.085727612,0.084183224,0.072738333,0.052478083,0.02195506,0.010802701,0.006567961,-99999,-99999,-99999,-99999,-99999,-99999,-99999,0.03923383,0.039419882,0.039750415,0.040355479,0.041100418,0.046491282,0.066964851,0.073431207,0.115326741,0.112378301,0.080621923,0.063096853,0.027740299,0.013539166,0.008055502,-99999,-99999,-99999,-99999,-99999,-99999,-99999,0.033595,0.039242,0.013553,0.018716
255338,1991-09-08T13:50:30.989999Z,D91706A2,5.61,0.15,Slab,R,1,95,70,108,geonet,-40.2442,175.1672,-41.1288,174.8382,6104594.2,2694363.31,6007032,2664315,5.9,5.9,102.2,133.93,101.05,132.82,100.81,-21.43,0,86.69,83.93,nu,706A,C,210,Q3,0.5,Q2,30,Q3,0,-99999,-99999,0,0.35,12,0.595,12,HarvardCMT,0.074970356,0.07535521,0.0759562,0.076833269,0.078367703,0.085812611,0.097237801,0.134660673,0.159410114,0.137590319,0.15599754,0.173696088,0.104465018,0.040361707,0.01898085,0.007356316,-99999,-99999,-99999,-99999,-99999,-99999,0.089344783,0.089758983,0.090409833,0.091359147,0.092678534,0.099001539,0.106457168,0.172199762,0.213844065,0.171792739,0.205060023,0.238294668,0.117267982,0.049010118,0.022802174,0.009100143,-99999,-99999,-99999,-99999,-99999,-99999,0.074799,0.089337,0.037786,0.048001
255338,1991-09-08T13:50:30.989999Z,D91900B7,5.61,0.15,Slab,R,1,95,70,108,geonet,-40.2442,175.1672,-41.2921,174.779,6104594.2,2694363.31,5989003,2658976,5.9,5.9,121.02,148.76,119.87,147.84,119.24,-25.18,0,86.69,83.93,nu,941A,D,272,Q2,0.85,Q2,9.85E+01,Q2,0,-99999,-99999,0,0.45,12,0.765,12,HarvardCMT,0.036027665,0.036154984,0.036349519,0.036621592,0.037021185,0.038955455,0.0423526,0.060399292,0.074105746,0.087662706,0.088807736,0.085336855,0.059271402,0.037108094,0.018559337,-99999,-99999,-99999,-99999,-99999,-99999,-99999,0.050782506,0.050980282,0.051300726,0.051745016,0.052315823,0.054969359,0.053421168,0.075717837,0.099296606,0.123714571,0.124065734,0.113845474,0.083834278,0.050650026,0.024443185,-99999,-99999,-99999,-99999,-99999,-99999,-99999,0.035998,0.05075,0.022835,0.030844
255338,1991-09-08T13:50:30.989999Z,D91918B7,5.61,0.15,Slab,R,1,95,70,108,geonet,-40.2442,175.1672,-41.284,174.7682,6104594.2,2694363.31,5989908,2658140,5.9,5.9,120.4,148.34,119.25,147.39,118.41,-26.09,0,86.69,83.93,nu,WEL,B,1000,Q3,0.3,Q1,0,Q2,0,-99999,-99999,0,0.5,18,0.85,18,HarvardCMT,0.041823796,0.042061451,0.042446264,0.043047103,0.044206215,0.048092481,0.055067276,0.071918401,0.098846968,0.121409506,0.085276808,0.048037001,0.02057729,0.009507327,0.004847231,-99999,-99999,-99999,-99999,-99999,-99999,-99999,0.057597057,0.057956844,0.058588786,0.05962508,0.061390553,0.067104444,0.075225991,0.092308993,0.138370354,0.159363979,0.118048509,0.060972156,0.025620217,0.013415506,0.006816004,-99999,-99999,-99999,-99999,-99999,-99999,-99999,0.041816,0.05761,0.016822,0.023348
255338,1991-09-08T13:50:30.989999Z,D91935B3,5.61,0.15,Slab,R,1,95,70,108,geonet,-40.2442,175.1672,-41.2108,174.9047,6104594.2,2694363.31,5997808,2669699,5.9,5.9,109.73,139.74,108.66,138.78,109.53,-15.26,0,86.69,83.93,nu,935A,D,240,Q3,1.2,Q3,275,Q3,0,-99999,-99999,1,0.45,15,0.765,15,HarvardCMT,0.035512969,0.035603439,0.03575254,0.03596567,0.036192561,0.041273879,0.049732149,0.051931424,0.076397404,0.105046398,0.101202386,0.079095544,0.047944674,0.019196949,0.010087982,-99999,-99999,-99999,-99999,-99999,-99999,-99999,0.050144155,0.050268764,0.050429122,0.050598597,0.050788646,0.054428525,0.069435055,0.073413666,0.10657778,0.147926599,0.13969061,0.108563194,0.058207744,0.022181023,0.010922188,-99999,-99999,-99999,-99999,-99999,-99999,-99999,0.035455,0.050141,0.022492,0.028499
255338,1991-09-08T13:50:30.989999Z,K91102A3,5.61,0.15,Slab,R,1,95,70,108,geonet,-40.2442,175.1672,-39.4637,175.5669,6104594.2,2694363.31,6190285,2730871,5.9,5.9,93.25,127.72,91.95,125.06,-87.54,28.9,0,86.69,83.93,nu,102A,C,555,Q3,0.15,Q3,12,Q3,0,-99999,-99999,1,0.5,18,0.85,18,HarvardCMT,0.045310912,0.045968314,0.0468848,0.048468665,0.050768489,0.059277094,0.083098327,0.115060638,0.103414133,0.088346563,0.065867144,0.039300146,0.023803624,0.016310575,0.010201859,-99999,-99999,-99999,-99999,-99999,-99999,-99999,0.051792387,0.052647802,0.054234252,0.056878808,0.060979305,0.07889109,0.116460125,0.122078978,0.124284067,0.102040841,0.074242124,0.050748596,0.028120307,0.019535056,0.013516021,-99999,-99999,-99999,-99999,-99999,-99999,-99999,0.044941,0.051243,0.015324,0.0173
314805,1992-03-30T07:02:51.226999Z,D92505A1,5.5,0.15,Crustal,R,1,205,76,77,nlloc,-43.0605,171.212,-42.9489,171.5677,5792540.97,2364375.65,5805487,2393135,5.17,5.17,31.47,32.08,29.52,30.01,-19.97,-23.89,0,5.12,2.61,nu,APPS,C,300,Q2,0.4,Q1,30,Q2,0,-99999,-99999,0,0.6,20,1.02,20,HarvardCMT,0.026716927,0.027076159,0.027778332,0.029223459,0.033434685,0.040669203,0.043232803,0.068937901,0.055448597,0.049913894,0.057055146,0.056475696,0.031588398,0.014632589,-99999,-99999,-99999,-99999,-99999,-99999,-99999,-99999,0.031049835,0.031190369,0.031435653,0.031910196,0.036542423,0.044553821,0.04561977,0.077635321,0.0631347,0.065807282,0.066961339,0.071641541,0.040122587,0.016614396,-99999,-99999,-99999,-99999,-99999,-99999,-99999,-99999,0.026526,0.031057,0.016402,0.018266
339342,1992-05-27T22:30:35.064000Z,D92129A2,5.9,0.08,Slab,S,1,117,85,21,special,-41.63,173.62,-41.7999,172.328,5952812.98,2561652.09,5933893,2454147,8.2,8.2,108.89,128.17,105.65,124.79,66.02,-87.2,0,67,62.92,nu,MCAS,D,501,Q3,1.6,Q3,200,Q3,0,-99999,-99999,0,0.23,19,0.391,19,Webb_Anderson_1998&Dowrick_Rhoades1998&HarvardCMT,0.028694944,0.029156957,0.029898614,0.030906679,0.032906868,0.042310073,0.044547329,0.047105913,0.052281951,0.044598564,0.054061061,0.046990403,0.034145544,0.02802827,0.015696771,0.008256012,0.006366784,-99999,-99999,-99999,-99999,-99999,0.032363682,0.032648843,0.033122142,0.033936701,0.036221109,0.045025439,0.04714853,0.051876181,0.058735809,0.052114012,0.059711771,0.049374036,0.04137109,0.031999448,0.018487134,0.009680653,0.008502225,-99999,-99999,-99999,-99999,-99999,0.028644,0.032355,0.016475,0.019402
339342,1992-05-27T22:30:35.064000Z,D92467A3,5.9,0.08,Slab,S,1,117,85,21,special,-41.63,173.62,-41.2425,174.9024,5952812.98,2561652.09,5994293,2669430,8.2,8.2,115.26,133.52,112.56,130.25,-85.53,77.2,0,67,62.92,nu,467A,D,218,Q3,1.5,Q3,200,Q3,0,-99999,-99999,0,0.35,14,0.595,14,Webb_Anderson_1998&Dowrick_Rhoades1998&HarvardCMT,0.031673006,0.0318019,0.032004045,0.032331883,0.032876883,0.035424229,0.036473299,0.041538163,0.052836974,0.06430937,0.045331258,0.066389837,0.06113724,0.0197937,0.014900298,0.009032166,-99999,-99999,-99999,-99999,-99999,-99999,0.034830196,0.035002414,0.035296244,0.035784902,0.03656779,0.046196767,0.045083684,0.045954489,0.055482849,0.069418791,0.053294483,0.074127523,0.072676861,0.024475229,0.016685825,0.010167013,-99999,-99999,-99999,-99999,-99999,-99999,0.031627,0.034838,0.01937,0.02218
339342,1992-05-27T22:30:35.064000Z,D92468A6,5.9,0.08,Slab,S,1,117,85,21,special,-41.63,173.62,-41.2011,174.9547,5952812.98,2561652.09,5998793,2673916,8.2,8.2,121.08,138.59,118.45,135.4,-91.58,79.15,0,67,62.92,nu,468A,D,190,Q1,0.9,Q3,50,Q3,0,-99999,-99999,0,0.4,19,0.68,19,Webb_Anderson_1998&Dowrick_Rhoades1998&HarvardCMT,0.030552857,0.030776436,0.031066784,0.03140742,0.032028942,0.034600761,0.044280406,0.05812412,0.056750772,0.06003174,0.058820618,0.069518342,0.040309653,0.02052572,0.018587401,-99999,-99999,-99999,-99999,-99999,-99999,-99999,0.035649744,0.035872361,0.036228236,0.036740258,0.037245128,0.040939016,0.047765443,0.065204441,0.064542327,0.069998389,0.069672449,0.074383899,0.049052159,0.027307996,0.019798957,-99999,-99999,-99999,-99999,-99999,-99999,-99999,0.030491,0.035661,0.016906,0.020622
339342,1992-05-27T22:30:35.064000Z,D92644C3,5.9,0.08,Slab,S,1,117,85,21,special,-41.63,173.62,-41.2187,174.8826,5952812.98,2561652.09,5996970,2667828,8.2,8.2,114.77,133.09,112.16,129.87,-87.19,74.56,0,67,62.92,nu,644C,D,189,Q3,2,Q3,250,Q3,0,-99999,-99999,0,0.25,12,0.425,12,Webb_Anderson_1998&Dowrick_Rhoades1998&HarvardCMT,0.021866018,0.021973141,0.022167572,0.022386342,0.022681116,0.025246406,0.034731466,0.038215583,0.037329557,0.047025389,0.039651402,0.051622229,0.049988242,0.018856285,0.009300748,0.005006369,0.003473522,-99999,-99999,-99999,-99999,-99999,0.025547209,0.025691893,0.025941207,0.026341649,0.02693116,0.031205323,0.038784607,0.047511182,0.04532377,0.06316415,0.055967631,0.063911687,0.060097292,0.024382544,0.01124066,0.006010057,0.00451602,-99999,-99999,-99999,-99999,-99999,0.021789,0.025551,0.015829,0.019203
339342,1992-05-27T22:30:35.064000Z,D92646A5,5.9,0.08,Slab,S,1,117,85,21,special,-41.63,173.62,-41.2574,174.9485,5952812.98,2561652.09,5992552,2673256,8.2,8.2,118.23,136.15,115.45,132.85,-85.72,81.4,0,67,62.92,nu,WDAS,E,120,Q1,1.6,Q2,62,Q2,0,-99999,-99999,0,0.5,16,0.85,16,Webb_Anderson_1998&Dowrick_Rhoades1998&HarvardCMT,0.027546141,0.027763127,0.028064532,0.028601342,0.029349209,0.033208249,0.033125523,0.033313423,0.039245027,0.052502073,0.074012613,0.040894625,0.045687212,0.029992911,0.034242489,-99999,-99999,-99999,-99999,-99999,-99999,-99999,0.031840703,0.032002526,0.032264772,0.032713223,0.033502542,0.039004588,0.039998705,0.041400204,0.042474903,0.056593073,0.080124739,0.051569004,0.051068829,0.03484582,0.045426834,-99999,-99999,-99999,-99999,-99999,-99999,-99999,0.027296,0.031602,0.020955,0.023387
339342,1992-05-27T22:30:35.064000Z,D92647A1,5.9,0.08,Slab,S,1,117,85,21,special,-41.63,173.62,-41.2871,174.778,5952812.98,2561652.09,5989560,2658904,8.2,8.2,103.76,123.68,101.04,120.35,-76.54,69.97,0,67,62.92,nu,647A,C,474,Q2,0.12,Q2,5.70E+00,Q2,0,-99999,-99999,0,0.4,19,0.68,19,Webb_Anderson_1998&Dowrick_Rhoades1998&HarvardCMT,0.019846955,0.020099594,0.020607345,0.021397053,0.022587433,0.025385763,0.03127586,0.036029699,0.034845743,0.037141792,0.042641994,0.042546155,0.023622993,0.00858066,0.006939077,-99999,-99999,-99999,-99999,-99999,-99999,-99999,0.024828871,0.025027159,0.025358795,0.02587116,0.02654547,0.033507547,0.039769047,0.047972655,0.042441731,0.05082675,0.045834902,0.052943951,0.033405832,0.012014965,0.009562352,-99999,-99999,-99999,-99999,-99999,-99999,-99999,0.01987,0.024677,0.010584,0.014771
339342,1992-05-27T22:30:35.064000Z,D92706A2,5.9,0.08,Slab,S,1,117,85,21,special,-41.63,173.62,-41.1288,174.8382,5952812.98,2561652.09,6007032,2664315,8.2,8.2,115.91,134.05,113.6,131,-94.56,66.86,0,67,62.92,nu,706A,C,210,Q3,0.5,Q2,30,Q3,0,-99999,-99999,0,0.45,12,0.765,12,Webb_Anderson_1998&Dowrick_Rhoades1998&HarvardCMT,0.030395664,0.030615159,0.030956001,0.031363861,0.031991556,0.033905072,0.041104442,0.052062505,0.062537838,0.078917452,0.060269468,0.055727273,0.039534254,0.022766609,0.013479173,-99999,-99999,-99999,-99999,-99999,-99999,-99999,0.033416481,0.033674626,0.034088982,0.034695446,0.035537267,0.03998925,0.044944847,0.05806123,0.075101102,0.1034969,0.064332152,0.066779799,0.043520479,0.026189322,0.018947542,-99999,-99999,-99999,-99999,-99999,-99999,-99999,0.030306,0.033412,0.017727,0.019672
