CuspID,Origin_time,Record,Mw,MwUncert,TectClass,Mech,PreferredFaultPlane,Strike,Dip,Rake,Location,HypLat,HypLon,StationLat,StationLon,HypN,HypE,StationN,StationE,LENGTH_km,WIDTH_km,Repi_km,Rhyp_km,Rjb_km,Rrup_km,Rx_km,Ry_km,Rvol_km,HypDepth_km,ZTOR_km,HWFW,SiteCode,SiteClass1170,Vs30,Vs30Uncert,Tsite,TsiteUncert,Z1,Z1Uncertainty,Directivity,Pulse_or,Pulse_T,S_Trigger_Flag,fcButterHP,f_iniLP,fmin,fmax,References,f100.0000SA_RotD50,f50.0000SA_RotD50,f33.3333SA_RotD50,f25.0000SA_RotD50,f20.0000SA_RotD50,f13.3333SA_RotD50,f10.0000SA_RotD50,f6.6667SA_RotD50,f5.0000SA_RotD50,f4.0000SA_RotD50,f3.3333SA_RotD50,f2.5000SA_RotD50,f2.0000SA_RotD50,f1.3333SA_RotD50,f1.0000SA_RotD50,f0.6667SA_RotD50,f0.5000SA_RotD50,f0.3333SA_RotD50,f0.2500SA_RotD50,f0.2000SA_RotD50,f0.1333SA_RotD50,f0.1000SA_RotD50,f100.0000SA_RotD100,f50.0000SA_RotD100,f33.3333SA_RotD100,f25.0000SA_RotD100,f20.0000SA_RotD100,f13.3333SA_RotD100,f10.0000SA_RotD100,f6.6667SA_RotD100,f5.0000SA_RotD100,f4.0000SA_RotD100,f3.3333SA_RotD100,f2.5000SA_RotD100,f2.0000SA_RotD100,f1.3333SA_RotD100,f1.0000SA_RotD100,f0.6667SA_RotD100,f0.5000SA_RotD100,f0.3333SA_RotD100,f0.2500SA_RotD100,f0.2000SA_RotD100,f0.1333SA_RotD100,f0.1000SA_RotD100,PGA_RotD50,PGA_RotD100,PGV_RotD50,PGV_RotD100
771645,1995-11-24T06:18:56.622999Z,D5505A37,6.19,0.08,Crustal,O,1,176,46,44,geonet,-42.953,171.8188,-42.9489,171.5677,5805359.34,2413627.76,5805487,2393135,11.44,11.44,20.44,22,18.34,21,22.52,-1.56,0,7.26,5.1,hw,APPS,C,300,Q2,0.4,Q1,30,Q2,0,-99999,-99999,0,0.29,20,0.493,20,Gledhill_etal_2000,0.13367211,0.13523373,0.137686643,0.141772466,0.150183937,0.183647349,0.221331367,0.308822034,0.336878051,0.237163635,0.206824703,0.180592062,0.159577807,0.09650962,0.046059094,0.016736107,0.009126417,-99999,-99999,-99999,-99999,-99999,0.150051799,0.152826177,0.157240077,0.163239827,0.169169409,0.236427971,0.308212194,0.385007416,0.420809639,0.30556468,0.231217135,0.247673328,0.18078227,0.116208047,0.057815694,0.021032738,0.010299178,-99999,-99999,-99999,-99999,-99999,0.132025,0.149811,0.066529,0.086571
771645,1995-11-24T06:18:56.622999Z,D6051D01,6.19,0.08,Crustal,O,1,176,46,44,geonet,-42.953,171.8188,-41.7557,171.5998,5805359.34,2413627.76,5938069,2393545,11.44,11.44,134.35,134.42,128.36,128.45,12.86,-133.79,0,7.26,5.1,nu,WBCS,D,300,Q3,1.2,Q2,105,Q3,0,-99999,-99999,0,0.2,20,0.34,20,Gledhill_etal_2000,0.018585533,0.018689605,0.018863462,0.019211441,0.020119677,0.02688884,0.025855088,0.030909935,0.032916686,0.029044469,0.035974749,0.029595345,0.031569989,0.024172037,0.026785344,0.011225853,0.006444201,-99999,-99999,-99999,-99999,-99999,0.023437658,0.023620073,0.023927603,0.024273696,0.024253979,0.030337109,0.034850037,0.040656652,0.034502572,0.038196993,0.04283908,0.034153361,0.041648256,0.030971321,0.033303974,0.015146826,0.007582293,-99999,-99999,-99999,-99999,-99999,0.018493,0.023427,0.015306,0.017548
771645,1995-11-24T06:18:56.622999Z,D6129A01,6.19,0.08,Crustal,O,1,176,46,44,geonet,-42.953,171.8188,-41.7999,172.328,5805359.34,2413627.76,5933893,2454147,11.44,11.44,134.87,134.97,129.24,129.34,-47.3,-125.39,0,7.26,5.1,nu,MCAS,D,501,Q3,1.6,Q3,200,Q3,0,-99999,-99999,1,0.2,10,0.34,10,Gledhill_etal_2000,0.018073352,0.018104709,0.018169429,0.018248944,0.01834406,0.018686695,0.020092968,0.025791502,0.028088003,0.032159406,0.032927971,0.036706325,0.033854349,0.032466056,0.039440163,0.027243636,0.013066219,-99999,-99999,-99999,-99999,-99999,0.022485404,0.022524607,0.022576224,0.022644755,0.022753164,0.023162547,0.024593669,0.028342472,0.033849216,0.035284327,0.042096518,0.041964545,0.038116178,0.035332342,0.047052336,0.030303071,0.014624891,-99999,-99999,-99999,-99999,-99999,0.018047,0.022471,0.028369,0.03326
771645,1995-11-24T06:18:56.622999Z,K5112B01,6.19,0.08,Crustal,O,1,176,46,44,geonet,-42.953,171.8188,-43.1325,171.7693,5805359.34,2413627.76,5785358,2409884,11.44,11.44,20.36,21.83,14.58,16.61,7.21,19.69,0,7.26,5.1,nu,112B,C,667,Q3,0.36,Q3,60,Q3,0,-99999,-99999,1,0.25,20,0.425,20,Gledhill_etal_2000,0.13732555,0.139838996,0.14398228,0.152547158,0.172582903,0.208931525,0.280247446,0.294398854,0.281877352,0.28498379,0.212884701,0.119968604,0.09158963,0.036315304,0.029799953,0.0261065,0.014127737,-99999,-99999,-99999,-99999,-99999,0.155572242,0.157953396,0.162036546,0.168387098,0.186031067,0.269854612,0.361910971,0.350587257,0.361769286,0.364376385,0.23950649,0.144558998,0.108425724,0.047760097,0.03271305,0.035562338,0.016044747,-99999,-99999,-99999,-99999,-99999,0.136134,0.153001,0.051684,0.068418
1037562,1996-08-29T04:47:00.878000Z,D6042A01,5.25,0.15,Crustal,S,0,317,67,-2.00E+01,geonet,-42.4891,172.7921,-42.5232,172.8305,5857551.8,2492912.82,5853765,2496076,3.9,3.9,4.93,10.98,3.66,9.43,-99999,-99999,0,9.43,7.61,nu,HSES,D,280,Q3,0.9,Q1,85,Q3,0,-99999,-99999,0,0.2,18,0.34,18,HarvardCMT,0.237072711,0.237537652,0.238961508,0.240343404,0.242041235,0.256488655,0.301610365,0.372169859,0.360853868,0.381353173,0.416344117,0.437262822,0.367878656,0.370105121,0.315463384,0.127718301,0.066720223,-99999,-99999,-99999,-99999,-99999,0.274783268,0.276216498,0.27865294,0.2832433,0.291965625,0.307150995,0.354995745,0.475126568,0.390138735,0.414791117,0.451752356,0.474012437,0.397327721,0.41015615,0.381524934,0.166387426,0.081778869,-99999,-99999,-99999,-99999,-99999,0.236709,0.274839,0.238508,0.283921
1348340,1999-01-03T07:00:20.568000Z,D9131A03,5.22,0.15,Slab,N,1,211,80,-8.30E+01,nlloc,-41.0938,174.519,-40.9143,175.005,6011432.3,2637591.18,6030534,2678862,3.7,3.7,45.4,72.68,43.85,70.85,-25.21,-37.63,0,56.68,54.84,nu,PAPS,D,200,Q3,1.4,Q1,100,Q3,0,-99999,-99999,0,0.4,15,0.68,15,HarvardCMT,0.025646526,0.025996229,0.02666696,0.027606723,0.029045942,0.03658008,0.04364354,0.065133526,0.059665348,0.038945109,0.026167514,0.021632955,0.018664289,0.013962526,0.011792519,-99999,-99999,-99999,-99999,-99999,-99999,-99999,0.027293125,0.027659903,0.028238504,0.02906089,0.030188456,0.03878295,0.050259793,0.077679278,0.075268906,0.047061588,0.02894471,0.030318213,0.020899577,0.016172062,0.013996003,-99999,-99999,-99999,-99999,-99999,-99999,-99999,0.025641,0.027261,0.012535,0.014003
1348340,1999-01-03T07:00:20.568000Z,D9469A01,5.22,0.15,Slab,N,1,211,80,-8.30E+01,nlloc,-41.0938,174.519,-41.2117,174.9033,6011432.3,2637591.18,5997711,2669586,3.7,3.7,34.75,66.53,34.35,64.79,-34.17,-4.72,0,56.68,54.84,nu,LHES,D,240,Q3,1.16,Q3,280,Q3,0,-99999,-99999,0,0.35,12.5,0.595,12.5,HarvardCMT,0.01847953,0.018534221,0.018630327,0.018787903,0.01899286,0.019860615,0.023538156,0.027806573,0.034841152,0.032346986,0.035833208,0.034395003,0.031046566,0.019345383,0.011894962,0.004635067,-99999,-99999,-99999,-99999,-99999,-99999,0.026133291,0.026210995,0.026322881,0.026572472,0.026863503,0.027900219,0.027846953,0.037058784,0.037680496,0.043707321,0.046805645,0.048396244,0.043843264,0.025392922,0.016506507,0.006006405,-99999,-99999,-99999,-99999,-99999,-99999,0.018481,0.026135,0.01573,0.02148
1348340,1999-01-03T07:00:20.568000Z,D9643B07,5.22,0.15,Slab,N,1,211,80,-8.30E+01,nlloc,-41.0938,174.519,-41.1513,174.9794,6011432.3,2637591.18,6004275,2676112,3.7,3.7,39.09,68.98,38.4,67.25,-36.38,-13.7,0,56.68,54.84,nu,643B,B,1000,Q3,<0.1,Q3,1.50E+00,Q3,0,-99999,-99999,0,0.45,18,0.765,18,HarvardCMT,0.027583238,0.028177024,0.029249365,0.031200215,0.034651351,0.048819608,0.051362659,0.067903577,0.070015606,0.037346089,0.02145645,0.013857663,0.009155469,0.007191634,0.004426522,-99999,-99999,-99999,-99999,-99999,-99999,-99999,0.036233362,0.036631864,0.037296097,0.03828454,0.040054472,0.056909148,0.068215765,0.088359056,0.095366554,0.052562504,0.028143604,0.017335138,0.011895618,0.009994073,0.005505658,-99999,-99999,-99999,-99999,-99999,-99999,-99999,0.027619,0.036236,0.008702,0.010464
1348340,1999-01-03T07:00:20.568000Z,D9644C05,5.22,0.15,Slab,N,1,211,80,-8.30E+01,nlloc,-41.0938,174.519,-41.2187,174.8826,6011432.3,2637591.18,5996970,2667828,3.7,3.7,33.46,65.85,33.1,64.1,-33.04,-3.18,0,56.68,54.84,nu,644C,D,189,Q3,2,Q3,250,Q3,0,-99999,-99999,0,0.3,18,0.51,18,HarvardCMT,0.019751382,0.019843443,0.020025532,0.020367395,0.020912318,0.026846324,0.030251351,0.038812758,0.039263898,0.024859387,0.026322006,0.033118291,0.029955544,0.016503413,0.008894392,0.003780024,-99999,-99999,-99999,-99999,-99999,-99999,0.027194216,0.027260403,0.027377697,0.027484166,0.027656061,0.037441401,0.037929578,0.053355085,0.055442174,0.032201469,0.034428163,0.044999105,0.039926514,0.021487535,0.012137908,0.005154479,-99999,-99999,-99999,-99999,-99999,-99999,0.019756,0.027164,0.011757,0.016601
1348340,1999-01-03T07:00:20.568000Z,D9900C01,5.22,0.15,Slab,N,1,211,80,-8.30E+01,nlloc,-41.0938,174.519,-41.2891,174.7799,6011432.3,2637591.18,5989335,2659058,3.7,3.7,30.79,64.52,30.25,62.73,-29.46,7.88,0,56.68,54.84,nu,900C,D,250,Q3,0.8,Q3,60,Q3,0,-99999,-99999,0,0.52,10,0.884,10,HarvardCMT,0.017127595,0.017219938,0.017362859,0.017588617,0.017952455,0.019407726,0.025825541,0.032850385,0.032534358,0.031611982,0.035087106,0.031055682,0.022957572,0.01117691,0.005751808,-99999,-99999,-99999,-99999,-99999,-99999,-99999,0.020897805,0.021049215,0.021367124,0.021830938,0.022449683,0.025362109,0.031798155,0.043568479,0.041940261,0.043012772,0.040889489,0.039593709,0.032471088,0.014273224,0.007657856,-99999,-99999,-99999,-99999,-99999,-99999,-99999,0.017089,0.02082,0.011181,0.013802
1348340,1999-01-03T07:00:20.568000Z,G9713A02,5.22,0.15,Slab,N,1,211,80,-8.30E+01,nlloc,-41.0938,174.519,-41.1257,174.8392,6011432.3,2637591.18,6007373,2664412,3.7,3.7,27.06,62.84,26.34,61.02,-24.76,-10.33,0,56.68,54.84,nu,713A,D,210,Q3,0.6,Q3,40,Q3,0,-99999,-99999,0,0.6,12.5,1.02,12.5,HarvardCMT,0.020879629,0.02108744,0.021470249,0.022194411,0.023010282,0.026361618,0.034574461,0.048161476,0.041066204,0.03315215,0.030018927,0.026425238,0.034913316,0.027319958,-99999,-99999,-99999,-99999,-99999,-99999,-99999,-99999,0.028206664,0.028389423,0.028719174,0.029211894,0.029881045,0.03323585,0.046430189,0.054407086,0.054244045,0.037481213,0.036282243,0.031428313,0.043890976,0.03275153,-99999,-99999,-99999,-99999,-99999,-99999,-99999,-99999,0.020826,0.028155,0.012396,0.013872
1348340,1999-01-03T07:00:20.568000Z,I9467A03,5.22,0.15,Slab,N,1,211,80,-8.30E+01,nlloc,-41.0938,174.519,-41.2425,174.9024,6011432.3,2637591.18,5994293,2669430,3.7,3.7,36.1,67.24,35.77,65.51,-35.79,-1.71,0,56.68,54.84,nu,467A,D,218,Q3,1.5,Q3,200,Q3,0,-99999,-99999,0,0.35,18,0.595,18,HarvardCMT,0.015967284,0.016025764,0.016195773,0.016509377,0.017283983,0.022708181,0.023760647,0.028870361,0.039148342,0.02803654,0.026707025,0.036565982,0.037802534,0.024755669,0.013064172,0.005492107,-99999,-99999,-99999,-99999,-99999,-99999,0.022044464,0.022122744,0.02226852,0.022525996,0.02313246,0.028988841,0.026795894,0.034682848,0.044886197,0.035328019,0.034551902,0.049775171,0.050904067,0.034694771,0.017604103,0.006733622,-99999,-99999,-99999,-99999,-99999,-99999,0.015965,0.021979,0.016572,0.021891
1348340,1999-01-03T07:00:20.568000Z,I9468A01,5.22,0.15,Slab,N,1,211,80,-8.30E+01,nlloc,-41.0938,174.519,-41.2011,174.9547,6011432.3,2637591.18,5998793,2673916,3.7,3.7,38.38,68.5,37.91,66.79,-37.32,-7.87,0,56.68,54.84,nu,468A,D,190,Q1,0.9,Q3,50,Q3,0,-99999,-99999,0,0.3,20,0.51,20,HarvardCMT,0.034301106,0.035070828,0.036404055,0.03877781,0.044175399,0.05319137,0.066370251,0.063924726,0.072384736,0.053822258,0.046004664,0.040715557,0.033509095,0.028176915,0.026093072,0.008362936,-99999,-99999,-99999,-99999,-99999,-99999,0.037398223,0.038234994,0.039674044,0.041971916,0.046463396,0.064701857,0.085605599,0.089931044,0.097748807,0.05868695,0.058485012,0.050446652,0.038582948,0.038273991,0.030528297,0.010623815,-99999,-99999,-99999,-99999,-99999,-99999,0.033923,0.037196,0.017852,0.019378
1348340,1999-01-03T07:00:20.568000Z,I9602C01,5.22,0.15,Slab,N,1,211,80,-8.30E+01,nlloc,-41.0938,174.519,-41.1903,174.928,6011432.3,2637591.18,6000041,2671703,3.7,3.7,35.89,67.15,35.4,65.41,-34.78,-7.8,0,56.68,54.84,nu,602C,B,1000,Q3,<0.1,Q3,0,Q3,0,-99999,-99999,0,0.3,40,0.51,40,HarvardCMT,0.012077301,0.012288486,0.01301841,0.014150342,0.014947199,0.021507305,0.020627045,0.019412092,0.018716381,0.013571787,0.012268383,0.013162775,0.011484791,0.006861257,0.004402789,0.002026521,-99999,-99999,-99999,-99999,-99999,-99999,0.016506616,0.016712478,0.017099993,0.019168184,0.020476063,0.028376763,0.026030066,0.025713561,0.024357855,0.019174905,0.016681723,0.018616789,0.015066081,0.00965065,0.005682231,0.002849817,-99999,-99999,-99999,-99999,-99999,-99999,0.012032,0.01644,0.005437,0.007595
1348340,1999-01-03T07:00:20.568000Z,I9603B02,5.22,0.15,Slab,N,1,211,80,-8.30E+01,nlloc,-41.0938,174.519,-41.2237,174.86,6011432.3,2637591.18,5996453,2665923,3.7,3.7,31.99,65.12,31.66,63.36,-31.67,-1.75,0,56.68,54.84,nu,603B,B,1000,Q3,<0.1,Q3,0,Q3,0,-99999,-99999,0,0.19,55,0.323,55,HarvardCMT,0.007820333,0.008045977,0.008264402,0.008763954,0.009710815,0.011139132,0.013196855,0.018143634,0.014163541,0.009859088,0.00797583,0.007973897,0.008023412,0.006712305,0.004323065,0.001847336,0.001005457,0.00035736,-99999,-99999,-99999,-99999,0.009789053,0.010029319,0.009808121,0.010117441,0.010796974,0.013477008,0.014447861,0.023426282,0.017002906,0.01090711,0.009035423,0.011240469,0.010228147,0.008647865,0.005759681,0.002578368,0.001259485,0.00047595,-99999,-99999,-99999,-99999,0.00778,0.00974,0.004733,0.0053
1348340,1999-01-03T07:00:20.568000Z,I9605B22,5.22,0.15,Slab,N,1,211,80,-8.30E+01,nlloc,-41.0938,174.519,-41.2074,174.9401,6011432.3,2637591.18,5998119,2672679,3.7,3.7,37.45,68.03,37.01,66.31,-36.61,-6.66,0,56.68,54.84,nu,FAIS,B,760,Q3,0.27,Q1,0,Q2,0,-99999,-99999,0,0.3,45,0.51,45,HarvardCMT,0.011413585,0.011805622,0.012194122,0.013080882,0.014350393,0.017913583,0.02069604,0.023732267,0.016047423,0.014634964,0.016962684,0.01697131,0.012032691,0.007094776,0.004043323,0.001623587,-99999,-99999,-99999,-99999,-99999,-99999,0.013876893,0.014160471,0.014314818,0.016589062,0.019797641,0.020181021,0.023031211,0.028352659,0.02179053,0.017848862,0.022647367,0.023936412,0.016902556,0.010032062,0.005678644,0.002097994,-99999,-99999,-99999,-99999,-99999,-99999,0.011282,0.013748,0.005969,0.008408
1348340,1999-01-03T07:00:20.568000Z,I9606B03,5.22,0.15,Slab,N,1,211,80,-8.30E+01,nlloc,-41.0938,174.519,-41.2333,174.9199,6011432.3,2637591.18,5995282,2670919,3.7,3.7,36.97,67.71,36.61,65.99,-36.56,-3.32,0,56.68,54.84,nu,606B,B,800,Q3,<0.1,Q3,0,Q3,0,-99999,-99999,0,0.18,52,0.306,52,HarvardCMT,0.012866362,0.013339883,0.013605416,0.017240407,0.018357116,0.024668139,0.024358599,0.017923846,0.015296053,0.012002448,0.013098336,0.010904246,0.007562276,0.004585965,0.002625304,0.000913505,0.000526944,0.000240523,-99999,-99999,-99999,-99999,0.017249621,0.018002144,0.01824686,0.02134081,0.024298745,0.032550806,0.027142597,0.02108825,0.016911124,0.016717222,0.015755724,0.014634083,0.01057347,0.006446346,0.003670461,0.001098435,0.000675215,0.000339481,-99999,-99999,-99999,-99999,0.012759,0.017084,0.004154,0.004607
1348340,1999-01-03T07:00:20.568000Z,I9640A06,5.22,0.15,Slab,N,1,211,80,-8.30E+01,nlloc,-41.0938,174.519,-41.235,174.9147,6011432.3,2637591.18,5995103,2670479,3.7,3.7,36.65,67.54,36.31,65.82,-36.28,-2.94,0,56.68,54.84,nu,640A,E,230,Q3,0.5,Q3,60,Q3,0,-99999,-99999,0,0.3,20,0.51,20,HarvardCMT,0.021821619,0.022135781,0.022677055,0.023338767,0.025476839,0.037967098,0.040721249,0.036809879,0.03562914,0.031075338,0.03661192,0.03675796,0.028048059,0.011081366,0.006595002,0.002338124,-99999,-99999,-99999,-99999,-99999,-99999,0.02901593,0.029352488,0.029956585,0.031041965,0.033379052,0.042176433,0.043696025,0.040401818,0.039336119,0.038200772,0.0468322,0.046582194,0.035162572,0.015424193,0.008781412,0.003115921,-99999,-99999,-99999,-99999,-99999,-99999,0.021522,0.029039,0.010105,0.014102
1348340,1999-01-03T07:00:20.568000Z,I9646B03,5.22,0.15,Slab,N,1,211,80,-8.30E+01,nlloc,-41.0938,174.519,-41.2574,174.9485,6011432.3,2637591.18,5992552,2673256,3.7,3.7,40.29,69.65,39.95,67.96,-39.97,-2.19,0,56.68,54.84,nu,WDAS,E,120,Q1,1.6,Q2,62,Q2,0,-99999,-99999,0,0.4,35,0.68,35,HarvardCMT,0.019621496,0.02011794,0.020776687,0.022558166,0.023873756,0.032759693,0.031210043,0.043502223,0.036975303,0.03337461,0.03082166,0.026067646,0.025316943,0.031486628,0.026913552,-99999,-99999,-99999,-99999,-99999,-99999,-99999,0.020570896,0.02090433,0.021880313,0.023952629,0.026001541,0.037472873,0.038188548,0.055736918,0.04450195,0.03756049,0.03599652,0.031389415,0.033010732,0.03513357,0.034821529,-99999,-99999,-99999,-99999,-99999,-99999,-99999,0.019566,0.020568,0.016838,0.020664
1348340,1999-01-03T07:00:20.568000Z,I9708A04,5.22,0.15,Slab,N,1,211,80,-8.30E+01,nlloc,-41.0938,174.519,-41.1314,174.8391,6011432.3,2637591.18,6006740,2664387,3.7,3.7,27.14,62.88,26.45,61.06,-25.06,-9.78,0,56.68,54.84,nu,POLS,C,250,Q2,0.4,Q1,25,Q2,0,-99999,-99999,0,0.25,20,0.425,20,HarvardCMT,0.015917576,0.016188392,0.016688164,0.017829827,0.020523998,0.02864069,0.027748684,0.038236264,0.030095832,0.031339888,0.030976452,0.014961486,0.014958553,0.010217339,0.005434761,0.001813339,0.000908106,-99999,-99999,-99999,-99999,-99999,0.020215248,0.020492777,0.021012357,0.022041616,0.024384817,0.034372183,0.033243596,0.047980326,0.04256272,0.043937245,0.037393938,0.019472358,0.017373562,0.014444844,0.007097485,0.002549386,0.001283808,-99999,-99999,-99999,-99999,-99999,0.015729,0.019999,0.007194,0.008358
1348340,1999-01-03T07:00:20.568000Z,I9918C01,5.22,0.15,Slab,N,1,211,80,-8.30E+01,nlloc,-41.0938,174.519,-41.284,174.7682,6011432.3,2637591.18,5989908,2658140,3.7,3.7,29.7,64.14,29.14,62.35,-28.37,7.87,0,56.68,54.84,nu,WEL,B,1000,Q3,0.3,Q1,0,Q2,0,-99999,-99999,0,0.35,35,0.595,35,HarvardCMT,0.018655972,0.019534187,0.022946471,0.024709461,0.027125282,0.0399636,0.040922754,0.046285948,0.033810539,0.020348708,0.014154334,0.01114264,0.009023368,0.004369258,0.003287327,0.00171289,-99999,-99999,-99999,-99999,-99999,-99999,0.022730931,0.023273442,0.024585173,0.027669994,0.031719459,0.055913804,0.045856374,0.05811819,0.047706711,0.028748044,0.01977679,0.014746005,0.012491755,0.005495668,0.004513154,0.002022907,-99999,-99999,-99999,-99999,-99999,-99999,0.018532,0.022602,0.006648,0.009403
1444773,1999-10-25T20:31:43.627000Z,D9014A02,6.02,0.15,Slab,O,0,158,54,35,nlloc,-38.5427,175.885,-39.4984,176.8761,6291620.32,2761553.77,6182359,2843283,9.4,9.4,136.47,204.75,133.03,201.69,-99999,-99999,0,152.66,148.68,nu,NCDS,E,162,Q3,1.25,Q2,110,Q3,0,-99999,-99999,1,0.25,14,0.425,14,HarvardCMT,0.03736669,0.037534023,0.037702044,0.03794929,0.038495378,0.044019852,0.056760788,0.071792168,0.087267837,0.087448468,0.068804186,0.049264148,0.044208958,0.066146527,0.028586517,0.014388438,0.008324908,-99999,-99999,-99999,-99999,-99999,0.048756687,0.048996796,0.049399422,0.049971276,0.050772488,0.057076361,0.066183003,0.090330352,0.113586639,0.109475917,0.086168,0.055179844,0.050155599,0.088560394,0.037049603,0.01598309,0.010334134,-99999,-99999,-99999,-99999,-99999,0.037263,0.048479,0.027826,0.03757
1444773,1999-10-25T20:31:43.627000Z,D9027G06,6.02,0.15,Slab,O,0,158,54,35,nlloc,-38.5427,175.885,-39.4884,176.9189,6291620.32,2761553.77,6183307,2847012,9.4,9.4,137.97,205.77,134.56,202.73,-99999,-99999,0,152.66,148.68,nu,NAMS,C,268,Q3,0.4,Q3,20,Q3,0,-99999,-99999,1,0.25,12,0.425,12,HarvardCMT,0.017804074,0.017888961,0.018075423,0.018319066,0.018627405,0.020153541,0.024864158,0.035062311,0.047882513,0.040646474,0.031284069,0.02958723,0.02494446,0.013354358,0.008554663,0.00727343,0.004463331,-99999,-99999,-99999,-99999,-99999,0.020255934,0.020345138,0.020494304,0.020713436,0.021016266,0.02288904,0.026547398,0.039547252,0.05705146,0.04481135,0.033794905,0.031897281,0.032040825,0.018462052,0.011632974,0.009118186,0.005705943,-99999,-99999,-99999,-99999,-99999,0.017732,0.020169,0.011055,0.013032
