CuspID,Origin_time,Record,Mw,MwUncert,TectClass,Mech,PreferredFaultPlane,Strike,Dip,Rake,Location,HypLat,HypLon,StationLat,StationLon,HypN,HypE,StationN,StationE,LENGTH_km,WIDTH_km,Repi_km,Rhyp_km,Rjb_km,Rrup_km,Rx_km,Ry_km,Rvol_km,HypDepth_km,ZTOR_km,HWFW,SiteCode,SiteClass1170,Vs30,Vs30Uncert,Tsite,TsiteUncert,Z1,Z1Uncertainty,Directivity,Pulse_or,Pulse_T,S_Trigger_Flag,fcButterHP,f_iniLP,fmin,fmax,References,f100.0000SA_RotD50,f50.0000SA_RotD50,f33.3333SA_RotD50,f25.0000SA_RotD50,f20.0000SA_RotD50,f13.3333SA_RotD50,f10.0000SA_RotD50,f6.6667SA_RotD50,f5.0000SA_RotD50,f4.0000SA_RotD50,f3.3333SA_RotD50,f2.5000SA_RotD50,f2.0000SA_RotD50,f1.3333SA_RotD50,f1.0000SA_RotD50,f0.6667SA_RotD50,f0.5000SA_RotD50,f0.3333SA_RotD50,f0.2500SA_RotD50,f0.2000SA_RotD50,f0.1333SA_RotD50,f0.1000SA_RotD50,f100.0000SA_RotD100,f50.0000SA_RotD100,f33.3333SA_RotD100,f25.0000SA_RotD100,f20.0000SA_RotD100,f13.3333SA_RotD100,f10.0000SA_RotD100,f6.6667SA_RotD100,f5.0000SA_RotD100,f4.0000SA_RotD100,f3.3333SA_RotD100,f2.5000SA_RotD100,f2.0000SA_RotD100,f1.3333SA_RotD100,f1.0000SA_RotD100,f0.6667SA_RotD100,f0.5000SA_RotD100,f0.3333SA_RotD100,f0.2500SA_RotD100,f0.2000SA_RotD100,f0.1333SA_RotD100,f0.1000SA_RotD100,PGA_RotD50,PGA_RotD100,PGV_RotD50,PGV_RotD100
722185,1995-03-22T19:43:30.268000Z,D5707A02,5.83,0.15,Slab,S,0,27,64,30,nlloc,-41.0514,174.216,-41.1391,174.8502,6016538.56,2612205.51,6005867,2665298,7.6,7.6,54.03,101.23,51.21,98.48,-99999,-99999,0,85.51,82.13,nu,707A,C,570,Q3,0.15,Q3,10,Q3,0,-99999,-99999,0,0.25,20,0.425,20,HarvardCMT,0.032739155,0.033670169,0.035197874,0.037873938,0.040493697,0.046776972,0.053316855,0.042311922,0.025466891,0.022492894,0.018156812,0.015917113,0.013766065,0.00837336,0.005224584,0.003432604,0.002011141,-99999,-99999,-99999,-99999,-99999,0.038101624,0.039000242,0.04043808,0.042551509,0.046707374,0.05962557,0.065864511,0.052252584,0.03155541,0.023452104,0.020230797,0.021674893,0.017349831,0.010996016,0.006414052,0.003906967,0.002337259,-99999,-99999,-99999,-99999,-99999,0.032794,0.037966,0.009417,0.01102
722185,1995-03-22T19:43:30.268000Z,D5900C02,5.83,0.15,Slab,S,0,27,64,30,nlloc,-41.0514,174.216,-41.2891,174.7799,6016538.56,2612205.51,5989335,2659058,7.6,7.6,54.09,101.23,51.45,98.43,-99999,-99999,0,85.51,82.13,nu,900C,D,250,Q3,0.8,Q3,60,Q3,0,-99999,-99999,0,0.3,15,0.51,15,HarvardCMT,0.054873035,0.05513289,0.055570739,0.056232403,0.0572659,0.06300264,0.06903259,0.087023737,0.10635222,0.096578992,0.092331185,0.063110605,0.038564624,0.02284826,0.012587221,0.005587291,-99999,-99999,-99999,-99999,-99999,-99999,0.070262922,0.070652333,0.071293399,0.07227061,0.07371813,0.08567637,0.096325681,0.120803047,0.142847229,0.128023162,0.098564916,0.078806896,0.046746447,0.031043749,0.014631112,0.006017929,-99999,-99999,-99999,-99999,-99999,-99999,0.054898,0.07014,0.030361,0.034038
722185,1995-03-22T19:43:30.268000Z,D5935C03,5.83,0.15,Slab,S,0,27,64,30,nlloc,-41.0514,174.216,-41.2108,174.9047,6016538.56,2612205.51,5997808,2669699,7.6,7.6,60.34,104.73,57.6,102.04,-99999,-99999,0,85.51,82.13,nu,935A,D,240,Q3,1.2,Q3,275,Q3,0,-99999,-99999,0,0.25,24.5,0.425,24.5,HarvardCMT,0.038830582,0.039071619,0.039596995,0.040288415,0.040747505,0.044140215,0.050300766,0.058502313,0.059320864,0.058418028,0.059106925,0.05440723,0.045130068,0.021221714,0.014609189,0.00772132,0.004276386,-99999,-99999,-99999,-99999,-99999,0.042461559,0.042881912,0.04365555,0.044949962,0.045292785,0.052485607,0.05564361,0.065308725,0.07084205,0.066649104,0.069516075,0.067153374,0.049121731,0.026781228,0.020632183,0.010508949,0.004934656,-99999,-99999,-99999,-99999,-99999,0.038712,0.042452,0.023412,0.027531
722185,1995-03-22T19:43:30.268000Z,I5027F03,5.83,0.15,Slab,S,0,27,64,30,nlloc,-41.0514,174.216,-39.4884,176.9189,6016538.56,2612205.51,6183307,2847012,7.6,7.6,287.72,300.43,284.58,297.6,-99999,-99999,0,85.51,82.13,nu,NAMS,C,268,Q3,0.4,Q3,20,Q3,0,-99999,-99999,1,0.5,21,0.85,21,HarvardCMT,0.007502872,0.007529749,0.007580548,0.007678288,0.007837446,0.007991862,0.008226734,0.009931207,0.011450271,0.012158769,0.014341237,0.014015115,0.009566976,0.004180653,0.001960305,-99999,-99999,-99999,-99999,-99999,-99999,-99999,0.010085522,0.010124187,0.010189024,0.010291358,0.010456005,0.011059605,0.011108606,0.012405905,0.013309218,0.015228024,0.018905627,0.018471008,0.012745971,0.005725367,0.002655218,-99999,-99999,-99999,-99999,-99999,-99999,-99999,0.00749,0.010072,0.004646,0.005415
722185,1995-03-22T19:43:30.268000Z,I5467A07,5.83,0.15,Slab,S,0,27,64,30,nlloc,-41.0514,174.216,-41.2425,174.9024,6016538.56,2612205.51,5994293,2669430,7.6,7.6,61.27,105.27,58.57,102.59,-99999,-99999,0,85.51,82.13,nu,467A,D,218,Q3,1.5,Q3,200,Q3,0,-99999,-99999,0,0.19,28,0.323,28,HarvardCMT,0.037741485,0.038140182,0.03876724,0.039642335,0.041195261,0.045907828,0.052347113,0.067226466,0.060931254,0.040237197,0.032625758,0.034303515,0.037558291,0.02285996,0.015637627,0.011540162,0.005052831,0.001897609,-99999,-99999,-99999,-99999,0.04306192,0.043443012,0.043973006,0.044909257,0.046264371,0.04847922,0.061473756,0.073123547,0.070535177,0.046140481,0.037989293,0.042556112,0.043147859,0.027449104,0.018336981,0.013253805,0.006451514,0.002174732,-99999,-99999,-99999,-99999,0.037621,0.042592,0.02036,0.023217
722185,1995-03-22T19:43:30.268000Z,I5468A06,5.83,0.15,Slab,S,0,27,64,30,nlloc,-41.0514,174.216,-41.2011,174.9547,6016538.56,2612205.51,5998793,2673916,7.6,7.6,64.07,106.94,61.31,104.29,-99999,-99999,0,85.51,82.13,nu,468A,D,190,Q1,0.9,Q3,50,Q3,0,-99999,-99999,0,0.25,24,0.425,24,HarvardCMT,0.057167098,0.057779291,0.058610118,0.061381784,0.065306344,0.080294595,0.093136374,0.101683446,0.096236837,0.078547515,0.067137104,0.063740663,0.058542714,0.039435247,0.030625116,0.010169084,0.004772614,-99999,-99999,-99999,-99999,-99999,0.074507691,0.075153125,0.076254771,0.078129569,0.080122136,0.099060481,0.116767825,0.129396679,0.118659163,0.095183466,0.071935242,0.076393736,0.07218262,0.052549042,0.038540508,0.012567586,0.005723597,-99999,-99999,-99999,-99999,-99999,0.057084,0.07455,0.031492,0.037271
722185,1995-03-22T19:43:30.268000Z,I5602C01,5.83,0.15,Slab,S,0,27,64,30,nlloc,-41.0514,174.216,-41.1903,174.928,6016538.56,2612205.51,6000041,2671703,7.6,7.6,61.61,105.49,58.84,102.81,-99999,-99999,0,85.51,82.13,nu,602C,B,1000,Q3,<0.1,Q3,0,Q3,0,-99999,-99999,0,0.2,45,0.34,45,HarvardCMT,0.018178534,0.018549063,0.019521235,0.020014319,0.021595374,0.029881207,0.028382212,0.022181087,0.025769888,0.021594802,0.019529725,0.014333952,0.010826837,0.007385932,0.004663281,0.003019477,0.002085816,-99999,-99999,-99999,-99999,-99999,0.022752754,0.023094441,0.024084004,0.025663299,0.026609251,0.040454512,0.036805087,0.02887762,0.035549399,0.029475617,0.02583625,0.017491653,0.012862778,0.008668041,0.005993948,0.00368301,0.002791484,-99999,-99999,-99999,-99999,-99999,0.017965,0.022615,0.008932,0.011987
722185,1995-03-22T19:43:30.268000Z,I5603B03,5.83,0.15,Slab,S,0,27,64,30,nlloc,-41.0514,174.216,-41.2237,174.86,6016538.56,2612205.51,5996453,2665923,7.6,7.6,57.23,102.97,54.52,100.24,-99999,-99999,0,85.51,82.13,nu,603B,B,1000,Q3,<0.1,Q3,0,Q3,0,-99999,-99999,0,0.25,30,0.425,30,HarvardCMT,0.016764194,0.017018636,0.01757215,0.018405699,0.020413807,0.024691169,0.030255447,0.029520852,0.019468858,0.015625833,0.012841061,0.013276253,0.011403381,0.007237298,0.004817158,0.003614474,0.002579274,-99999,-99999,-99999,-99999,-99999,0.023707709,0.024067014,0.024848246,0.026027911,0.028868734,0.034345059,0.042551692,0.039493864,0.02495739,0.019022797,0.016915816,0.015461094,0.015482676,0.008906481,0.005969664,0.004855581,0.003381296,-99999,-99999,-99999,-99999,-99999,0.016751,0.023688,0.00872,0.011914
722185,1995-03-22T19:43:30.268000Z,I5605B05,5.83,0.15,Slab,S,0,27,64,30,nlloc,-41.0514,174.216,-41.2074,174.9401,6016538.56,2612205.51,5998119,2672679,7.6,7.6,63.08,106.39,60.33,103.72,-99999,-99999,0,85.51,82.13,nu,FAIS,B,760,Q3,0.27,Q1,0,Q2,0,-99999,-99999,0,0.15,32,0.255,32,HarvardCMT,0.031782355,0.032190309,0.033229197,0.034270781,0.03521239,0.038147435,0.041247165,0.052363363,0.04220479,0.036230041,0.030343933,0.028148412,0.022507105,0.009313705,0.004861849,0.00259851,0.001815262,0.000729432,-99999,-99999,-99999,-99999,0.037434874,0.037794909,0.038351907,0.039584274,0.041613307,0.047531709,0.048864163,0.059411419,0.053994375,0.04212151,0.03659434,0.035463975,0.028255355,0.011144551,0.005539906,0.003077802,0.002207282,0.001028562,-99999,-99999,-99999,-99999,0.03163,0.037414,0.013971,0.019442
722185,1995-03-22T19:43:30.268000Z,I5606B07,5.83,0.15,Slab,S,0,27,64,30,nlloc,-41.0514,174.216,-41.2333,174.9199,6016538.56,2612205.51,5995282,2670919,7.6,7.6,62.31,105.88,59.59,103.21,-99999,-99999,0,85.51,82.13,nu,606B,B,800,Q3,<0.1,Q3,0,Q3,0,-99999,-99999,0,0.25,35,0.425,35,HarvardCMT,0.033497116,0.034676741,0.036681866,0.037842289,0.041379509,0.048738296,0.048968654,0.053410025,0.037847683,0.024819221,0.017702474,0.012183115,0.00801486,0.004694566,0.002619327,0.001759793,0.001266442,-99999,-99999,-99999,-99999,-99999,0.037324556,0.038688207,0.040245509,0.041876718,0.046720048,0.057176442,0.058125743,0.061637581,0.03999881,0.026827663,0.022261889,0.016249398,0.010171497,0.00582221,0.003387212,0.001972478,0.001483404,-99999,-99999,-99999,-99999,-99999,0.032391,0.036712,0.008125,0.009724
722185,1995-03-22T19:43:30.268000Z,I5642G18,5.83,0.15,Slab,S,0,27,64,30,nlloc,-41.0514,174.216,-41.235,174.9172,6016538.56,2612205.51,5995098,2670688,7.6,7.6,62.16,105.8,59.44,103.12,-99999,-99999,0,85.51,82.13,nu,642G,C,350,Q1,0.35,Q2,50,Q3,0,-99999,-99999,0,0.25,35,0.425,35,HarvardCMT,0.074149593,0.075411652,0.078353044,0.082068589,0.090228626,0.099340179,0.103084667,0.131856774,0.095243082,0.073602142,0.055248737,0.038492707,0.025765092,0.011795929,0.006613131,0.002602073,0.001919195,-99999,-99999,-99999,-99999,-99999,0.083103424,0.084528392,0.086674016,0.090196877,0.099581316,0.120071599,0.136428129,0.143869496,0.101357523,0.07928933,0.058544933,0.045797097,0.027815789,0.012703445,0.007269442,0.002903578,0.002253937,-99999,-99999,-99999,-99999,-99999,0.073975,0.0828,0.018827,0.023045
722185,1995-03-22T19:43:30.268000Z,I5642H18,5.83,0.15,Slab,S,0,27,64,30,nlloc,-41.0514,174.216,-41.235,174.9172,6016538.56,2612205.51,5995098,2670688,7.6,7.6,62.16,105.8,59.44,103.12,-99999,-99999,0,85.51,82.13,nu,642H,C,350,Q1,0.35,Q2,50,Q3,0,-99999,-99999,0,0.25,35,0.425,35,HarvardCMT,0.053371328,0.054329409,0.055956533,0.058229139,0.062272196,0.071378162,0.077355752,0.083391455,0.083527081,0.076560087,0.061506684,0.046408097,0.028425469,0.012386021,0.006316608,0.002758584,0.002155001,-99999,-99999,-99999,-99999,-99999,0.069700955,0.070741093,0.072907104,0.074813996,0.079759443,0.093967313,0.109383779,0.097386618,0.095678352,0.087359106,0.066734265,0.049824753,0.033336594,0.013209769,0.007056546,0.003249023,0.002331616,-99999,-99999,-99999,-99999,-99999,0.053201,0.069069,0.020039,0.022652
722185,1995-03-22T19:43:30.268000Z,I5708A04,5.83,0.15,Slab,S,0,27,64,30,nlloc,-41.0514,174.216,-41.1314,174.8391,6016538.56,2612205.51,6006740,2664387,7.6,7.6,52.97,100.66,50.14,97.89,-99999,-99999,0,85.51,82.13,nu,POLS,C,250,Q2,0.4,Q1,25,Q2,0,-99999,-99999,0,0.15,30,0.255,30,HarvardCMT,0.039457448,0.039862502,0.040524959,0.041581833,0.042688672,0.046482147,0.055813433,0.059429613,0.052626661,0.054719947,0.055447011,0.044082486,0.03044752,0.015434103,0.00856077,0.004774487,0.002677863,0.001229267,-99999,-99999,-99999,-99999,0.044014585,0.044683832,0.04652038,0.049765135,0.051304504,0.057818176,0.06375588,0.072745092,0.062824368,0.065640334,0.061154555,0.055096743,0.033666708,0.016463931,0.009224195,0.005603902,0.00335519,0.001654366,-99999,-99999,-99999,-99999,0.039215,0.044089,0.018455,0.02399
722185,1995-03-22T19:43:30.268000Z,I5711A01,5.83,0.15,Slab,S,0,27,64,30,nlloc,-41.0514,174.216,-41.2294,174.9042,6016538.56,2612205.51,5995739,2669619,7.6,7.6,60.94,105.08,58.22,102.39,-99999,-99999,0,85.51,82.13,nu,LRSS,D,230,Q3,1.4,Q3,175,Q3,0,-99999,-99999,0,0.25,24.5,0.425,24.5,HarvardCMT,0.043192397,0.043616526,0.044386142,0.044980423,0.047171879,0.054522617,0.064506317,0.058760455,0.050886266,0.063398588,0.067547461,0.06024315,0.047533237,0.019665129,0.010994057,0.007790837,0.005198069,-99999,-99999,-99999,-99999,-99999,0.061091808,0.06162343,0.062461929,0.06340392,0.066191237,0.076404789,0.076913909,0.074777985,0.06848996,0.087147868,0.095041659,0.074837103,0.057244456,0.025985483,0.011895728,0.008482729,0.007020083,-99999,-99999,-99999,-99999,-99999,0.042852,0.06009,0.026957,0.036004
722185,1995-03-22T19:43:30.268000Z,I5918B08,5.83,0.15,Slab,S,0,27,64,30,nlloc,-41.0514,174.216,-41.284,174.7682,6016538.56,2612205.51,5989908,2658140,7.6,7.6,52.97,100.77,50.33,97.95,-99999,-99999,0,85.51,82.13,nu,WEL,B,1000,Q3,0.3,Q1,0,Q2,0,-99999,-99999,0,0.25,24.5,0.425,24.5,HarvardCMT,0.058466708,0.05930891,0.060527359,0.06217708,0.064621758,0.076161978,0.089517319,0.117236801,0.096748416,0.079567314,0.057797627,0.034238134,0.020272294,0.010453069,0.007239532,0.004688209,0.003052443,-99999,-99999,-99999,-99999,-99999,0.079316718,0.079958377,0.080835894,0.082195603,0.084831115,0.090487323,0.103951831,0.149271943,0.124160034,0.109440573,0.07918397,0.044334695,0.024358638,0.012038636,0.010237102,0.005887622,0.004085307,-99999,-99999,-99999,-99999,-99999,0.058394,0.078329,0.02109,0.029719
722185,1995-03-22T19:43:30.268000Z,I5926A03,5.83,0.15,Slab,S,0,27,64,30,nlloc,-41.0514,174.216,-39.4883,176.9169,6016538.56,2612205.51,6183331,2846839,7.6,7.6,287.59,300.32,284.45,297.49,-99999,-99999,0,85.51,82.13,nu,926A,C,651,Q3,0.07,Q3,5,Q3,0,-99999,-99999,1,0.35,15,0.595,15,HarvardCMT,0.004263259,0.004279642,0.004305728,0.004345429,0.004410865,0.004875186,0.005551729,0.006062836,0.006595005,0.007166085,0.007807785,0.008583865,0.005263809,0.002077044,0.001212372,0.000547689,-99999,-99999,-99999,-99999,-99999,-99999,0.00546368,0.005498072,0.005558208,0.005655249,0.005793262,0.006220421,0.006869269,0.008517949,0.009011583,0.009424152,0.010352259,0.011550992,0.006919,0.002903866,0.001691005,0.000703478,-99999,-99999,-99999,-99999,-99999,-99999,0.004257,0.005447,0.002834,0.003776
722185,1995-03-22T19:43:30.268000Z,K5046A01,5.83,0.15,Slab,S,0,27,64,30,nlloc,-41.0514,174.216,-41.2709,173.2837,6016538.56,2612205.51,5992838,2533754,7.6,7.6,81.77,118.44,78.66,114.68,-99999,-99999,0,85.51,82.13,nu,NCBS,D,210,Q3,0.7,Q2,50,Q3,0,-99999,-99999,1,0.7,14,1.19,14,HarvardCMT,0.039029657,0.039297076,0.039706465,0.04028583,0.041161572,0.044770853,0.046306687,0.051868599,0.056938001,0.058691344,0.056447197,0.04997847,0.033146131,0.019836165,-99999,-99999,-99999,-99999,-99999,-99999,-99999,-99999,0.043796399,0.043997594,0.044349203,0.044857117,0.045560917,0.048041266,0.055880887,0.061674496,0.066676149,0.072281751,0.072980326,0.058650166,0.045985459,0.025965645,-99999,-99999,-99999,-99999,-99999,-99999,-99999,-99999,0.038739,0.043798,0.018358,0.023447
722185,1995-03-22T19:43:30.268000Z,K5087A01,5.83,0.15,Slab,S,0,27,64,30,nlloc,-41.0514,174.216,-39.7163,175.1455,6016538.56,2612205.51,6163232,2693941,7.6,7.6,168.04,188.46,165.17,186.14,-99999,-99999,0,85.51,82.13,nu,087A,B,1000,Q3,<0.1,Q3,0,Q2,0,-99999,-99999,1,0.5,20,0.85,20,HarvardCMT,0.057451096,0.058317802,0.059457914,0.061256615,0.064809461,0.074497361,0.098565047,0.100078391,0.095970492,0.087350656,0.08276847,0.073583151,0.042543987,0.016795263,0.011649255,-99999,-99999,-99999,-99999,-99999,-99999,-99999,0.075143532,0.07595756,0.077876127,0.080608432,0.084344321,0.08250433,0.117126581,0.116519181,0.119986332,0.105998177,0.104905574,0.100245252,0.05756416,0.018184484,0.01511839,-99999,-99999,-99999,-99999,-99999,-99999,-99999,0.057253,0.07431,0.025754,0.03317
722185,1995-03-22T19:43:30.268000Z,K5087C01,5.83,0.15,Slab,S,0,27,64,30,nlloc,-41.0514,174.216,-39.7171,175.1382,6016538.56,2612205.51,6163158,2693314,7.6,7.6,167.67,188.13,164.8,185.82,-99999,-99999,0,85.51,82.13,nu,087C,C,425,Q3,0.33,Q3,30,Q3,0,-99999,-99999,1,0.7,14,1.19,14,HarvardCMT,0.064513091,0.064768633,0.065194444,0.065847402,0.066696755,0.073463071,0.082300078,0.102438176,0.10736076,0.103851848,0.111591901,0.093210917,0.081399081,0.035516703,-99999,-99999,-99999,-99999,-99999,-99999,-99999,-99999,0.071396385,0.071705394,0.07216166,0.072778676,0.073641517,0.079337941,0.08942661,0.111805333,0.137825923,0.132701447,0.128021066,0.109727278,0.090933674,0.048339475,-99999,-99999,-99999,-99999,-99999,-99999,-99999,-99999,0.064436,0.071363,0.034959,0.043902
722185,1995-03-22T19:43:30.268000Z,K5608A01,5.83,0.15,Slab,S,0,27,64,30,nlloc,-41.0514,174.216,-41.2241,174.8794,6016538.56,2612205.51,5996377,2667546,7.6,7.6,58.78,103.83,56.06,101.12,-99999,-99999,0,85.51,82.13,nu,608A,D,200,Q2,2,Q2,250,Q3,0,-99999,-99999,1,0.4,11,0.68,11,HarvardCMT,0.029276428,0.029366135,0.029545009,0.029830555,0.030214128,0.031827905,0.034337873,0.039538648,0.040415597,0.03491002,0.0358426,0.041887993,0.046990948,0.029476686,0.016460626,-99999,-99999,-99999,-99999,-99999,-99999,-99999,0.036009989,0.036165619,0.036419757,0.036791041,0.037299261,0.039360922,0.043200995,0.054315103,0.049515048,0.043496077,0.04546742,0.053833658,0.061790545,0.034879156,0.018598437,-99999,-99999,-99999,-99999,-99999,-99999,-99999,0.029264,0.035812,0.024995,0.030959
771645,1995-11-24T06:18:56.622999Z,D5505A37,6.19,0.08,Crustal,O,1,176,46,44,geonet,-42.953,171.8188,-42.9489,171.5677,5805359.34,2413627.76,5805487,2393135,11.44,11.44,20.44,22,18.34,21,22.52,-1.56,0,7.26,5.1,hw,APPS,C,300,Q2,0.4,Q1,30,Q2,0,-99999,-99999,0,0.29,20,0.493,20,Gledhill_etal_2000,0.133628022,0.134995908,0.137248751,0.140813952,0.146448045,0.15792291,0.17319024,0.219715171,0.236046427,0.176615052,0.156276174,0.119062366,0.106456964,0.068451893,0.036214954,0.013961427,0.006333511,-99999,-99999,-99999,-99999,-99999,0.150231163,0.152910213,0.156812972,0.161750452,0.168653996,0.200924871,0.231003798,0.287266205,0.258568565,0.221261831,0.166925452,0.163990173,0.127135063,0.08196354,0.043428243,0.017845188,0.008908156,-99999,-99999,-99999,-99999,-99999,0.132025,0.149811,0.066529,0.086571
771645,1995-11-24T06:18:56.622999Z,D6051D01,6.19,0.08,Crustal,O,1,176,46,44,geonet,-42.953,171.8188,-41.7557,171.5998,5805359.34,2413627.76,5938069,2393545,11.44,11.44,134.35,134.42,128.36,128.45,12.86,-133.79,0,7.26,5.1,nu,WBCS,D,300,Q3,1.2,Q2,105,Q3,0,-99999,-99999,0,0.2,20,0.34,20,Gledhill_etal_2000,0.018589691,0.018678737,0.018834611,0.019088532,0.019519271,0.022622565,0.023615156,0.023334718,0.023399308,0.023445034,0.02679761,0.024198441,0.023295694,0.018279059,0.016001791,0.007788318,0.004826452,-99999,-99999,-99999,-99999,-99999,0.023443661,0.02361782,0.023877658,0.02416397,0.024557034,0.028138102,0.032326241,0.029822817,0.030637576,0.03197622,0.03263511,0.026214341,0.028500747,0.022619322,0.020690852,0.009464597,0.005784224,-99999,-99999,-99999,-99999,-99999,0.018493,0.023427,0.015306,0.017548
771645,1995-11-24T06:18:56.622999Z,D6129A01,6.19,0.08,Crustal,O,1,176,46,44,geonet,-42.953,171.8188,-41.7999,172.328,5805359.34,2413627.76,5933893,2454147,11.44,11.44,134.87,134.97,129.24,129.34,-47.3,-125.39,0,7.26,5.1,nu,MCAS,D,501,Q3,1.6,Q3,200,Q3,0,-99999,-99999,1,0.2,10,0.34,10,Gledhill_etal_2000,0.018074116,0.018106529,0.018164878,0.018241304,0.018329685,0.018697713,0.019632539,0.023283852,0.024788398,0.026521616,0.025959148,0.026337675,0.024186671,0.025153202,0.026407515,0.018369072,0.01027642,-99999,-99999,-99999,-99999,-99999,0.022482262,0.022516069,0.022571981,0.022639192,0.022731206,0.023070443,0.023387678,0.026029206,0.02805035,0.029698467,0.031024241,0.027435389,0.026975704,0.029529145,0.034017594,0.021750647,0.011167351,-99999,-99999,-99999,-99999,-99999,0.018047,0.022471,0.028369,0.03326
