CuspID,Origin_time,Record,Mw,MwUncert,TectClass,Mech,PreferredFaultPlane,Strike,Dip,Rake,Location,HypLat,HypLon,StationLat,StationLon,HypN,HypE,StationN,StationE,LENGTH_km,WIDTH_km,Repi_km,Rhyp_km,Rjb_km,Rrup_km,Rx_km,Ry_km,Rvol_km,HypDepth_km,ZTOR_km,HWFW,SiteCode,SiteClass1170,Vs30,Vs30Uncert,Tsite,TsiteUncert,Z1,Z1Uncertainty,Directivity,Pulse_or,Pulse_T,S_Trigger_Flag,fcButterHP,f_iniLP,fmin,fmax,References,f100.0000SA_RotD50,f50.0000SA_RotD50,f33.3333SA_RotD50,f25.0000SA_RotD50,f20.0000SA_RotD50,f13.3333SA_RotD50,f10.0000SA_RotD50,f6.6667SA_RotD50,f5.0000SA_RotD50,f4.0000SA_RotD50,f3.3333SA_RotD50,f2.5000SA_RotD50,f2.0000SA_RotD50,f1.3333SA_RotD50,f1.0000SA_RotD50,f0.6667SA_RotD50,f0.5000SA_RotD50,f0.3333SA_RotD50,f0.2500SA_RotD50,f0.2000SA_RotD50,f0.1333SA_RotD50,f0.1000SA_RotD50,f100.0000SA_RotD100,f50.0000SA_RotD100,f33.3333SA_RotD100,f25.0000SA_RotD100,f20.0000SA_RotD100,f13.3333SA_RotD100,f10.0000SA_RotD100,f6.6667SA_RotD100,f5.0000SA_RotD100,f4.0000SA_RotD100,f3.3333SA_RotD100,f2.5000SA_RotD100,f2.0000SA_RotD100,f1.3333SA_RotD100,f1.0000SA_RotD100,f0.6667SA_RotD100,f0.5000SA_RotD100,f0.3333SA_RotD100,f0.2500SA_RotD100,f0.2000SA_RotD100,f0.1333SA_RotD100,f0.1000SA_RotD100,PGA_RotD50,PGA_RotD100,PGV_RotD50,PGV_RotD100
339342,1992-05-27T22:30:35.064000Z,D92707A1,5.9,0.08,Slab,S,1,117,85,21,special,-41.63,173.62,-41.1391,174.8502,5952812.98,2561652.09,6005867,2665298,8.2,8.2,116.24,134.35,113.89,131.28,-93.97,68.26,0,67,62.92,nu,707A,C,570,Q3,0.15,Q3,10,Q3,0,-99999,-99999,0,0.5,21,0.85,21,Webb_Anderson_1998&Dowrick_Rhoades1998&HarvardCMT,0.022498524,0.022723162,0.02304394,0.023567706,0.028846119,0.040934761,0.064670892,0.104164858,0.041903337,0.053921859,0.050712906,0.039775889,0.022985267,0.006807362,0.004750923,-99999,-99999,-99999,-99999,-99999,-99999,-99999,0.027104122,0.027435603,0.028025431,0.029131705,0.03168475,0.047548252,0.083273004,0.116376567,0.049135076,0.069163681,0.062296128,0.055235928,0.032411363,0.009269805,0.005616339,-99999,-99999,-99999,-99999,-99999,-99999,-99999,0.022265,0.027107,0.007825,0.010582
339342,1992-05-27T22:30:35.064000Z,D92918B5,5.9,0.08,Slab,S,1,117,85,21,special,-41.63,173.62,-41.284,174.7682,5952812.98,2561652.09,5989908,2658140,8.2,8.2,103.13,123.26,100.44,119.93,-76.5,69.13,0,67,62.92,nu,WEL,B,1000,Q3,0.3,Q1,0,Q2,0,-99999,-99999,0,0.4,18,0.68,18,Webb_Anderson_1998&Dowrick_Rhoades1998&HarvardCMT,0.020406429,0.020505652,0.020662969,0.020943771,0.021268039,0.028508776,0.034056327,0.058412641,0.05304414,0.105009969,0.082871422,0.107669285,0.028357493,0.010702328,0.010094564,-99999,-99999,-99999,-99999,-99999,-99999,-99999,0.025817102,0.02600276,0.026371417,0.026995383,0.028239379,0.033217084,0.046471199,0.071884442,0.068743384,0.141866193,0.117206755,0.145926783,0.036868841,0.013117922,0.013253937,-99999,-99999,-99999,-99999,-99999,-99999,-99999,0.020406,0.02579,0.01161,0.014177
339342,1992-05-27T22:30:35.064000Z,D92935B2,5.9,0.08,Slab,S,1,117,85,21,special,-41.63,173.62,-41.2108,174.9047,5952812.98,2561652.09,5997808,2669699,8.2,8.2,116.82,134.86,114.21,131.66,-88.79,75.84,0,67,62.92,nu,935A,D,240,Q3,1.2,Q3,275,Q3,0,-99999,-99999,0,0.35,16,0.595,16,Webb_Anderson_1998&Dowrick_Rhoades1998&HarvardCMT,0.01849286,0.018603877,0.019100907,0.019951937,0.02136886,0.034778167,0.082432174,0.048112446,0.046527633,0.089896247,0.088905141,0.053945698,0.043106439,0.01917842,0.014508572,0.00843325,-99999,-99999,-99999,-99999,-99999,-99999,0.022368589,0.022643258,0.023120569,0.023919039,0.02538926,0.039066885,0.112611858,0.058872064,0.052924419,0.110113582,0.108973398,0.069951594,0.056899018,0.020670013,0.016196246,0.011060641,-99999,-99999,-99999,-99999,-99999,-99999,0.018451,0.022359,0.01207,0.013051
339342,1992-05-27T22:30:35.064000Z,K92934B1,5.9,0.08,Slab,S,1,117,85,21,special,-41.63,173.62,-41.2436,174.908,5952812.98,2561652.09,5994160,2669897,8.2,8.2,115.64,133.85,112.94,130.58,-85.63,77.68,0,67,62.92,nu,934B,D,180,Q1,1.1,Q3,100,Q3,0,-99999,-99999,1,0.4,16,0.68,16,Webb_Anderson_1998&Dowrick_Rhoades1998&HarvardCMT,0.025402179,0.025502647,0.025758283,0.026149624,0.026668793,0.031102163,0.044865304,0.066877503,0.045994069,0.077760426,0.0745225,0.11316833,0.128375457,0.029420463,0.019898053,-99999,-99999,-99999,-99999,-99999,-99999,-99999,0.035622585,0.03581567,0.03614502,0.036618081,0.037235017,0.043849511,0.047918362,0.084970048,0.053912456,0.085421221,0.092614528,0.132720187,0.169536843,0.037537952,0.026270492,-99999,-99999,-99999,-99999,-99999,-99999,-99999,0.025401,0.035412,0.017923,0.022841
338849,1992-06-21T17:43:09.086000Z,K92028A1,6.25,0.08,Crustal,N,1,32,41,246,special,-37.67,176.86,-38.0079,177.284,6385179.66,2850645.07,6346024,2886230,12.26,12.26,52.9,53.06,48.15,48.79,55.55,-14.35,25,4,0.01,nu,028A,D,210,Q3,1,Q3,75,Q3,0,-99999,-99999,1,0.2,15,0.34,15,Webb_Anderson_1998&Dowrick_Rhoades1998&HarvardCMT,0.031126759,0.031392233,0.031950401,0.032728624,0.034030869,0.059265132,0.070790392,0.103157486,0.092147005,0.097806711,0.070301165,0.109796844,0.137937114,0.056451522,0.085158177,0.0521693,0.060662021,-99999,-99999,-99999,-99999,-99999,0.033845559,0.034135336,0.034616015,0.035420737,0.036678037,0.067821162,0.086073136,0.126199139,0.098422333,0.135996913,0.089151577,0.126166582,0.169615966,0.075052718,0.093709551,0.067774021,0.07258246,-99999,-99999,-99999,-99999,-99999,0.031059,0.033848,0.042707,0.059619
338849,1992-06-21T17:43:09.086000Z,A92930A1,6.25,0.08,Crustal,N,1,32,41,246,special,-37.67,176.86,-37.9885,176.8294,6385179.66,2850645.07,6349976,2846440,12.26,12.26,35.52,35.68,29.64,30.05,19.71,-32.08,30,4,0.01,nu,930A,E,150,Q3,>2,Q3,300,Q3,0,-99999,-99999,1,0.15,12,0.255,12,Webb_Anderson_1998&Dowrick_Rhoades1998&HarvardCMT,0.041411429,0.041493132,0.041638586,0.041823822,0.042106084,0.043958194,0.060316704,0.082528808,0.097287424,0.108822802,0.113786287,0.094618054,0.128525851,0.125581669,0.115841845,0.079738403,0.070526893,0.061254318,-99999,-99999,-99999,-99999,0.052093745,0.05220523,0.052410543,0.052738663,0.053193725,0.056054534,0.075720405,0.094205333,0.127893244,0.126585171,0.123991858,0.108764216,0.135318844,0.149771942,0.154556393,0.098690766,0.090289709,0.075799311,-99999,-99999,-99999,-99999,0.041386,0.051907,0.084975,0.103354
435226,1993-04-11T06:59:48.228000Z,A93032A1,5.68,0.08,Interface,O,1,198,15,52,special,-39.74,176.52,-39.9425,176.5874,6156829.5,2811622.89,6134136,2816486,8.63,8.63,23.24,34.95,18.95,31.74,-7.47,20.08,0,26,24.88,nu,032A,C,495,Q3,0.13,Q3,10,Q3,0,-99999,-99999,1,0.4,10,0.68,10,Webb_Anderson_1998&Dowrick_Rhoades1998&HarvardCMT,0.158442649,0.158819273,0.159472879,0.160337424,0.161530449,0.16553755,0.171037287,0.273922488,0.436938018,0.3720717,0.447048364,0.46804597,0.492297174,0.343090059,0.205021455,-99999,-99999,-99999,-99999,-99999,-99999,-99999,0.185063905,0.185519875,0.186313182,0.187322911,0.188636977,0.19385299,0.193216415,0.334108327,0.513282932,0.44238076,0.469246612,0.575630223,0.572528509,0.413956062,0.249408015,-99999,-99999,-99999,-99999,-99999,-99999,-99999,0.158186,0.185064,0.131958,0.175139
435226,1993-04-11T06:59:48.228000Z,D93014A2,5.68,0.08,Interface,O,1,198,15,52,special,-39.74,176.52,-39.4984,176.8761,6156829.5,2811622.89,6182359,2843283,8.63,8.63,40.64,48.27,36.38,44.35,-18.05,-34.06,0,26,24.88,nu,NCDS,E,162,Q3,1.25,Q2,110,Q3,0,-99999,-99999,0,0.24,12,0.408,12,Webb_Anderson_1998&Dowrick_Rhoades1998&HarvardCMT,0.032498632,0.032794547,0.033439989,0.03426429,0.035479234,0.041373699,0.055026427,0.122282794,0.121279767,0.12387401,0.104395517,0.102181386,0.09374144,0.077984061,0.057001916,0.014963689,0.006401763,-99999,-99999,-99999,-99999,-99999,0.039537206,0.039762857,0.04015193,0.040685605,0.041459373,0.045674051,0.074133367,0.164554678,0.152415259,0.14803128,0.113041196,0.1214584,0.099990889,0.109105827,0.069018163,0.019608994,0.007729295,-99999,-99999,-99999,-99999,-99999,0.032393,0.039539,0.021884,0.02309
435226,1993-04-11T06:59:48.228000Z,D93015A1,5.68,0.08,Interface,O,1,198,15,52,special,-39.74,176.52,-39.4891,176.8982,6156829.5,2811622.89,6183313,2845228,8.63,8.63,42.76,50.1,38.49,46.14,-19.61,-35.57,0,26,24.88,nu,015A,B,1000,Q3,<0.1,Q3,0,Q3,0,-99999,-99999,0,0.5,12,0.85,12,Webb_Anderson_1998&Dowrick_Rhoades1998&HarvardCMT,0.016441611,0.016555425,0.01671724,0.017039842,0.017466842,0.020252537,0.034664883,0.036417822,0.048230157,0.071902203,0.100103476,0.052721803,0.073739392,0.018024396,0.012467427,-99999,-99999,-99999,-99999,-99999,-99999,-99999,0.01777309,0.017946398,0.018180273,0.018569329,0.019147572,0.022878663,0.044340736,0.042687057,0.056926472,0.085232707,0.113406115,0.073052197,0.094791746,0.023076652,0.013602438,-99999,-99999,-99999,-99999,-99999,-99999,-99999,0.016392,0.017773,0.009443,0.011342
435226,1993-04-11T06:59:48.228000Z,D93029A2,5.68,0.08,Interface,O,1,198,15,52,special,-39.74,176.52,-39.6458,176.8429,6156829.5,2811622.89,6166127,2839726,8.63,8.63,29.55,39.41,25.33,35.69,-19.69,-17.53,0,26,24.88,nu,HCDS,D,182,Q2,>2,Q3,1000,Q3,0,-99999,-99999,0,0.2,15,0.34,15,Webb_Anderson_1998&Dowrick_Rhoades1998&HarvardCMT,0.02905193,0.029350668,0.029846716,0.030751971,0.031935011,0.048247184,0.051897242,0.081485886,0.147297063,0.112438467,0.141567454,0.086712103,0.044110273,0.08737832,0.04244142,0.020496619,0.023006919,-99999,-99999,-99999,-99999,-99999,0.034617979,0.034709175,0.034843037,0.035058913,0.035348201,0.052654906,0.058621963,0.096407376,0.20148261,0.129898657,0.164895293,0.102707542,0.052852984,0.123548826,0.049097864,0.023481742,0.029058224,-99999,-99999,-99999,-99999,-99999,0.02904,0.034619,0.026152,0.030611
471730,1993-08-10T00:51:55.033000Z,A93070A1,6.89,0.08,Interface,R,1,41,41,107,nlloc,-45.3625,166.649,-45.4167,167.7191,5519161.25,2012843.95,5519112,2096857,34.75,34.75,83.78,85.7,74.67,77.26,68.91,55.08,0,16.72,11.96,nu,TAFS,D,298,Q3,1.4,Q3,200,Q3,0,-99999,-99999,1,0.2,19,0.34,19,Robinson_etal_2003&Dowrick_Rhoades1998&HarvardCMT,0.063905132,0.064619841,0.065858181,0.06796826,0.07363915,0.153714211,0.187123532,0.259797163,0.233535857,0.230554507,0.203787219,0.219004227,0.100340302,0.110787378,0.105762511,0.118588517,0.069331264,-99999,-99999,-99999,-99999,-99999,0.085543358,0.086487627,0.088136206,0.090739349,0.093458208,0.171904405,0.237795721,0.286603029,0.247368607,0.255663943,0.268415034,0.30905749,0.106408021,0.120190711,0.144552961,0.160855875,0.088472065,-99999,-99999,-99999,-99999,-99999,0.063904,0.085534,0.06115,0.07679
471730,1993-08-10T00:51:55.033000Z,A93940A1,6.89,0.08,Interface,R,1,41,41,107,nlloc,-45.3625,166.649,-45.0322,168.6629,5519161.25,2012843.95,5566104,2168345,34.75,34.75,162.01,163.32,150.75,152.25,92.03,137.45,0,16.72,11.96,nu,QTPS,D,350,Q3,0.95,Q1,90,Q3,0,-99999,-99999,1,0.5,10,0.85,10,Robinson_etal_2003&Dowrick_Rhoades1998&HarvardCMT,0.035831226,0.035986652,0.0362436,0.036594844,0.037066302,0.038976338,0.048071623,0.086493313,0.119219998,0.15965789,0.141181581,0.109950057,0.124681108,0.081861531,0.040427293,-99999,-99999,-99999,-99999,-99999,-99999,-99999,0.040240681,0.040480239,0.040889292,0.041455311,0.042247436,0.045254516,0.056011743,0.103991667,0.132153232,0.200636974,0.170823057,0.12268961,0.158909031,0.091947165,0.055313707,-99999,-99999,-99999,-99999,-99999,-99999,-99999,0.035774,0.040236,0.023354,0.02647
471730,1993-08-10T00:51:55.033000Z,D93044A2s,6.89,0.08,Interface,R,1,41,41,107,nlloc,-45.3625,166.649,-45.8986,170.5097,5519161.25,2012843.95,5475848,2316608,34.75,34.75,306.03,307.29,297.73,299.13,263.14,166.6,0,16.72,11.96,nu,SKFS,D,140,Q2,0.8,Q3,25,Q3,0,-99999,-99999,1,0.25,10,0.425,10,Robinson_etal_2003&Dowrick_Rhoades1998&HarvardCMT,0.014964949,0.014979252,0.015015873,0.015102478,0.01519572,0.015720462,0.018427071,0.028637911,0.034440439,0.046998156,0.053455424,0.044215317,0.066182699,0.074574419,0.041089597,0.023238319,0.008855371,-99999,-99999,-99999,-99999,-99999,0.016291856,0.01631959,0.016349706,0.01637137,0.016409791,0.016608486,0.020211604,0.038483397,0.039923708,0.06300362,0.072165045,0.056354178,0.076106548,0.096681164,0.052685902,0.03150663,0.010256315,-99999,-99999,-99999,-99999,-99999,0.014949,0.016283,0.018465,0.019737
471730,1993-08-10T00:51:55.033000Z,D93054A6,6.89,0.08,Interface,R,1,41,41,107,nlloc,-45.3625,166.649,-43.883,169.0441,5519161.25,2012843.95,5695156,2192230,34.75,34.75,250.97,251.86,238.02,238.93,25.39,250.51,0,16.72,11.96,nu,HDWS,D,210,Q3,0.87,Q1,100,Q3,0,-99999,-99999,0,0.35,14,0.595,14,Robinson_etal_2003&Dowrick_Rhoades1998&HarvardCMT,0.030161131,0.030543589,0.031193664,0.032200807,0.033601938,0.048525046,0.073771221,0.154604014,0.094298233,0.089218011,0.130100263,0.051319091,0.042463556,0.094019446,0.031892533,0.019941771,-99999,-99999,-99999,-99999,-99999,-99999,0.035458804,0.035594896,0.03581141,0.036103334,0.037539882,0.056411885,0.081934458,0.167526181,0.102710664,0.100920284,0.172550549,0.069304733,0.045081229,0.114045551,0.044180357,0.028129116,-99999,-99999,-99999,-99999,-99999,-99999,0.029905,0.035416,0.021456,0.023931
471755,1993-08-10T09:46:38.453000Z,A93028A1,6.3,0.08,Slab,S,1,354,64,168,special,-38.55,177.92,-38.0079,177.284,6283090.62,2938734.07,6346024,2886230,30,15,81.95,90.77,69.76,78.95,-42.35,68.08,0,39,32.26,nu,028A,D,210,Q3,1,Q3,75,Q3,0,-99999,-99999,1,0.35,15,0.595,15,Reyners_et_al2010&Webb_Anderson_1998&Dowrick_Rhoades1998&HarvardCMT,0.061374489,0.061611731,0.061923603,0.062456203,0.063159582,0.069962449,0.102610569,0.14732804,0.285223141,0.212388219,0.186047571,0.207812653,0.383566008,0.11840254,0.112765311,0.09099141,-99999,-99999,-99999,-99999,-99999,-99999,0.069005002,0.069195626,0.069485305,0.0699259,0.070449625,0.080944121,0.132501331,0.208259012,0.403387998,0.252598867,0.204668645,0.268213892,0.537189171,0.160867042,0.143303339,0.116884742,-99999,-99999,-99999,-99999,-99999,-99999,0.061272,0.068831,0.052639,0.065922
471755,1993-08-10T09:46:38.453000Z,A93096A1,6.3,0.08,Slab,S,1,354,64,168,special,-38.55,177.92,-39.0342,177.4249,6283090.62,2938734.07,6231637,2892985,30,15,68.85,79.13,59.27,69.25,-47.59,-46.39,0,39,32.26,nu,WFSS,D,155,Q3,1.5,Q3,100,Q3,0,-99999,-99999,1,0.35,13,0.595,13,Reyners_et_al2010&Webb_Anderson_1998&Dowrick_Rhoades1998&HarvardCMT,0.043894992,0.04401209,0.044219397,0.044472316,0.04488602,0.052163923,0.056161706,0.084217153,0.131710963,0.11828143,0.182848311,0.18829786,0.171951695,0.142089024,0.158993412,0.087896508,-99999,-99999,-99999,-99999,-99999,-99999,0.056457515,0.056583945,0.056787682,0.057037117,0.057426765,0.059666072,0.066964897,0.101147973,0.151758083,0.137140553,0.194964024,0.215562398,0.232577766,0.171005061,0.205473415,0.09912442,-99999,-99999,-99999,-99999,-99999,-99999,0.043862,0.056459,0.046615,0.050072
471755,1993-08-10T09:46:38.453000Z,A93113A1,6.3,0.08,Slab,S,1,354,64,168,special,-38.55,177.92,-37.8735,177.5847,6283090.62,2938734.07,6359624,2913365,30,15,80.72,89.57,66.1,76.08,-13.94,78.77,0,39,32.26,nu,113A,C,522,Q3,0.15,Q3,10,Q3,0,-99999,-99999,1,0.42,13,0.714,13,Reyners_et_al2010&Webb_Anderson_1998&Dowrick_Rhoades1998&HarvardCMT,0.089788146,0.090289338,0.091136617,0.092390165,0.094297099,0.102142734,0.137624064,0.216305401,0.456886177,0.491270126,0.408595019,0.196297997,0.145839477,0.058073491,0.033205918,-99999,-99999,-99999,-99999,-99999,-99999,-99999,0.111091851,0.111498771,0.112192746,0.11314215,0.114303554,0.116883009,0.166712397,0.273244076,0.588382653,0.670618117,0.543119763,0.232069291,0.17928294,0.069021305,0.041603475,-99999,-99999,-99999,-99999,-99999,-99999,-99999,0.089493,0.110538,0.041559,0.054997
471755,1993-08-10T09:46:38.453000Z,D93014A4,6.3,0.08,Slab,S,1,354,64,168,special,-38.55,177.92,-39.4984,176.8761,6283090.62,2938734.07,6182359,2843283,30,15,138.75,144.15,129.07,134.18,-102.17,-90.2,0,39,32.26,nu,NCDS,E,162,Q3,1.25,Q2,110,Q3,0,-99999,-99999,0,0.25,10,0.425,10,Reyners_et_al2010&Webb_Anderson_1998&Dowrick_Rhoades1998&HarvardCMT,0.015076616,0.015165504,0.015326974,0.015551683,0.015869742,0.017418652,0.030810289,0.063025562,0.088541187,0.051040681,0.060201692,0.045346966,0.04423141,0.064378808,0.043583173,0.023683542,0.009313178,-99999,-99999,-99999,-99999,-99999,0.016759891,0.016830231,0.01695416,0.017145386,0.017415963,0.018475313,0.033253861,0.075173196,0.111855699,0.069504126,0.068805779,0.050706064,0.05296223,0.079471478,0.053247414,0.029643355,0.010024883,-99999,-99999,-99999,-99999,-99999,0.015065,0.016758,0.013876,0.016776
471755,1993-08-10T09:46:38.453000Z,D93016A1,6.3,0.08,Slab,S,1,354,64,168,special,-38.55,177.92,-38.6774,178.031,6283090.62,2938734.07,6268431,2947608,30,15,17.14,42.71,6.16,35.7,10.58,-15.51,0,39,32.26,nu,016A,C,480,Q3,0.15,Q3,10,Q3,0,-99999,-99999,0,0.3,21,0.51,21,Reyners_et_al2010&Webb_Anderson_1998&Dowrick_Rhoades1998&HarvardCMT,0.155876209,0.156932601,0.158695109,0.161414329,0.170874657,0.214903994,0.326590557,0.617639026,0.676867073,0.59155833,0.559021642,0.471791247,0.606252621,0.331871216,0.176153997,0.05667509,-99999,-99999,-99999,-99999,-99999,-99999,0.19308049,0.194478426,0.196752175,0.200027048,0.206354962,0.225301852,0.425156386,0.78705818,0.9265826,0.728128748,0.737373,0.539483921,0.706369504,0.365378549,0.191867373,0.071052024,-99999,-99999,-99999,-99999,-99999,-99999,0.154414,0.193073,0.103709,0.140525
471755,1993-08-10T09:46:38.453000Z,D93017A1,6.3,0.08,Slab,S,1,354,64,168,special,-38.55,177.92,-38.6665,178.0227,6283090.62,2938734.07,6269685,2946952,30,15,15.73,42.06,5.22,35.18,10.06,-14.19,0,39,32.26,nu,GISS,D,138,Q2,1,Q1,40,Q3,0,-99999,-99999,0,0.25,30,0.425,30,Reyners_et_al2010&Webb_Anderson_1998&Dowrick_Rhoades1998&HarvardCMT,0.187010306,0.189094238,0.195657922,0.241071429,0.225380534,0.285316858,0.335849521,0.557394493,0.514638364,0.616264328,0.840314016,0.736153657,0.475737589,0.366221064,0.302028206,0.081950018,0.035146228,-99999,-99999,-99999,-99999,-99999,0.217044396,0.218074788,0.221461605,0.252729226,0.253428514,0.311160974,0.407475094,0.661472748,0.576743584,0.766206139,1.061094409,0.917895095,0.502752602,0.479698852,0.379635691,0.091552951,0.042962708,-99999,-99999,-99999,-99999,-99999,0.186203,0.217059,0.121691,0.144066
471755,1993-08-10T09:46:38.453000Z,D93021A3,6.3,0.08,Slab,S,1,354,64,168,special,-38.55,177.92,-38.4249,176.3157,6283090.62,2938734.07,6303375,2799556,30,15,140.32,146.04,135.79,140.25,-133.01,34.72,10,39,32.26,nu,021A,D,210,Q3,2,Q3,200,Q3,0,-99999,-99999,1,0.18,10,0.306,10,Reyners_et_al2010&Webb_Anderson_1998&Dowrick_Rhoades1998&HarvardCMT,0.026354831,0.026367525,0.026412207,0.026464592,0.026512467,0.026722264,0.027884511,0.036837524,0.056001537,0.059577878,0.046022083,0.060019691,0.081344241,0.07897118,0.119499988,0.160454941,0.044076767,0.013117851,-99999,-99999,-99999,-99999,0.028011664,0.028033082,0.028059876,0.028041988,0.028110304,0.028232725,0.029662282,0.046747368,0.063034341,0.072960987,0.051221195,0.069791012,0.101155739,0.102002578,0.157619542,0.196068335,0.059803617,0.014687255,-99999,-99999,-99999,-99999,0.026355,0.028006,0.056127,0.064898
608810,1994-06-18T03:25:13.819000Z,D4505A01,6.72,0.08,Crustal,R,1,221,47,112,geonet,-43.0078,171.4762,-42.9489,171.5677,5798820.69,2385786.14,5805487,2393135,21.06,21.06,9.91,11.12,2.02,4.12,2.92,-9.85,0,4.27,1,hw,APPS,C,300,Q2,0.4,Q1,30,Q2,0,-99999,-99999,0,0.11,40,0.187,40,Abercrombie_etal_2000&HarvardCMT,0.434932272,0.449793553,0.51252572,0.51480599,0.529197413,0.765739138,0.940341367,1.401533349,1.851962182,1.775585569,1.035948563,1.284850176,1.822317904,0.429948161,0.295649835,0.176963588,0.110529231,0.06013745,0.044236919,0.021211333,-99999,-99999,0.509225398,0.525086268,0.572385294,0.625271622,0.624818577,0.858238482,1.129493995,1.530313707,2.552690037,2.450272197,1.20468101,1.549724254,2.154044181,0.598267233,0.381239866,0.23936863,0.123242516,0.079565094,0.060628491,0.027020593,-99999,-99999,0.423633,0.509184,0.28269,0.316738
