CuspID,Origin_time,Record,Mw,MwUncert,TectClass,Mech,PreferredFaultPlane,Strike,Dip,Rake,Location,HypLat,HypLon,StationLat,StationLon,HypN,HypE,StationN,StationE,LENGTH_km,WIDTH_km,Repi_km,Rhyp_km,Rjb_km,Rrup_km,Rx_km,Ry_km,Rvol_km,HypDepth_km,ZTOR_km,HWFW,SiteCode,SiteClass1170,Vs30,Vs30Uncert,Tsite,TsiteUncert,Z1,Z1Uncertainty,Directivity,Pulse_or,Pulse_T,S_Trigger_Flag,fcButterHP,f_iniLP,fmin,fmax,References,f100.0000SA_RotD50,f50.0000SA_RotD50,f33.3333SA_RotD50,f25.0000SA_RotD50,f20.0000SA_RotD50,f13.3333SA_RotD50,f10.0000SA_RotD50,f6.6667SA_RotD50,f5.0000SA_RotD50,f4.0000SA_RotD50,f3.3333SA_RotD50,f2.5000SA_RotD50,f2.0000SA_RotD50,f1.3333SA_RotD50,f1.0000SA_RotD50,f0.6667SA_RotD50,f0.5000SA_RotD50,f0.3333SA_RotD50,f0.2500SA_RotD50,f0.2000SA_RotD50,f0.1333SA_RotD50,f0.1000SA_RotD50,f100.0000SA_RotD100,f50.0000SA_RotD100,f33.3333SA_RotD100,f25.0000SA_RotD100,f20.0000SA_RotD100,f13.3333SA_RotD100,f10.0000SA_RotD100,f6.6667SA_RotD100,f5.0000SA_RotD100,f4.0000SA_RotD100,f3.3333SA_RotD100,f2.5000SA_RotD100,f2.0000SA_RotD100,f1.3333SA_RotD100,f1.0000SA_RotD100,f0.6667SA_RotD100,f0.5000SA_RotD100,f0.3333SA_RotD100,f0.2500SA_RotD100,f0.2000SA_RotD100,f0.1333SA_RotD100,f0.1000SA_RotD100,PGA_RotD50,PGA_RotD100,PGV_RotD50,PGV_RotD100
608810,1994-06-18T03:25:13.819000Z,D94042A1,6.72,0.08,Crustal,R,1,221,47,112,geonet,-43.0078,171.4762,-42.5232,172.8305,5798820.69,2385786.14,5853765,2496076,21.06,21.06,122.98,123.31,115.46,115.74,-43.1,-113.82,0,4.27,1,nu,HSES,D,280,Q3,0.9,Q1,85,Q3,0,-99999,-99999,1,0.25,10,0.425,10,Abercrombie_etal_2000&HarvardCMT,0.01548241,0.015490561,0.015510426,0.015543654,0.015564191,0.015650891,0.015966639,0.016385667,0.016960074,0.019834386,0.022203939,0.02358028,0.029663574,0.045198458,0.023193184,0.01154271,0.009048011,-99999,-99999,-99999,-99999,-99999,0.017202222,0.017216087,0.017217562,0.01724434,0.017273435,0.017349714,0.017721362,0.018709134,0.018997364,0.022863369,0.026692182,0.029422569,0.036962065,0.049455563,0.028804745,0.014303228,0.011676758,-99999,-99999,-99999,-99999,-99999,0.015473,0.017197,0.019453,0.022497
608810,1994-06-18T03:25:13.819000Z,D94044A1b,6.72,0.08,Crustal,R,1,221,47,112,geonet,-43.0078,171.4762,-45.8986,170.5097,5798820.69,2385786.14,5475848,2316608,21.06,21.06,330.46,330.33,323.2,323.05,-155.59,289.14,0,4.27,1,nu,SKFS,D,140,Q2,0.8,Q3,25,Q3,0,-99999,-99999,1,0.2,10,0.34,10,Abercrombie_etal_2000&HarvardCMT,0.01395962,0.013984353,0.014003632,0.014032269,0.014080234,0.014277135,0.014561428,0.01516609,0.016430294,0.018601963,0.019855626,0.022312968,0.03198587,0.045500948,0.024971507,0.010338588,0.004915154,-99999,-99999,-99999,-99999,-99999,0.015708076,0.015713327,0.015736741,0.015755517,0.01578147,0.015881409,0.016049223,0.016397756,0.017796501,0.020594458,0.022935939,0.023511253,0.035362627,0.052692527,0.030913726,0.012587084,0.005692582,-99999,-99999,-99999,-99999,-99999,0.013958,0.015708,0.018737,0.02038
608810,1994-06-18T03:25:13.819000Z,D94051D1,6.72,0.08,Crustal,R,1,221,47,112,geonet,-43.0078,171.4762,-41.7557,171.5998,5798820.69,2385786.14,5938069,2393545,21.06,21.06,139.6,139.53,132.84,132.84,89.59,-110.18,0,4.27,1,nu,WBCS,D,300,Q3,1.2,Q2,105,Q3,0,-99999,-99999,0,0.25,20,0.425,20,Abercrombie_etal_2000&HarvardCMT,0.045903171,0.046189995,0.046555722,0.047206078,0.050173232,0.059968564,0.067327404,0.067364059,0.079012089,0.076524421,0.078948939,0.07854409,0.088893549,0.096431632,0.062700034,0.030767479,0.02272693,-99999,-99999,-99999,-99999,-99999,0.058145786,0.058498575,0.0592032,0.060695957,0.063021756,0.075606344,0.094507844,0.072548327,0.09115917,0.084792607,0.094030768,0.087454364,0.123961288,0.125594884,0.067798953,0.038681585,0.026338725,-99999,-99999,-99999,-99999,-99999,0.045551,0.058169,0.050876,0.058746
608810,1994-06-18T03:25:13.819000Z,D94054A3,6.72,0.08,Crustal,R,1,221,47,112,geonet,-43.0078,171.4762,-43.883,169.0441,5798820.69,2385786.14,5695156,2192230,21.06,21.06,219.12,219.61,211.53,212.02,82.16,205.22,0,4.27,1,nu,HDWS,D,210,Q3,0.87,Q1,100,Q3,0,-99999,-99999,1,0.3,11,0.51,11,Abercrombie_etal_2000&HarvardCMT,0.014428714,0.014516647,0.014663816,0.014897816,0.01524227,0.016974178,0.021239428,0.027309387,0.026897682,0.035368447,0.031257429,0.026172158,0.028341536,0.021280705,0.012515281,0.007719076,-99999,-99999,-99999,-99999,-99999,-99999,0.019523135,0.01962663,0.019821759,0.020115548,0.020516202,0.022428287,0.027350892,0.030200156,0.031365584,0.041441789,0.037555847,0.030503724,0.033832643,0.02494019,0.01391254,0.00982424,-99999,-99999,-99999,-99999,-99999,-99999,0.014384,0.01943,0.01289,0.014801
608810,1994-06-18T03:25:13.819000Z,D94129A2,6.72,0.08,Crustal,R,1,221,47,112,geonet,-43.0078,171.4762,-41.7999,172.328,5798820.69,2385786.14,5933893,2454147,21.06,21.06,151.43,151.45,143.62,143.66,41.11,-146.79,0,4.27,1,nu,MCAS,D,501,Q3,1.6,Q3,200,Q3,0,-99999,-99999,0,0.1,13,0.17,13,Abercrombie_etal_2000&HarvardCMT,0.027195208,0.02735882,0.027622056,0.027921817,0.028367385,0.030143855,0.034205673,0.047661164,0.046781701,0.049785394,0.050042613,0.05348763,0.050254377,0.038145106,0.042807103,0.021003481,0.019287396,0.006037011,0.003741965,0.003080967,-99999,-99999,0.029468458,0.029587608,0.029809052,0.030207915,0.030859302,0.034432616,0.037115057,0.053384564,0.051266978,0.052472294,0.070736955,0.070360445,0.06542991,0.041312195,0.044215141,0.025371626,0.021097259,0.008056967,0.004099124,0.003957589,-99999,-99999,0.027166,0.029349,0.027983,0.029524
608810,1994-06-18T03:25:13.819000Z,K94112A1,6.72,0.08,Crustal,R,1,221,47,112,geonet,-43.0078,171.4762,-43.1325,171.7693,5798820.69,2385786.14,5785358,2409884,21.06,21.06,27.55,28.04,23.3,23.35,-22.93,-5.65,0,4.27,1,fw,112B,C,667,Q3,0.36,Q3,60,Q3,0,-99999,-99999,1,0.35,18,0.595,18,Abercrombie_etal_2000&HarvardCMT,0.134104185,0.134951659,0.136445836,0.139261351,0.143951299,0.153889286,0.19139518,0.232261275,0.29488773,0.327138942,0.26781366,0.187636493,0.16239887,0.1042738,0.065346875,0.036163269,-99999,-99999,-99999,-99999,-99999,-99999,0.147892983,0.148463312,0.149437573,0.151427311,0.15595548,0.198718426,0.260403067,0.317036459,0.334605108,0.425467712,0.377812445,0.245291636,0.201986429,0.132624589,0.083368635,0.040007045,-99999,-99999,-99999,-99999,-99999,-99999,0.133497,0.147884,0.080934,0.108476
697172,1994-12-15T11:20:17.858000Z,K5113A01,6.31,0.15,Crustal,S,0,194,77,-1.61E+02,geonet,-37.1987,177.528,-37.8735,177.5847,6434683.68,2912134.85,6359624,2913365,13.1,13.1,75.2,76.03,70.88,72.17,-99999,-99999,10,12,5.68,nu,113A,C,522,Q3,0.15,Q3,10,Q3,0,-99999,-99999,1,0.5,11,0.85,11,HarvardCMT,0.080153379,0.080629744,0.08132136,0.082329246,0.08368767,0.088966746,0.102832591,0.144368355,0.22930087,0.226934961,0.153507593,0.117561676,0.063720887,0.023144946,0.01308841,-99999,-99999,-99999,-99999,-99999,-99999,-99999,0.087840332,0.088242288,0.088866865,0.089741321,0.090871522,0.096613079,0.111944517,0.165564995,0.252003517,0.303529239,0.168905759,0.131580914,0.076734547,0.029233442,0.018349431,-99999,-99999,-99999,-99999,-99999,-99999,-99999,0.079917,0.087819,0.035922,0.044695
731516,1995-02-05T22:51:04.665000Z,D5016A02,7.09,0.15,Crustal,N,0,215,58,-9.00E+01,geonet,-37.6496,179.4886,-38.6774,178.031,6374193.93,3082358.22,6268431,2947608,32.2,32.2,171.17,171.73,155.42,156.01,-99999,-99999,0,12,1.73,nu,016A,C,480,Q3,0.15,Q3,10,Q3,0,-99999,-99999,0,0.35,14,0.595,14,HarvardCMT,0.019710624,0.019795526,0.019912069,0.02011665,0.020440446,0.021697551,0.024431809,0.031317408,0.033231966,0.029429747,0.035263943,0.036729852,0.037135194,0.031150561,0.017791617,0.007726166,-99999,-99999,-99999,-99999,-99999,-99999,0.022110503,0.0221825,0.022323222,0.022517718,0.022793844,0.023294052,0.02647734,0.036559703,0.035571227,0.03567596,0.040925825,0.050141858,0.050194422,0.0348144,0.01965454,0.009158727,-99999,-99999,-99999,-99999,-99999,-99999,0.019614,0.022096,0.013599,0.015489
731516,1995-02-05T22:51:04.665000Z,D5017A02,7.09,0.15,Crustal,N,0,215,58,-9.00E+01,geonet,-37.6496,179.4886,-38.6665,178.0227,6374193.93,3082358.22,6269685,2946952,32.2,32.2,170.91,171.47,155.18,155.77,-99999,-99999,0,12,1.73,nu,GISS,D,138,Q2,1,Q1,40,Q3,0,-99999,-99999,0,0.18,12,0.306,12,HarvardCMT,0.022682307,0.022753705,0.022847542,0.022997512,0.023199171,0.024531141,0.029254023,0.033714525,0.037074514,0.039287795,0.04270732,0.040563417,0.042428795,0.05478066,0.035162802,0.011258331,0.006579122,0.00292905,-99999,-99999,-99999,-99999,0.026675704,0.026739541,0.026842992,0.026976274,0.027171339,0.028124848,0.031059551,0.037948367,0.040690422,0.044009477,0.047586062,0.042589086,0.054495053,0.07503763,0.04400399,0.013814103,0.007296745,0.003126085,-99999,-99999,-99999,-99999,0.022668,0.026673,0.023536,0.028064
731516,1995-02-05T22:51:04.665000Z,D5709A03,7.09,0.15,Crustal,N,0,215,58,-9.00E+01,geonet,-37.6496,179.4886,-38.6257,177.9216,6374193.93,3082358.22,6274694,2938413,32.2,32.2,174.82,175.4,159.22,159.85,-99999,-99999,0,12,1.73,nu,GWTS,D,245,Q3,1.5,Q3,125,Q3,0,-99999,-99999,0,0.15,10,0.255,10,HarvardCMT,0.021730744,0.021757629,0.021813992,0.021837064,0.021858059,0.02194762,0.022992827,0.023375133,0.029334925,0.030384547,0.033230483,0.037652801,0.03796549,0.04684681,0.040434221,0.043794882,0.032646884,0.014572553,-99999,-99999,-99999,-99999,0.023718223,0.023754682,0.023817639,0.023906984,0.024029956,0.024484167,0.025114311,0.028947168,0.034603308,0.033441937,0.035016927,0.040749644,0.041414349,0.054015189,0.044577577,0.055859168,0.034593258,0.015547812,-99999,-99999,-99999,-99999,0.021733,0.023696,0.047036,0.051666
731516,1995-02-05T22:51:04.665000Z,D5712A03,7.09,0.15,Crustal,N,0,215,58,-9.00E+01,geonet,-37.6496,179.4886,-37.9615,176.9855,6374193.93,3082358.22,6352382,2860270,32.2,32.2,222.62,223.48,209.17,210.15,-99999,-99999,0,12,1.73,nu,WKHS,D,210,Q3,0.71,Q2,100,Q3,0,-99999,-99999,0,0.25,12,0.425,12,HarvardCMT,0.017437874,0.017470596,0.017526191,0.017672931,0.017929477,0.019289532,0.02145895,0.025323025,0.025570331,0.026006985,0.031695424,0.035406674,0.042783947,0.026088442,0.015500029,0.006248963,0.004162618,-99999,-99999,-99999,-99999,-99999,0.018989874,0.019028945,0.01909515,0.01918535,0.019346738,0.020727983,0.023098196,0.030328985,0.029347276,0.032328065,0.036230759,0.047048476,0.053168099,0.030796659,0.020216899,0.00788354,0.004847438,-99999,-99999,-99999,-99999,-99999,0.017383,0.01896,0.01429,0.016299
731516,1995-02-05T22:51:04.665000Z,K5113A02,7.09,0.15,Crustal,N,0,215,58,-9.00E+01,geonet,-37.6496,179.4886,-37.8735,177.5847,6374193.93,3082358.22,6359624,2913365,32.2,32.2,169.2,170.05,155.84,156.86,-99999,-99999,0,12,1.73,nu,113A,C,522,Q3,0.15,Q3,10,Q3,0,-99999,-99999,1,0.4,11,0.68,11,HarvardCMT,0.038575686,0.038824404,0.039218287,0.039786303,0.040548194,0.043560014,0.048487897,0.072907991,0.123026049,0.12865775,0.091634289,0.053697899,0.034228154,0.018508505,0.011404512,-99999,-99999,-99999,-99999,-99999,-99999,-99999,0.041669858,0.041882035,0.042239245,0.042738299,0.043391928,0.046961631,0.050867334,0.08445161,0.145608873,0.142124026,0.120535484,0.068106618,0.039122802,0.020739902,0.013961234,-99999,-99999,-99999,-99999,-99999,-99999,-99999,0.038456,0.041675,0.017797,0.020876
721911,1995-02-10T01:44:56.764000Z,D5016A04,6.49,0.15,Crustal,N,0,220,41,-7.80E+01,fdsn,-38.1086,178.6757,-38.6774,178.031,6344659.25,3005555.26,6268431,2947608,16.2,16.2,84.6,96.52,87.77,88.47,-99999,-99999,0,12,6.26,nu,016A,C,480,Q3,0.15,Q3,10,Q3,0,-99999,-99999,1,0.3,10,0.51,10,HarvardCMT,0.013072657,0.013111051,0.013168119,0.013260047,0.013378129,0.013853152,0.015069214,0.019810005,0.025686551,0.022972295,0.028492197,0.027698209,0.032692155,0.022589554,0.014307432,0.007450868,-99999,-99999,-99999,-99999,-99999,-99999,0.015127604,0.01518248,0.015263429,0.015369314,0.015525216,0.016066636,0.016693801,0.021531766,0.031393613,0.025289793,0.03211569,0.031679837,0.03567405,0.026462811,0.015148323,0.008006367,-99999,-99999,-99999,-99999,-99999,-99999,0.01307,0.015125,0.011199,0.012434
721911,1995-02-10T01:44:56.764000Z,D5017A03,6.49,0.15,Crustal,N,0,220,41,-7.80E+01,fdsn,-38.1086,178.6757,-38.6665,178.0227,6344659.25,3005555.26,6269685,2946952,16.2,16.2,84.19,95.91,87.18,87.87,-99999,-99999,0,12,6.26,nu,GISS,D,138,Q2,1,Q1,40,Q3,0,-99999,-99999,1,0.2,10,0.34,10,HarvardCMT,0.015888231,0.015938042,0.01600206,0.016096273,0.016233129,0.016828972,0.017916927,0.022972334,0.02644067,0.029528859,0.029787405,0.029714358,0.032731087,0.029341013,0.02540807,0.011029691,0.00524765,-99999,-99999,-99999,-99999,-99999,0.02042596,0.020445372,0.020501335,0.020565511,0.02063899,0.020936359,0.020777152,0.025029837,0.029769744,0.03299421,0.034109021,0.036553312,0.045557693,0.033877274,0.034854951,0.014711808,0.0061079,-99999,-99999,-99999,-99999,-99999,0.015846,0.020389,0.017052,0.020424
722185,1995-03-22T19:43:30.268000Z,D5040A01,5.83,0.15,Slab,S,0,27,64,30,nlloc,-41.0514,174.216,-41.5763,175.2269,6016538.56,2612205.51,5956588,2695679,7.6,7.6,102.64,133.7,100.01,131.33,-99999,-99999,0,85.51,82.13,nu,040A,B,770,Q3,0.08,Q3,7,Q3,0,-99999,-99999,1,0.25,22,0.425,22,HarvardCMT,0.022520473,0.023139375,0.024438893,0.027116968,0.032584086,0.044778493,0.04892548,0.04914028,0.041072961,0.035664148,0.025640399,0.01312042,0.011354007,0.00627954,0.00392873,0.002889672,0.001951963,-99999,-99999,-99999,-99999,-99999,0.027257131,0.028095048,0.029778384,0.033874658,0.045888991,0.06006682,0.06913182,0.057078969,0.047339283,0.045644672,0.033083153,0.016754327,0.014167189,0.006881145,0.004297178,0.003423735,0.002354276,-99999,-99999,-99999,-99999,-99999,0.022443,0.026833,0.006984,0.007547
722185,1995-03-22T19:43:30.268000Z,D5050A02,5.83,0.15,Slab,S,0,27,64,30,nlloc,-41.0514,174.216,-41.1247,173.0095,6016538.56,2612205.51,6009109,2510784,7.6,7.6,101.44,132.87,98.42,129.2,-99999,-99999,0,85.51,82.13,nu,MOTS,D,300,Q3,1.27,Q3,300,Q3,0,-99999,-99999,0,0.3,25,0.51,25,HarvardCMT,0.074984654,0.07604787,0.077856395,0.080755259,0.089773376,0.124870677,0.142326084,0.137010526,0.199510486,0.203612955,0.157094407,0.123074713,0.075442821,0.02509784,0.011172907,0.010610136,-99999,-99999,-99999,-99999,-99999,-99999,0.081438104,0.082034459,0.082918397,0.088790371,0.106335315,0.155424515,0.155359476,0.158120598,0.24468545,0.221651337,0.199884471,0.158362968,0.089334555,0.027652004,0.015230461,0.013170757,-99999,-99999,-99999,-99999,-99999,-99999,0.074658,0.081151,0.031704,0.038098
722185,1995-03-22T19:43:30.268000Z,D5056A02,5.83,0.15,Slab,S,0,27,64,30,nlloc,-41.0514,174.216,-41.2758,173.2851,6016538.56,2612205.51,5992292,2533876,7.6,7.6,81.82,118.48,78.7,114.72,-99999,-99999,0,85.51,82.13,nu,056A,B,450,Q3,0.07,Q3,5,Q3,0,-99999,-99999,0,0.3,15,0.51,15,HarvardCMT,0.204320906,0.205714815,0.208136995,0.211897758,0.217416844,0.244608614,0.277075175,0.398713461,0.410012263,0.476250942,0.441129967,0.215995661,0.132190331,0.069250333,0.023794538,0.013316241,-99999,-99999,-99999,-99999,-99999,-99999,0.25730633,0.259276706,0.262571458,0.267573914,0.275168503,0.321484967,0.359416862,0.487215572,0.579892223,0.651419256,0.578973936,0.294376067,0.186918749,0.085593518,0.030874854,0.018773215,-99999,-99999,-99999,-99999,-99999,-99999,0.203401,0.256838,0.086241,0.109037
722185,1995-03-22T19:43:30.268000Z,D5129A01,5.83,0.15,Slab,S,0,27,64,30,nlloc,-41.0514,174.216,-41.7999,172.328,6016538.56,2612205.51,5933893,2454147,7.6,7.6,178.06,197.87,174.9,194.27,-99999,-99999,0,85.51,82.13,nu,MCAS,D,501,Q3,1.6,Q3,200,Q3,0,-99999,-99999,0,0.3,17,0.51,17,HarvardCMT,0.032921532,0.033271603,0.033874506,0.034700929,0.036156529,0.043027875,0.056578214,0.066177048,0.087548914,0.061574802,0.065035509,0.051865836,0.043112578,0.019621633,0.019886155,0.011062442,-99999,-99999,-99999,-99999,-99999,-99999,0.041487137,0.04186731,0.042500837,0.043508853,0.045171364,0.053042433,0.062984334,0.069313142,0.094432744,0.082827164,0.091263195,0.058885813,0.053070681,0.021406926,0.023735602,0.012402478,-99999,-99999,-99999,-99999,-99999,-99999,0.032924,0.041474,0.019706,0.021382
722185,1995-03-22T19:43:30.268000Z,D5130B01,5.83,0.15,Slab,S,0,27,64,30,nlloc,-41.0514,174.216,-41.6696,173.2029,6016538.56,2612205.51,5948576,2526890,7.6,7.6,108.97,138.82,105.86,135.11,-99999,-99999,0,85.51,82.13,nu,130B,D,367,Q3,0.85,Q3,100,Q3,0,-99999,-99999,1,0.4,24,0.68,24,HarvardCMT,0.020863508,0.021615784,0.023004791,0.028100607,0.037304547,0.04987331,0.055076876,0.037829252,0.027911999,0.031058089,0.025158866,0.018724876,0.011322203,0.007043272,0.004140964,-99999,-99999,-99999,-99999,-99999,-99999,-99999,0.023133273,0.024108977,0.025920997,0.031825906,0.040039597,0.058178355,0.059228797,0.045664073,0.030729207,0.035403022,0.033378398,0.026484421,0.014470333,0.009517574,0.004989849,-99999,-99999,-99999,-99999,-99999,-99999,-99999,0.020729,0.023068,0.007133,0.008654
722185,1995-03-22T19:43:30.268000Z,D5131A06,5.83,0.15,Slab,S,0,27,64,30,nlloc,-41.0514,174.216,-40.9143,175.005,6016538.56,2612205.51,6030534,2678862,7.6,7.6,67.96,109.33,64.87,106.63,-99999,-99999,0,85.51,82.13,nu,PAPS,D,200,Q3,1.4,Q1,100,Q3,0,-99999,-99999,0,0.45,18,0.765,18,HarvardCMT,0.062935558,0.06408191,0.066143743,0.069794733,0.077063072,0.09694213,0.125152718,0.144657191,0.107495733,0.108416533,0.090996287,0.065248036,0.041928221,0.023839532,0.018653633,-99999,-99999,-99999,-99999,-99999,-99999,-99999,0.082796121,0.084115631,0.086345556,0.089712545,0.094670577,0.113227929,0.149225295,0.182057258,0.122810772,0.144980148,0.102351601,0.081261356,0.049240148,0.027303531,0.022830981,-99999,-99999,-99999,-99999,-99999,-99999,-99999,0.062974,0.080919,0.023458,0.025778
722185,1995-03-22T19:43:30.268000Z,D5132A05,5.83,0.15,Slab,S,0,27,64,30,nlloc,-41.0514,174.216,-41.2975,174.781,6016538.56,2612205.51,5988401,2659132,7.6,7.6,54.63,101.53,52,98.73,-99999,-99999,0,85.51,82.13,nu,132A,C,245,Q2,0.47,Q2,27,Q2,0,-99999,-99999,0,0.3,15,0.51,15,HarvardCMT,0.053608428,0.05422531,0.055335905,0.057041309,0.059660901,0.072491112,0.099076126,0.142479526,0.092069989,0.080209411,0.081721954,0.074908939,0.054376115,0.028572314,0.012529145,0.007677811,-99999,-99999,-99999,-99999,-99999,-99999,0.064300298,0.065335328,0.067055107,0.069687339,0.073587385,0.097984429,0.135954651,0.175025779,0.113632277,0.091166681,0.097586356,0.088596785,0.074721704,0.033540783,0.014677532,0.010095418,-99999,-99999,-99999,-99999,-99999,-99999,0.053645,0.064267,0.022839,0.02753
722185,1995-03-22T19:43:30.268000Z,D5302A03,5.83,0.15,Slab,S,0,27,64,30,nlloc,-41.0514,174.216,-39.9338,175.053,6016538.56,2612205.51,6139282,2685450,7.6,7.6,143.02,166.57,140.12,164.23,-99999,-99999,0,85.51,82.13,nu,302A,D,250,Q2,0.8,Q3,80,Q3,0,-99999,-99999,0,0.4,18,0.68,18,HarvardCMT,0.030184791,0.030574902,0.031433025,0.032817701,0.0354038,0.043786629,0.062846138,0.064394648,0.059177402,0.06144453,0.067474369,0.063326676,0.049992279,0.022549104,0.01074179,-99999,-99999,-99999,-99999,-99999,-99999,-99999,0.034814809,0.035211192,0.035897866,0.036973043,0.039043595,0.046741701,0.074358126,0.070455804,0.068547656,0.068364268,0.074772604,0.08689967,0.054214769,0.023920319,0.013321406,-99999,-99999,-99999,-99999,-99999,-99999,-99999,0.030144,0.034818,0.01655,0.019803
722185,1995-03-22T19:43:30.268000Z,D5643B07,5.83,0.15,Slab,S,0,27,64,30,nlloc,-41.0514,174.216,-41.1513,174.9794,6016538.56,2612205.51,6004275,2676112,7.6,7.6,64.92,107.53,62.09,104.88,-99999,-99999,0,85.51,82.13,nu,643B,B,1000,Q3,<0.1,Q3,1.50E+00,Q3,0,-99999,-99999,0,0.3,30,0.51,30,HarvardCMT,0.043788509,0.044937953,0.04778519,0.051559862,0.05487776,0.070861352,0.083863567,0.138600251,0.089092421,0.060399444,0.045321025,0.025949585,0.016906323,0.008705464,0.005158963,0.002946248,-99999,-99999,-99999,-99999,-99999,-99999,0.052880616,0.054324909,0.057725545,0.059544432,0.071356485,0.083438596,0.102020469,0.175027084,0.096826426,0.078858222,0.054385115,0.03540322,0.018690113,0.009430854,0.00538687,0.004122614,-99999,-99999,-99999,-99999,-99999,-99999,0.043803,0.051789,0.013908,0.016355
