CuspID,Origin_time,Record,Mw,MwUncert,TectClass,Mech,PreferredFaultPlane,Strike,Dip,Rake,Location,HypLat,HypLon,StationLat,StationLon,HypN,HypE,StationN,StationE,LENGTH_km,WIDTH_km,Repi_km,Rhyp_km,Rjb_km,Rrup_km,Rx_km,Ry_km,Rvol_km,HypDepth_km,ZTOR_km,HWFW,SiteCode,SiteClass1170,Vs30,Vs30Uncert,Tsite,TsiteUncert,Z1,Z1Uncertainty,Directivity,Pulse_or,Pulse_T,S_Trigger_Flag,fcButterHP,f_iniLP,fmin,fmax,References,f100.0000SA_RotD50,f50.0000SA_RotD50,f33.3333SA_RotD50,f25.0000SA_RotD50,f20.0000SA_RotD50,f13.3333SA_RotD50,f10.0000SA_RotD50,f6.6667SA_RotD50,f5.0000SA_RotD50,f4.0000SA_RotD50,f3.3333SA_RotD50,f2.5000SA_RotD50,f2.0000SA_RotD50,f1.3333SA_RotD50,f1.0000SA_RotD50,f0.6667SA_RotD50,f0.5000SA_RotD50,f0.3333SA_RotD50,f0.2500SA_RotD50,f0.2000SA_RotD50,f0.1333SA_RotD50,f0.1000SA_RotD50,f100.0000SA_RotD100,f50.0000SA_RotD100,f33.3333SA_RotD100,f25.0000SA_RotD100,f20.0000SA_RotD100,f13.3333SA_RotD100,f10.0000SA_RotD100,f6.6667SA_RotD100,f5.0000SA_RotD100,f4.0000SA_RotD100,f3.3333SA_RotD100,f2.5000SA_RotD100,f2.0000SA_RotD100,f1.3333SA_RotD100,f1.0000SA_RotD100,f0.6667SA_RotD100,f0.5000SA_RotD100,f0.3333SA_RotD100,f0.2500SA_RotD100,f0.2000SA_RotD100,f0.1333SA_RotD100,f0.1000SA_RotD100,PGA_RotD50,PGA_RotD100,PGV_RotD50,PGV_RotD100
722185,1995-03-22T19:43:30.268000Z,D5646A05,5.83,0.15,Slab,S,0,27,64,30,nlloc,-41.0514,174.216,-41.2574,174.9485,6016538.56,2612205.51,5992552,2673256,7.6,7.6,65.46,107.84,62.76,105.2,-99999,-99999,0,85.51,82.13,nu,WDAS,E,120,Q1,1.6,Q2,62,Q2,0,-99999,-99999,0,0.25,19,0.425,19,HarvardCMT,0.044260606,0.044790561,0.045724138,0.047116598,0.049156989,0.063956889,0.067963421,0.086262325,0.084246616,0.074403622,0.083166483,0.072953927,0.069066131,0.054824326,0.04531694,0.022121336,0.007932653,-99999,-99999,-99999,-99999,-99999,0.061407983,0.061975906,0.063018202,0.064539993,0.066274525,0.081406803,0.071342348,0.112710251,0.112052975,0.101180281,0.101926822,0.09893566,0.08110762,0.076169191,0.054500552,0.02894727,0.010369453,-99999,-99999,-99999,-99999,-99999,0.044194,0.061457,0.031242,0.043211
722185,1995-03-22T19:43:30.268000Z,D5647D02,5.83,0.15,Slab,S,0,27,64,30,nlloc,-41.0514,174.216,-41.2875,174.7769,6016538.56,2612205.51,5989514,2658817,7.6,7.6,53.8,101.07,51.16,98.26,-99999,-99999,0,85.51,82.13,nu,647D,D,474,Q2,0.12,Q2,5.70E+00,Q2,0,-99999,-99999,0,0.3,18,0.51,18,HarvardCMT,0.04399624,0.044475146,0.045209307,0.046402994,0.048420366,0.058832055,0.06731319,0.093233397,0.125148093,0.081279997,0.089009812,0.070590509,0.034310008,0.017859482,0.009791867,0.005647086,-99999,-99999,-99999,-99999,-99999,-99999,0.05328277,0.053408451,0.053704109,0.054535884,0.057581052,0.07129467,0.073110295,0.105550486,0.162016614,0.106780137,0.096913452,0.084971851,0.038249729,0.020845669,0.010601117,0.007199349,-99999,-99999,-99999,-99999,-99999,-99999,0.044004,0.053275,0.021937,0.024439
722185,1995-03-22T19:43:30.268000Z,D5648A03,5.83,0.15,Slab,S,0,27,64,30,nlloc,-41.0514,174.216,-41.2775,174.7735,6016538.56,2612205.51,5990634,2658549,7.6,7.6,53.01,109.27,50.36,106.39,-99999,-99999,0,85.51,82.13,nu,921A,C,330,Q3,0.5,Q3,38,Q3,0,-99999,-99999,0,0.35,32,0.595,32,HarvardCMT,0.057763218,0.058790286,0.060405184,0.065381598,0.069342061,0.087773548,0.102409807,0.129947686,0.140594449,0.117603743,0.095355277,0.070715059,0.049688295,0.020279638,0.012476729,0.007086048,-99999,-99999,-99999,-99999,-99999,-99999,0.060706173,0.061325281,0.065027473,0.072807137,0.071830434,0.096343327,0.123210089,0.17915806,0.164686624,0.127780247,0.115542468,0.077335591,0.05527609,0.027714465,0.014022935,0.008006065,-99999,-99999,-99999,-99999,-99999,-99999,0.057084,0.060531,0.025057,0.029225
722185,1995-03-22T19:43:30.268000Z,D5707A02,5.83,0.15,Slab,S,0,27,64,30,nlloc,-41.0514,174.216,-41.1391,174.8502,6016538.56,2612205.51,6005867,2665298,7.6,7.6,54.03,101.23,51.21,98.48,-99999,-99999,0,85.51,82.13,nu,707A,C,570,Q3,0.15,Q3,10,Q3,0,-99999,-99999,0,0.25,20,0.425,20,HarvardCMT,0.032769345,0.033763801,0.035482487,0.038645371,0.044254058,0.058519443,0.072637534,0.064079741,0.032781684,0.033512186,0.024801665,0.024877254,0.017605696,0.01167545,0.006548024,0.004831827,0.002692063,-99999,-99999,-99999,-99999,-99999,0.038041508,0.038937187,0.040457398,0.042661365,0.046872248,0.072745252,0.092141233,0.079632395,0.040048199,0.038117661,0.026829812,0.030329915,0.020822884,0.014501313,0.007338121,0.005472921,0.003286569,-99999,-99999,-99999,-99999,-99999,0.032794,0.037966,0.009417,0.01102
722185,1995-03-22T19:43:30.268000Z,D5900C02,5.83,0.15,Slab,S,0,27,64,30,nlloc,-41.0514,174.216,-41.2891,174.7799,6016538.56,2612205.51,5989335,2659058,7.6,7.6,54.09,101.23,51.45,98.43,-99999,-99999,0,85.51,82.13,nu,900C,D,250,Q3,0.8,Q3,60,Q3,0,-99999,-99999,0,0.3,15,0.51,15,HarvardCMT,0.054881732,0.055149876,0.055601994,0.056295815,0.057373232,0.067050608,0.074950197,0.106584526,0.148179034,0.144244412,0.119933211,0.10356174,0.051046913,0.031315003,0.015151338,0.006598045,-99999,-99999,-99999,-99999,-99999,-99999,0.070242446,0.070622214,0.071245325,0.072159996,0.073649012,0.09176701,0.104418758,0.14625635,0.209090987,0.193822876,0.135479365,0.138143958,0.061439412,0.04249126,0.018419812,0.007850672,-99999,-99999,-99999,-99999,-99999,-99999,0.054898,0.07014,0.030361,0.034038
722185,1995-03-22T19:43:30.268000Z,D5935C03,5.83,0.15,Slab,S,0,27,64,30,nlloc,-41.0514,174.216,-41.2108,174.9047,6016538.56,2612205.51,5997808,2669699,7.6,7.6,60.34,104.73,57.6,102.04,-99999,-99999,0,85.51,82.13,nu,935A,D,240,Q3,1.2,Q3,275,Q3,0,-99999,-99999,0,0.25,24.5,0.425,24.5,HarvardCMT,0.038856763,0.039160868,0.039710925,0.041145593,0.041842529,0.047022644,0.055479552,0.062874818,0.075215349,0.073744299,0.0796052,0.085597059,0.066274826,0.024906722,0.021130294,0.010239181,0.005665861,-99999,-99999,-99999,-99999,-99999,0.042461512,0.042915956,0.043764759,0.046377042,0.044588021,0.059447217,0.059870134,0.078995444,0.092335682,0.086747633,0.107421424,0.109386872,0.07283212,0.0298911,0.029359434,0.013920287,0.006651241,-99999,-99999,-99999,-99999,-99999,0.038712,0.042452,0.023412,0.027531
722185,1995-03-22T19:43:30.268000Z,I5027F03,5.83,0.15,Slab,S,0,27,64,30,nlloc,-41.0514,174.216,-39.4884,176.9189,6016538.56,2612205.51,6183307,2847012,7.6,7.6,287.72,300.43,284.58,297.6,-99999,-99999,0,85.51,82.13,nu,NAMS,C,268,Q3,0.4,Q3,20,Q3,0,-99999,-99999,1,0.5,21,0.85,21,HarvardCMT,0.007503812,0.007531801,0.007586659,0.007697725,0.007959616,0.008285129,0.008549879,0.011402743,0.013355818,0.013658435,0.019308252,0.024583312,0.013504039,0.005131024,0.002254403,-99999,-99999,-99999,-99999,-99999,-99999,-99999,0.010085699,0.010124354,0.010191976,0.010297393,0.01043235,0.011632392,0.011784174,0.013946966,0.014646412,0.017604641,0.024479979,0.032163181,0.018033841,0.007023126,0.003060204,-99999,-99999,-99999,-99999,-99999,-99999,-99999,0.00749,0.010072,0.004646,0.005415
722185,1995-03-22T19:43:30.268000Z,I5467A07,5.83,0.15,Slab,S,0,27,64,30,nlloc,-41.0514,174.216,-41.2425,174.9024,6016538.56,2612205.51,5994293,2669430,7.6,7.6,61.27,105.27,58.57,102.59,-99999,-99999,0,85.51,82.13,nu,467A,D,218,Q3,1.5,Q3,200,Q3,0,-99999,-99999,0,0.19,28,0.323,28,HarvardCMT,0.03775709,0.038120381,0.038894823,0.039596529,0.042354595,0.050299483,0.061060541,0.094737865,0.094073725,0.054987618,0.041193985,0.045603217,0.055064828,0.033168084,0.020149371,0.017583762,0.006652409,0.00210236,-99999,-99999,-99999,-99999,0.043067728,0.043505749,0.044179688,0.045261337,0.048641964,0.054152566,0.067783198,0.101796355,0.11233914,0.06278368,0.043553054,0.056949461,0.06952703,0.043074347,0.022373038,0.021304027,0.007150488,0.002256841,-99999,-99999,-99999,-99999,0.037621,0.042592,0.02036,0.023217
722185,1995-03-22T19:43:30.268000Z,I5468A06,5.83,0.15,Slab,S,0,27,64,30,nlloc,-41.0514,174.216,-41.2011,174.9547,6016538.56,2612205.51,5998793,2673916,7.6,7.6,64.07,106.94,61.31,104.29,-99999,-99999,0,85.51,82.13,nu,468A,D,190,Q1,0.9,Q3,50,Q3,0,-99999,-99999,0,0.25,24,0.425,24,HarvardCMT,0.057135312,0.057775711,0.058815181,0.062155512,0.068353956,0.088734537,0.103691703,0.151860093,0.152985785,0.107206084,0.090774447,0.092721561,0.08400221,0.054861378,0.048475815,0.011818247,0.00554426,-99999,-99999,-99999,-99999,-99999,0.07453754,0.075268611,0.076532937,0.078804674,0.078855546,0.113170321,0.138067867,0.21060383,0.184064389,0.142434517,0.098183941,0.111446534,0.108352704,0.063243781,0.054579283,0.01338962,0.006990389,-99999,-99999,-99999,-99999,-99999,0.057084,0.07455,0.031492,0.037271
722185,1995-03-22T19:43:30.268000Z,I5602C01,5.83,0.15,Slab,S,0,27,64,30,nlloc,-41.0514,174.216,-41.1903,174.928,6016538.56,2612205.51,6000041,2671703,7.6,7.6,61.61,105.49,58.84,102.81,-99999,-99999,0,85.51,82.13,nu,602C,B,1000,Q3,<0.1,Q3,0,Q3,0,-99999,-99999,0,0.2,45,0.34,45,HarvardCMT,0.018192,0.018626568,0.020184003,0.020738267,0.022131968,0.042209991,0.038740691,0.030732962,0.036228098,0.029837226,0.027198773,0.01947178,0.014337228,0.0096483,0.006997108,0.004037419,0.002856425,-99999,-99999,-99999,-99999,-99999,0.02275175,0.023199691,0.024556335,0.027401599,0.02675107,0.05400754,0.047147013,0.038222455,0.049671993,0.039003172,0.035019726,0.024319617,0.018923851,0.010438684,0.00906579,0.005315954,0.004029124,-99999,-99999,-99999,-99999,-99999,0.017965,0.022615,0.008932,0.011987
722185,1995-03-22T19:43:30.268000Z,I5603B03,5.83,0.15,Slab,S,0,27,64,30,nlloc,-41.0514,174.216,-41.2237,174.86,6016538.56,2612205.51,5996453,2665923,7.6,7.6,57.23,102.97,54.52,100.24,-99999,-99999,0,85.51,82.13,nu,603B,B,1000,Q3,<0.1,Q3,0,Q3,0,-99999,-99999,0,0.25,30,0.425,30,HarvardCMT,0.016760283,0.017019076,0.017577553,0.018422409,0.021491408,0.027487294,0.038389506,0.044600827,0.027605441,0.020073849,0.018419423,0.019829994,0.016857299,0.009121159,0.007219056,0.005277833,0.003619909,-99999,-99999,-99999,-99999,-99999,0.023701873,0.024049043,0.024857363,0.02572329,0.029701038,0.036245012,0.052768399,0.06233443,0.035881561,0.024418654,0.02008853,0.021246151,0.020193933,0.010002134,0.008674871,0.007259704,0.004653461,-99999,-99999,-99999,-99999,-99999,0.016751,0.023688,0.00872,0.011914
722185,1995-03-22T19:43:30.268000Z,I5605B05,5.83,0.15,Slab,S,0,27,64,30,nlloc,-41.0514,174.216,-41.2074,174.9401,6016538.56,2612205.51,5998119,2672679,7.6,7.6,63.08,106.39,60.33,103.72,-99999,-99999,0,85.51,82.13,nu,FAIS,B,760,Q3,0.27,Q1,0,Q2,0,-99999,-99999,0,0.15,32,0.255,32,HarvardCMT,0.031822896,0.032306857,0.033377241,0.034612688,0.035982509,0.04358129,0.050181324,0.070986591,0.059471776,0.050707465,0.039921723,0.035984518,0.029673498,0.011739243,0.005674132,0.003210014,0.002258342,0.00092545,-99999,-99999,-99999,-99999,0.037429101,0.037813253,0.038370133,0.039778962,0.043308947,0.05445575,0.054781481,0.080990967,0.081349408,0.067502283,0.049293641,0.049621723,0.036972477,0.013385993,0.006968845,0.003686083,0.002622387,0.001304194,-99999,-99999,-99999,-99999,0.03163,0.037414,0.013971,0.019442
722185,1995-03-22T19:43:30.268000Z,I5606B07,5.83,0.15,Slab,S,0,27,64,30,nlloc,-41.0514,174.216,-41.2333,174.9199,6016538.56,2612205.51,5995282,2670919,7.6,7.6,62.31,105.88,59.59,103.21,-99999,-99999,0,85.51,82.13,nu,606B,B,800,Q3,<0.1,Q3,0,Q3,0,-99999,-99999,0,0.25,35,0.425,35,HarvardCMT,0.03350075,0.034874271,0.037908644,0.038896552,0.048131019,0.057290171,0.061716074,0.082267287,0.05513881,0.033093557,0.024861512,0.018443188,0.010524474,0.006614113,0.003264645,0.002236164,0.001731361,-99999,-99999,-99999,-99999,-99999,0.037335809,0.039002845,0.040795891,0.041717095,0.051510419,0.06619449,0.076008204,0.096627761,0.067346099,0.036686597,0.032415438,0.024352339,0.014753929,0.009047425,0.004038051,0.002645246,0.001961971,-99999,-99999,-99999,-99999,-99999,0.032391,0.036712,0.008125,0.009724
722185,1995-03-22T19:43:30.268000Z,I5642G18,5.83,0.15,Slab,S,0,27,64,30,nlloc,-41.0514,174.216,-41.235,174.9172,6016538.56,2612205.51,5995098,2670688,7.6,7.6,62.16,105.8,59.44,103.12,-99999,-99999,0,85.51,82.13,nu,642G,C,350,Q1,0.35,Q2,50,Q3,0,-99999,-99999,0,0.25,35,0.425,35,HarvardCMT,0.074209998,0.075691702,0.079129239,0.082337891,0.095156533,0.105326145,0.12258318,0.193109628,0.130056445,0.102061881,0.070103138,0.05588575,0.035049579,0.015137979,0.007134529,0.003027217,0.002335523,-99999,-99999,-99999,-99999,-99999,0.083207436,0.084596597,0.086855493,0.089975998,0.104495506,0.131245146,0.155151244,0.219494178,0.155680006,0.111379619,0.076356359,0.062487312,0.038059277,0.017752882,0.008061118,0.003386318,0.002701307,-99999,-99999,-99999,-99999,-99999,0.073975,0.0828,0.018827,0.023045
722185,1995-03-22T19:43:30.268000Z,I5642H18,5.83,0.15,Slab,S,0,27,64,30,nlloc,-41.0514,174.216,-41.235,174.9172,6016538.56,2612205.51,5995098,2670688,7.6,7.6,62.16,105.8,59.44,103.12,-99999,-99999,0,85.51,82.13,nu,642H,C,350,Q1,0.35,Q2,50,Q3,0,-99999,-99999,0,0.25,35,0.425,35,HarvardCMT,0.053394877,0.054341518,0.05645476,0.058809979,0.064068643,0.07773234,0.089457409,0.113440802,0.109621022,0.121537966,0.082969422,0.064712171,0.039159959,0.014975111,0.007041321,0.003265534,0.002593722,-99999,-99999,-99999,-99999,-99999,0.069735554,0.07089932,0.073347622,0.074123707,0.082211362,0.096610546,0.125894449,0.153402782,0.145557854,0.14221236,0.086084785,0.075085694,0.045885571,0.018939571,0.007972079,0.003630089,0.002798334,-99999,-99999,-99999,-99999,-99999,0.053201,0.069069,0.020039,0.022652
722185,1995-03-22T19:43:30.268000Z,I5708A04,5.83,0.15,Slab,S,0,27,64,30,nlloc,-41.0514,174.216,-41.1314,174.8391,6016538.56,2612205.51,6006740,2664387,7.6,7.6,52.97,100.66,50.14,97.89,-99999,-99999,0,85.51,82.13,nu,POLS,C,250,Q2,0.4,Q1,25,Q2,0,-99999,-99999,0,0.15,30,0.255,30,HarvardCMT,0.03947132,0.039900077,0.040953156,0.042256199,0.044289002,0.056543426,0.066309325,0.076543063,0.06357116,0.069799538,0.0811876,0.071204509,0.039797005,0.018476024,0.010764627,0.005950478,0.003395763,0.001424401,-99999,-99999,-99999,-99999,0.044059727,0.044772121,0.047018047,0.051522514,0.053216909,0.06496662,0.081758164,0.105972632,0.074358839,0.084103862,0.089483423,0.091560505,0.043088316,0.021064575,0.011929021,0.007228968,0.004028572,0.001969348,-99999,-99999,-99999,-99999,0.039215,0.044089,0.018455,0.02399
722185,1995-03-22T19:43:30.268000Z,I5711A01,5.83,0.15,Slab,S,0,27,64,30,nlloc,-41.0514,174.216,-41.2294,174.9042,6016538.56,2612205.51,5995739,2669619,7.6,7.6,60.94,105.08,58.22,102.39,-99999,-99999,0,85.51,82.13,nu,LRSS,D,230,Q3,1.4,Q3,175,Q3,0,-99999,-99999,0,0.25,24.5,0.425,24.5,HarvardCMT,0.043211975,0.043674232,0.044533901,0.045015515,0.048097343,0.066531099,0.081390163,0.089387529,0.065281323,0.084430686,0.092671065,0.084140492,0.068683132,0.027111201,0.014110552,0.011766428,0.006901695,-99999,-99999,-99999,-99999,-99999,0.061118753,0.06177136,0.062755133,0.063366559,0.067264447,0.089325714,0.101498084,0.099780588,0.080311517,0.116961423,0.130245137,0.096732571,0.083771921,0.031394083,0.018378106,0.012764564,0.008656027,-99999,-99999,-99999,-99999,-99999,0.042852,0.06009,0.026957,0.036004
722185,1995-03-22T19:43:30.268000Z,I5918B08,5.83,0.15,Slab,S,0,27,64,30,nlloc,-41.0514,174.216,-41.284,174.7682,6016538.56,2612205.51,5989908,2658140,7.6,7.6,52.97,100.77,50.33,97.95,-99999,-99999,0,85.51,82.13,nu,WEL,B,1000,Q3,0.3,Q1,0,Q2,0,-99999,-99999,0,0.25,24.5,0.425,24.5,HarvardCMT,0.058454911,0.059276154,0.06069143,0.062786898,0.067066922,0.08299485,0.098633855,0.181926551,0.137204662,0.117789709,0.078565805,0.045965426,0.027192191,0.012260248,0.009330355,0.006413168,0.004284923,-99999,-99999,-99999,-99999,-99999,0.07933922,0.080097628,0.081202031,0.082062068,0.087046166,0.093894338,0.108633987,0.216904455,0.167781656,0.160807587,0.092654499,0.063088238,0.036650392,0.015679978,0.012017683,0.008009602,0.005729447,-99999,-99999,-99999,-99999,-99999,0.058394,0.078329,0.02109,0.029719
722185,1995-03-22T19:43:30.268000Z,I5926A03,5.83,0.15,Slab,S,0,27,64,30,nlloc,-41.0514,174.216,-39.4883,176.9169,6016538.56,2612205.51,6183331,2846839,7.6,7.6,287.59,300.32,284.45,297.49,-99999,-99999,0,85.51,82.13,nu,926A,C,651,Q3,0.07,Q3,5,Q3,0,-99999,-99999,1,0.35,15,0.595,15,HarvardCMT,0.004263143,0.004281597,0.004311928,0.004356683,0.004443497,0.005038237,0.006243356,0.007347289,0.008840921,0.008978049,0.01062735,0.014287066,0.007566471,0.002676115,0.001573874,0.000663688,-99999,-99999,-99999,-99999,-99999,-99999,0.005464046,0.005501416,0.005567496,0.005670915,0.005826654,0.006308761,0.007112283,0.009978303,0.011339211,0.010516392,0.014230281,0.020152682,0.010515961,0.003740453,0.002174983,0.000925988,-99999,-99999,-99999,-99999,-99999,-99999,0.004257,0.005447,0.002834,0.003776
722185,1995-03-22T19:43:30.268000Z,K5046A01,5.83,0.15,Slab,S,0,27,64,30,nlloc,-41.0514,174.216,-41.2709,173.2837,6016538.56,2612205.51,5992838,2533754,7.6,7.6,81.77,118.44,78.66,114.68,-99999,-99999,0,85.51,82.13,nu,NCBS,D,210,Q3,0.7,Q2,50,Q3,0,-99999,-99999,1,0.7,14,1.19,14,HarvardCMT,0.039035451,0.039338714,0.039823476,0.040461027,0.041390402,0.046413946,0.048945067,0.071841104,0.071198206,0.082651483,0.081777703,0.066052523,0.046322373,0.026216839,-99999,-99999,-99999,-99999,-99999,-99999,-99999,-99999,0.043799715,0.044020471,0.044387542,0.04495208,0.04574174,0.048161291,0.059914262,0.077838016,0.085393957,0.109595449,0.104891114,0.075789763,0.062215613,0.034093174,-99999,-99999,-99999,-99999,-99999,-99999,-99999,-99999,0.038739,0.043798,0.018358,0.023447
722185,1995-03-22T19:43:30.268000Z,K5087A01,5.83,0.15,Slab,S,0,27,64,30,nlloc,-41.0514,174.216,-39.7163,175.1455,6016538.56,2612205.51,6163232,2693941,7.6,7.6,168.04,188.46,165.17,186.14,-99999,-99999,0,85.51,82.13,nu,087A,B,1000,Q3,<0.1,Q3,0,Q2,0,-99999,-99999,1,0.5,20,0.85,20,HarvardCMT,0.057446951,0.058306571,0.0594747,0.061906924,0.066840348,0.081794976,0.12154303,0.120006747,0.14166727,0.107441233,0.104507774,0.120866462,0.055022884,0.022491427,0.01740555,-99999,-99999,-99999,-99999,-99999,-99999,-99999,0.075220978,0.076236221,0.077940758,0.081143012,0.087681139,0.093534722,0.156093828,0.136893005,0.161096982,0.138312199,0.140992871,0.166050916,0.07490293,0.025680528,0.023294224,-99999,-99999,-99999,-99999,-99999,-99999,-99999,0.057253,0.07431,0.025754,0.03317
722185,1995-03-22T19:43:30.268000Z,K5087C01,5.83,0.15,Slab,S,0,27,64,30,nlloc,-41.0514,174.216,-39.7171,175.1382,6016538.56,2612205.51,6163158,2693314,7.6,7.6,167.67,188.13,164.8,185.82,-99999,-99999,0,85.51,82.13,nu,087C,C,425,Q3,0.33,Q3,30,Q3,0,-99999,-99999,1,0.7,14,1.19,14,HarvardCMT,0.064526738,0.064804027,0.065273199,0.065928622,0.066799918,0.077330475,0.090691514,0.122008773,0.159585547,0.158548755,0.151792156,0.14232064,0.13180136,0.045976143,-99999,-99999,-99999,-99999,-99999,-99999,-99999,-99999,0.07138393,0.071686379,0.072161939,0.072789575,0.073608488,0.083439193,0.106676369,0.154176563,0.204252786,0.191836401,0.180637478,0.153223372,0.147888736,0.058181099,-99999,-99999,-99999,-99999,-99999,-99999,-99999,-99999,0.064436,0.071363,0.034959,0.043902
722185,1995-03-22T19:43:30.268000Z,K5608A01,5.83,0.15,Slab,S,0,27,64,30,nlloc,-41.0514,174.216,-41.2241,174.8794,6016538.56,2612205.51,5996377,2667546,7.6,7.6,58.78,103.83,56.06,101.12,-99999,-99999,0,85.51,82.13,nu,608A,D,200,Q2,2,Q2,250,Q3,0,-99999,-99999,1,0.4,11,0.68,11,HarvardCMT,0.02927118,0.029360781,0.02955999,0.029869304,0.030288457,0.032051749,0.035595677,0.046697622,0.050502586,0.036208935,0.04006377,0.05697752,0.074861382,0.040683181,0.019629674,-99999,-99999,-99999,-99999,-99999,-99999,-99999,0.036011354,0.036183001,0.036463984,0.036880063,0.037455122,0.039686647,0.043767782,0.065643861,0.058708663,0.043589739,0.048883804,0.070433402,0.094246656,0.044102575,0.020984246,-99999,-99999,-99999,-99999,-99999,-99999,-99999,0.029264,0.035812,0.024995,0.030959
