CuspID,Origin_time,Record,Mw,MwUncert,TectClass,Mech,PreferredFaultPlane,Strike,Dip,Rake,Location,HypLat,HypLon,StationLat,StationLon,HypN,HypE,StationN,StationE,LENGTH_km,WIDTH_km,Repi_km,Rhyp_km,Rjb_km,Rrup_km,Rx_km,Ry_km,Rvol_km,HypDepth_km,ZTOR_km,HWFW,SiteCode,SiteClass1170,Vs30,Vs30Uncert,Tsite,TsiteUncert,Z1,Z1Uncertainty,Directivity,Pulse_or,Pulse_T,S_Trigger_Flag,fcButterHP,f_iniLP,fmin,fmax,References,f100.0000SA_RotD50,f50.0000SA_RotD50,f33.3333SA_RotD50,f25.0000SA_RotD50,f20.0000SA_RotD50,f13.3333SA_RotD50,f10.0000SA_RotD50,f6.6667SA_RotD50,f5.0000SA_RotD50,f4.0000SA_RotD50,f3.3333SA_RotD50,f2.5000SA_RotD50,f2.0000SA_RotD50,f1.3333SA_RotD50,f1.0000SA_RotD50,f0.6667SA_RotD50,f0.5000SA_RotD50,f0.3333SA_RotD50,f0.2500SA_RotD50,f0.2000SA_RotD50,f0.1333SA_RotD50,f0.1000SA_RotD50,f100.0000SA_RotD100,f50.0000SA_RotD100,f33.3333SA_RotD100,f25.0000SA_RotD100,f20.0000SA_RotD100,f13.3333SA_RotD100,f10.0000SA_RotD100,f6.6667SA_RotD100,f5.0000SA_RotD100,f4.0000SA_RotD100,f3.3333SA_RotD100,f2.5000SA_RotD100,f2.0000SA_RotD100,f1.3333SA_RotD100,f1.0000SA_RotD100,f0.6667SA_RotD100,f0.5000SA_RotD100,f0.3333SA_RotD100,f0.2500SA_RotD100,f0.2000SA_RotD100,f0.1333SA_RotD100,f0.1000SA_RotD100,PGA_RotD50,PGA_RotD100,PGV_RotD50,PGV_RotD100
339342,1992-05-27T22:30:35.064000Z,K92934B1,5.9,0.08,Slab,S,1,117,85,21,special,-41.63,173.62,-41.2436,174.908,5952812.98,2561652.09,5994160,2669897,8.2,8.2,115.64,133.85,112.94,130.58,-85.63,77.68,0,67,62.92,nu,934B,D,180,Q1,1.1,Q3,100,Q3,0,-99999,-99999,1,0.4,16,0.68,16,Webb_Anderson_1998&Dowrick_Rhoades1998&HarvardCMT,0.025407037,0.025496833,0.025681043,0.025974626,0.026441777,0.027764658,0.030811362,0.036314882,0.034789893,0.035865561,0.036466315,0.042022139,0.040504983,0.017489487,0.010246698,-99999,-99999,-99999,-99999,-99999,-99999,-99999,0.035622217,0.035785828,0.036047284,0.03640022,0.036961336,0.038574381,0.039761617,0.04990278,0.047772193,0.042616709,0.045995836,0.052938759,0.050708925,0.022213513,0.013513261,-99999,-99999,-99999,-99999,-99999,-99999,-99999,0.025401,0.035412,0.017923,0.022841
338849,1992-06-21T17:43:09.086000Z,K92028A1,6.25,0.08,Crustal,N,1,32,41,246,special,-37.67,176.86,-38.0079,177.284,6385179.66,2850645.07,6346024,2886230,12.26,12.26,52.9,53.06,48.15,48.79,55.55,-14.35,25,4,0.01,nu,028A,D,210,Q3,1,Q3,75,Q3,0,-99999,-99999,1,0.2,15,0.34,15,Webb_Anderson_1998&Dowrick_Rhoades1998&HarvardCMT,0.03113722,0.031381591,0.031850715,0.032548411,0.033633355,0.04055464,0.044764234,0.048115129,0.046728447,0.04184373,0.041121445,0.042572496,0.042795718,0.034983972,0.031098261,0.023156649,0.020247586,-99999,-99999,-99999,-99999,-99999,0.033814602,0.034053853,0.034500276,0.035282962,0.036553181,0.044170413,0.047384939,0.051360737,0.056706504,0.049843723,0.04296517,0.044217871,0.049191615,0.040853867,0.034095321,0.026906451,0.024094213,-99999,-99999,-99999,-99999,-99999,0.031059,0.033848,0.042707,0.059619
338849,1992-06-21T17:43:09.086000Z,A92930A1,6.25,0.08,Crustal,N,1,32,41,246,special,-37.67,176.86,-37.9885,176.8294,6385179.66,2850645.07,6349976,2846440,12.26,12.26,35.52,35.68,29.64,30.05,19.71,-32.08,30,4,0.01,nu,930A,E,150,Q3,>2,Q3,300,Q3,0,-99999,-99999,1,0.15,12,0.255,12,Webb_Anderson_1998&Dowrick_Rhoades1998&HarvardCMT,0.041402816,0.041466137,0.041586534,0.041783709,0.04204394,0.042855015,0.046156805,0.047029925,0.047457013,0.051650884,0.050207153,0.053519367,0.062853591,0.055014732,0.054566822,0.041859721,0.028154106,0.021959845,-99999,-99999,-99999,-99999,0.052087835,0.052188014,0.052339127,0.052634578,0.053017629,0.054433452,0.056041022,0.059281036,0.055799977,0.060430057,0.063196148,0.069782131,0.073009704,0.061094816,0.059555676,0.0460328,0.029808144,0.027337528,-99999,-99999,-99999,-99999,0.041386,0.051907,0.084975,0.103354
435226,1993-04-11T06:59:48.228000Z,A93032A1,5.68,0.08,Interface,O,1,198,15,52,special,-39.74,176.52,-39.9425,176.5874,6156829.5,2811622.89,6134136,2816486,8.63,8.63,23.24,34.95,18.95,31.74,-7.47,20.08,0,26,24.88,nu,032A,C,495,Q3,0.13,Q3,10,Q3,0,-99999,-99999,1,0.4,10,0.68,10,Webb_Anderson_1998&Dowrick_Rhoades1998&HarvardCMT,0.158462847,0.1588522,0.159468446,0.160336185,0.161489834,0.165288833,0.172503307,0.209626537,0.234669193,0.237216821,0.248448231,0.243027124,0.223282083,0.150875722,0.100637061,-99999,-99999,-99999,-99999,-99999,-99999,-99999,0.185044831,0.18541842,0.185983188,0.186927269,0.188120243,0.191428425,0.193419662,0.236591868,0.286609395,0.303454274,0.305892193,0.295629699,0.268244502,0.182020983,0.109517272,-99999,-99999,-99999,-99999,-99999,-99999,-99999,0.158186,0.185064,0.131958,0.175139
435226,1993-04-11T06:59:48.228000Z,D93014A2,5.68,0.08,Interface,O,1,198,15,52,special,-39.74,176.52,-39.4984,176.8761,6156829.5,2811622.89,6182359,2843283,8.63,8.63,40.64,48.27,36.38,44.35,-18.05,-34.06,0,26,24.88,nu,NCDS,E,162,Q3,1.25,Q2,110,Q3,0,-99999,-99999,0,0.24,12,0.408,12,Webb_Anderson_1998&Dowrick_Rhoades1998&HarvardCMT,0.03248904,0.032733348,0.033344923,0.034097675,0.035211164,0.039560846,0.043226493,0.048561094,0.048591922,0.046812582,0.043059092,0.039006692,0.031707873,0.023908695,0.016893562,0.007143085,0.003570801,-99999,-99999,-99999,-99999,-99999,0.039512412,0.03968275,0.040046467,0.040570123,0.041224572,0.043652697,0.048419576,0.053481492,0.054594808,0.05271976,0.049142766,0.051502121,0.038052854,0.027465791,0.018965545,0.00897169,0.004752337,-99999,-99999,-99999,-99999,-99999,0.032393,0.039539,0.021884,0.02309
435226,1993-04-11T06:59:48.228000Z,D93015A1,5.68,0.08,Interface,O,1,198,15,52,special,-39.74,176.52,-39.4891,176.8982,6156829.5,2811622.89,6183313,2845228,8.63,8.63,42.76,50.1,38.49,46.14,-19.61,-35.57,0,26,24.88,nu,015A,B,1000,Q3,<0.1,Q3,0,Q3,0,-99999,-99999,0,0.5,12,0.85,12,Webb_Anderson_1998&Dowrick_Rhoades1998&HarvardCMT,0.016456033,0.016552211,0.016696655,0.016968357,0.017307645,0.018753694,0.019943861,0.021382529,0.023868928,0.026985616,0.027473555,0.023265688,0.018621283,0.007485939,0.005218891,-99999,-99999,-99999,-99999,-99999,-99999,-99999,0.017765619,0.017886305,0.018064599,0.018427539,0.018888239,0.02029387,0.022059729,0.024404495,0.027580684,0.031223083,0.033479631,0.0296854,0.020469696,0.008593032,0.006449446,-99999,-99999,-99999,-99999,-99999,-99999,-99999,0.016392,0.017773,0.009443,0.011342
435226,1993-04-11T06:59:48.228000Z,D93029A2,5.68,0.08,Interface,O,1,198,15,52,special,-39.74,176.52,-39.6458,176.8429,6156829.5,2811622.89,6166127,2839726,8.63,8.63,29.55,39.41,25.33,35.69,-19.69,-17.53,0,26,24.88,nu,HCDS,D,182,Q2,>2,Q3,1000,Q3,0,-99999,-99999,0,0.2,15,0.34,15,Webb_Anderson_1998&Dowrick_Rhoades1998&HarvardCMT,0.029059124,0.029337976,0.029727355,0.030536281,0.031609944,0.034930085,0.03635533,0.042949919,0.041804341,0.048615346,0.049233821,0.040698274,0.027096673,0.024196977,0.017170001,0.007622916,0.006702275,-99999,-99999,-99999,-99999,-99999,0.034614921,0.03470408,0.034840603,0.035053091,0.035380362,0.037385311,0.040474787,0.056517739,0.05757196,0.053316183,0.064190695,0.054718106,0.034805635,0.031492057,0.021195835,0.009271819,0.008100448,-99999,-99999,-99999,-99999,-99999,0.02904,0.034619,0.026152,0.030611
471730,1993-08-10T00:51:55.033000Z,A93070A1,6.89,0.08,Interface,R,1,41,41,107,nlloc,-45.3625,166.649,-45.4167,167.7191,5519161.25,2012843.95,5519112,2096857,34.75,34.75,83.78,85.7,74.67,77.26,68.91,55.08,0,16.72,11.96,nu,TAFS,D,298,Q3,1.4,Q3,200,Q3,0,-99999,-99999,1,0.2,19,0.34,19,Robinson_etal_2003&Dowrick_Rhoades1998&HarvardCMT,0.063883302,0.064475172,0.065588147,0.067186006,0.068562397,0.08112998,0.095468031,0.099001441,0.092015632,0.084633631,0.069955677,0.062697166,0.058845081,0.04890397,0.043834122,0.03658489,0.025634535,-99999,-99999,-99999,-99999,-99999,0.085590213,0.086502698,0.088009811,0.090186544,0.093205257,0.106142055,0.112154083,0.132496477,0.12041605,0.114178481,0.096623117,0.078066136,0.066730094,0.056028937,0.056418354,0.041659393,0.035213704,-99999,-99999,-99999,-99999,-99999,0.063904,0.085534,0.06115,0.07679
471730,1993-08-10T00:51:55.033000Z,A93940A1,6.89,0.08,Interface,R,1,41,41,107,nlloc,-45.3625,166.649,-45.0322,168.6629,5519161.25,2012843.95,5566104,2168345,34.75,34.75,162.01,163.32,150.75,152.25,92.03,137.45,0,16.72,11.96,nu,QTPS,D,350,Q3,0.95,Q1,90,Q3,0,-99999,-99999,1,0.5,10,0.85,10,Robinson_etal_2003&Dowrick_Rhoades1998&HarvardCMT,0.035842207,0.035978654,0.036225052,0.036544128,0.037015329,0.038758649,0.041748179,0.05051754,0.063210739,0.065659435,0.062432797,0.048901206,0.038089783,0.028907715,0.01663763,-99999,-99999,-99999,-99999,-99999,-99999,-99999,0.040271117,0.040516519,0.040887621,0.041388905,0.042030745,0.044520537,0.048776644,0.057498486,0.069237066,0.070682365,0.065117285,0.060319709,0.043695881,0.036128986,0.019275307,-99999,-99999,-99999,-99999,-99999,-99999,-99999,0.035774,0.040236,0.023354,0.02647
471730,1993-08-10T00:51:55.033000Z,D93044A2s,6.89,0.08,Interface,R,1,41,41,107,nlloc,-45.3625,166.649,-45.8986,170.5097,5519161.25,2012843.95,5475848,2316608,34.75,34.75,306.03,307.29,297.73,299.13,263.14,166.6,0,16.72,11.96,nu,SKFS,D,140,Q2,0.8,Q3,25,Q3,0,-99999,-99999,1,0.25,10,0.425,10,Robinson_etal_2003&Dowrick_Rhoades1998&HarvardCMT,0.014961939,0.014979709,0.015009782,0.015076358,0.01518059,0.01568423,0.016387153,0.017390469,0.020068192,0.019794523,0.020242785,0.023008396,0.025045247,0.025556814,0.015351583,0.007158086,0.0037323,-99999,-99999,-99999,-99999,-99999,0.016288698,0.016308821,0.016335313,0.016362577,0.016399404,0.016531012,0.017002804,0.02110883,0.022117719,0.024127524,0.024862389,0.025598606,0.028082204,0.030298164,0.020422673,0.008682911,0.004545992,-99999,-99999,-99999,-99999,-99999,0.014949,0.016283,0.018465,0.019737
471730,1993-08-10T00:51:55.033000Z,D93054A6,6.89,0.08,Interface,R,1,41,41,107,nlloc,-45.3625,166.649,-43.883,169.0441,5519161.25,2012843.95,5695156,2192230,34.75,34.75,250.97,251.86,238.02,238.93,25.39,250.51,0,16.72,11.96,nu,HDWS,D,210,Q3,0.87,Q1,100,Q3,0,-99999,-99999,0,0.35,14,0.595,14,Robinson_etal_2003&Dowrick_Rhoades1998&HarvardCMT,0.030140609,0.030531742,0.031156144,0.032067221,0.033296472,0.039276248,0.045764326,0.056890758,0.044485558,0.040443447,0.039654766,0.031136228,0.026039686,0.028917035,0.018146627,0.007528438,-99999,-99999,-99999,-99999,-99999,-99999,0.03543669,0.035571356,0.035787131,0.03609449,0.037125561,0.04255115,0.052118764,0.063734607,0.051899999,0.051385692,0.05007691,0.033822473,0.033219095,0.03644398,0.019911099,0.010495023,-99999,-99999,-99999,-99999,-99999,-99999,0.029905,0.035416,0.021456,0.023931
471755,1993-08-10T09:46:38.453000Z,A93028A1,6.3,0.08,Slab,S,1,354,64,168,special,-38.55,177.92,-38.0079,177.284,6283090.62,2938734.07,6346024,2886230,30,15,81.95,90.77,69.76,78.95,-42.35,68.08,0,39,32.26,nu,028A,D,210,Q3,1,Q3,75,Q3,0,-99999,-99999,1,0.35,15,0.595,15,Reyners_et_al2010&Webb_Anderson_1998&Dowrick_Rhoades1998&HarvardCMT,0.06138968,0.061600579,0.061915889,0.062355339,0.062875511,0.065494909,0.070915888,0.073166411,0.096740792,0.097155941,0.095280326,0.101259517,0.092401286,0.053602065,0.042184365,0.030660816,-99999,-99999,-99999,-99999,-99999,-99999,0.0690067,0.069174766,0.069443805,0.069825239,0.070347407,0.073284918,0.086014901,0.100345312,0.134965803,0.12221378,0.108084644,0.125000664,0.109539341,0.058778876,0.04841989,0.034387174,-99999,-99999,-99999,-99999,-99999,-99999,0.061272,0.068831,0.052639,0.065922
471755,1993-08-10T09:46:38.453000Z,A93096A1,6.3,0.08,Slab,S,1,354,64,168,special,-38.55,177.92,-39.0342,177.4249,6283090.62,2938734.07,6231637,2892985,30,15,68.85,79.13,59.27,69.25,-47.59,-46.39,0,39,32.26,nu,WFSS,D,155,Q3,1.5,Q3,100,Q3,0,-99999,-99999,1,0.35,13,0.595,13,Reyners_et_al2010&Webb_Anderson_1998&Dowrick_Rhoades1998&HarvardCMT,0.043890756,0.044007403,0.044192382,0.044430163,0.044710892,0.04679878,0.05056391,0.059043572,0.065608656,0.072177668,0.077331323,0.074474527,0.062319129,0.053470478,0.048918533,0.029257406,-99999,-99999,-99999,-99999,-99999,-99999,0.056437971,0.056567019,0.056758825,0.057026143,0.057382834,0.05888742,0.061819317,0.063487224,0.070749586,0.077994701,0.090341324,0.088459942,0.072408631,0.061739451,0.05686095,0.032930832,-99999,-99999,-99999,-99999,-99999,-99999,0.043862,0.056459,0.046615,0.050072
471755,1993-08-10T09:46:38.453000Z,A93113A1,6.3,0.08,Slab,S,1,354,64,168,special,-38.55,177.92,-37.8735,177.5847,6283090.62,2938734.07,6359624,2913365,30,15,80.72,89.57,66.1,76.08,-13.94,78.77,0,39,32.26,nu,113A,C,522,Q3,0.15,Q3,10,Q3,0,-99999,-99999,1,0.42,13,0.714,13,Reyners_et_al2010&Webb_Anderson_1998&Dowrick_Rhoades1998&HarvardCMT,0.089809157,0.090312616,0.091099442,0.092205784,0.093763222,0.099716693,0.1065737,0.121348869,0.166492835,0.159291298,0.137932955,0.089217049,0.059071963,0.026012723,0.018804086,-99999,-99999,-99999,-99999,-99999,-99999,-99999,0.111055222,0.111395758,0.111944642,0.112894411,0.114040596,0.118062418,0.128384217,0.159390921,0.201603091,0.223439427,0.188062536,0.123034842,0.075460702,0.034238972,0.023991348,-99999,-99999,-99999,-99999,-99999,-99999,-99999,0.089493,0.110538,0.041559,0.054997
471755,1993-08-10T09:46:38.453000Z,D93014A4,6.3,0.08,Slab,S,1,354,64,168,special,-38.55,177.92,-39.4984,176.8761,6283090.62,2938734.07,6182359,2843283,30,15,138.75,144.15,129.07,134.18,-102.17,-90.2,0,39,32.26,nu,NCDS,E,162,Q3,1.25,Q2,110,Q3,0,-99999,-99999,0,0.25,10,0.425,10,Reyners_et_al2010&Webb_Anderson_1998&Dowrick_Rhoades1998&HarvardCMT,0.0150755,0.015168659,0.015307565,0.015507181,0.015764859,0.016855903,0.017925903,0.021011522,0.023263542,0.021638808,0.020513864,0.017546056,0.017795908,0.01912379,0.014231107,0.007546572,0.003980143,-99999,-99999,-99999,-99999,-99999,0.01676962,0.016848423,0.016969596,0.017131153,0.017345893,0.018229051,0.019618693,0.023381205,0.025424483,0.023398643,0.024619766,0.019304387,0.020244437,0.025043311,0.017203532,0.00824079,0.004967917,-99999,-99999,-99999,-99999,-99999,0.015065,0.016758,0.013876,0.016776
471755,1993-08-10T09:46:38.453000Z,D93016A1,6.3,0.08,Slab,S,1,354,64,168,special,-38.55,177.92,-38.6774,178.031,6283090.62,2938734.07,6268431,2947608,30,15,17.14,42.71,6.16,35.7,10.58,-15.51,0,39,32.26,nu,016A,C,480,Q3,0.15,Q3,10,Q3,0,-99999,-99999,0,0.3,21,0.51,21,Reyners_et_al2010&Webb_Anderson_1998&Dowrick_Rhoades1998&HarvardCMT,0.155844045,0.156741331,0.158150213,0.16038029,0.163443171,0.171838832,0.19069806,0.256129083,0.253478556,0.201568917,0.190466173,0.188395975,0.207676515,0.140140275,0.072111802,0.031464732,-99999,-99999,-99999,-99999,-99999,-99999,0.193089509,0.194318447,0.19623849,0.198971175,0.203563869,0.217771386,0.229148741,0.309424268,0.281298267,0.232140552,0.215181455,0.254027296,0.285244216,0.165173018,0.090431397,0.036651353,-99999,-99999,-99999,-99999,-99999,-99999,0.154414,0.193073,0.103709,0.140525
471755,1993-08-10T09:46:38.453000Z,D93017A1,6.3,0.08,Slab,S,1,354,64,168,special,-38.55,177.92,-38.6665,178.0227,6283090.62,2938734.07,6269685,2946952,30,15,15.73,42.06,5.22,35.18,10.06,-14.19,0,39,32.26,nu,GISS,D,138,Q2,1,Q1,40,Q3,0,-99999,-99999,0,0.25,30,0.425,30,Reyners_et_al2010&Webb_Anderson_1998&Dowrick_Rhoades1998&HarvardCMT,0.187043806,0.188688236,0.19211659,0.196358857,0.19580045,0.214106626,0.239550771,0.248900734,0.274970609,0.318951549,0.352670276,0.290328947,0.20930119,0.141936427,0.093427192,0.045702803,0.023079103,-99999,-99999,-99999,-99999,-99999,0.217087924,0.218079107,0.218789107,0.221471201,0.222623537,0.258183027,0.272526808,0.308885652,0.331652329,0.388223372,0.398062467,0.308130172,0.258980608,0.170031707,0.113761693,0.050209038,0.026535682,-99999,-99999,-99999,-99999,-99999,0.186203,0.217059,0.121691,0.144066
471755,1993-08-10T09:46:38.453000Z,D93021A3,6.3,0.08,Slab,S,1,354,64,168,special,-38.55,177.92,-38.4249,176.3157,6283090.62,2938734.07,6303375,2799556,30,15,140.32,146.04,135.79,140.25,-133.01,34.72,10,39,32.26,nu,021A,D,210,Q3,2,Q3,200,Q3,0,-99999,-99999,1,0.18,10,0.306,10,Reyners_et_al2010&Webb_Anderson_1998&Dowrick_Rhoades1998&HarvardCMT,0.026354611,0.02636375,0.026392267,0.026435861,0.026500203,0.026673467,0.026865228,0.027404308,0.027745857,0.027494172,0.029635027,0.033673278,0.035470467,0.039745481,0.046713828,0.045454732,0.021110528,0.007191545,-99999,-99999,-99999,-99999,0.028011932,0.02802086,0.028040015,0.028053578,0.028083601,0.028147998,0.028133502,0.030028041,0.03226756,0.033658695,0.035903054,0.037608992,0.039030893,0.043658122,0.05233938,0.049681427,0.026183976,0.00877473,-99999,-99999,-99999,-99999,0.026355,0.028006,0.056127,0.064898
608810,1994-06-18T03:25:13.819000Z,D4505A01,6.72,0.08,Crustal,R,1,221,47,112,geonet,-43.0078,171.4762,-42.9489,171.5677,5798820.69,2385786.14,5805487,2393135,21.06,21.06,9.91,11.12,2.02,4.12,2.92,-9.85,0,4.27,1,hw,APPS,C,300,Q2,0.4,Q1,30,Q2,0,-99999,-99999,0,0.11,40,0.187,40,Abercrombie_etal_2000&HarvardCMT,0.43410517,0.441314259,0.459865201,0.449655115,0.450225112,0.447818325,0.477052135,0.583676147,0.686425722,0.662066734,0.565762218,0.573124214,0.514860169,0.271068853,0.159379114,0.075087157,0.054882506,0.034034257,0.022153559,0.013536137,-99999,-99999,0.509147845,0.520747614,0.537457282,0.537577921,0.513417626,0.567940751,0.593348108,0.793492997,0.878766527,0.819262274,0.77724732,0.708592135,0.607799506,0.314143211,0.213068241,0.098408721,0.0698128,0.038727855,0.024841599,0.015301433,-99999,-99999,0.423633,0.509184,0.28269,0.316738
608810,1994-06-18T03:25:13.819000Z,D94042A1,6.72,0.08,Crustal,R,1,221,47,112,geonet,-43.0078,171.4762,-42.5232,172.8305,5798820.69,2385786.14,5853765,2496076,21.06,21.06,122.98,123.31,115.46,115.74,-43.1,-113.82,0,4.27,1,nu,HSES,D,280,Q3,0.9,Q1,85,Q3,0,-99999,-99999,1,0.25,10,0.425,10,Abercrombie_etal_2000&HarvardCMT,0.015482362,0.015490648,0.015509495,0.015533553,0.01555706,0.015643166,0.015831536,0.016165407,0.016729156,0.018330636,0.019980707,0.021101393,0.024961801,0.029765542,0.01776795,0.00912269,0.005662656,-99999,-99999,-99999,-99999,-99999,0.017201854,0.017211705,0.01722068,0.017239705,0.01726731,0.017352503,0.017587226,0.018224214,0.01880821,0.021002563,0.023213014,0.025879912,0.030928023,0.034111051,0.022948428,0.010408176,0.007514807,-99999,-99999,-99999,-99999,-99999,0.015473,0.017197,0.019453,0.022497
608810,1994-06-18T03:25:13.819000Z,D94044A1b,6.72,0.08,Crustal,R,1,221,47,112,geonet,-43.0078,171.4762,-45.8986,170.5097,5798820.69,2385786.14,5475848,2316608,21.06,21.06,330.46,330.33,323.2,323.05,-155.59,289.14,0,4.27,1,nu,SKFS,D,140,Q2,0.8,Q3,25,Q3,0,-99999,-99999,1,0.2,10,0.34,10,Abercrombie_etal_2000&HarvardCMT,0.013959827,0.013983852,0.014004761,0.014032905,0.014071604,0.014257886,0.014531806,0.014998553,0.015661241,0.017069197,0.017924745,0.020443357,0.024969367,0.02808403,0.019099281,0.008072767,0.004364775,-99999,-99999,-99999,-99999,-99999,0.01570838,0.015716634,0.015734449,0.015751067,0.01577223,0.015866195,0.016017014,0.016269763,0.016567147,0.018375914,0.020073388,0.022360564,0.026977027,0.034773213,0.021272477,0.009412595,0.004675691,-99999,-99999,-99999,-99999,-99999,0.013958,0.015708,0.018737,0.02038
608810,1994-06-18T03:25:13.819000Z,D94051D1,6.72,0.08,Crustal,R,1,221,47,112,geonet,-43.0078,171.4762,-41.7557,171.5998,5798820.69,2385786.14,5938069,2393545,21.06,21.06,139.6,139.53,132.84,132.84,89.59,-110.18,0,4.27,1,nu,WBCS,D,300,Q3,1.2,Q2,105,Q3,0,-99999,-99999,0,0.25,20,0.425,20,Abercrombie_etal_2000&HarvardCMT,0.045898708,0.046150782,0.046532106,0.04717968,0.048735715,0.052230789,0.055260232,0.057296483,0.06160588,0.061083392,0.061076166,0.060941127,0.065794246,0.061908958,0.044016196,0.022427022,0.014593481,-99999,-99999,-99999,-99999,-99999,0.058113908,0.058406906,0.0591743,0.060257288,0.061462608,0.06443532,0.07207112,0.059442743,0.066976155,0.065520721,0.074385092,0.074606482,0.090098204,0.072842339,0.051436342,0.030707542,0.018363969,-99999,-99999,-99999,-99999,-99999,0.045551,0.058169,0.050876,0.058746
