CuspID,Origin_time,Record,Mw,MwUncert,TectClass,Mech,PreferredFaultPlane,Strike,Dip,Rake,Location,HypLat,HypLon,StationLat,StationLon,HypN,HypE,StationN,StationE,LENGTH_km,WIDTH_km,Repi_km,Rhyp_km,Rjb_km,Rrup_km,Rx_km,Ry_km,Rvol_km,HypDepth_km,ZTOR_km,HWFW,SiteCode,SiteClass1170,Vs30,Vs30Uncert,Tsite,TsiteUncert,Z1,Z1Uncertainty,Directivity,Pulse_or,Pulse_T,S_Trigger_Flag,fcButterHP,f_iniLP,fmin,fmax,References,f100.0000SA_RotD50,f50.0000SA_RotD50,f33.3333SA_RotD50,f25.0000SA_RotD50,f20.0000SA_RotD50,f13.3333SA_RotD50,f10.0000SA_RotD50,f6.6667SA_RotD50,f5.0000SA_RotD50,f4.0000SA_RotD50,f3.3333SA_RotD50,f2.5000SA_RotD50,f2.0000SA_RotD50,f1.3333SA_RotD50,f1.0000SA_RotD50,f0.6667SA_RotD50,f0.5000SA_RotD50,f0.3333SA_RotD50,f0.2500SA_RotD50,f0.2000SA_RotD50,f0.1333SA_RotD50,f0.1000SA_RotD50,f100.0000SA_RotD100,f50.0000SA_RotD100,f33.3333SA_RotD100,f25.0000SA_RotD100,f20.0000SA_RotD100,f13.3333SA_RotD100,f10.0000SA_RotD100,f6.6667SA_RotD100,f5.0000SA_RotD100,f4.0000SA_RotD100,f3.3333SA_RotD100,f2.5000SA_RotD100,f2.0000SA_RotD100,f1.3333SA_RotD100,f1.0000SA_RotD100,f0.6667SA_RotD100,f0.5000SA_RotD100,f0.3333SA_RotD100,f0.2500SA_RotD100,f0.2000SA_RotD100,f0.1333SA_RotD100,f0.1000SA_RotD100,PGA_RotD50,PGA_RotD100,PGV_RotD50,PGV_RotD100
608810,1994-06-18T03:25:13.819000Z,D94042A1,6.72,0.08,Crustal,R,1,221,47,112,geonet,-43.0078,171.4762,-42.5232,172.8305,5798820.69,2385786.14,5853765,2496076,21.06,21.06,122.98,123.31,115.46,115.74,-43.1,-113.82,0,4.27,1,nu,HSES,D,280,Q3,0.9,Q1,85,Q3,0,-99999,-99999,1,0.25,10,0.425,10,Abercrombie_etal_2000&HarvardCMT,0.015482381,0.015490195,0.01550905,0.015547053,0.015566543,0.015654843,0.016076561,0.016634089,0.017204991,0.021268622,0.024085564,0.025267013,0.032251268,0.053221985,0.02602923,0.012612082,0.011598447,-99999,-99999,-99999,-99999,-99999,0.01720228,0.017218144,0.017214425,0.017244714,0.017275031,0.017350764,0.017881725,0.01903949,0.019232081,0.024579018,0.029336593,0.031957739,0.041506003,0.058658493,0.029973774,0.016477537,0.014069565,-99999,-99999,-99999,-99999,-99999,0.015473,0.017197,0.019453,0.022497
608810,1994-06-18T03:25:13.819000Z,D94044A1b,6.72,0.08,Crustal,R,1,221,47,112,geonet,-43.0078,171.4762,-45.8986,170.5097,5798820.69,2385786.14,5475848,2316608,21.06,21.06,330.46,330.33,323.2,323.05,-155.59,289.14,0,4.27,1,nu,SKFS,D,140,Q2,0.8,Q3,25,Q3,0,-99999,-99999,1,0.2,10,0.34,10,Abercrombie_etal_2000&HarvardCMT,0.013959899,0.013983931,0.014002702,0.014031185,0.01408235,0.014283797,0.014654951,0.015438549,0.016929714,0.020508628,0.021327148,0.022782098,0.037132719,0.057289606,0.028462634,0.012400927,0.005607699,-99999,-99999,-99999,-99999,-99999,0.015707947,0.015711372,0.01573688,0.015756447,0.015784269,0.015883619,0.016028911,0.016739866,0.018765424,0.022146402,0.024881111,0.024810105,0.043596669,0.063082741,0.036189248,0.01436851,0.006132598,-99999,-99999,-99999,-99999,-99999,0.013958,0.015708,0.018737,0.02038
608810,1994-06-18T03:25:13.819000Z,D94051D1,6.72,0.08,Crustal,R,1,221,47,112,geonet,-43.0078,171.4762,-41.7557,171.5998,5798820.69,2385786.14,5938069,2393545,21.06,21.06,139.6,139.53,132.84,132.84,89.59,-110.18,0,4.27,1,nu,WBCS,D,300,Q3,1.2,Q2,105,Q3,0,-99999,-99999,0,0.25,20,0.425,20,Abercrombie_etal_2000&HarvardCMT,0.045903167,0.046196375,0.046563827,0.04717183,0.051221593,0.065618379,0.074786435,0.079364577,0.091101193,0.083971344,0.093656433,0.091986304,0.101595155,0.118496685,0.072566686,0.034130563,0.028028784,-99999,-99999,-99999,-99999,-99999,0.058153582,0.058523238,0.059221659,0.060761835,0.063779883,0.080690832,0.105004734,0.083898207,0.102191881,0.097240515,0.106565103,0.097448272,0.142764362,0.155378624,0.075693576,0.041762145,0.031565431,-99999,-99999,-99999,-99999,-99999,0.045551,0.058169,0.050876,0.058746
608810,1994-06-18T03:25:13.819000Z,D94054A3,6.72,0.08,Crustal,R,1,221,47,112,geonet,-43.0078,171.4762,-43.883,169.0441,5798820.69,2385786.14,5695156,2192230,21.06,21.06,219.12,219.61,211.53,212.02,82.16,205.22,0,4.27,1,nu,HDWS,D,210,Q3,0.87,Q1,100,Q3,0,-99999,-99999,1,0.3,11,0.51,11,Abercrombie_etal_2000&HarvardCMT,0.014428235,0.014516106,0.014665832,0.014916096,0.015274168,0.017074673,0.022457013,0.030248442,0.028330588,0.041263355,0.036582871,0.031040166,0.032574438,0.024691949,0.014160408,0.008784911,-99999,-99999,-99999,-99999,-99999,-99999,0.019524799,0.019629886,0.019829498,0.020131066,0.020534551,0.022502634,0.02826743,0.033012212,0.035162697,0.049903692,0.046796939,0.038620522,0.038495,0.028707582,0.017458266,0.011267187,-99999,-99999,-99999,-99999,-99999,-99999,0.014384,0.01943,0.01289,0.014801
608810,1994-06-18T03:25:13.819000Z,D94129A2,6.72,0.08,Crustal,R,1,221,47,112,geonet,-43.0078,171.4762,-41.7999,172.328,5798820.69,2385786.14,5933893,2454147,21.06,21.06,151.43,151.45,143.62,143.66,41.11,-146.79,0,4.27,1,nu,MCAS,D,501,Q3,1.6,Q3,200,Q3,0,-99999,-99999,0,0.1,13,0.17,13,Abercrombie_etal_2000&HarvardCMT,0.027195098,0.027352736,0.027617088,0.027927712,0.028394998,0.031143497,0.035452112,0.055976254,0.053957006,0.058758863,0.057994541,0.064611342,0.059038644,0.042748948,0.049758726,0.022673354,0.023146419,0.007413744,0.004121185,0.003646406,-99999,-99999,0.029468134,0.029589905,0.029826421,0.030238463,0.030872469,0.035646956,0.038276927,0.065085006,0.065251406,0.061147823,0.081646655,0.083556001,0.077118116,0.046973395,0.054110502,0.029833896,0.026884101,0.00952231,0.00450799,0.004541903,-99999,-99999,0.027166,0.029349,0.027983,0.029524
608810,1994-06-18T03:25:13.819000Z,K94112A1,6.72,0.08,Crustal,R,1,221,47,112,geonet,-43.0078,171.4762,-43.1325,171.7693,5798820.69,2385786.14,5785358,2409884,21.06,21.06,27.55,28.04,23.3,23.35,-22.93,-5.65,0,4.27,1,fw,112B,C,667,Q3,0.36,Q3,60,Q3,0,-99999,-99999,1,0.35,18,0.595,18,Abercrombie_etal_2000&HarvardCMT,0.134123072,0.134999766,0.136538713,0.139272955,0.14428058,0.162680397,0.21810859,0.25706758,0.333180613,0.364449774,0.310319543,0.208211172,0.182828327,0.113403862,0.073539307,0.039120633,-99999,-99999,-99999,-99999,-99999,-99999,0.147891584,0.148448995,0.149352613,0.15133103,0.156450078,0.206959138,0.303738782,0.336195429,0.352331353,0.502092297,0.430587844,0.260279583,0.237599969,0.151753108,0.094988038,0.043348069,-99999,-99999,-99999,-99999,-99999,-99999,0.133497,0.147884,0.080934,0.108476
697172,1994-12-15T11:20:17.858000Z,K5113A01,6.31,0.15,Crustal,S,0,194,77,-1.61E+02,geonet,-37.1987,177.528,-37.8735,177.5847,6434683.68,2912134.85,6359624,2913365,13.1,13.1,75.2,76.03,70.88,72.17,-99999,-99999,10,12,5.68,nu,113A,C,522,Q3,0.15,Q3,10,Q3,0,-99999,-99999,1,0.5,11,0.85,11,HarvardCMT,0.080155086,0.080639832,0.081322918,0.082366446,0.083711755,0.089030104,0.10495268,0.14940036,0.261769738,0.283505941,0.169986183,0.139170209,0.070903981,0.024670654,0.015133696,-99999,-99999,-99999,-99999,-99999,-99999,-99999,0.087833447,0.088231057,0.08885344,0.089730323,0.090857375,0.09677971,0.114726585,0.173118201,0.296600856,0.377661932,0.195742733,0.157370978,0.080174122,0.033359445,0.021339872,-99999,-99999,-99999,-99999,-99999,-99999,-99999,0.079917,0.087819,0.035922,0.044695
731516,1995-02-05T22:51:04.665000Z,D5016A02,7.09,0.15,Crustal,N,0,215,58,-9.00E+01,geonet,-37.6496,179.4886,-38.6774,178.031,6374193.93,3082358.22,6268431,2947608,32.2,32.2,171.17,171.73,155.42,156.01,-99999,-99999,0,12,1.73,nu,016A,C,480,Q3,0.15,Q3,10,Q3,0,-99999,-99999,0,0.35,14,0.595,14,HarvardCMT,0.019710639,0.019796536,0.019911972,0.020118757,0.020447953,0.022202437,0.025248284,0.033651568,0.036121225,0.03272229,0.040616531,0.042994895,0.045828186,0.037596703,0.021109703,0.009176176,-99999,-99999,-99999,-99999,-99999,-99999,0.022112326,0.022184148,0.022320813,0.022514539,0.022794273,0.023516094,0.027881092,0.039367521,0.039887595,0.038158753,0.047584043,0.058588098,0.062168048,0.043144271,0.02388899,0.010972453,-99999,-99999,-99999,-99999,-99999,-99999,0.019614,0.022096,0.013599,0.015489
731516,1995-02-05T22:51:04.665000Z,D5017A02,7.09,0.15,Crustal,N,0,215,58,-9.00E+01,geonet,-37.6496,179.4886,-38.6665,178.0227,6374193.93,3082358.22,6269685,2946952,32.2,32.2,170.91,171.47,155.18,155.77,-99999,-99999,0,12,1.73,nu,GISS,D,138,Q2,1,Q1,40,Q3,0,-99999,-99999,0,0.18,12,0.306,12,HarvardCMT,0.022680904,0.022754328,0.022842317,0.022993099,0.023191045,0.024553329,0.030283323,0.035505633,0.043115895,0.044786804,0.049609445,0.046523078,0.047133802,0.063593056,0.040557912,0.01336727,0.00754646,0.003289696,-99999,-99999,-99999,-99999,0.026675101,0.026739758,0.026845158,0.026980786,0.027179507,0.028134133,0.032147541,0.041159169,0.045813449,0.048140123,0.056121514,0.050090427,0.060458527,0.086928439,0.050026764,0.015388109,0.008566641,0.003543684,-99999,-99999,-99999,-99999,0.022668,0.026673,0.023536,0.028064
731516,1995-02-05T22:51:04.665000Z,D5709A03,7.09,0.15,Crustal,N,0,215,58,-9.00E+01,geonet,-37.6496,179.4886,-38.6257,177.9216,6374193.93,3082358.22,6274694,2938413,32.2,32.2,174.82,175.4,159.22,159.85,-99999,-99999,0,12,1.73,nu,GWTS,D,245,Q3,1.5,Q3,125,Q3,0,-99999,-99999,0,0.15,10,0.255,10,HarvardCMT,0.021731221,0.021757148,0.021814105,0.021836908,0.021859665,0.021947941,0.0230465,0.024272143,0.030895231,0.032239198,0.036580845,0.041224849,0.044713569,0.054306556,0.045655597,0.051994948,0.038038337,0.017011874,-99999,-99999,-99999,-99999,0.023719215,0.023758711,0.023816295,0.023907592,0.024037424,0.024513613,0.025168229,0.030085464,0.038192707,0.041233106,0.043054466,0.044126312,0.04870186,0.063732105,0.052939342,0.066573416,0.040548524,0.018806265,-99999,-99999,-99999,-99999,0.021733,0.023696,0.047036,0.051666
731516,1995-02-05T22:51:04.665000Z,D5712A03,7.09,0.15,Crustal,N,0,215,58,-9.00E+01,geonet,-37.6496,179.4886,-37.9615,176.9855,6374193.93,3082358.22,6352382,2860270,32.2,32.2,222.62,223.48,209.17,210.15,-99999,-99999,0,12,1.73,nu,WKHS,D,210,Q3,0.71,Q2,100,Q3,0,-99999,-99999,0,0.25,12,0.425,12,HarvardCMT,0.017438158,0.017470981,0.017524734,0.017684646,0.017947396,0.019438091,0.022289123,0.028609522,0.028131776,0.027206302,0.033341434,0.040035183,0.054277752,0.031383408,0.017130103,0.007762418,0.004851334,-99999,-99999,-99999,-99999,-99999,0.018990799,0.01903104,0.019100107,0.01918738,0.019351903,0.020968883,0.024659701,0.035063727,0.032208168,0.034934005,0.040312825,0.05180843,0.066190683,0.034542748,0.022041357,0.008693882,0.005568306,-99999,-99999,-99999,-99999,-99999,0.017383,0.01896,0.01429,0.016299
731516,1995-02-05T22:51:04.665000Z,K5113A02,7.09,0.15,Crustal,N,0,215,58,-9.00E+01,geonet,-37.6496,179.4886,-37.8735,177.5847,6374193.93,3082358.22,6359624,2913365,32.2,32.2,169.2,170.05,155.84,156.86,-99999,-99999,0,12,1.73,nu,113A,C,522,Q3,0.15,Q3,10,Q3,0,-99999,-99999,1,0.4,11,0.68,11,HarvardCMT,0.038572427,0.038819854,0.039217213,0.03979309,0.040565418,0.043691976,0.048808814,0.076783023,0.155120187,0.165554219,0.109012045,0.061326243,0.040165872,0.022349546,0.013715652,-99999,-99999,-99999,-99999,-99999,-99999,-99999,0.041671821,0.041887701,0.042254446,0.042766383,0.043436063,0.047069359,0.051079899,0.091274382,0.17142358,0.186323238,0.141443232,0.081577129,0.045487746,0.025108766,0.017112227,-99999,-99999,-99999,-99999,-99999,-99999,-99999,0.038456,0.041675,0.017797,0.020876
721911,1995-02-10T01:44:56.764000Z,D5016A04,6.49,0.15,Crustal,N,0,220,41,-7.80E+01,fdsn,-38.1086,178.6757,-38.6774,178.031,6344659.25,3005555.26,6268431,2947608,16.2,16.2,84.6,96.52,87.77,88.47,-99999,-99999,0,12,6.26,nu,016A,C,480,Q3,0.15,Q3,10,Q3,0,-99999,-99999,1,0.3,10,0.51,10,HarvardCMT,0.013072036,0.013110953,0.013168419,0.013263289,0.013376832,0.013870306,0.015612098,0.02193015,0.028832344,0.02545106,0.033395074,0.032247034,0.040453304,0.02831948,0.017510693,0.009224456,-99999,-99999,-99999,-99999,-99999,-99999,0.015126902,0.015182015,0.015265725,0.015369838,0.015528176,0.016088605,0.016570336,0.023659877,0.032899923,0.0277232,0.036982953,0.03646234,0.043371216,0.03137111,0.018847325,0.009624099,-99999,-99999,-99999,-99999,-99999,-99999,0.01307,0.015125,0.011199,0.012434
721911,1995-02-10T01:44:56.764000Z,D5017A03,6.49,0.15,Crustal,N,0,220,41,-7.80E+01,fdsn,-38.1086,178.6757,-38.6665,178.0227,6344659.25,3005555.26,6269685,2946952,16.2,16.2,84.19,95.91,87.18,87.87,-99999,-99999,0,12,6.26,nu,GISS,D,138,Q2,1,Q1,40,Q3,0,-99999,-99999,1,0.2,10,0.34,10,HarvardCMT,0.015888036,0.01593995,0.016005619,0.016101666,0.016243699,0.016864961,0.018023643,0.025395589,0.030686162,0.035048512,0.037553243,0.033247349,0.040249232,0.03518745,0.028980272,0.012774102,0.005876147,-99999,-99999,-99999,-99999,-99999,0.020426201,0.020444443,0.020502043,0.020570687,0.020646734,0.020967587,0.021503646,0.027680612,0.03634079,0.040609066,0.042100452,0.039851812,0.055201222,0.039140266,0.039578767,0.017882258,0.007429997,-99999,-99999,-99999,-99999,-99999,0.015846,0.020389,0.017052,0.020424
722185,1995-03-22T19:43:30.268000Z,D5040A01,5.83,0.15,Slab,S,0,27,64,30,nlloc,-41.0514,174.216,-41.5763,175.2269,6016538.56,2612205.51,5956588,2695679,7.6,7.6,102.64,133.7,100.01,131.33,-99999,-99999,0,85.51,82.13,nu,040A,B,770,Q3,0.08,Q3,7,Q3,0,-99999,-99999,1,0.25,22,0.425,22,HarvardCMT,0.022528007,0.023166591,0.024429772,0.027290894,0.034693638,0.052172626,0.060190765,0.053947542,0.047679144,0.04396063,0.030478576,0.014439259,0.013654067,0.007333879,0.004445198,0.003303234,0.002224471,-99999,-99999,-99999,-99999,-99999,0.027245299,0.028065365,0.029686772,0.033923608,0.049064759,0.066864214,0.083768427,0.063511978,0.053541902,0.058333309,0.039863757,0.019086484,0.015946082,0.008346937,0.004989375,0.00384352,0.00279349,-99999,-99999,-99999,-99999,-99999,0.022443,0.026833,0.006984,0.007547
722185,1995-03-22T19:43:30.268000Z,D5050A02,5.83,0.15,Slab,S,0,27,64,30,nlloc,-41.0514,174.216,-41.1247,173.0095,6016538.56,2612205.51,6009109,2510784,7.6,7.6,101.44,132.87,98.42,129.2,-99999,-99999,0,85.51,82.13,nu,MOTS,D,300,Q3,1.27,Q3,300,Q3,0,-99999,-99999,0,0.3,25,0.51,25,HarvardCMT,0.074995677,0.076054043,0.078065004,0.081933287,0.096159781,0.141103399,0.166496078,0.142180013,0.234961734,0.246412727,0.196917903,0.148210676,0.084248004,0.0255338,0.012087007,0.011741525,-99999,-99999,-99999,-99999,-99999,-99999,0.081439441,0.082066997,0.083051192,0.090812142,0.11116741,0.170293074,0.185301082,0.171626242,0.301417769,0.263454376,0.254312526,0.195115198,0.101943289,0.030611017,0.016867546,0.014927555,-99999,-99999,-99999,-99999,-99999,-99999,0.074658,0.081151,0.031704,0.038098
722185,1995-03-22T19:43:30.268000Z,D5056A02,5.83,0.15,Slab,S,0,27,64,30,nlloc,-41.0514,174.216,-41.2758,173.2851,6016538.56,2612205.51,5992292,2533876,7.6,7.6,81.82,118.48,78.7,114.72,-99999,-99999,0,85.51,82.13,nu,056A,B,450,Q3,0.07,Q3,5,Q3,0,-99999,-99999,0,0.3,15,0.51,15,HarvardCMT,0.204346678,0.205780403,0.208243725,0.211982088,0.217529751,0.250312261,0.28698554,0.434931692,0.434658787,0.548677997,0.518503412,0.239476374,0.143979826,0.076023618,0.024679223,0.014045021,-99999,-99999,-99999,-99999,-99999,-99999,0.257266569,0.259200631,0.262457034,0.26737767,0.274817855,0.327846604,0.364580111,0.553132252,0.610649644,0.776020803,0.701224701,0.331018431,0.203567332,0.091211917,0.030386707,0.019795226,-99999,-99999,-99999,-99999,-99999,-99999,0.203401,0.256838,0.086241,0.109037
722185,1995-03-22T19:43:30.268000Z,D5129A01,5.83,0.15,Slab,S,0,27,64,30,nlloc,-41.0514,174.216,-41.7999,172.328,6016538.56,2612205.51,5933893,2454147,7.6,7.6,178.06,197.87,174.9,194.27,-99999,-99999,0,85.51,82.13,nu,MCAS,D,501,Q3,1.6,Q3,200,Q3,0,-99999,-99999,0,0.3,17,0.51,17,HarvardCMT,0.03292301,0.033275137,0.033892203,0.03475031,0.03624697,0.045183422,0.060818319,0.074574032,0.10689608,0.074854818,0.07721898,0.060102252,0.049161617,0.023127032,0.024412612,0.012307376,-99999,-99999,-99999,-99999,-99999,-99999,0.041484178,0.041864795,0.042497449,0.043501595,0.045176835,0.053772203,0.072382931,0.08244171,0.123065778,0.095639101,0.108090984,0.064057095,0.057818513,0.023966446,0.02802773,0.013976684,-99999,-99999,-99999,-99999,-99999,-99999,0.032924,0.041474,0.019706,0.021382
722185,1995-03-22T19:43:30.268000Z,D5130B01,5.83,0.15,Slab,S,0,27,64,30,nlloc,-41.0514,174.216,-41.6696,173.2029,6016538.56,2612205.51,5948576,2526890,7.6,7.6,108.97,138.82,105.86,135.11,-99999,-99999,0,85.51,82.13,nu,130B,D,367,Q3,0.85,Q3,100,Q3,0,-99999,-99999,1,0.4,24,0.68,24,HarvardCMT,0.020848402,0.021625819,0.02305697,0.028580228,0.041379332,0.056541768,0.065455574,0.047143359,0.032458346,0.038229455,0.032162845,0.022774787,0.012372447,0.008821788,0.00462667,-99999,-99999,-99999,-99999,-99999,-99999,-99999,0.023115299,0.024095844,0.025969779,0.032533959,0.044686134,0.070503893,0.07140392,0.051906724,0.034994392,0.041278451,0.039870728,0.032171808,0.015704378,0.012237665,0.005155535,-99999,-99999,-99999,-99999,-99999,-99999,-99999,0.020729,0.023068,0.007133,0.008654
722185,1995-03-22T19:43:30.268000Z,D5131A06,5.83,0.15,Slab,S,0,27,64,30,nlloc,-41.0514,174.216,-40.9143,175.005,6016538.56,2612205.51,6030534,2678862,7.6,7.6,67.96,109.33,64.87,106.63,-99999,-99999,0,85.51,82.13,nu,PAPS,D,200,Q3,1.4,Q1,100,Q3,0,-99999,-99999,0,0.45,18,0.765,18,HarvardCMT,0.062953545,0.064118024,0.06621657,0.069892396,0.077748072,0.09522389,0.135165072,0.165059512,0.130356406,0.133180334,0.105732839,0.076802503,0.048937456,0.027938982,0.021584021,-99999,-99999,-99999,-99999,-99999,-99999,-99999,0.082804463,0.084157735,0.08646445,0.090000173,0.094749331,0.121789823,0.161262842,0.210880974,0.149914626,0.176152088,0.116752449,0.099293533,0.056298222,0.031683007,0.026994218,-99999,-99999,-99999,-99999,-99999,-99999,-99999,0.062974,0.080919,0.023458,0.025778
722185,1995-03-22T19:43:30.268000Z,D5132A05,5.83,0.15,Slab,S,0,27,64,30,nlloc,-41.0514,174.216,-41.2975,174.781,6016538.56,2612205.51,5988401,2659132,7.6,7.6,54.63,101.53,52,98.73,-99999,-99999,0,85.51,82.13,nu,132A,C,245,Q2,0.47,Q2,27,Q2,0,-99999,-99999,0,0.3,15,0.51,15,HarvardCMT,0.053620906,0.054259576,0.055352427,0.057072282,0.059734036,0.075299864,0.113392075,0.169480649,0.104960966,0.086305557,0.097402138,0.085906091,0.066614348,0.032324789,0.013651203,0.009294189,-99999,-99999,-99999,-99999,-99999,-99999,0.064276122,0.065296723,0.067005408,0.069633895,0.073508142,0.097593011,0.148107405,0.211555049,0.139000067,0.097977311,0.110284891,0.101329076,0.092736915,0.039875529,0.015434341,0.011412881,-99999,-99999,-99999,-99999,-99999,-99999,0.053645,0.064267,0.022839,0.02753
722185,1995-03-22T19:43:30.268000Z,D5302A03,5.83,0.15,Slab,S,0,27,64,30,nlloc,-41.0514,174.216,-39.9338,175.053,6016538.56,2612205.51,6139282,2685450,7.6,7.6,143.02,166.57,140.12,164.23,-99999,-99999,0,85.51,82.13,nu,302A,D,250,Q2,0.8,Q3,80,Q3,0,-99999,-99999,0,0.4,18,0.68,18,HarvardCMT,0.030177651,0.030584608,0.03142803,0.032815133,0.035388397,0.045745471,0.07549998,0.075063621,0.065933131,0.071452814,0.078124293,0.07711344,0.057520468,0.026904831,0.012751734,-99999,-99999,-99999,-99999,-99999,-99999,-99999,0.03481668,0.03522109,0.035927366,0.037039743,0.039033927,0.049555745,0.085448326,0.088319593,0.082261119,0.083338772,0.089570258,0.105935224,0.065051512,0.029031619,0.015067502,-99999,-99999,-99999,-99999,-99999,-99999,-99999,0.030144,0.034818,0.01655,0.019803
722185,1995-03-22T19:43:30.268000Z,D5643B07,5.83,0.15,Slab,S,0,27,64,30,nlloc,-41.0514,174.216,-41.1513,174.9794,6016538.56,2612205.51,6004275,2676112,7.6,7.6,64.92,107.53,62.09,104.88,-99999,-99999,0,85.51,82.13,nu,643B,B,1000,Q3,<0.1,Q3,1.50E+00,Q3,0,-99999,-99999,0,0.3,30,0.51,30,HarvardCMT,0.043795614,0.045004267,0.048102207,0.054224924,0.056737859,0.082494893,0.092891895,0.172842697,0.102879776,0.070025574,0.05306747,0.028798111,0.018210001,0.010138841,0.005631006,0.0032814,-99999,-99999,-99999,-99999,-99999,-99999,0.052871679,0.054331475,0.058022682,0.060185747,0.073055695,0.092306297,0.119094198,0.226559365,0.112589499,0.09287982,0.059237069,0.040025962,0.019910092,0.011836915,0.005962087,0.004598215,-99999,-99999,-99999,-99999,-99999,-99999,0.043803,0.051789,0.013908,0.016355
