CuspID,Origin_time,Record,Mw,MwUncert,TectClass,Mech,PreferredFaultPlane,Strike,Dip,Rake,Location,HypLat,HypLon,StationLat,StationLon,HypN,HypE,StationN,StationE,LENGTH_km,WIDTH_km,Repi_km,Rhyp_km,Rjb_km,Rrup_km,Rx_km,Ry_km,Rvol_km,HypDepth_km,ZTOR_km,HWFW,SiteCode,SiteClass1170,Vs30,Vs30Uncert,Tsite,TsiteUncert,Z1,Z1Uncertainty,Directivity,Pulse_or,Pulse_T,S_Trigger_Flag,fcButterHP,f_iniLP,fmin,fmax,References,f100.0000SA_RotD50,f50.0000SA_RotD50,f33.3333SA_RotD50,f25.0000SA_RotD50,f20.0000SA_RotD50,f13.3333SA_RotD50,f10.0000SA_RotD50,f6.6667SA_RotD50,f5.0000SA_RotD50,f4.0000SA_RotD50,f3.3333SA_RotD50,f2.5000SA_RotD50,f2.0000SA_RotD50,f1.3333SA_RotD50,f1.0000SA_RotD50,f0.6667SA_RotD50,f0.5000SA_RotD50,f0.3333SA_RotD50,f0.2500SA_RotD50,f0.2000SA_RotD50,f0.1333SA_RotD50,f0.1000SA_RotD50,f100.0000SA_RotD100,f50.0000SA_RotD100,f33.3333SA_RotD100,f25.0000SA_RotD100,f20.0000SA_RotD100,f13.3333SA_RotD100,f10.0000SA_RotD100,f6.6667SA_RotD100,f5.0000SA_RotD100,f4.0000SA_RotD100,f3.3333SA_RotD100,f2.5000SA_RotD100,f2.0000SA_RotD100,f1.3333SA_RotD100,f1.0000SA_RotD100,f0.6667SA_RotD100,f0.5000SA_RotD100,f0.3333SA_RotD100,f0.2500SA_RotD100,f0.2000SA_RotD100,f0.1333SA_RotD100,f0.1000SA_RotD100,PGA_RotD50,PGA_RotD100,PGV_RotD50,PGV_RotD100
100789,1990-02-19T05:34:36.673000Z,A90032A1,6.24,0.08,Slab,N,1,209,72,-1.12E+02,special,-40.38,176.22,-39.9425,176.5874,6086791.59,2783346.23,6134136,2816486,13,13,57.81,62.25,51.34,55.75,-4.02,-57.47,0,23,16.82,nu,032A,C,495,Q3,0.13,Q3,10,Q3,0,-99999,-99999,1,0.5,11,0.85,11,Robinson_1994&Dowrick_Rhoades1998&HarvardCMT,0.167791329,0.168353712,0.169220147,0.170591838,0.172024881,0.177219552,0.192112843,0.23479955,0.245595575,0.23280379,0.234182954,0.21615625,0.182315344,0.106776336,0.063728134,-99999,-99999,-99999,-99999,-99999,-99999,-99999,0.201306645,0.202067368,0.203151224,0.204527929,0.206110096,0.211450501,0.225288169,0.29393319,0.320470718,0.315232934,0.297048322,0.251795574,0.211223276,0.133595512,0.069736901,-99999,-99999,-99999,-99999,-99999,-99999,-99999,0.167641,0.201198,0.111262,0.147159
100789,1990-02-19T05:34:36.673000Z,A90033A1,6.24,0.08,Slab,N,1,209,72,-1.12E+02,special,-40.38,176.22,-40.2088,176.0985,6086791.59,2783346.23,6106160,2773698,13,13,21.65,31.73,18.06,27.95,19.84,-12.26,0,23,16.82,nu,033A,C,367,Q3,0.33,Q3,30,Q3,0,-99999,-99999,1,0.38,19,0.646,19,Robinson_1994&Dowrick_Rhoades1998&HarvardCMT,0.222574487,0.224737228,0.227865838,0.231717074,0.236101889,0.251318232,0.275562831,0.277860726,0.302460012,0.327450772,0.331099263,0.317720974,0.240736086,0.12980428,0.07795707,0.059464293,-99999,-99999,-99999,-99999,-99999,-99999,0.303934157,0.307019972,0.31162077,0.317290315,0.324985208,0.349384934,0.367799479,0.333163127,0.399584647,0.425756684,0.429312037,0.420684465,0.326691409,0.182608542,0.108671575,0.082511383,-99999,-99999,-99999,-99999,-99999,-99999,0.222026,0.302467,0.136251,0.18609
100789,1990-02-19T05:34:36.673000Z,A90102A1,6.24,0.08,Slab,N,1,209,72,-1.12E+02,special,-40.38,176.22,-39.4637,175.5669,6086791.59,2783346.23,6190285,2730871,13,13,116.11,118.43,112.17,114.97,98.08,-65.08,0,23,16.82,nu,102A,C,555,Q3,0.15,Q3,12,Q3,0,-99999,-99999,1,0.4,15,0.68,15,Robinson_1994&Dowrick_Rhoades1998&HarvardCMT,0.035416891,0.035568223,0.035820564,0.036231498,0.03692046,0.039266366,0.043112829,0.046985713,0.041803314,0.052654173,0.054743155,0.042164298,0.041191891,0.036341581,0.033735835,-99999,-99999,-99999,-99999,-99999,-99999,-99999,0.046670355,0.04684893,0.047147456,0.047621825,0.048363603,0.052294093,0.055567885,0.060358349,0.054321283,0.073924831,0.077412917,0.059563046,0.054864589,0.045058055,0.045043751,-99999,-99999,-99999,-99999,-99999,-99999,-99999,0.035302,0.046516,0.031044,0.037797
100789,1990-02-19T05:34:36.673000Z,A90120A1,6.24,0.08,Slab,N,1,209,72,-1.12E+02,special,-40.38,176.22,-40.335,175.8682,6086791.59,2783346.23,6092817,2753648,13,13,30.23,38.1,27.71,35.87,30.9,9.13,0,23,16.82,nu,120A,D,290,Q3,1.1,Q3,100,Q3,0,-99999,-99999,1,0.3,16,0.51,16,Robinson_1994&Dowrick_Rhoades1998&HarvardCMT,0.181709755,0.182223948,0.183199825,0.184484813,0.186020883,0.193095878,0.205566522,0.242353772,0.307850181,0.323033147,0.288612891,0.252056933,0.251582116,0.120070496,0.103817001,0.048953833,-99999,-99999,-99999,-99999,-99999,-99999,0.242029952,0.242637753,0.243870037,0.245587676,0.247567894,0.252116744,0.278698219,0.331546445,0.43009813,0.449900342,0.396439063,0.309818838,0.316979734,0.169792129,0.146747668,0.06864467,-99999,-99999,-99999,-99999,-99999,-99999,0.181617,0.241485,0.147823,0.171479
100789,1990-02-19T05:34:36.673000Z,A90301A1,6.24,0.08,Slab,N,1,209,72,-1.12E+02,special,-40.38,176.22,-40.3553,175.6152,6086791.59,2783346.23,6091232,2732094,13,13,51.31,56.37,48.28,54.13,48.99,20.96,0,23,16.82,nu,301A,D,341,Q3,0.7,Q2,60,Q3,0,-99999,-99999,1,0.15,12,0.255,12,Robinson_1994&Dowrick_Rhoades1998&HarvardCMT,0.044280935,0.044424034,0.044684394,0.04508637,0.045491344,0.046820638,0.048004989,0.053907722,0.055054412,0.063374269,0.070404083,0.069421735,0.058099194,0.042161728,0.039970453,0.020900014,0.013295409,0.00756878,-99999,-99999,-99999,-99999,0.048357407,0.048452966,0.048595372,0.048790076,0.049066859,0.049786631,0.049283472,0.058933519,0.065585541,0.073303422,0.077397137,0.082700144,0.068407561,0.056735231,0.046872067,0.028133851,0.015468754,0.009347535,-99999,-99999,-99999,-99999,0.04421,0.048352,0.051714,0.058661
100789,1990-02-19T05:34:36.673000Z,A90340A2,6.24,0.08,Slab,N,1,209,72,-1.12E+02,special,-40.38,176.22,-40.3863,175.6165,6086791.59,2783346.23,6087788,2732102,13,13,51.12,56.19,47.8,53.59,47.31,23.97,0,23,16.82,nu,340A,D,283,Q3,0.96,Q3,90,Q3,0,-99999,-99999,1,0.33,18,0.561,18,Robinson_1994&Dowrick_Rhoades1998&HarvardCMT,0.054036439,0.054463533,0.055202472,0.05640977,0.058201465,0.06217364,0.063206118,0.078554025,0.081485385,0.075336878,0.075840689,0.062676604,0.048404381,0.031481025,0.03092597,0.017955374,-99999,-99999,-99999,-99999,-99999,-99999,0.058292751,0.058538887,0.059646446,0.061492339,0.064579417,0.071730268,0.08523363,0.084952717,0.088510312,0.082947835,0.082167089,0.084083094,0.062453906,0.041636969,0.038929148,0.021283629,-99999,-99999,-99999,-99999,-99999,-99999,0.053732,0.058295,0.036687,0.044976
100789,1990-02-19T05:34:36.673000Z,D90029A2,6.24,0.08,Slab,N,1,209,72,-1.12E+02,special,-40.38,176.22,-39.6458,176.8429,6086791.59,2783346.23,6166127,2839726,13,13,97.36,100.01,90.89,93.52,-8.84,-96.72,0,23,16.82,nu,HCDS,D,182,Q2,>2,Q3,1000,Q3,0,-99999,-99999,0,0.17,11,0.289,11,Robinson_1994&Dowrick_Rhoades1998&HarvardCMT,0.03941711,0.039495366,0.03962406,0.039841662,0.040134529,0.041206058,0.042870999,0.047907936,0.052164982,0.056423285,0.061000954,0.063652723,0.051506749,0.048826261,0.038630994,0.022246949,0.01330919,0.006191971,-99999,-99999,-99999,-99999,0.044835487,0.044928159,0.045063925,0.045242302,0.045521964,0.04635373,0.047042617,0.054945885,0.056747958,0.066181975,0.077929745,0.077158712,0.069016104,0.054359095,0.041518936,0.026123404,0.014810181,0.008035875,-99999,-99999,-99999,-99999,0.039334,0.044829,0.046135,0.048753
100789,1990-02-19T05:34:36.673000Z,D90039E2,6.24,0.08,Slab,N,1,209,72,-1.12E+02,special,-40.38,176.22,-40.9483,175.6597,6086791.59,2783346.23,6025298,2733883,13,13,78.91,82.2,72.5,75.91,15.46,77.76,0,23,16.82,nu,039E,D,314,Q3,1,Q3,100,Q3,0,-99999,-99999,0,0.15,16.5,0.255,16.5,Robinson_1994&Dowrick_Rhoades1998&HarvardCMT,0.01547988,0.01565507,0.015878284,0.01621207,0.016690529,0.018190976,0.021474801,0.027958257,0.028728971,0.023919968,0.021196046,0.01856397,0.014914819,0.012919638,0.010246787,0.00771542,0.005215847,0.002269194,-99999,-99999,-99999,-99999,0.01879463,0.018926367,0.019122296,0.019387946,0.019798148,0.020088363,0.023259022,0.030447174,0.031219898,0.026480069,0.023680023,0.023072309,0.018711809,0.015555671,0.011655622,0.009110575,0.006169463,0.002998898,-99999,-99999,-99999,-99999,0.01547,0.018655,0.011163,0.013236
125056,1990-05-13T04:23:09.012999Z,A90032A2,6.39,0.08,Crustal,O,1,220,28,149,special,-40.35,176.23,-39.9425,176.5874,6090089.72,2784316.52,6134136,2816486,14.4,14.4,54.56,55.67,48.31,49.57,9.19,-54.42,0,11,8.07,nu,032A,C,495,Q3,0.13,Q3,10,Q3,0,-99999,-99999,0,0.25,12,0.425,12,Robinson_1994&Dowrick_Rhoades1998&HarvardCMT,0.191664843,0.192013404,0.192606705,0.1934815,0.194674201,0.19975524,0.205363543,0.242854704,0.289882341,0.3260942,0.325522597,0.320517977,0.289466247,0.1473318,0.073402279,0.028616868,0.019620691,-99999,-99999,-99999,-99999,-99999,0.247718596,0.248567106,0.249894769,0.251793088,0.254300678,0.264765644,0.282324265,0.3229847,0.356581518,0.451242869,0.450052296,0.356189925,0.351834509,0.185810676,0.100970607,0.035520971,0.021903087,-99999,-99999,-99999,-99999,-99999,0.19151,0.246938,0.136746,0.152172
125056,1990-05-13T04:23:09.012999Z,A90033C3,6.39,0.08,Crustal,O,1,220,28,149,special,-40.35,176.23,-40.2103,176.0955,6090089.72,2784316.52,6106003,2773437,14.4,14.4,19.28,22.3,13.71,19.56,24.08,-5.2,0,11,8.07,hw,033C,C,403,Q3,0.22,Q3,20,Q3,0,-99999,-99999,0,0.15,25,0.255,25,Robinson_1994&Dowrick_Rhoades1998&HarvardCMT,0.295695037,0.297990248,0.304282286,0.312003117,0.326184706,0.386874892,0.457385715,0.488843866,0.450019383,0.396376288,0.380881937,0.305608785,0.316307942,0.239384732,0.160787857,0.104811863,0.054231473,0.025402093,-99999,-99999,-99999,-99999,0.401854503,0.404578891,0.409308717,0.416493005,0.421831198,0.506892759,0.561206838,0.548472849,0.522786135,0.558711711,0.536268484,0.377559966,0.417072025,0.323064709,0.208398071,0.147538698,0.075267286,0.034467698,-99999,-99999,-99999,-99999,0.294788,0.401181,0.193359,0.2536
125056,1990-05-13T04:23:09.012999Z,A90087A2,6.39,0.08,Crustal,O,1,220,28,149,special,-40.35,176.23,-39.7163,175.1455,6090089.72,2784316.52,6163232,2693941,14.4,14.4,116.15,116.79,110.64,111.62,121.77,2.06,0,11,8.07,nu,087A,B,1000,Q3,<0.1,Q3,0,Q2,0,-99999,-99999,1,0.37,17,0.629,17,Robinson_1994&Dowrick_Rhoades1998&HarvardCMT,0.07914282,0.079513879,0.079989521,0.080821612,0.082350593,0.089369898,0.098415769,0.113740963,0.128141631,0.109310134,0.092073498,0.078690607,0.079868622,0.053630569,0.048866237,0.034316084,-99999,-99999,-99999,-99999,-99999,-99999,0.093180465,0.09395811,0.095208338,0.097031656,0.09996685,0.109448606,0.121491455,0.123081252,0.137405195,0.122374277,0.105606299,0.10111084,0.110255318,0.06680806,0.067163941,0.046144356,-99999,-99999,-99999,-99999,-99999,-99999,0.079003,0.092207,0.058432,0.076016
125056,1990-05-13T04:23:09.012999Z,A90102A2,6.39,0.08,Crustal,O,1,220,28,149,special,-40.35,176.23,-39.4637,175.5669,6090089.72,2784316.52,6190285,2730871,14.4,14.4,113.62,114.16,108,108.88,110.86,-42.4,0,11,8.07,nu,102A,C,555,Q3,0.15,Q3,12,Q3,0,-99999,-99999,1,0.3,10,0.51,10,Robinson_1994&Dowrick_Rhoades1998&HarvardCMT,0.042908916,0.043061164,0.043330576,0.043719854,0.044222968,0.046211673,0.049234357,0.057065364,0.051541588,0.057975746,0.059169926,0.07202389,0.064271418,0.044089296,0.034761569,0.013612415,-99999,-99999,-99999,-99999,-99999,-99999,0.050113582,0.050268676,0.050503842,0.050834751,0.051314274,0.052887384,0.055798704,0.068662608,0.066732756,0.061905529,0.070720413,0.088559065,0.075362094,0.047760988,0.038152015,0.017862168,-99999,-99999,-99999,-99999,-99999,-99999,0.042812,0.04997,0.037913,0.04199
125056,1990-05-13T04:23:09.012999Z,A90120A2,6.39,0.08,Crustal,O,1,220,28,149,special,-40.35,176.23,-40.335,175.8682,6090089.72,2784316.52,6092817,2753648,14.4,14.4,30.71,32.73,24.96,28.34,30.76,17.62,0,11,8.07,nu,120A,D,290,Q3,1.1,Q3,100,Q3,0,-99999,-99999,1,0.2,18,0.34,18,Robinson_1994&Dowrick_Rhoades1998&HarvardCMT,0.155978333,0.156379761,0.156970078,0.157693594,0.15886324,0.164872031,0.176468186,0.225327218,0.268023284,0.278143088,0.260330176,0.216355055,0.196327217,0.107424248,0.072464907,0.040550636,0.022866741,-99999,-99999,-99999,-99999,-99999,0.172134346,0.172988231,0.174189484,0.175531473,0.176559203,0.183773818,0.21886446,0.283020986,0.326153536,0.302362158,0.297455132,0.272895895,0.245909208,0.127166567,0.095601681,0.048061062,0.024981735,-99999,-99999,-99999,-99999,-99999,0.155832,0.172039,0.109383,0.123406
125056,1990-05-13T04:23:09.012999Z,A90340A3,6.39,0.08,Crustal,O,1,220,28,149,special,-40.35,176.23,-40.3863,175.6165,6090089.72,2784316.52,6087788,2732102,14.4,14.4,52.13,53.42,46.29,48.19,44.04,35.33,0,11,8.07,nu,340A,D,283,Q3,0.96,Q3,90,Q3,0,-99999,-99999,1,0.5,17,0.85,17,Robinson_1994&Dowrick_Rhoades1998&HarvardCMT,0.044923434,0.04506226,0.045308866,0.045694474,0.046278494,0.050483918,0.055430641,0.065921901,0.074074278,0.068370645,0.058080929,0.053269556,0.04641249,0.029017118,0.021896695,-99999,-99999,-99999,-99999,-99999,-99999,-99999,0.057943321,0.058226677,0.058824773,0.059627342,0.060517077,0.066590879,0.073933814,0.084182613,0.082701387,0.072431283,0.069404913,0.062095213,0.050376333,0.030814607,0.030962517,-99999,-99999,-99999,-99999,-99999,-99999,-99999,0.044742,0.0576,0.031249,0.035342
125056,1990-05-13T04:23:09.012999Z,D90029A3,6.39,0.08,Crustal,O,1,220,28,149,special,-40.35,176.23,-39.6458,176.8429,6090089.72,2784316.52,6166127,2839726,14.4,14.4,94.11,94.73,87.86,88.54,11.95,-93.86,0,11,8.07,nu,HCDS,D,182,Q2,>2,Q3,1000,Q3,0,-99999,-99999,0,0.14,10.6,0.238,10.6,Robinson_1994&Dowrick_Rhoades1998&HarvardCMT,0.049838506,0.04993344,0.050096005,0.050325834,0.050616064,0.051814226,0.054918365,0.060741794,0.065636409,0.075776033,0.087061445,0.094643217,0.078367467,0.065330846,0.051265822,0.035591338,0.02537938,0.015734607,0.010123558,-99999,-99999,-99999,0.060739078,0.060845684,0.061030032,0.061346582,0.061753994,0.063146048,0.065392614,0.075543222,0.075930233,0.085261121,0.101533544,0.120171424,0.088491813,0.07807228,0.067937427,0.042754689,0.035862024,0.019532889,0.013332474,-99999,-99999,-99999,0.049794,0.060752,0.076501,0.104498
125056,1990-05-13T04:23:09.012999Z,D90039E3,6.39,0.08,Crustal,O,1,220,28,149,special,-40.35,176.23,-40.9483,175.6597,6090089.72,2784316.52,6025298,2733883,14.4,14.4,82.1,82.84,75.85,76.63,2.51,82.05,0,11,8.07,nu,039E,D,314,Q3,1,Q3,100,Q3,0,-99999,-99999,0,0.2,10,0.34,10,Robinson_1994&Dowrick_Rhoades1998&HarvardCMT,0.026924875,0.026994079,0.02705564,0.027149991,0.027303475,0.027686554,0.03009594,0.033868902,0.038154777,0.038659025,0.03726022,0.038877885,0.036424148,0.031375745,0.023401768,0.013656582,0.008541706,-99999,-99999,-99999,-99999,-99999,0.030645086,0.030759688,0.030946744,0.031197155,0.031535298,0.032987066,0.036341947,0.03704025,0.0435414,0.046497077,0.042144463,0.05244819,0.049061745,0.042236756,0.025672814,0.017618726,0.010167152,-99999,-99999,-99999,-99999,-99999,0.026912,0.030638,0.031591,0.037909
125056,1990-05-13T04:23:09.012999Z,D90302A2,6.39,0.08,Crustal,O,1,220,28,149,special,-40.35,176.23,-39.9338,175.053,6090089.72,2784316.52,6139282,2685450,14.4,14.4,110.24,110.98,104.69,105.78,112.87,25.87,0,11,8.07,nu,302A,D,250,Q2,0.8,Q3,80,Q3,0,-99999,-99999,0,0.19,12,0.323,12,Robinson_1994&Dowrick_Rhoades1998&HarvardCMT,0.049202803,0.049309979,0.04950199,0.049750702,0.050083368,0.051181312,0.051565627,0.055033874,0.060150071,0.062046677,0.05879211,0.062949517,0.053705603,0.046098509,0.04388589,0.02642106,0.016973294,0.007737365,-99999,-99999,-99999,-99999,0.066432148,0.066511465,0.066654303,0.066864289,0.067095823,0.067713192,0.067500216,0.075692574,0.08287928,0.085026328,0.077535417,0.083798488,0.075438922,0.065127072,0.061886488,0.033249083,0.021309174,0.010803034,-99999,-99999,-99999,-99999,0.049166,0.066443,0.04682,0.062416
125056,1990-05-13T04:23:09.012999Z,D90642E4,6.39,0.08,Crustal,O,1,220,28,149,special,-40.35,176.23,-41.2341,174.918,6090089.72,2784316.52,5995197,2670758,14.4,14.4,147.86,148.4,141.64,142.22,31.51,145.69,0,11,8.07,nu,642E,C,350,Q1,0.35,Q2,50,Q3,0,-99999,-99999,1,0.25,10,0.425,10,Robinson_1994&Dowrick_Rhoades1998&HarvardCMT,0.018861766,0.018934158,0.019057092,0.019240197,0.019495008,0.020548355,0.022171276,0.030316254,0.030617093,0.033202659,0.033934731,0.026438572,0.0209607,0.011509117,0.005610546,0.003373042,0.001818791,-99999,-99999,-99999,-99999,-99999,0.024818982,0.024958934,0.02515666,0.025439957,0.025812593,0.027237383,0.03036349,0.042856862,0.042815383,0.041327777,0.037102324,0.030676073,0.02252678,0.012640774,0.007475027,0.004407549,0.002211454,-99999,-99999,-99999,-99999,-99999,0.018788,0.024775,0.012752,0.014581
125056,1990-05-13T04:23:09.012999Z,D90941A1,6.39,0.08,Crustal,O,1,220,28,149,special,-40.35,176.23,-41.2921,174.779,6090089.72,2784316.52,5989003,2658976,14.4,14.4,160.88,161.4,154.66,155.22,36.56,158,0,11,8.07,nu,941A,D,272,Q2,0.85,Q2,9.85E+01,Q2,0,-99999,-99999,1,0.25,10,0.425,10,Robinson_1994&Dowrick_Rhoades1998&HarvardCMT,0.012226562,0.01223937,0.012261943,0.012292183,0.012336889,0.012494701,0.012822454,0.013712429,0.016046413,0.016400429,0.015712916,0.017195401,0.018688001,0.020496413,0.013292131,0.006302618,0.003638449,-99999,-99999,-99999,-99999,-99999,0.013632056,0.013659358,0.013690918,0.013736724,0.013810343,0.014091877,0.014522608,0.016131127,0.017070207,0.017373534,0.016697456,0.018227054,0.023156632,0.024933112,0.015024233,0.007917896,0.003875777,-99999,-99999,-99999,-99999,-99999,0.012219,0.013631,0.013685,0.015876
164529,1990-10-04T23:48:26.123000Z,D90606B5,5.57,0.15,Interface,O,1,190,21,58,special,-41.61,175.44,-41.2333,174.9199,5952370.8,2713346.37,5995282,2670919,7.6,7.6,60.3,61.9,58.15,59.96,51.33,-34.89,0,13.8,12.99,nu,606B,B,800,Q3,<0.1,Q3,0,Q3,0,-99999,-99999,0,0.4,12,0.68,12,HarvardCMT&Luo(1992),0.013742189,0.013840459,0.014025575,0.014277833,0.014679171,0.016199236,0.018181263,0.025327572,0.021003399,0.017529608,0.019930113,0.016592143,0.01302025,0.009472128,0.008388995,-99999,-99999,-99999,-99999,-99999,-99999,-99999,0.018026458,0.018184325,0.018437947,0.018804187,0.019411251,0.02194503,0.0239189,0.030214787,0.023503162,0.020450388,0.02174759,0.022690621,0.013992975,0.011586475,0.009301991,-99999,-99999,-99999,-99999,-99999,-99999,-99999,0.013701,0.018028,0.009334,0.010354
164529,1990-10-04T23:48:26.123000Z,D90642E8,5.57,0.15,Interface,O,1,190,21,58,special,-41.61,175.44,-41.2341,174.918,5952370.8,2713346.37,5995197,2670758,7.6,7.6,60.35,61.96,58.2,60.01,51.48,-34.78,0,13.8,12.99,nu,642E,C,350,Q1,0.35,Q2,50,Q3,0,-99999,-99999,0,0.4,13,0.68,13,HarvardCMT&Luo(1992),0.037689548,0.037855991,0.038118533,0.038510652,0.03898731,0.04078389,0.041764576,0.053594571,0.054414173,0.062916279,0.070074385,0.058878994,0.04458954,0.018631479,0.013941886,-99999,-99999,-99999,-99999,-99999,-99999,-99999,0.042368648,0.042549469,0.042839433,0.043278435,0.043891906,0.046775151,0.049731598,0.066075359,0.065615644,0.075727063,0.078507663,0.077217843,0.05726133,0.019935873,0.01609717,-99999,-99999,-99999,-99999,-99999,-99999,-99999,0.037615,0.042374,0.022462,0.02414
164529,1990-10-04T23:48:26.123000Z,D90900B5,5.57,0.15,Interface,O,1,190,21,58,special,-41.61,175.44,-41.2921,174.779,5952370.8,2713346.37,5989003,2658976,7.6,7.6,65.46,67,63.34,65.08,62.01,-26.63,0,13.8,12.99,nu,941A,D,272,Q2,0.85,Q2,9.85E+01,Q2,0,-99999,-99999,0,0.4,11.5,0.68,11.5,HarvardCMT&Luo(1992),0.022651939,0.022711315,0.022821438,0.022986955,0.02319383,0.023917357,0.024764871,0.032320117,0.033861094,0.033679141,0.03423374,0.034485815,0.033702518,0.031470908,0.021123357,-99999,-99999,-99999,-99999,-99999,-99999,-99999,0.025334474,0.025390044,0.025480137,0.025642406,0.025851973,0.026385512,0.027126055,0.036165968,0.036669722,0.03550751,0.038416434,0.043844214,0.040955796,0.032835765,0.023077217,-99999,-99999,-99999,-99999,-99999,-99999,-99999,0.02265,0.025338,0.022889,0.025328
