CuspID,Origin_time,Record,Mw,MwUncert,TectClass,Mech,PreferredFaultPlane,Strike,Dip,Rake,Location,HypLat,HypLon,StationLat,StationLon,HypN,HypE,StationN,StationE,LENGTH_km,WIDTH_km,Repi_km,Rhyp_km,Rjb_km,Rrup_km,Rx_km,Ry_km,Rvol_km,HypDepth_km,ZTOR_km,HWFW,SiteCode,SiteClass1170,Vs30,Vs30Uncert,Tsite,TsiteUncert,Z1,Z1Uncertainty,Directivity,Pulse_or,Pulse_T,S_Trigger_Flag,fcButterHP,f_iniLP,fmin,fmax,References,f100.0000SA_RotD50,f50.0000SA_RotD50,f33.3333SA_RotD50,f25.0000SA_RotD50,f20.0000SA_RotD50,f13.3333SA_RotD50,f10.0000SA_RotD50,f6.6667SA_RotD50,f5.0000SA_RotD50,f4.0000SA_RotD50,f3.3333SA_RotD50,f2.5000SA_RotD50,f2.0000SA_RotD50,f1.3333SA_RotD50,f1.0000SA_RotD50,f0.6667SA_RotD50,f0.5000SA_RotD50,f0.3333SA_RotD50,f0.2500SA_RotD50,f0.2000SA_RotD50,f0.1333SA_RotD50,f0.1000SA_RotD50,f100.0000SA_RotD100,f50.0000SA_RotD100,f33.3333SA_RotD100,f25.0000SA_RotD100,f20.0000SA_RotD100,f13.3333SA_RotD100,f10.0000SA_RotD100,f6.6667SA_RotD100,f5.0000SA_RotD100,f4.0000SA_RotD100,f3.3333SA_RotD100,f2.5000SA_RotD100,f2.0000SA_RotD100,f1.3333SA_RotD100,f1.0000SA_RotD100,f0.6667SA_RotD100,f0.5000SA_RotD100,f0.3333SA_RotD100,f0.2500SA_RotD100,f0.2000SA_RotD100,f0.1333SA_RotD100,f0.1000SA_RotD100,PGA_RotD50,PGA_RotD100,PGV_RotD50,PGV_RotD100
164529,1990-10-04T23:48:26.123000Z,D90606B5,5.57,0.15,Interface,O,1,190,21,58,special,-41.61,175.44,-41.2333,174.9199,5952370.8,2713346.37,5995282,2670919,7.6,7.6,60.3,61.9,58.15,59.96,51.33,-34.89,0,13.8,12.99,nu,606B,B,800,Q3,<0.1,Q3,0,Q3,0,-99999,-99999,0,0.4,12,0.68,12,HarvardCMT&Luo(1992),0.013747622,0.013857804,0.014074831,0.014377512,0.014770344,0.017119588,0.020110631,0.035470289,0.026973503,0.021684489,0.024905065,0.025115218,0.01802021,0.011145441,0.011746568,-99999,-99999,-99999,-99999,-99999,-99999,-99999,0.018029279,0.018205364,0.018500455,0.01893038,0.019561731,0.023206394,0.025159309,0.044921376,0.03273108,0.026013131,0.034620161,0.034832651,0.020038891,0.014638699,0.013250949,-99999,-99999,-99999,-99999,-99999,-99999,-99999,0.013701,0.018028,0.009334,0.010354
164529,1990-10-04T23:48:26.123000Z,D90642E8,5.57,0.15,Interface,O,1,190,21,58,special,-41.61,175.44,-41.2341,174.918,5952370.8,2713346.37,5995197,2670758,7.6,7.6,60.35,61.96,58.2,60.01,51.48,-34.78,0,13.8,12.99,nu,642E,C,350,Q1,0.35,Q2,50,Q3,0,-99999,-99999,0,0.4,13,0.68,13,HarvardCMT&Luo(1992),0.037692357,0.037884741,0.038144907,0.03856781,0.039056934,0.041525847,0.043331231,0.063069626,0.063754829,0.078641247,0.103034248,0.093276886,0.069031587,0.022983651,0.017866185,-99999,-99999,-99999,-99999,-99999,-99999,-99999,0.042373546,0.042569616,0.042881684,0.043366572,0.044030827,0.04819622,0.050294968,0.084395081,0.086256029,0.098401963,0.126502487,0.118935754,0.094713803,0.026825936,0.023872783,-99999,-99999,-99999,-99999,-99999,-99999,-99999,0.037615,0.042374,0.022462,0.02414
164529,1990-10-04T23:48:26.123000Z,D90900B5,5.57,0.15,Interface,O,1,190,21,58,special,-41.61,175.44,-41.2921,174.779,5952370.8,2713346.37,5989003,2658976,7.6,7.6,65.46,67,63.34,65.08,62.01,-26.63,0,13.8,12.99,nu,941A,D,272,Q2,0.85,Q2,9.85E+01,Q2,0,-99999,-99999,0,0.4,11.5,0.68,11.5,HarvardCMT&Luo(1992),0.022651659,0.022711787,0.022828123,0.023013367,0.023248457,0.024066379,0.024953764,0.039639607,0.041704248,0.04111696,0.041987154,0.045306382,0.050441081,0.044092722,0.030448808,-99999,-99999,-99999,-99999,-99999,-99999,-99999,0.025337074,0.025403103,0.025513878,0.025670043,0.02592245,0.026931289,0.02691349,0.044740177,0.045051591,0.043123771,0.049452579,0.061181765,0.067212962,0.04554993,0.033453592,-99999,-99999,-99999,-99999,-99999,-99999,-99999,0.02265,0.025338,0.022889,0.025328
164529,1990-10-04T23:48:26.123000Z,D90935B2,5.57,0.15,Interface,O,1,190,21,58,special,-41.61,175.44,-41.2108,174.9047,5952370.8,2713346.37,5997808,2669699,7.6,7.6,62.96,64.5,60.81,62.54,52.97,-37.17,0,13.8,12.99,nu,935A,D,240,Q3,1.2,Q3,275,Q3,0,-99999,-99999,0,0.4,15,0.68,15,HarvardCMT&Luo(1992),0.032908871,0.033084039,0.03343704,0.033956896,0.034725492,0.036928201,0.038972189,0.051434069,0.064908008,0.07427661,0.095661344,0.053568439,0.050959204,0.03480702,0.04460591,-99999,-99999,-99999,-99999,-99999,-99999,-99999,0.037514255,0.037651996,0.037892767,0.038305671,0.039000832,0.041670897,0.043266663,0.06071334,0.068986535,0.081020194,0.114595974,0.056803937,0.059092582,0.047486303,0.055280447,-99999,-99999,-99999,-99999,-99999,-99999,-99999,0.032746,0.037519,0.034941,0.042109
164529,1990-10-04T23:48:26.123000Z,D90941A5,5.57,0.15,Interface,O,1,190,21,58,special,-41.61,175.44,-41.2921,174.779,5952370.8,2713346.37,5989003,2658976,7.6,7.6,65.46,67,63.34,65.08,62.01,-26.63,0,13.8,12.99,nu,941A,D,272,Q2,0.85,Q2,9.85E+01,Q2,0,-99999,-99999,0,0.41,11,0.697,11,HarvardCMT&Luo(1992),0.022980412,0.023077194,0.023239022,0.023483166,0.023830675,0.025321552,0.028114594,0.039763291,0.039541859,0.03919207,0.044895748,0.051116407,0.04166902,0.037037708,0.022620096,-99999,-99999,-99999,-99999,-99999,-99999,-99999,0.031414818,0.031504297,0.031660278,0.031888899,0.032182769,0.033030818,0.034229649,0.051455174,0.048468407,0.051719378,0.059586278,0.068554369,0.056865063,0.043428792,0.029133121,-99999,-99999,-99999,-99999,-99999,-99999,-99999,0.022982,0.031422,0.021391,0.023599
160610,1990-10-06T02:41:12.583000Z,D90642EB,5.46,0.15,Interface,O,1,250,38,145,special,-41.61,175.43,-41.2341,174.918,5952394.08,2712513.04,5995197,2670758,6.7,6.7,59.75,61.46,58.1,60.11,56.08,24.6,0,14.2,12.97,nu,642E,C,350,Q1,0.35,Q2,50,Q3,0,-99999,-99999,0,0.6,11,1.02,11,HarvardCMT&Luo(1992),0.028067968,0.028175227,0.028318765,0.028563601,0.028814044,0.029974368,0.032925554,0.04657051,0.055272842,0.058968141,0.064533601,0.07293231,0.053347931,0.017172163,-99999,-99999,-99999,-99999,-99999,-99999,-99999,-99999,0.030116893,0.030278961,0.030541454,0.03092422,0.031427991,0.033475394,0.035730528,0.055531288,0.061241429,0.070932842,0.079044173,0.095441515,0.072116681,0.024285581,-99999,-99999,-99999,-99999,-99999,-99999,-99999,-99999,0.027979,0.030104,0.016174,0.019076
160610,1990-10-06T02:41:12.583000Z,D90900B6,5.46,0.15,Interface,O,1,250,38,145,special,-41.61,175.43,-41.2921,174.779,5952394.08,2712513.04,5989003,2658976,6.7,6.7,64.76,66.39,63.03,64.9,54.29,37.79,0,14.2,12.97,nu,941A,D,272,Q2,0.85,Q2,9.85E+01,Q2,0,-99999,-99999,0,0.4,10,0.68,10,HarvardCMT&Luo(1992),0.014071705,0.01410413,0.014159463,0.0142302,0.014326281,0.014611218,0.015182312,0.018436019,0.023048818,0.022334521,0.023973716,0.022479974,0.020181868,0.026529456,0.017947246,-99999,-99999,-99999,-99999,-99999,-99999,-99999,0.019033262,0.019067485,0.019130903,0.019216329,0.019320106,0.019673379,0.021013492,0.021369593,0.032468471,0.031502635,0.033246175,0.027129048,0.028446366,0.03578837,0.022174075,-99999,-99999,-99999,-99999,-99999,-99999,-99999,0.014052,0.019034,0.012221,0.01399
160610,1990-10-06T02:41:12.583000Z,D90935B3,5.46,0.15,Interface,O,1,250,38,145,special,-41.61,175.43,-41.2108,174.9047,5952394.08,2712513.04,5997808,2669699,6.7,6.7,62.37,64.01,60.72,62.65,58.89,24.7,0,14.2,12.97,nu,935A,D,240,Q3,1.2,Q3,275,Q3,0,-99999,-99999,0,0.3,15,0.51,15,HarvardCMT&Luo(1992),0.01982141,0.019921234,0.020034386,0.020216836,0.020465873,0.021739682,0.02326185,0.030554424,0.034533109,0.041184211,0.04369651,0.042662849,0.035786429,0.02426447,0.0170121,0.010937731,-99999,-99999,-99999,-99999,-99999,-99999,0.021463109,0.021556324,0.021709117,0.021923618,0.022202993,0.023946579,0.024766361,0.038777611,0.04045523,0.05427293,0.053549305,0.052227747,0.039060533,0.029566304,0.022931635,0.01462756,-99999,-99999,-99999,-99999,-99999,-99999,0.019813,0.021374,0.01878,0.023053
160610,1990-10-06T02:41:12.583000Z,D90941A6,5.46,0.15,Interface,O,1,250,38,145,special,-41.61,175.43,-41.2921,174.779,5952394.08,2712513.04,5989003,2658976,6.7,6.7,64.76,66.39,63.03,64.9,54.29,37.79,0,14.2,12.97,nu,941A,D,272,Q2,0.85,Q2,9.85E+01,Q2,0,-99999,-99999,0,0.35,12,0.595,12,HarvardCMT&Luo(1992),0.013386842,0.013428964,0.013498234,0.013605181,0.013759771,0.014319162,0.016066702,0.021125639,0.025648974,0.025341802,0.026492058,0.023831376,0.015892606,0.023473474,0.012818461,0.004914067,-99999,-99999,-99999,-99999,-99999,-99999,0.016521185,0.016595798,0.016707928,0.016882587,0.01714177,0.018651168,0.02167873,0.024969394,0.027643554,0.0285262,0.030765531,0.026537976,0.019063547,0.026838646,0.015122676,0.006192531,-99999,-99999,-99999,-99999,-99999,-99999,0.013333,0.016519,0.009242,0.010038
194283,1991-01-28T12:58:46.823000Z,A91051B1,5.76,0.08,Crustal,R,1,42,30,99,special,-41.89,171.58,-41.7557,171.5998,5923123.14,2392149.06,5938069,2393545,6.97,6.97,15.03,18.04,11.7,14.67,-5.94,12.04,0,10,8.26,nu,WBCS,D,300,Q3,1.2,Q2,105,Q3,0,-99999,-99999,1,0.4,27,0.68,27,Anderson_etal_1993&Dowrick_Rhoades1998&HarvardCMT,0.143875742,0.146091008,0.14950845,0.164458484,0.175135558,0.258045593,0.284888304,0.259152378,0.228379224,0.196860629,0.188753652,0.21146155,0.198456956,0.221292973,0.140738784,-99999,-99999,-99999,-99999,-99999,-99999,-99999,0.162828479,0.165079245,0.170025685,0.181998512,0.213042944,0.289195373,0.399639553,0.296244321,0.262007849,0.241431509,0.232743663,0.273539462,0.256271014,0.301906007,0.1881119,-99999,-99999,-99999,-99999,-99999,-99999,-99999,0.142879,0.161382,0.10733,0.128337
194283,1991-01-28T12:58:46.823000Z,A91083A1,5.76,0.08,Crustal,R,1,42,30,99,special,-41.89,171.58,-41.8311,171.6606,5923123.14,2392149.06,5929772,2398735,6.97,6.97,9.35,13.7,5.87,11.28,3.46,9.35,0,10,8.26,nu,083A,B,1200,Q3,<0.1,Q3,0,Q2,0,-99999,-99999,0,0.5,40,0.85,40,Anderson_etal_1993&Dowrick_Rhoades1998&HarvardCMT,0.202406144,0.220256374,0.322013095,0.316965011,0.357103583,0.304114703,0.255714807,0.264046907,0.216435634,0.116719673,0.124502242,0.121563186,0.109481999,0.086481371,0.070955619,-99999,-99999,-99999,-99999,-99999,-99999,-99999,0.261073155,0.311451648,0.455377594,0.448215004,0.4769617,0.359654654,0.330443788,0.309647668,0.280017206,0.132574704,0.149997154,0.140933375,0.147697327,0.121941411,0.099473149,-99999,-99999,-99999,-99999,-99999,-99999,-99999,0.193315,0.234507,0.065445,0.081315
194283,1991-01-28T12:58:46.823000Z,A91090A1,5.76,0.08,Crustal,R,1,42,30,99,special,-41.89,171.58,-41.8553,171.9539,5923123.14,2392149.06,5927428,2423132,6.97,6.97,31.2,32.86,27.91,30.07,23.16,23.93,0,10,8.26,nu,090A,C,270,Q3,0.33,Q3,40,Q3,0,-99999,-99999,1,0.3,22,0.51,22,Anderson_etal_1993&Dowrick_Rhoades1998&HarvardCMT,0.083425651,0.084443765,0.086113108,0.088548679,0.092564131,0.102887818,0.12767574,0.148124376,0.171838723,0.143498821,0.123348541,0.145233967,0.149261613,0.075910896,0.044179516,0.024872042,-99999,-99999,-99999,-99999,-99999,-99999,0.115011397,0.116398099,0.118612474,0.121222985,0.127404392,0.145526823,0.149834518,0.185953005,0.230964001,0.198436009,0.14312572,0.205029613,0.190502255,0.097242343,0.059811499,0.033647161,-99999,-99999,-99999,-99999,-99999,-99999,0.08299,0.115127,0.061288,0.084013
194283,1991-01-28T12:58:46.823000Z,A91122A1,5.76,0.08,Crustal,R,1,42,30,99,special,-41.89,171.58,-41.8025,172.3248,5923123.14,2392149.06,5933606,2453884,6.97,6.97,62.46,63.44,59.16,60.33,41.88,49.1,0,10,8.26,nu,122A,D,500,Q3,1.6,Q3,250,Q3,0,-99999,-99999,1,0.4,40,0.68,40,Anderson_etal_1993&Dowrick_Rhoades1998&HarvardCMT,0.128376816,0.138900057,0.151550188,0.178433813,0.163048982,0.216271942,0.280424007,0.224890876,0.180951385,0.206963428,0.209521375,0.173882489,0.167395396,0.079054716,0.044806198,-99999,-99999,-99999,-99999,-99999,-99999,-99999,0.172204928,0.176740567,0.180245393,0.230970453,0.190053209,0.262932806,0.352615225,0.310646185,0.250307501,0.289271136,0.295131581,0.236420049,0.235817788,0.085045512,0.04765852,-99999,-99999,-99999,-99999,-99999,-99999,-99999,0.128037,0.172541,0.069375,0.08888
194283,1991-01-28T12:58:46.823000Z,D91042A3,5.76,0.08,Crustal,R,1,42,30,99,special,-41.89,171.58,-42.5232,172.8305,5923123.14,2392149.06,5853765,2496076,6.97,6.97,124.76,125.38,121.74,122.51,126.66,18,0,10,8.26,nu,HSES,D,280,Q3,0.9,Q1,85,Q3,0,-99999,-99999,1,0.2,11,0.34,11,Anderson_etal_1993&Dowrick_Rhoades1998&HarvardCMT,0.023587818,0.02365921,0.023768988,0.023947505,0.024185096,0.025074012,0.027381998,0.032876955,0.036966041,0.036263609,0.048565502,0.041832208,0.057820479,0.050704261,0.030028569,0.01057771,0.006056636,-99999,-99999,-99999,-99999,-99999,0.02678062,0.026836765,0.026945801,0.02708402,0.027270592,0.027867927,0.029902736,0.040811965,0.045063026,0.038606577,0.051700179,0.055842288,0.070421087,0.061044197,0.042125193,0.012482062,0.00855324,-99999,-99999,-99999,-99999,-99999,0.023586,0.026774,0.023361,0.029622
201724,1991-01-28T18:00:53.158000Z,A91051B2,5.89,0.08,Crustal,S,1,48,77,11,special,-41.9,171.67,-41.7557,171.5998,5922133.85,2399635.78,5938069,2393545,8.1,8.1,17.07,20.86,15.62,17.84,-15.01,6.14,0,12,8.05,fw,WBCS,D,300,Q3,1.2,Q2,105,Q3,0,-99999,-99999,1,0.3,20,0.51,20,Anderson_etal_1993&Dowrick_Rhoades1998&HarvardCMT,0.147513691,0.150029026,0.154946149,0.161770064,0.177356767,0.273166282,0.359583689,0.237564892,0.260808182,0.236541533,0.179835242,0.127259227,0.136456566,0.157486394,0.092080569,0.044874688,-99999,-99999,-99999,-99999,-99999,-99999,0.163639499,0.165152694,0.167538892,0.170166216,0.185268393,0.347724219,0.477190995,0.322775999,0.281759464,0.281095925,0.202117287,0.139352925,0.183499946,0.185963992,0.121387693,0.06029133,-99999,-99999,-99999,-99999,-99999,-99999,0.146803,0.16229,0.090179,0.110719
201724,1991-01-28T18:00:53.158000Z,A91052A2,5.89,0.08,Crustal,S,1,48,77,11,special,-41.9,171.67,-42.1166,171.8604,5922133.85,2399635.78,5898305,2415760,8.1,8.1,28.77,31.24,27.75,30.62,29.41,-3.96,0,12,8.05,hw,052A,C,333,Q3,0.3,Q3,30,Q3,0,-99999,-99999,1,0.5,35,0.85,35,Anderson_etal_1993&Dowrick_Rhoades1998&HarvardCMT,0.173542426,0.178617714,0.195606513,0.260597508,0.283540638,0.354987171,0.454165856,0.254817643,0.215382585,0.18052225,0.155588415,0.083381013,0.055588451,0.040027737,0.026382002,-99999,-99999,-99999,-99999,-99999,-99999,-99999,0.182724333,0.192308284,0.207445873,0.281981511,0.324234672,0.436548365,0.608538973,0.328489571,0.241285819,0.228032959,0.170905424,0.109253557,0.060265261,0.055022103,0.034361868,-99999,-99999,-99999,-99999,-99999,-99999,-99999,0.172849,0.182562,0.048354,0.054283
201724,1991-01-28T18:00:53.158000Z,A91083A2,5.89,0.08,Crustal,S,1,48,77,11,special,-41.9,171.67,-41.8311,171.6606,5922133.85,2399635.78,5929772,2398735,8.1,8.1,7.7,14.26,5.85,10.38,-5.37,4.44,0,12,8.05,fw,083A,B,1200,Q3,<0.1,Q3,0,Q2,0,-99999,-99999,1,1,35,1.7,35,Anderson_etal_1993&Dowrick_Rhoades1998&HarvardCMT,0.142737691,0.154720241,0.18677919,0.220365269,0.276158159,0.356678601,0.242761713,0.200818147,0.153495152,0.117038044,0.104385678,0.059607402,0.040532819,-99999,-99999,-99999,-99999,-99999,-99999,-99999,-99999,-99999,0.201880043,0.215251234,0.249834318,0.269478008,0.313514574,0.48967501,0.33545521,0.252552966,0.187859722,0.163322108,0.145262941,0.080269306,0.048458147,-99999,-99999,-99999,-99999,-99999,-99999,-99999,-99999,-99999,0.14279,0.201932,0.029918,0.038692
201724,1991-01-28T18:00:53.158000Z,A91090A2,5.89,0.08,Crustal,S,1,48,77,11,special,-41.9,171.67,-41.8553,171.9539,5922133.85,2399635.78,5927428,2423132,8.1,8.1,24.03,26.94,20.56,23.59,12.7,21,0,12,8.05,nu,090A,C,270,Q3,0.33,Q3,40,Q3,0,-99999,-99999,1,0.3,20,0.51,20,Anderson_etal_1993&Dowrick_Rhoades1998&HarvardCMT,0.166892238,0.167377192,0.168295078,0.171407729,0.178560178,0.187088045,0.229134785,0.263072701,0.398369172,0.364202386,0.321923226,0.372611226,0.278773596,0.189433873,0.134862796,0.054685311,-99999,-99999,-99999,-99999,-99999,-99999,0.185621383,0.186123678,0.186912405,0.188394439,0.193259598,0.196806076,0.241511612,0.289760624,0.468220799,0.41342611,0.384216022,0.511728674,0.337268323,0.246855052,0.17791647,0.066522219,-99999,-99999,-99999,-99999,-99999,-99999,0.16676,0.185405,0.123361,0.148819
201724,1991-01-28T18:00:53.158000Z,A91122A2,5.89,0.08,Crustal,S,1,48,77,11,special,-41.9,171.67,-41.8025,172.3248,5922133.85,2399635.78,5933606,2453884,8.1,8.1,55.31,56.76,51.82,53.36,28.68,47.99,0,12,8.05,nu,122A,D,500,Q3,1.6,Q3,250,Q3,0,-99999,-99999,1,0.3,33,0.51,33,Anderson_etal_1993&Dowrick_Rhoades1998&HarvardCMT,0.260759682,0.290660698,0.377708025,0.415308294,0.407525542,0.345358581,0.447460689,0.634775126,0.362745191,0.319650502,0.30552987,0.207731685,0.16576519,0.091437109,0.062029054,0.030720765,-99999,-99999,-99999,-99999,-99999,-99999,0.320503773,0.339404395,0.435754247,0.574707245,0.515598283,0.488424464,0.537583529,0.796990716,0.446768043,0.380161215,0.340813001,0.258836865,0.234187251,0.128042452,0.07249376,0.035196779,-99999,-99999,-99999,-99999,-99999,-99999,0.259538,0.310917,0.0751,0.09991
201724,1991-01-28T18:00:53.158000Z,D91042A4,5.89,0.08,Crustal,S,1,48,77,11,special,-41.9,171.67,-42.5232,172.8305,5922133.85,2399635.78,5853765,2496076,8.1,8.1,118.06,118.86,116.84,117.93,116.25,25.92,0,12,8.05,nu,HSES,D,280,Q3,0.9,Q1,85,Q3,0,-99999,-99999,0,0.3,12,0.51,12,Anderson_etal_1993&Dowrick_Rhoades1998&HarvardCMT,0.027227067,0.027276672,0.02736457,0.027488062,0.027660482,0.028406013,0.030497972,0.035643437,0.039318977,0.044347258,0.05075276,0.052044959,0.048825817,0.071687041,0.037693837,0.017647762,-99999,-99999,-99999,-99999,-99999,-99999,0.030576817,0.030604086,0.030630806,0.03067363,0.030897061,0.032483096,0.034074349,0.045468988,0.051968167,0.052496349,0.064257073,0.069250657,0.062585352,0.098516854,0.050900142,0.023910899,-99999,-99999,-99999,-99999,-99999,-99999,0.027216,0.030578,0.029481,0.035726
201354,1991-02-15T10:48:09.669000Z,A91051B3,5.42,0.15,Crustal,R,0,213,37,90,geonet,-42.0386,171.5897,-41.7557,171.5998,5906631.78,2393229.54,5938069,2393545,4.7,4.7,31.47,32.19,29.3,30.05,-99999,-99999,0,6.92,5.27,nu,WBCS,D,300,Q3,1.2,Q2,105,Q3,0,-99999,-99999,1,0.3,22,0.51,22,HarvardCMT,0.097924171,0.099266525,0.101660137,0.109553163,0.132626444,0.243967815,0.175058591,0.20272582,0.143787578,0.093264598,0.106237461,0.074980763,0.076066935,0.069862557,0.039193895,0.02536238,-99999,-99999,-99999,-99999,-99999,-99999,0.11939376,0.122922928,0.128830607,0.136431787,0.173142969,0.31362916,0.226156286,0.245516763,0.189108832,0.128547215,0.12377873,0.086158032,0.104377476,0.07775955,0.048832427,0.031843851,-99999,-99999,-99999,-99999,-99999,-99999,0.09661,0.119132,0.037472,0.047378
201354,1991-02-15T10:48:09.669000Z,A91052A3,5.42,0.15,Crustal,R,0,213,37,90,geonet,-42.0386,171.5897,-42.1166,171.8604,5906631.78,2393229.54,5898305,2415760,4.7,4.7,23.97,25.04,22.28,23.52,-99999,-99999,0,6.92,5.27,nu,052A,C,333,Q3,0.3,Q3,30,Q3,0,-99999,-99999,0,0.5,32,0.85,32,HarvardCMT,0.159315454,0.162977156,0.177724007,0.215832957,0.258888111,0.333174769,0.368222511,0.375714359,0.289234676,0.186748136,0.145434069,0.080406348,0.069226512,0.045860638,0.028997732,-99999,-99999,-99999,-99999,-99999,-99999,-99999,0.191418994,0.195052797,0.203012924,0.226281218,0.291751759,0.356341061,0.476395323,0.479064539,0.353459435,0.234493656,0.167480003,0.103813878,0.083273418,0.058607712,0.038333993,-99999,-99999,-99999,-99999,-99999,-99999,-99999,0.159601,0.19139,0.046705,0.056129
201354,1991-02-15T10:48:09.669000Z,A91090A3,5.42,0.15,Crustal,R,0,213,37,90,geonet,-42.0386,171.5897,-41.8553,171.9539,5906631.78,2393229.54,5927428,2423132,4.7,4.7,36.37,37.09,34.1,34.84,-99999,-99999,0,6.92,5.27,nu,090A,C,270,Q3,0.33,Q3,40,Q3,0,-99999,-99999,1,0.45,13,0.765,13,HarvardCMT,0.080302435,0.080686337,0.0813188,0.082252338,0.083645422,0.088959343,0.096104139,0.141241654,0.168773652,0.181411975,0.153568329,0.115752432,0.091143683,0.049079032,0.024241778,-99999,-99999,-99999,-99999,-99999,-99999,-99999,0.107722937,0.108221528,0.109011814,0.110152539,0.111670314,0.117237159,0.129641665,0.19974252,0.221142169,0.25459669,0.210007539,0.14263323,0.11330006,0.0621257,0.031003136,-99999,-99999,-99999,-99999,-99999,-99999,-99999,0.080027,0.10772,0.042587,0.057742
