CuspID,Origin_time,Record,Mw,MwUncert,TectClass,Mech,PreferredFaultPlane,Strike,Dip,Rake,Location,HypLat,HypLon,StationLat,StationLon,HypN,HypE,StationN,StationE,LENGTH_km,WIDTH_km,Repi_km,Rhyp_km,Rjb_km,Rrup_km,Rx_km,Ry_km,Rvol_km,HypDepth_km,ZTOR_km,HWFW,SiteCode,SiteClass1170,Vs30,Vs30Uncert,Tsite,TsiteUncert,Z1,Z1Uncertainty,Directivity,Pulse_or,Pulse_T,S_Trigger_Flag,fcButterHP,f_iniLP,fmin,fmax,References,f100.0000SA_LHC,f50.0000SA_LHC,f33.3333SA_LHC,f25.0000SA_LHC,f20.0000SA_LHC,f13.3333SA_LHC,f10.0000SA_LHC,f6.6667SA_LHC,f5.0000SA_LHC,f4.0000SA_LHC,f3.3333SA_LHC,f2.5000SA_LHC,f2.0000SA_LHC,f1.3333SA_LHC,f1.0000SA_LHC,f0.6667SA_LHC,f0.5000SA_LHC,f0.3333SA_LHC,f0.2500SA_LHC,f0.2000SA_LHC,f0.1333SA_LHC,f0.1000SA_LHC,PGA_LHC,PGV_LHC
241414,1991-07-12T04:42:23.301999Z,D91302A4,5.3,0.15,Slab,S,1,135,57,25,geonet,-39.3052,175.9748,-39.9338,175.053,6206777.74,2766544.08,6139282,2685450,4.1,4.1,105.45,126.78,104.32,126.64,106.19,-9.62,0,70.28,68.56,nu,302A,D,250,Q2,0.8,Q3,80,Q3,0,-99999,-99999,1,0.3,12,0.51,12,HarvardCMT,0.01972461,0.019804769,0.019959648,0.020136742,0.020413761,0.021560177,0.02531004,0.034109407,0.034537393,0.048513906,0.043724589,0.044714222,0.034397782,0.036960609,0.017467935,0.007498952,-99999,-99999,-99999,-99999,-99999,-99999,0.019715,0.01865
255338,1991-09-08T13:50:30.989999Z,A92087A4,5.61,0.15,Slab,R,1,95,70,108,geonet,-40.2442,175.1672,-39.7163,175.1455,6104594.2,2694363.31,6163232,2693941,5.9,5.9,58.73,104.69,57.7,101.84,-57.37,-5.53,0,86.69,83.93,nu,087A,B,1000,Q3,<0.1,Q3,0,Q2,0,-99999,-99999,1,0.6,27,1.02,27,HarvardCMT,0.165838972,0.168548112,0.174851513,0.185071063,0.214070482,0.294249581,0.399695341,0.568022756,0.373504532,0.36284227,0.243959454,0.258495115,0.164660782,0.063826319,-99999,-99999,-99999,-99999,-99999,-99999,-99999,-99999,0.16525,0.05357
255338,1991-09-08T13:50:30.989999Z,D91302A5,5.61,0.15,Slab,R,1,95,70,108,geonet,-40.2442,175.1672,-39.9338,175.053,6104594.2,2694363.31,6139282,2685450,5.9,5.9,35.86,93.81,34.54,90.88,-32.78,-11.9,0,86.69,83.93,nu,302A,D,250,Q2,0.8,Q3,80,Q3,0,-99999,-99999,0,0.35,20,0.595,20,HarvardCMT,0.101681428,0.103046817,0.105627078,0.110747112,0.136004359,0.196031556,0.228973485,0.235334989,0.37726882,0.366284908,0.269028847,0.245209239,0.238173733,0.081895494,0.05161345,0.017908231,-99999,-99999,-99999,-99999,-99999,-99999,0.100642,0.05859
255338,1991-09-08T13:50:30.989999Z,D91467A2,5.61,0.15,Slab,R,1,95,70,108,geonet,-40.2442,175.1672,-41.2425,174.9024,6104594.2,2694363.31,5994293,2669430,5.9,5.9,113.22,142.49,112.16,141.58,113.06,-15.23,0,86.69,83.93,nu,467A,D,218,Q3,1.5,Q3,200,Q3,0,-99999,-99999,1,0.25,15,0.425,15,HarvardCMT,0.028731504,0.028968874,0.029397221,0.030080312,0.031242684,0.040216842,0.057947873,0.050495328,0.091813628,0.054615495,0.063220952,0.085208744,0.084292772,0.045393692,0.018979002,0.007858902,0.003018658,-99999,-99999,-99999,-99999,-99999,0.028532,0.02134
255338,1991-09-08T13:50:30.989999Z,D91468A2,5.61,0.15,Slab,R,1,95,70,108,geonet,-40.2442,175.1672,-41.2011,174.9547,6104594.2,2694363.31,5998793,2673916,5.9,5.9,107.9,138.3,106.86,137.35,108.18,-11.15,0,86.69,83.93,nu,468A,D,190,Q1,0.9,Q3,50,Q3,0,-99999,-99999,0,0.45,13,0.765,13,HarvardCMT,0.043752598,0.044210806,0.04504663,0.046306235,0.04819838,0.060908779,0.099630743,0.105111674,0.13566552,0.132423436,0.112280316,0.186201007,0.107513075,0.063930256,0.028398464,-99999,-99999,-99999,-99999,-99999,-99999,-99999,0.043354,0.03124
255338,1991-09-08T13:50:30.989999Z,D91606B1,5.61,0.15,Slab,R,1,95,70,108,geonet,-40.2442,175.1672,-41.2333,174.9199,6104594.2,2694363.31,5995282,2670919,5.9,5.9,111.94,141.47,110.88,140.55,111.94,-13.83,0,86.69,83.93,nu,606B,B,800,Q3,<0.1,Q3,0,Q3,0,-99999,-99999,0,0.45,26,0.765,26,HarvardCMT,0.018315627,0.018582448,0.019184856,0.021406864,0.024139035,0.034485896,0.051652338,0.02509593,0.041268981,0.057575897,0.05429286,0.035920289,0.019209744,0.010155338,0.005001765,-99999,-99999,-99999,-99999,-99999,-99999,-99999,0.018236,0.00897
255338,1991-09-08T13:50:30.989999Z,D91642E7,5.61,0.15,Slab,R,1,95,70,108,geonet,-40.2442,175.1672,-41.2341,174.918,6104594.2,2694363.31,5995197,2670758,5.9,5.9,112.06,141.57,111,140.65,112.04,-13.98,0,86.69,83.93,nu,642E,C,350,Q1,0.35,Q2,50,Q3,0,-99999,-99999,0,0.5,12,0.85,12,HarvardCMT,0.056037212,0.056215776,0.056490532,0.056850027,0.057346017,0.059430481,0.056809775,0.093120003,0.153946494,0.169985515,0.195731915,0.167113041,0.053564372,0.028125387,0.011766752,-99999,-99999,-99999,-99999,-99999,-99999,-99999,0.056035,0.02936
255338,1991-09-08T13:50:30.989999Z,D91644C3,5.61,0.15,Slab,R,1,95,70,108,geonet,-40.2442,175.1672,-41.2187,174.8826,6104594.2,2694363.31,5996970,2667828,5.9,5.9,110.98,140.72,109.9,139.76,110.53,-17.05,0,86.69,83.93,nu,644C,D,189,Q3,2,Q3,250,Q3,0,-99999,-99999,0,0.35,15,0.595,15,HarvardCMT,0.023132573,0.023298742,0.023596468,0.024061599,0.024890441,0.031132406,0.045194934,0.050257668,0.063945333,0.046981783,0.061068639,0.102992019,0.05970599,0.02603264,0.011063218,0.007263995,-99999,-99999,-99999,-99999,-99999,-99999,0.023028,0.01238
255338,1991-09-08T13:50:30.989999Z,D91646A2,5.61,0.15,Slab,R,1,95,70,108,geonet,-40.2442,175.1672,-41.2574,174.9485,6104594.2,2694363.31,5992552,2673256,5.9,5.9,114.16,143.28,113.12,142.4,114.46,-11.26,0,86.69,83.93,nu,WDAS,E,120,Q1,1.6,Q2,62,Q2,0,-99999,-99999,0,0.35,18,0.595,18,HarvardCMT,0.0541826,0.054568371,0.055223906,0.056273954,0.058225272,0.06338097,0.075141155,0.087367774,0.090243875,0.178270399,0.201844079,0.122395941,0.072550142,0.043095428,0.032568721,0.013933915,-99999,-99999,-99999,-99999,-99999,-99999,0.054169,0.02962
255338,1991-09-08T13:50:30.989999Z,D91705B3,5.61,0.15,Slab,R,1,95,70,108,geonet,-40.2442,175.1672,-41.1391,174.8502,6104594.2,2694363.31,6005867,2665298,5.9,5.9,103.03,134.58,101.9,133.49,101.89,-20.35,0,86.69,83.93,nu,707A,C,570,Q3,0.15,Q3,10,Q3,0,-99999,-99999,0,0.5,15,0.85,15,HarvardCMT,0.033856574,0.034098949,0.034501773,0.035126429,0.036027927,0.040249819,0.06114634,0.059886303,0.118954727,0.13207188,0.089330253,0.080530534,0.034037875,0.01497273,0.008543563,-99999,-99999,-99999,-99999,-99999,-99999,-99999,0.033833,0.01724
255338,1991-09-08T13:50:30.989999Z,D91706A2,5.61,0.15,Slab,R,1,95,70,108,geonet,-40.2442,175.1672,-41.1288,174.8382,6104594.2,2694363.31,6007032,2664315,5.9,5.9,102.2,133.93,101.05,132.82,100.81,-21.43,0,86.69,83.93,nu,706A,C,210,Q3,0.5,Q2,30,Q3,0,-99999,-99999,0,0.35,12,0.595,12,HarvardCMT,0.089342318,0.089763857,0.090432026,0.091393599,0.092730145,0.099364976,0.106198789,0.177070353,0.243490417,0.237130069,0.247392133,0.353566876,0.164033099,0.061202538,0.025718398,0.008359118,-99999,-99999,-99999,-99999,-99999,-99999,0.089337,0.04723
255338,1991-09-08T13:50:30.989999Z,D91900B7,5.61,0.15,Slab,R,1,95,70,108,geonet,-40.2442,175.1672,-41.2921,174.779,6104594.2,2694363.31,5989003,2658976,5.9,5.9,121.02,148.76,119.87,147.84,119.24,-25.18,0,86.69,83.93,nu,941A,D,272,Q2,0.85,Q2,9.85E+01,Q2,0,-99999,-99999,0,0.45,12,0.765,12,HarvardCMT,0.037727416,0.037884983,0.038127775,0.038484202,0.038951761,0.041554842,0.055987952,0.081833718,0.102183617,0.143293267,0.118109253,0.131711104,0.078608332,0.053598037,0.025624239,-99999,-99999,-99999,-99999,-99999,-99999,-99999,0.037727,0.02298
255338,1991-09-08T13:50:30.989999Z,D91918B7,5.61,0.15,Slab,R,1,95,70,108,geonet,-40.2442,175.1672,-41.284,174.7682,6104594.2,2694363.31,5989908,2658140,5.9,5.9,120.4,148.34,119.25,147.39,118.41,-26.09,0,86.69,83.93,nu,WEL,B,1000,Q3,0.3,Q1,0,Q2,0,-99999,-99999,0,0.5,18,0.85,18,HarvardCMT,0.056016275,0.056364694,0.05693179,0.057944307,0.059855673,0.06743141,0.078254115,0.095177339,0.149603453,0.228696315,0.135856491,0.0767856,0.024153538,0.013109579,0.007319825,-99999,-99999,-99999,-99999,-99999,-99999,-99999,0.055953,0.02254
255338,1991-09-08T13:50:30.989999Z,D91935B3,5.61,0.15,Slab,R,1,95,70,108,geonet,-40.2442,175.1672,-41.2108,174.9047,6104594.2,2694363.31,5997808,2669699,5.9,5.9,109.73,139.74,108.66,138.78,109.53,-15.26,0,86.69,83.93,nu,935A,D,240,Q3,1.2,Q3,275,Q3,0,-99999,-99999,1,0.45,15,0.765,15,HarvardCMT,0.041321455,0.041394958,0.041571262,0.041782647,0.042130101,0.045290947,0.074227005,0.060655838,0.091940893,0.141350763,0.140382254,0.147773507,0.068598711,0.023178246,0.015698793,-99999,-99999,-99999,-99999,-99999,-99999,-99999,0.041325,0.02584
255338,1991-09-08T13:50:30.989999Z,K91102A3,5.61,0.15,Slab,R,1,95,70,108,geonet,-40.2442,175.1672,-39.4637,175.5669,6104594.2,2694363.31,6190285,2730871,5.9,5.9,93.25,127.72,91.95,125.06,-87.54,28.9,0,86.69,83.93,nu,102A,C,555,Q3,0.15,Q3,12,Q3,0,-99999,-99999,1,0.5,18,0.85,18,HarvardCMT,0.048175748,0.049059863,0.050627117,0.053236129,0.057373022,0.08423809,0.144892258,0.172585468,0.157524922,0.145659791,0.090511233,0.069617909,0.031583212,0.026671186,0.017480473,-99999,-99999,-99999,-99999,-99999,-99999,-99999,0.047849,0.01621
314805,1992-03-30T07:02:51.226999Z,D92505A1,5.5,0.15,Crustal,R,1,205,76,77,nlloc,-43.0605,171.212,-42.9489,171.5677,5792540.97,2364375.65,5805487,2393135,5.17,5.17,31.47,32.08,29.52,30.01,-19.97,-23.89,0,5.12,2.61,nu,APPS,C,300,Q2,0.4,Q1,30,Q2,0,-99999,-99999,0,0.6,20,1.02,20,HarvardCMT,0.029901922,0.029991854,0.030129013,0.030266697,0.040021624,0.050428722,0.055655968,0.104287858,0.082437431,0.072861719,0.087573725,0.081510548,0.047838525,0.019375405,-99999,-99999,-99999,-99999,-99999,-99999,-99999,-99999,0.029827,0.01814
339342,1992-05-27T22:30:35.064000Z,D92129A2,5.9,0.08,Slab,S,1,117,85,21,special,-41.63,173.62,-41.7999,172.328,5952812.98,2561652.09,5933893,2454147,8.2,8.2,108.89,128.17,105.65,124.79,66.02,-87.2,0,67,62.92,nu,MCAS,D,501,Q3,1.6,Q3,200,Q3,0,-99999,-99999,0,0.23,19,0.391,19,Webb_Anderson_1998&Dowrick_Rhoades1998&HarvardCMT,0.032360108,0.032642283,0.033113349,0.033785276,0.036460761,0.050645492,0.058650677,0.070011736,0.079189811,0.058693521,0.079541024,0.065321208,0.061929275,0.041882566,0.021501524,0.014461152,0.01019055,-99999,-99999,-99999,-99999,-99999,0.032355,0.01786
339342,1992-05-27T22:30:35.064000Z,D92467A3,5.9,0.08,Slab,S,1,117,85,21,special,-41.63,173.62,-41.2425,174.9024,5952812.98,2561652.09,5994293,2669430,8.2,8.2,115.26,133.52,112.56,130.25,-85.53,77.2,0,67,62.92,nu,467A,D,218,Q3,1.5,Q3,200,Q3,0,-99999,-99999,0,0.35,14,0.595,14,Webb_Anderson_1998&Dowrick_Rhoades1998&HarvardCMT,0.033256715,0.033380301,0.033558488,0.033853987,0.034227084,0.046652538,0.04249782,0.050144049,0.060512514,0.086244525,0.051022094,0.094054948,0.086883892,0.0261025,0.017773661,0.012925628,-99999,-99999,-99999,-99999,-99999,-99999,0.033231,0.02195
339342,1992-05-27T22:30:35.064000Z,D92468A6,5.9,0.08,Slab,S,1,117,85,21,special,-41.63,173.62,-41.2011,174.9547,5952812.98,2561652.09,5998793,2673916,8.2,8.2,121.08,138.59,118.45,135.4,-91.58,79.15,0,67,62.92,nu,468A,D,190,Q1,0.9,Q3,50,Q3,0,-99999,-99999,0,0.4,19,0.68,19,Webb_Anderson_1998&Dowrick_Rhoades1998&HarvardCMT,0.027559588,0.027689835,0.027941495,0.028143466,0.028995623,0.040435774,0.044615195,0.069299926,0.069705129,0.084964244,0.072280494,0.109378948,0.051560739,0.029515022,0.025278713,-99999,-99999,-99999,-99999,-99999,-99999,-99999,0.027564,0.01735
339342,1992-05-27T22:30:35.064000Z,D92644C3,5.9,0.08,Slab,S,1,117,85,21,special,-41.63,173.62,-41.2187,174.8826,5952812.98,2561652.09,5996970,2667828,8.2,8.2,114.77,133.09,112.16,129.87,-87.19,74.56,0,67,62.92,nu,644C,D,189,Q3,2,Q3,250,Q3,0,-99999,-99999,0,0.25,12,0.425,12,Webb_Anderson_1998&Dowrick_Rhoades1998&HarvardCMT,0.023325832,0.023464891,0.023695548,0.024029574,0.02449877,0.027245342,0.050555389,0.04749279,0.044307646,0.071020049,0.066116112,0.077561214,0.079871945,0.022613828,0.011279788,0.006865648,0.005562929,-99999,-99999,-99999,-99999,-99999,0.023323,0.01919
339342,1992-05-27T22:30:35.064000Z,D92646A5,5.9,0.08,Slab,S,1,117,85,21,special,-41.63,173.62,-41.2574,174.9485,5952812.98,2561652.09,5992552,2673256,8.2,8.2,118.23,136.15,115.45,132.85,-85.72,81.4,0,67,62.92,nu,WDAS,E,120,Q1,1.6,Q2,62,Q2,0,-99999,-99999,0,0.5,16,0.85,16,Webb_Anderson_1998&Dowrick_Rhoades1998&HarvardCMT,0.028294642,0.028574485,0.02905391,0.029782711,0.030738687,0.043245172,0.041919367,0.044589228,0.049096348,0.068394528,0.119827996,0.05250273,0.078938781,0.042352905,0.068135736,-99999,-99999,-99999,-99999,-99999,-99999,-99999,0.027992,0.02241
339342,1992-05-27T22:30:35.064000Z,D92647A1,5.9,0.08,Slab,S,1,117,85,21,special,-41.63,173.62,-41.2871,174.778,5952812.98,2561652.09,5989560,2658904,8.2,8.2,103.76,123.68,101.04,120.35,-76.54,69.97,0,67,62.92,nu,647A,C,474,Q2,0.12,Q2,5.70E+00,Q2,0,-99999,-99999,0,0.4,19,0.68,19,Webb_Anderson_1998&Dowrick_Rhoades1998&HarvardCMT,0.020317968,0.020564982,0.021027126,0.021895712,0.023666941,0.027842792,0.045854354,0.055169186,0.046358584,0.050612236,0.050022457,0.061439287,0.038068855,0.01177001,0.010579301,-99999,-99999,-99999,-99999,-99999,-99999,-99999,0.020326,0.01221
339342,1992-05-27T22:30:35.064000Z,D92706A2,5.9,0.08,Slab,S,1,117,85,21,special,-41.63,173.62,-41.1288,174.8382,5952812.98,2561652.09,6007032,2664315,8.2,8.2,115.91,134.05,113.6,131,-94.56,66.86,0,67,62.92,nu,706A,C,210,Q3,0.5,Q2,30,Q3,0,-99999,-99999,0,0.45,12,0.765,12,Webb_Anderson_1998&Dowrick_Rhoades1998&HarvardCMT,0.029028971,0.029229136,0.029557018,0.030124062,0.03101014,0.035347351,0.047675742,0.06330638,0.084658112,0.147014499,0.077993888,0.08737117,0.050323973,0.035550479,0.018986518,-99999,-99999,-99999,-99999,-99999,-99999,-99999,0.028889,0.0193
339342,1992-05-27T22:30:35.064000Z,D92707A1,5.9,0.08,Slab,S,1,117,85,21,special,-41.63,173.62,-41.1391,174.8502,5952812.98,2561652.09,6005867,2665298,8.2,8.2,116.24,134.35,113.89,131.28,-93.97,68.26,0,67,62.92,nu,707A,C,570,Q3,0.15,Q3,10,Q3,0,-99999,-99999,0,0.5,21,0.85,21,Webb_Anderson_1998&Dowrick_Rhoades1998&HarvardCMT,0.024906763,0.025196064,0.025693313,0.026440709,0.027922053,0.038199133,0.058300416,0.082632043,0.042465874,0.045278247,0.046779546,0.044992247,0.029418948,0.008337677,0.004141053,-99999,-99999,-99999,-99999,-99999,-99999,-99999,0.024842,0.0103
339342,1992-05-27T22:30:35.064000Z,D92918B5,5.9,0.08,Slab,S,1,117,85,21,special,-41.63,173.62,-41.284,174.7682,5952812.98,2561652.09,5989908,2658140,8.2,8.2,103.13,123.26,100.44,119.93,-76.5,69.13,0,67,62.92,nu,WEL,B,1000,Q3,0.3,Q1,0,Q2,0,-99999,-99999,0,0.4,18,0.68,18,Webb_Anderson_1998&Dowrick_Rhoades1998&HarvardCMT,0.024723009,0.024891156,0.025174046,0.02569944,0.026669428,0.026547505,0.04271099,0.044368245,0.061152199,0.098272278,0.082663524,0.089099353,0.030383864,0.009996927,0.009539946,-99999,-99999,-99999,-99999,-99999,-99999,-99999,0.024577,0.01303
339342,1992-05-27T22:30:35.064000Z,D92935B2,5.9,0.08,Slab,S,1,117,85,21,special,-41.63,173.62,-41.2108,174.9047,5952812.98,2561652.09,5997808,2669699,8.2,8.2,116.82,134.86,114.21,131.66,-88.79,75.84,0,67,62.92,nu,935A,D,240,Q3,1.2,Q3,275,Q3,0,-99999,-99999,0,0.35,16,0.595,16,Webb_Anderson_1998&Dowrick_Rhoades1998&HarvardCMT,0.021534098,0.021816647,0.022322858,0.023162994,0.024645331,0.033327535,0.069695907,0.048904545,0.041420503,0.072746672,0.076152744,0.05584563,0.037038797,0.01494145,0.010988466,0.006474601,-99999,-99999,-99999,-99999,-99999,-99999,0.021509,0.01293
339342,1992-05-27T22:30:35.064000Z,K92934B1,5.9,0.08,Slab,S,1,117,85,21,special,-41.63,173.62,-41.2436,174.908,5952812.98,2561652.09,5994160,2669897,8.2,8.2,115.64,133.85,112.94,130.58,-85.63,77.68,0,67,62.92,nu,934B,D,180,Q1,1.1,Q3,100,Q3,0,-99999,-99999,1,0.4,16,0.68,16,Webb_Anderson_1998&Dowrick_Rhoades1998&HarvardCMT,0.035593583,0.035781001,0.036101247,0.036554699,0.037148672,0.040623486,0.040484593,0.06183231,0.052497974,0.063285512,0.067365116,0.093593595,0.123245203,0.025577836,0.016251181,-99999,-99999,-99999,-99999,-99999,-99999,-99999,0.035362,0.02282
338849,1992-06-21T17:43:09.086000Z,K92028A1,6.25,0.08,Crustal,N,1,32,41,246,special,-37.67,176.86,-38.0079,177.284,6385179.66,2850645.07,6346024,2886230,12.26,12.26,52.9,53.06,48.15,48.79,55.55,-14.35,25,4,0.01,nu,028A,D,210,Q3,1,Q3,75,Q3,0,-99999,-99999,1,0.2,15,0.34,15,Webb_Anderson_1998&Dowrick_Rhoades1998&HarvardCMT,0.031563301,0.031813675,0.032203493,0.03285592,0.033867623,0.043989176,0.066205814,0.09625148,0.090010127,0.092459391,0.058675613,0.095505599,0.104291126,0.053627228,0.066567712,0.040982548,0.04978142,-99999,-99999,-99999,-99999,-99999,0.031295,0.05612
338849,1992-06-21T17:43:09.086000Z,A92930A1,6.25,0.08,Crustal,N,1,32,41,246,special,-37.67,176.86,-37.9885,176.8294,6385179.66,2850645.07,6349976,2846440,12.26,12.26,35.52,35.68,29.64,30.05,19.71,-32.08,30,4,0.01,nu,930A,E,150,Q3,>2,Q3,300,Q3,0,-99999,-99999,1,0.15,12,0.255,12,Webb_Anderson_1998&Dowrick_Rhoades1998&HarvardCMT,0.044213806,0.044316386,0.044520754,0.044791666,0.045208466,0.047805548,0.055905762,0.069684684,0.082558761,0.078563559,0.077972247,0.082318061,0.109901814,0.112165493,0.119263343,0.087820065,0.059262121,0.052676516,-99999,-99999,-99999,-99999,0.04421,0.08814
435226,1993-04-11T06:59:48.228000Z,A93032A1,5.68,0.08,Interface,O,1,198,15,52,special,-39.74,176.52,-39.9425,176.5874,6156829.5,2811622.89,6134136,2816486,8.63,8.63,23.24,34.95,18.95,31.74,-7.47,20.08,0,26,24.88,nu,032A,C,495,Q3,0.13,Q3,10,Q3,0,-99999,-99999,1,0.4,10,0.68,10,Webb_Anderson_1998&Dowrick_Rhoades1998&HarvardCMT,0.180134603,0.180639818,0.181472014,0.182621145,0.184083907,0.189837995,0.192357375,0.242752476,0.371801397,0.400443067,0.431797818,0.476343936,0.439179941,0.242646353,0.197379842,-99999,-99999,-99999,-99999,-99999,-99999,-99999,0.179572,0.16073
435226,1993-04-11T06:59:48.228000Z,D93014A2,5.68,0.08,Interface,O,1,198,15,52,special,-39.74,176.52,-39.4984,176.8761,6156829.5,2811622.89,6182359,2843283,8.63,8.63,40.64,48.27,36.38,44.35,-18.05,-34.06,0,26,24.88,nu,NCDS,E,162,Q3,1.25,Q2,110,Q3,0,-99999,-99999,0,0.24,12,0.408,12,Webb_Anderson_1998&Dowrick_Rhoades1998&HarvardCMT,0.032669766,0.033049079,0.033683374,0.034636563,0.036052227,0.044667758,0.053651718,0.105543775,0.086937246,0.102461182,0.085644405,0.08781112,0.064379529,0.061551109,0.043249402,0.013480446,0.004732838,-99999,-99999,-99999,-99999,-99999,0.032681,0.02309
435226,1993-04-11T06:59:48.228000Z,D93015A1,5.68,0.08,Interface,O,1,198,15,52,special,-39.74,176.52,-39.4891,176.8982,6156829.5,2811622.89,6183313,2845228,8.63,8.63,42.76,50.1,38.49,46.14,-19.61,-35.57,0,26,24.88,nu,015A,B,1000,Q3,<0.1,Q3,0,Q3,0,-99999,-99999,0,0.5,12,0.85,12,Webb_Anderson_1998&Dowrick_Rhoades1998&HarvardCMT,0.017663481,0.017768396,0.01791825,0.018161432,0.018518935,0.021174108,0.027465208,0.031164259,0.040826623,0.054941273,0.072239479,0.057136249,0.059050876,0.013703427,0.010115633,-99999,-99999,-99999,-99999,-99999,-99999,-99999,0.017666,0.009685
435226,1993-04-11T06:59:48.228000Z,D93029A2,5.68,0.08,Interface,O,1,198,15,52,special,-39.74,176.52,-39.6458,176.8429,6156829.5,2811622.89,6166127,2839726,8.63,8.63,29.55,39.41,25.33,35.69,-19.69,-17.53,0,26,24.88,nu,HCDS,D,182,Q2,>2,Q3,1000,Q3,0,-99999,-99999,0,0.2,15,0.34,15,Webb_Anderson_1998&Dowrick_Rhoades1998&HarvardCMT,0.030602087,0.030779659,0.03107492,0.031498874,0.032150247,0.042843101,0.046358711,0.079590967,0.120465043,0.103592288,0.103041396,0.073796849,0.04014996,0.061258818,0.036255065,0.014144039,0.017036915,-99999,-99999,-99999,-99999,-99999,0.030601,0.03023
471730,1993-08-10T00:51:55.033000Z,A93070A1,6.89,0.08,Interface,R,1,41,41,107,nlloc,-45.3625,166.649,-45.4167,167.7191,5519161.25,2012843.95,5519112,2096857,34.75,34.75,83.78,85.7,74.67,77.26,68.91,55.08,0,16.72,11.96,nu,TAFS,D,298,Q3,1.4,Q3,200,Q3,0,-99999,-99999,1,0.2,19,0.34,19,Robinson_etal_2003&Dowrick_Rhoades1998&HarvardCMT,0.082381203,0.083333943,0.084992174,0.087657257,0.0911038,0.132703398,0.162978231,0.219782808,0.174049288,0.168230562,0.163000807,0.172273969,0.087253418,0.084606983,0.090266873,0.096463952,0.064001009,-99999,-99999,-99999,-99999,-99999,0.081417,0.07612
