CuspID,Origin_time,Record,Mw,MwUncert,TectClass,Mech,PreferredFaultPlane,Strike,Dip,Rake,Location,HypLat,HypLon,StationLat,StationLon,HypN,HypE,StationN,StationE,LENGTH_km,WIDTH_km,Repi_km,Rhyp_km,Rjb_km,Rrup_km,Rx_km,Ry_km,Rvol_km,HypDepth_km,ZTOR_km,HWFW,SiteCode,SiteClass1170,Vs30,Vs30Uncert,Tsite,TsiteUncert,Z1,Z1Uncertainty,Directivity,Pulse_or,Pulse_T,S_Trigger_Flag,fcButterHP,f_iniLP,fmin,fmax,References,f100.0000SA_RotD50,f50.0000SA_RotD50,f33.3333SA_RotD50,f25.0000SA_RotD50,f20.0000SA_RotD50,f13.3333SA_RotD50,f10.0000SA_RotD50,f6.6667SA_RotD50,f5.0000SA_RotD50,f4.0000SA_RotD50,f3.3333SA_RotD50,f2.5000SA_RotD50,f2.0000SA_RotD50,f1.3333SA_RotD50,f1.0000SA_RotD50,f0.6667SA_RotD50,f0.5000SA_RotD50,f0.3333SA_RotD50,f0.2500SA_RotD50,f0.2000SA_RotD50,f0.1333SA_RotD50,f0.1000SA_RotD50,f100.0000SA_RotD100,f50.0000SA_RotD100,f33.3333SA_RotD100,f25.0000SA_RotD100,f20.0000SA_RotD100,f13.3333SA_RotD100,f10.0000SA_RotD100,f6.6667SA_RotD100,f5.0000SA_RotD100,f4.0000SA_RotD100,f3.3333SA_RotD100,f2.5000SA_RotD100,f2.0000SA_RotD100,f1.3333SA_RotD100,f1.0000SA_RotD100,f0.6667SA_RotD100,f0.5000SA_RotD100,f0.3333SA_RotD100,f0.2500SA_RotD100,f0.2000SA_RotD100,f0.1333SA_RotD100,f0.1000SA_RotD100,PGA_RotD50,PGA_RotD100,PGV_RotD50,PGV_RotD100
241414,1991-07-12T04:42:23.301999Z,D91302A4,5.3,0.15,Slab,S,1,135,57,25,geonet,-39.3052,175.9748,-39.9338,175.053,6206777.74,2766544.08,6139282,2685450,4.1,4.1,105.45,126.78,104.32,126.64,106.19,-9.62,0,70.28,68.56,nu,302A,D,250,Q2,0.8,Q3,80,Q3,0,-99999,-99999,1,0.3,12,0.51,12,HarvardCMT,0.017611146,0.017670411,0.017790063,0.017911022,0.01811575,0.01910027,0.027683676,0.034065385,0.038139891,0.049465782,0.055218414,0.051942931,0.040320083,0.038105636,0.019112794,0.007750019,-99999,-99999,-99999,-99999,-99999,-99999,0.01983148,0.019910877,0.020058202,0.020225903,0.020520499,0.021959434,0.031024516,0.042244889,0.042909659,0.059631715,0.059458545,0.067116774,0.046435331,0.052463768,0.026973843,0.009686654,-99999,-99999,-99999,-99999,-99999,-99999,0.01761,0.019802,0.015326,0.018936
255338,1991-09-08T13:50:30.989999Z,A92087A4,5.61,0.15,Slab,R,1,95,70,108,geonet,-40.2442,175.1672,-39.7163,175.1455,6104594.2,2694363.31,6163232,2693941,5.9,5.9,58.73,104.69,57.7,101.84,-57.37,-5.53,0,86.69,83.93,nu,087A,B,1000,Q3,<0.1,Q3,0,Q2,0,-99999,-99999,1,0.6,27,1.02,27,HarvardCMT,0.142830118,0.146248315,0.153591722,0.188701093,0.226431327,0.402059517,0.47933534,0.736450716,0.465565504,0.423491194,0.270412893,0.384860926,0.15733882,0.073971338,-99999,-99999,-99999,-99999,-99999,-99999,-99999,-99999,0.16590135,0.168655855,0.174983296,0.225744462,0.240324705,0.420997825,0.555355235,0.871836724,0.531703773,0.508501388,0.329695398,0.517160544,0.201982648,0.096702317,-99999,-99999,-99999,-99999,-99999,-99999,-99999,-99999,0.138426,0.165445,0.052495,0.059593
255338,1991-09-08T13:50:30.989999Z,D91302A5,5.61,0.15,Slab,R,1,95,70,108,geonet,-40.2442,175.1672,-39.9338,175.053,6104594.2,2694363.31,6139282,2685450,5.9,5.9,35.86,93.81,34.54,90.88,-32.78,-11.9,0,86.69,83.93,nu,302A,D,250,Q2,0.8,Q3,80,Q3,0,-99999,-99999,0,0.35,20,0.595,20,HarvardCMT,0.099133366,0.100147359,0.101789676,0.106409207,0.132225138,0.189725214,0.25802072,0.258131346,0.352238123,0.400045824,0.300013325,0.227702209,0.226229966,0.092246731,0.059818306,0.015022307,-99999,-99999,-99999,-99999,-99999,-99999,0.10298333,0.104398966,0.107731085,0.115443539,0.141854105,0.237053721,0.311705855,0.282831972,0.498201869,0.53081637,0.367546571,0.293597081,0.305069197,0.108219655,0.073864738,0.021004536,-99999,-99999,-99999,-99999,-99999,-99999,0.098958,0.102989,0.049331,0.058808
255338,1991-09-08T13:50:30.989999Z,D91467A2,5.61,0.15,Slab,R,1,95,70,108,geonet,-40.2442,175.1672,-41.2425,174.9024,6104594.2,2694363.31,5994293,2669430,5.9,5.9,113.22,142.49,112.16,141.58,113.06,-15.23,0,86.69,83.93,nu,467A,D,218,Q3,1.5,Q3,200,Q3,0,-99999,-99999,1,0.25,15,0.425,15,HarvardCMT,0.025378915,0.025572639,0.025883681,0.026324798,0.027127094,0.034183326,0.055506375,0.057243976,0.092525803,0.05852194,0.070196865,0.111521116,0.102965245,0.043295924,0.020326698,0.010616505,0.002763265,-99999,-99999,-99999,-99999,-99999,0.028921808,0.029151572,0.029578692,0.030258008,0.03143027,0.047402061,0.074502374,0.062252589,0.11645186,0.066758166,0.092859062,0.141085334,0.121527488,0.057518913,0.020970881,0.01320395,0.003191191,-99999,-99999,-99999,-99999,-99999,0.025376,0.028816,0.019351,0.021977
255338,1991-09-08T13:50:30.989999Z,D91468A2,5.61,0.15,Slab,R,1,95,70,108,geonet,-40.2442,175.1672,-41.2011,174.9547,6104594.2,2694363.31,5998793,2673916,5.9,5.9,107.9,138.3,106.86,137.35,108.18,-11.15,0,86.69,83.93,nu,468A,D,190,Q1,0.9,Q3,50,Q3,0,-99999,-99999,0,0.45,13,0.765,13,HarvardCMT,0.041198035,0.041595398,0.042371166,0.043450012,0.044849647,0.058660084,0.108311696,0.142654628,0.197330693,0.167130965,0.15551249,0.229090286,0.106227192,0.064731108,0.035765533,-99999,-99999,-99999,-99999,-99999,-99999,-99999,0.056410841,0.056939676,0.057782679,0.059066718,0.060923336,0.074630971,0.137475474,0.184561224,0.225471546,0.196678127,0.174346593,0.323250623,0.149867816,0.087819959,0.044973914,-99999,-99999,-99999,-99999,-99999,-99999,-99999,0.041167,0.056406,0.028165,0.036325
255338,1991-09-08T13:50:30.989999Z,D91606B1,5.61,0.15,Slab,R,1,95,70,108,geonet,-40.2442,175.1672,-41.2333,174.9199,6104594.2,2694363.31,5995282,2670919,5.9,5.9,111.94,141.47,110.88,140.55,111.94,-13.83,0,86.69,83.93,nu,606B,B,800,Q3,<0.1,Q3,0,Q3,0,-99999,-99999,0,0.45,26,0.765,26,HarvardCMT,0.018277729,0.018559789,0.019160288,0.024437643,0.022584308,0.031340909,0.046805115,0.030384255,0.04395681,0.065190776,0.06417317,0.0394351,0.017891132,0.009159564,0.004730886,-99999,-99999,-99999,-99999,-99999,-99999,-99999,0.022056482,0.022391254,0.023242044,0.027844124,0.028227943,0.033848604,0.065395185,0.034201282,0.053807642,0.083454162,0.079562713,0.047131659,0.021205549,0.012135594,0.006437735,-99999,-99999,-99999,-99999,-99999,-99999,-99999,0.018079,0.022062,0.00858,0.011222
255338,1991-09-08T13:50:30.989999Z,D91642E7,5.61,0.15,Slab,R,1,95,70,108,geonet,-40.2442,175.1672,-41.2341,174.918,6104594.2,2694363.31,5995197,2670758,5.9,5.9,112.06,141.57,111,140.65,112.04,-13.98,0,86.69,83.93,nu,642E,C,350,Q1,0.35,Q2,50,Q3,0,-99999,-99999,0,0.5,12,0.85,12,HarvardCMT,0.049752159,0.049880247,0.050073828,0.050394508,0.050832133,0.052388102,0.059564399,0.081222639,0.122963884,0.158313795,0.228922709,0.204948712,0.056857023,0.025003558,0.011690644,-99999,-99999,-99999,-99999,-99999,-99999,-99999,0.060266799,0.060468981,0.060801234,0.061265589,0.061882705,0.063460496,0.06290635,0.097504785,0.166417533,0.206893625,0.308555441,0.226642906,0.068124957,0.029553129,0.013342216,-99999,-99999,-99999,-99999,-99999,-99999,-99999,0.049631,0.060112,0.028527,0.031818
255338,1991-09-08T13:50:30.989999Z,D91644C3,5.61,0.15,Slab,R,1,95,70,108,geonet,-40.2442,175.1672,-41.2187,174.8826,6104594.2,2694363.31,5996970,2667828,5.9,5.9,110.98,140.72,109.9,139.76,110.53,-17.05,0,86.69,83.93,nu,644C,D,189,Q3,2,Q3,250,Q3,0,-99999,-99999,0,0.35,15,0.595,15,HarvardCMT,0.022114385,0.022272596,0.022543149,0.022968945,0.023546809,0.033425492,0.045943338,0.058392844,0.076860419,0.063709687,0.077639551,0.119990972,0.065793125,0.027634185,0.013516443,0.007254918,-99999,-99999,-99999,-99999,-99999,-99999,0.025362363,0.025516588,0.025765226,0.026236792,0.026706167,0.037568078,0.04999981,0.06952681,0.088938559,0.073259561,0.083170153,0.157401457,0.089492379,0.034433982,0.017827278,0.008704337,-99999,-99999,-99999,-99999,-99999,-99999,0.022024,0.025364,0.012054,0.01511
255338,1991-09-08T13:50:30.989999Z,D91646A2,5.61,0.15,Slab,R,1,95,70,108,geonet,-40.2442,175.1672,-41.2574,174.9485,6104594.2,2694363.31,5992552,2673256,5.9,5.9,114.16,143.28,113.12,142.4,114.46,-11.26,0,86.69,83.93,nu,WDAS,E,120,Q1,1.6,Q2,62,Q2,0,-99999,-99999,0,0.35,18,0.595,18,HarvardCMT,0.051352702,0.051623827,0.052137876,0.053030137,0.054126466,0.063509725,0.100025847,0.108256802,0.102556081,0.187349842,0.243203176,0.148233744,0.086241258,0.041544187,0.034179836,0.013815678,-99999,-99999,-99999,-99999,-99999,-99999,0.055385673,0.055678091,0.056165397,0.056813315,0.0583087,0.073831123,0.105966892,0.116283722,0.119707914,0.261393563,0.320551329,0.189733512,0.100050031,0.055699416,0.042390762,0.016375225,-99999,-99999,-99999,-99999,-99999,-99999,0.051233,0.055137,0.027295,0.029666
255338,1991-09-08T13:50:30.989999Z,D91705B3,5.61,0.15,Slab,R,1,95,70,108,geonet,-40.2442,175.1672,-41.1391,174.8502,6104594.2,2694363.31,6005867,2665298,5.9,5.9,103.03,134.58,101.9,133.49,101.89,-20.35,0,86.69,83.93,nu,707A,C,570,Q3,0.15,Q3,10,Q3,0,-99999,-99999,0,0.5,15,0.85,15,HarvardCMT,0.033752422,0.034049164,0.034547211,0.035357896,0.036654822,0.042096073,0.078447358,0.069369669,0.138267397,0.174858801,0.102545403,0.078696659,0.030475834,0.013196742,0.008840751,-99999,-99999,-99999,-99999,-99999,-99999,-99999,0.039240877,0.039462609,0.039783066,0.040485408,0.041682148,0.054159305,0.095888528,0.075739547,0.161763335,0.204068831,0.132721196,0.102305476,0.042061306,0.015598567,0.009677866,-99999,-99999,-99999,-99999,-99999,-99999,-99999,0.033595,0.039242,0.013553,0.018716
255338,1991-09-08T13:50:30.989999Z,D91706A2,5.61,0.15,Slab,R,1,95,70,108,geonet,-40.2442,175.1672,-41.1288,174.8382,6104594.2,2694363.31,6007032,2664315,5.9,5.9,102.2,133.93,101.05,132.82,100.81,-21.43,0,86.69,83.93,nu,706A,C,210,Q3,0.5,Q2,30,Q3,0,-99999,-99999,0,0.35,12,0.595,12,HarvardCMT,0.074969085,0.075374203,0.075999475,0.076923132,0.078325807,0.086677668,0.108321485,0.158917698,0.267552325,0.260750248,0.262655007,0.347577712,0.163845257,0.053591688,0.027694293,0.008911804,-99999,-99999,-99999,-99999,-99999,-99999,0.089339684,0.089760725,0.090446653,0.091393817,0.092713298,0.099234402,0.114604315,0.206281252,0.350770123,0.344300969,0.294532084,0.491507673,0.216791529,0.07321515,0.030075681,0.009756888,-99999,-99999,-99999,-99999,-99999,-99999,0.074799,0.089337,0.037786,0.048001
255338,1991-09-08T13:50:30.989999Z,D91900B7,5.61,0.15,Slab,R,1,95,70,108,geonet,-40.2442,175.1672,-41.2921,174.779,6104594.2,2694363.31,5989003,2658976,5.9,5.9,121.02,148.76,119.87,147.84,119.24,-25.18,0,86.69,83.93,nu,941A,D,272,Q2,0.85,Q2,9.85E+01,Q2,0,-99999,-99999,0,0.45,12,0.765,12,HarvardCMT,0.036026201,0.036153479,0.03636958,0.036689427,0.03711106,0.039874875,0.067154785,0.105137504,0.101013779,0.150045512,0.144663578,0.174980638,0.07477543,0.061142409,0.023213902,-99999,-99999,-99999,-99999,-99999,-99999,-99999,0.05079697,0.050956627,0.051291067,0.051767893,0.052453738,0.056134332,0.092141661,0.135078835,0.133776415,0.183430205,0.203110831,0.246359037,0.10569269,0.083687695,0.030337189,-99999,-99999,-99999,-99999,-99999,-99999,-99999,0.035998,0.05075,0.022835,0.030844
255338,1991-09-08T13:50:30.989999Z,D91918B7,5.61,0.15,Slab,R,1,95,70,108,geonet,-40.2442,175.1672,-41.284,174.7682,6104594.2,2694363.31,5989908,2658140,5.9,5.9,120.4,148.34,119.25,147.39,118.41,-26.09,0,86.69,83.93,nu,WEL,B,1000,Q3,0.3,Q1,0,Q2,0,-99999,-99999,0,0.5,18,0.85,18,HarvardCMT,0.041814974,0.042044649,0.042407582,0.042963186,0.044007504,0.051362131,0.063286859,0.090941479,0.137487405,0.244914662,0.12397161,0.07996513,0.024786681,0.010742066,0.006389523,-99999,-99999,-99999,-99999,-99999,-99999,-99999,0.057608445,0.057987738,0.058610171,0.059626227,0.061434309,0.072131592,0.084934268,0.110158943,0.193004108,0.32423215,0.170533063,0.102063355,0.02859877,0.01516856,0.008925929,-99999,-99999,-99999,-99999,-99999,-99999,-99999,0.041816,0.05761,0.016822,0.023348
255338,1991-09-08T13:50:30.989999Z,D91935B3,5.61,0.15,Slab,R,1,95,70,108,geonet,-40.2442,175.1672,-41.2108,174.9047,6104594.2,2694363.31,5997808,2669699,5.9,5.9,109.73,139.74,108.66,138.78,109.53,-15.26,0,86.69,83.93,nu,935A,D,240,Q3,1.2,Q3,275,Q3,0,-99999,-99999,1,0.45,15,0.765,15,HarvardCMT,0.035515324,0.035610186,0.035767248,0.035996925,0.036405581,0.05314305,0.079388863,0.06215122,0.096162918,0.164491449,0.171221366,0.170091596,0.063887328,0.024294541,0.017385906,-99999,-99999,-99999,-99999,-99999,-99999,-99999,0.050141843,0.050274853,0.050459521,0.050695561,0.051057515,0.064055181,0.106779611,0.074386941,0.128390699,0.179694316,0.224298425,0.228019919,0.079116442,0.027116703,0.023006694,-99999,-99999,-99999,-99999,-99999,-99999,-99999,0.035455,0.050141,0.022492,0.028499
255338,1991-09-08T13:50:30.989999Z,K91102A3,5.61,0.15,Slab,R,1,95,70,108,geonet,-40.2442,175.1672,-39.4637,175.5669,6104594.2,2694363.31,6190285,2730871,5.9,5.9,93.25,127.72,91.95,125.06,-87.54,28.9,0,86.69,83.93,nu,102A,C,555,Q3,0.15,Q3,12,Q3,0,-99999,-99999,1,0.5,18,0.85,18,HarvardCMT,0.045298133,0.045971609,0.046894622,0.048546596,0.050873027,0.083924184,0.135524744,0.257599916,0.221836166,0.14288064,0.097706775,0.066419539,0.04328704,0.033121939,0.019692669,-99999,-99999,-99999,-99999,-99999,-99999,-99999,0.051848476,0.052805109,0.054413811,0.056910076,0.06092379,0.118164668,0.179353558,0.299142512,0.299104038,0.198761726,0.123470426,0.093916118,0.047915679,0.039106756,0.022611492,-99999,-99999,-99999,-99999,-99999,-99999,-99999,0.044941,0.051243,0.015324,0.0173
314805,1992-03-30T07:02:51.226999Z,D92505A1,5.5,0.15,Crustal,R,1,205,76,77,nlloc,-43.0605,171.212,-42.9489,171.5677,5792540.97,2364375.65,5805487,2393135,5.17,5.17,31.47,32.08,29.52,30.01,-19.97,-23.89,0,5.12,2.61,nu,APPS,C,300,Q2,0.4,Q1,30,Q2,0,-99999,-99999,0,0.6,20,1.02,20,HarvardCMT,0.026706814,0.027057701,0.027801631,0.029553525,0.045146729,0.063057995,0.074519032,0.123377658,0.10660384,0.095665042,0.099958169,0.097106587,0.044789795,0.022400582,-99999,-99999,-99999,-99999,-99999,-99999,-99999,-99999,0.031055685,0.031190988,0.031481947,0.032051603,0.050451052,0.071154108,0.080785921,0.164388931,0.135871333,0.109458694,0.120733331,0.119022925,0.056383764,0.024944337,-99999,-99999,-99999,-99999,-99999,-99999,-99999,-99999,0.026526,0.031057,0.016402,0.018266
339342,1992-05-27T22:30:35.064000Z,D92129A2,5.9,0.08,Slab,S,1,117,85,21,special,-41.63,173.62,-41.7999,172.328,5952812.98,2561652.09,5933893,2454147,8.2,8.2,108.89,128.17,105.65,124.79,66.02,-87.2,0,67,62.92,nu,MCAS,D,501,Q3,1.6,Q3,200,Q3,0,-99999,-99999,0,0.23,19,0.391,19,Webb_Anderson_1998&Dowrick_Rhoades1998&HarvardCMT,0.028695863,0.029120568,0.029853974,0.030924251,0.033207558,0.058548309,0.081073796,0.0999619,0.092607873,0.076198481,0.099825748,0.075416281,0.08179657,0.06600346,0.023499519,0.018818872,0.012242528,-99999,-99999,-99999,-99999,-99999,0.032357183,0.0326304,0.033107124,0.033734032,0.037275129,0.071648784,0.089870997,0.110939892,0.110633181,0.085474372,0.111114943,0.092071064,0.097640776,0.077025319,0.0271297,0.02435102,0.01351883,-99999,-99999,-99999,-99999,-99999,0.028644,0.032355,0.016475,0.019402
339342,1992-05-27T22:30:35.064000Z,D92467A3,5.9,0.08,Slab,S,1,117,85,21,special,-41.63,173.62,-41.2425,174.9024,5952812.98,2561652.09,5994293,2669430,8.2,8.2,115.26,133.52,112.56,130.25,-85.53,77.2,0,67,62.92,nu,467A,D,218,Q3,1.5,Q3,200,Q3,0,-99999,-99999,0,0.35,14,0.595,14,Webb_Anderson_1998&Dowrick_Rhoades1998&HarvardCMT,0.031670753,0.031822726,0.032018474,0.032347052,0.032973911,0.062482177,0.053610574,0.05135988,0.081612178,0.109862995,0.047674477,0.112183873,0.097398939,0.02834786,0.017584621,0.015336586,-99999,-99999,-99999,-99999,-99999,-99999,0.034836204,0.035017055,0.035336771,0.035835576,0.036615509,0.071477459,0.066976196,0.06532854,0.104699728,0.118912999,0.057294104,0.136875868,0.107401349,0.033938597,0.020993292,0.017541583,-99999,-99999,-99999,-99999,-99999,-99999,0.031627,0.034838,0.01937,0.02218
339342,1992-05-27T22:30:35.064000Z,D92468A6,5.9,0.08,Slab,S,1,117,85,21,special,-41.63,173.62,-41.2011,174.9547,5952812.98,2561652.09,5998793,2673916,8.2,8.2,121.08,138.59,118.45,135.4,-91.58,79.15,0,67,62.92,nu,468A,D,190,Q1,0.9,Q3,50,Q3,0,-99999,-99999,0,0.4,19,0.68,19,Webb_Anderson_1998&Dowrick_Rhoades1998&HarvardCMT,0.030546994,0.030764756,0.031101441,0.03139631,0.031672759,0.04566963,0.048140395,0.086193613,0.096300204,0.124943745,0.098479228,0.153705123,0.063703454,0.044461792,0.035364755,-99999,-99999,-99999,-99999,-99999,-99999,-99999,0.03565896,0.035902351,0.036291448,0.036818975,0.037345236,0.052781048,0.056805133,0.116374621,0.104865863,0.150238166,0.112752652,0.171025385,0.076605883,0.052959603,0.045608144,-99999,-99999,-99999,-99999,-99999,-99999,-99999,0.030491,0.035661,0.016906,0.020622
339342,1992-05-27T22:30:35.064000Z,D92644C3,5.9,0.08,Slab,S,1,117,85,21,special,-41.63,173.62,-41.2187,174.8826,5952812.98,2561652.09,5996970,2667828,8.2,8.2,114.77,133.09,112.16,129.87,-87.19,74.56,0,67,62.92,nu,644C,D,189,Q3,2,Q3,250,Q3,0,-99999,-99999,0,0.25,12,0.425,12,Webb_Anderson_1998&Dowrick_Rhoades1998&HarvardCMT,0.021868268,0.021980823,0.022187488,0.022413872,0.022754884,0.025481364,0.056070108,0.059402428,0.052227493,0.095533159,0.053315375,0.100893185,0.102682161,0.025668057,0.015196674,0.009244,0.006538641,-99999,-99999,-99999,-99999,-99999,0.025550503,0.025705363,0.025941326,0.026334059,0.02686481,0.030666308,0.077903744,0.074732233,0.06225456,0.127000722,0.075218069,0.119924694,0.131835993,0.034488801,0.018733409,0.010327373,0.008664256,-99999,-99999,-99999,-99999,-99999,0.021789,0.025551,0.015829,0.019203
339342,1992-05-27T22:30:35.064000Z,D92646A5,5.9,0.08,Slab,S,1,117,85,21,special,-41.63,173.62,-41.2574,174.9485,5952812.98,2561652.09,5992552,2673256,8.2,8.2,118.23,136.15,115.45,132.85,-85.72,81.4,0,67,62.92,nu,WDAS,E,120,Q1,1.6,Q2,62,Q2,0,-99999,-99999,0,0.5,16,0.85,16,Webb_Anderson_1998&Dowrick_Rhoades1998&HarvardCMT,0.027543273,0.027757438,0.028099159,0.028701823,0.02949156,0.046238607,0.043474651,0.049537367,0.052935542,0.078843421,0.178839891,0.072446761,0.105846748,0.050846065,0.07871937,-99999,-99999,-99999,-99999,-99999,-99999,-99999,0.031842745,0.032025014,0.032287751,0.032765485,0.033660113,0.050986871,0.05000757,0.05342673,0.061887469,0.085435767,0.215534522,0.09071336,0.124019891,0.061891661,0.105189431,-99999,-99999,-99999,-99999,-99999,-99999,-99999,0.027296,0.031602,0.020955,0.023387
339342,1992-05-27T22:30:35.064000Z,D92647A1,5.9,0.08,Slab,S,1,117,85,21,special,-41.63,173.62,-41.2871,174.778,5952812.98,2561652.09,5989560,2658904,8.2,8.2,103.76,123.68,101.04,120.35,-76.54,69.97,0,67,62.92,nu,647A,C,474,Q2,0.12,Q2,5.70E+00,Q2,0,-99999,-99999,0,0.4,19,0.68,19,Webb_Anderson_1998&Dowrick_Rhoades1998&HarvardCMT,0.019865673,0.020111891,0.020595778,0.021414879,0.023035464,0.032339713,0.049842216,0.061122165,0.059750502,0.064232864,0.063350559,0.080080086,0.034106608,0.009882896,0.012518083,-99999,-99999,-99999,-99999,-99999,-99999,-99999,0.024824564,0.025026006,0.025360855,0.025895578,0.026439249,0.041228464,0.068034204,0.086432759,0.070196759,0.08640791,0.067546095,0.098523734,0.044947437,0.013859777,0.016364596,-99999,-99999,-99999,-99999,-99999,-99999,-99999,0.01987,0.024677,0.010584,0.014771
339342,1992-05-27T22:30:35.064000Z,D92706A2,5.9,0.08,Slab,S,1,117,85,21,special,-41.63,173.62,-41.1288,174.8382,5952812.98,2561652.09,6007032,2664315,8.2,8.2,115.91,134.05,113.6,131,-94.56,66.86,0,67,62.92,nu,706A,C,210,Q3,0.5,Q2,30,Q3,0,-99999,-99999,0,0.45,12,0.765,12,Webb_Anderson_1998&Dowrick_Rhoades1998&HarvardCMT,0.030393908,0.030618389,0.03100114,0.031402035,0.032095899,0.034079719,0.044341636,0.069683538,0.090339247,0.178791407,0.103649539,0.096974588,0.057020027,0.037301533,0.027017954,-99999,-99999,-99999,-99999,-99999,-99999,-99999,0.033413547,0.033679322,0.034098515,0.034763913,0.035707607,0.040428582,0.05040207,0.079937023,0.098048299,0.243848444,0.139159379,0.120806895,0.064009598,0.047017674,0.038183987,-99999,-99999,-99999,-99999,-99999,-99999,-99999,0.030306,0.033412,0.017727,0.019672
