CuspID,Origin_time,Record,Mw,MwUncert,TectClass,Mech,PreferredFaultPlane,Strike,Dip,Rake,Location,HypLat,HypLon,StationLat,StationLon,HypN,HypE,StationN,StationE,LENGTH_km,WIDTH_km,Repi_km,Rhyp_km,Rjb_km,Rrup_km,Rx_km,Ry_km,Rvol_km,HypDepth_km,ZTOR_km,HWFW,SiteCode,SiteClass1170,Vs30,Vs30Uncert,Tsite,TsiteUncert,Z1,Z1Uncertainty,Directivity,Pulse_or,Pulse_T,S_Trigger_Flag,fcButterHP,f_iniLP,fmin,fmax,References,f100.0000SA_RotD50,f50.0000SA_RotD50,f33.3333SA_RotD50,f25.0000SA_RotD50,f20.0000SA_RotD50,f13.3333SA_RotD50,f10.0000SA_RotD50,f6.6667SA_RotD50,f5.0000SA_RotD50,f4.0000SA_RotD50,f3.3333SA_RotD50,f2.5000SA_RotD50,f2.0000SA_RotD50,f1.3333SA_RotD50,f1.0000SA_RotD50,f0.6667SA_RotD50,f0.5000SA_RotD50,f0.3333SA_RotD50,f0.2500SA_RotD50,f0.2000SA_RotD50,f0.1333SA_RotD50,f0.1000SA_RotD50,f100.0000SA_RotD100,f50.0000SA_RotD100,f33.3333SA_RotD100,f25.0000SA_RotD100,f20.0000SA_RotD100,f13.3333SA_RotD100,f10.0000SA_RotD100,f6.6667SA_RotD100,f5.0000SA_RotD100,f4.0000SA_RotD100,f3.3333SA_RotD100,f2.5000SA_RotD100,f2.0000SA_RotD100,f1.3333SA_RotD100,f1.0000SA_RotD100,f0.6667SA_RotD100,f0.5000SA_RotD100,f0.3333SA_RotD100,f0.2500SA_RotD100,f0.2000SA_RotD100,f0.1333SA_RotD100,f0.1000SA_RotD100,PGA_RotD50,PGA_RotD100,PGV_RotD50,PGV_RotD100
722185,1995-03-22T19:43:30.268000Z,K5608A01,5.83,0.15,Slab,S,0,27,64,30,nlloc,-41.0514,174.216,-41.2241,174.8794,6016538.56,2612205.51,5996377,2667546,7.6,7.6,58.78,103.83,56.06,101.12,-99999,-99999,0,85.51,82.13,nu,608A,D,200,Q2,2,Q2,250,Q3,0,-99999,-99999,1,0.4,11,0.68,11,HarvardCMT,0.02927407,0.029364692,0.029556474,0.029857852,0.03026517,0.031925073,0.034913013,0.042830847,0.044008301,0.035141144,0.036980203,0.048199742,0.056771939,0.034558101,0.01793959,-99999,-99999,-99999,-99999,-99999,-99999,-99999,0.036011191,0.036176251,0.036446585,0.036845011,0.037386751,0.039538934,0.043547307,0.059332176,0.053252614,0.043958982,0.046879358,0.060890205,0.073474835,0.038502227,0.018858177,-99999,-99999,-99999,-99999,-99999,-99999,-99999,0.029264,0.035812,0.024995,0.030959
771645,1995-11-24T06:18:56.622999Z,D5505A37,6.19,0.08,Crustal,O,1,176,46,44,geonet,-42.953,171.8188,-42.9489,171.5677,5805359.34,2413627.76,5805487,2393135,11.44,11.44,20.44,22,18.34,21,22.52,-1.56,0,7.26,5.1,hw,APPS,C,300,Q2,0.4,Q1,30,Q2,0,-99999,-99999,0,0.29,20,0.493,20,Gledhill_etal_2000,0.133654877,0.135144274,0.137555428,0.141456263,0.147795493,0.168311043,0.189021704,0.254633755,0.26332173,0.20300098,0.178539431,0.143073459,0.126294838,0.080421802,0.040628934,0.015130399,0.007483006,-99999,-99999,-99999,-99999,-99999,0.150149155,0.152901879,0.15710176,0.162577519,0.169795636,0.215100226,0.261159889,0.331760969,0.315789232,0.257142151,0.190402566,0.19338969,0.149015264,0.0963428,0.049607941,0.019216398,0.009570118,-99999,-99999,-99999,-99999,-99999,0.132025,0.149811,0.066529,0.086571
771645,1995-11-24T06:18:56.622999Z,D6051D01,6.19,0.08,Crustal,O,1,176,46,44,geonet,-42.953,171.8188,-41.7557,171.5998,5805359.34,2413627.76,5938069,2393545,11.44,11.44,134.35,134.42,128.36,128.45,12.86,-133.79,0,7.26,5.1,nu,WBCS,D,300,Q3,1.2,Q2,105,Q3,0,-99999,-99999,0,0.2,20,0.34,20,Gledhill_etal_2000,0.018588959,0.018684886,0.018853245,0.01916206,0.019666457,0.0243878,0.02442342,0.025099299,0.027156187,0.02552992,0.030188869,0.026125568,0.02516712,0.020487667,0.020219768,0.009165145,0.005502207,-99999,-99999,-99999,-99999,-99999,0.023441201,0.023621736,0.023907157,0.024223259,0.024474973,0.028636708,0.034020283,0.034086315,0.03234989,0.034687221,0.037110941,0.029562653,0.033862682,0.026105029,0.025543084,0.01154738,0.006554569,-99999,-99999,-99999,-99999,-99999,0.018493,0.023427,0.015306,0.017548
771645,1995-11-24T06:18:56.622999Z,D6129A01,6.19,0.08,Crustal,O,1,176,46,44,geonet,-42.953,171.8188,-41.7999,172.328,5805359.34,2413627.76,5933893,2454147,11.44,11.44,134.87,134.97,129.24,129.34,-47.3,-125.39,0,7.26,5.1,nu,MCAS,D,501,Q3,1.6,Q3,200,Q3,0,-99999,-99999,1,0.2,10,0.34,10,Gledhill_etal_2000,0.018073836,0.01810632,0.018168107,0.018247183,0.018339473,0.0186979,0.019891155,0.024600241,0.02627389,0.028797213,0.028135282,0.030378283,0.027124428,0.027931792,0.031679662,0.021886196,0.011449593,-99999,-99999,-99999,-99999,-99999,0.022483935,0.022517377,0.022574209,0.022643887,0.022745025,0.023110126,0.023798765,0.027081319,0.030079723,0.032384406,0.035587665,0.032852215,0.031273273,0.030824058,0.039455511,0.025392277,0.012418236,-99999,-99999,-99999,-99999,-99999,0.018047,0.022471,0.028369,0.03326
771645,1995-11-24T06:18:56.622999Z,K5112B01,6.19,0.08,Crustal,O,1,176,46,44,geonet,-42.953,171.8188,-43.1325,171.7693,5805359.34,2413627.76,5785358,2409884,11.44,11.44,20.36,21.83,14.58,16.61,7.21,19.69,0,7.26,5.1,nu,112B,C,667,Q3,0.36,Q3,60,Q3,0,-99999,-99999,1,0.25,20,0.425,20,Gledhill_etal_2000,0.137326107,0.139812877,0.143710262,0.151220616,0.165419135,0.194237661,0.227715225,0.250212703,0.248231062,0.210110928,0.168204357,0.10427943,0.073738054,0.03430576,0.026750068,0.020264967,0.012053282,-99999,-99999,-99999,-99999,-99999,0.155545621,0.157801293,0.161474884,0.167727876,0.175802514,0.238134849,0.290213903,0.287420566,0.309199418,0.27426407,0.194531209,0.129426169,0.091332988,0.037738335,0.029058216,0.027591133,0.013001434,-99999,-99999,-99999,-99999,-99999,0.136134,0.153001,0.051684,0.068418
1037562,1996-08-29T04:47:00.878000Z,D6042A01,5.25,0.15,Crustal,S,0,317,67,-2.00E+01,geonet,-42.4891,172.7921,-42.5232,172.8305,5857551.8,2492912.82,5853765,2496076,3.9,3.9,4.93,10.98,3.66,9.43,-99999,-99999,0,9.43,7.61,nu,HSES,D,280,Q3,0.9,Q1,85,Q3,0,-99999,-99999,0,0.2,18,0.34,18,HarvardCMT,0.237078278,0.237492982,0.238810262,0.239798523,0.242196159,0.250081935,0.284173156,0.316582749,0.328519269,0.340346751,0.358199392,0.376987986,0.326853364,0.31162477,0.266822062,0.117026551,0.062256138,-99999,-99999,-99999,-99999,-99999,0.274741847,0.27603975,0.278333795,0.282845948,0.289131621,0.293960165,0.313678314,0.412508824,0.351783879,0.373570213,0.386579881,0.405585343,0.352090416,0.337977195,0.302836523,0.145944255,0.075639302,-99999,-99999,-99999,-99999,-99999,0.236709,0.274839,0.238508,0.283921
1348340,1999-01-03T07:00:20.568000Z,D9131A03,5.22,0.15,Slab,N,1,211,80,-8.30E+01,nlloc,-41.0938,174.519,-40.9143,175.005,6011432.3,2637591.18,6030534,2678862,3.7,3.7,45.4,72.68,43.85,70.85,-25.21,-37.63,0,56.68,54.84,nu,PAPS,D,200,Q3,1.4,Q1,100,Q3,0,-99999,-99999,0,0.4,15,0.68,15,HarvardCMT,0.025635875,0.025982241,0.026619915,0.027554255,0.028963056,0.034282694,0.041724822,0.052360302,0.046594915,0.033011727,0.02214384,0.01749045,0.015380721,0.012314451,0.009848409,-99999,-99999,-99999,-99999,-99999,-99999,-99999,0.027306159,0.027671908,0.028230341,0.02900607,0.030033689,0.037269015,0.047276212,0.061902384,0.058707378,0.03977857,0.024792133,0.024484094,0.017976405,0.013069759,0.01152652,-99999,-99999,-99999,-99999,-99999,-99999,-99999,0.025641,0.027261,0.012535,0.014003
1348340,1999-01-03T07:00:20.568000Z,D9469A01,5.22,0.15,Slab,N,1,211,80,-8.30E+01,nlloc,-41.0938,174.519,-41.2117,174.9033,6011432.3,2637591.18,5997711,2669586,3.7,3.7,34.75,66.53,34.35,64.79,-34.17,-4.72,0,56.68,54.84,nu,LHES,D,240,Q3,1.16,Q3,280,Q3,0,-99999,-99999,0,0.35,12.5,0.595,12.5,HarvardCMT,0.01847836,0.018527201,0.01862191,0.018759986,0.018926687,0.019492118,0.022025274,0.025196674,0.029629661,0.028553283,0.031081723,0.030208292,0.027131026,0.016877205,0.010628961,0.004094592,-99999,-99999,-99999,-99999,-99999,-99999,0.026131604,0.026200975,0.026316173,0.0265329,0.026743061,0.027128321,0.027074117,0.033712869,0.033640617,0.038037431,0.040708021,0.041322802,0.037241317,0.023353394,0.014997534,0.005720796,-99999,-99999,-99999,-99999,-99999,-99999,0.018481,0.026135,0.01573,0.02148
1348340,1999-01-03T07:00:20.568000Z,D9643B07,5.22,0.15,Slab,N,1,211,80,-8.30E+01,nlloc,-41.0938,174.519,-41.1513,174.9794,6011432.3,2637591.18,6004275,2676112,3.7,3.7,39.09,68.98,38.4,67.25,-36.38,-13.7,0,56.68,54.84,nu,643B,B,1000,Q3,<0.1,Q3,1.50E+00,Q3,0,-99999,-99999,0,0.45,18,0.765,18,HarvardCMT,0.027559575,0.028111934,0.02916035,0.031098175,0.034432609,0.041588053,0.048841094,0.055526285,0.054434013,0.032651671,0.01949996,0.011991039,0.008549182,0.006347738,0.0037706,-99999,-99999,-99999,-99999,-99999,-99999,-99999,0.036228159,0.036601371,0.037205373,0.03814125,0.039593086,0.051972053,0.059380304,0.076085704,0.076142258,0.045967704,0.027167553,0.016156837,0.010850699,0.008881544,0.004937115,-99999,-99999,-99999,-99999,-99999,-99999,-99999,0.027619,0.036236,0.008702,0.010464
1348340,1999-01-03T07:00:20.568000Z,D9644C05,5.22,0.15,Slab,N,1,211,80,-8.30E+01,nlloc,-41.0938,174.519,-41.2187,174.8826,6011432.3,2637591.18,5996970,2667828,3.7,3.7,33.46,65.85,33.1,64.1,-33.04,-3.18,0,56.68,54.84,nu,644C,D,189,Q3,2,Q3,250,Q3,0,-99999,-99999,0,0.3,18,0.51,18,HarvardCMT,0.019747977,0.019828379,0.020016509,0.020288458,0.020634948,0.024558144,0.026170513,0.035350126,0.033653776,0.023419331,0.024134302,0.028203885,0.025457098,0.014430628,0.008091257,0.00354875,-99999,-99999,-99999,-99999,-99999,-99999,0.0271912,0.027260619,0.027355771,0.027413383,0.027300196,0.034630758,0.03666316,0.048746108,0.047370417,0.033036275,0.033596538,0.038625613,0.033995401,0.018943982,0.010996644,0.004852122,-99999,-99999,-99999,-99999,-99999,-99999,0.019756,0.027164,0.011757,0.016601
1348340,1999-01-03T07:00:20.568000Z,D9900C01,5.22,0.15,Slab,N,1,211,80,-8.30E+01,nlloc,-41.0938,174.519,-41.2891,174.7799,6011432.3,2637591.18,5989335,2659058,3.7,3.7,30.79,64.52,30.25,62.73,-29.46,7.88,0,56.68,54.84,nu,900C,D,250,Q3,0.8,Q3,60,Q3,0,-99999,-99999,0,0.52,10,0.884,10,HarvardCMT,0.01712525,0.017210631,0.017345495,0.017554278,0.017922203,0.019303771,0.024076853,0.026805972,0.027508896,0.027035544,0.030808856,0.027314765,0.019496678,0.00981784,0.005146017,-99999,-99999,-99999,-99999,-99999,-99999,-99999,0.020889566,0.021057603,0.021364086,0.021792933,0.022347405,0.024835869,0.02836476,0.035226797,0.03394713,0.037505319,0.03596375,0.034198767,0.026871751,0.012234404,0.006817039,-99999,-99999,-99999,-99999,-99999,-99999,-99999,0.017089,0.02082,0.011181,0.013802
1348340,1999-01-03T07:00:20.568000Z,G9646C02,5.22,0.15,Slab,N,1,211,80,-8.30E+01,nlloc,-41.0938,174.519,-41.2574,174.9485,6011432.3,2637591.18,5992552,2673256,3.7,3.7,40.29,69.65,39.95,67.96,-39.97,-2.19,0,56.68,54.84,nu,WDAS,E,120,Q1,1.6,Q2,62,Q2,0,-99999,-99999,0,0.45,24.5,0.765,24.5,HarvardCMT,0.020974957,0.02130961,0.022243306,0.02594256,0.028589919,0.027092079,0.028834743,0.033581313,0.033150059,0.029207872,0.028570573,0.022576846,0.01925275,0.025140073,0.020892756,-99999,-99999,-99999,-99999,-99999,-99999,-99999,0.026373747,0.026673373,0.027198717,0.031171488,0.040383765,0.034754578,0.039807611,0.037442927,0.035701609,0.040661209,0.036440932,0.02527643,0.023449254,0.0268492,0.026478455,-99999,-99999,-99999,-99999,-99999,-99999,-99999,0.020863,0.026325,0.015951,0.019936
1348340,1999-01-03T07:00:20.568000Z,G9713A02,5.22,0.15,Slab,N,1,211,80,-8.30E+01,nlloc,-41.0938,174.519,-41.1257,174.8392,6011432.3,2637591.18,6007373,2664412,3.7,3.7,27.06,62.84,26.34,61.02,-24.76,-10.33,0,56.68,54.84,nu,713A,D,210,Q3,0.6,Q3,40,Q3,0,-99999,-99999,0,0.6,12.5,1.02,12.5,HarvardCMT,0.020877237,0.021081257,0.021459698,0.02215101,0.022922981,0.026134121,0.032982662,0.038981169,0.036567981,0.028641523,0.023687034,0.022539978,0.027779893,0.021143523,-99999,-99999,-99999,-99999,-99999,-99999,-99999,-99999,0.028202411,0.028380451,0.028717371,0.029199249,0.029853477,0.03341644,0.043306848,0.043817147,0.044625588,0.03234403,0.031702716,0.02755265,0.033997504,0.024498411,-99999,-99999,-99999,-99999,-99999,-99999,-99999,-99999,0.020826,0.028155,0.012396,0.013872
1348340,1999-01-03T07:00:20.568000Z,I9467A03,5.22,0.15,Slab,N,1,211,80,-8.30E+01,nlloc,-41.0938,174.519,-41.2425,174.9024,6011432.3,2637591.18,5994293,2669430,3.7,3.7,36.1,67.24,35.77,65.51,-35.79,-1.71,0,56.68,54.84,nu,467A,D,218,Q3,1.5,Q3,200,Q3,0,-99999,-99999,0,0.35,18,0.595,18,HarvardCMT,0.015968024,0.016026752,0.016180985,0.016493117,0.017095976,0.020909808,0.022117624,0.026842293,0.032604698,0.026322959,0.024718056,0.032134236,0.031741338,0.021350203,0.011476264,0.00461025,-99999,-99999,-99999,-99999,-99999,-99999,0.022042552,0.022119664,0.022271736,0.022551739,0.023121552,0.027198376,0.027221036,0.033031855,0.037927984,0.033119587,0.032598381,0.043939121,0.044057968,0.029775082,0.016110413,0.006437927,-99999,-99999,-99999,-99999,-99999,-99999,0.015965,0.021979,0.016572,0.021891
1348340,1999-01-03T07:00:20.568000Z,I9468A01,5.22,0.15,Slab,N,1,211,80,-8.30E+01,nlloc,-41.0938,174.519,-41.2011,174.9547,6011432.3,2637591.18,5998793,2673916,3.7,3.7,38.38,68.5,37.91,66.79,-37.32,-7.87,0,56.68,54.84,nu,468A,D,190,Q1,0.9,Q3,50,Q3,0,-99999,-99999,0,0.3,20,0.51,20,HarvardCMT,0.034317425,0.035077893,0.036362165,0.038613712,0.042453266,0.045985814,0.057338383,0.052958132,0.055779055,0.044012457,0.039302439,0.033413157,0.029567697,0.024064211,0.020336901,0.007313501,-99999,-99999,-99999,-99999,-99999,-99999,0.037419263,0.038246623,0.039612904,0.041641932,0.044570131,0.057970775,0.070192618,0.074894396,0.074034759,0.047876486,0.047559532,0.042082775,0.035056729,0.032142088,0.024173054,0.009141358,-99999,-99999,-99999,-99999,-99999,-99999,0.033923,0.037196,0.017852,0.019378
1348340,1999-01-03T07:00:20.568000Z,I9602C01,5.22,0.15,Slab,N,1,211,80,-8.30E+01,nlloc,-41.0938,174.519,-41.1903,174.928,6011432.3,2637591.18,6000041,2671703,3.7,3.7,35.89,67.15,35.4,65.41,-34.78,-7.8,0,56.68,54.84,nu,602C,B,1000,Q3,<0.1,Q3,0,Q3,0,-99999,-99999,0,0.3,40,0.51,40,HarvardCMT,0.012076802,0.012291666,0.012851938,0.013910251,0.014835068,0.019377317,0.018832499,0.017078516,0.015581831,0.01192752,0.01160392,0.010985766,0.009820866,0.006319571,0.00363971,0.001766195,-99999,-99999,-99999,-99999,-99999,-99999,0.016503325,0.01670517,0.017049538,0.018620785,0.020166546,0.025018772,0.021141495,0.021788808,0.0210222,0.016642214,0.015255883,0.015115379,0.013594566,0.008899621,0.005112557,0.002423676,-99999,-99999,-99999,-99999,-99999,-99999,0.012032,0.01644,0.005437,0.007595
1348340,1999-01-03T07:00:20.568000Z,I9603B02,5.22,0.15,Slab,N,1,211,80,-8.30E+01,nlloc,-41.0938,174.519,-41.2237,174.86,6011432.3,2637591.18,5996453,2665923,3.7,3.7,31.99,65.12,31.66,63.36,-31.67,-1.75,0,56.68,54.84,nu,603B,B,1000,Q3,<0.1,Q3,0,Q3,0,-99999,-99999,0,0.19,55,0.323,55,HarvardCMT,0.007820612,0.008016738,0.008211527,0.00817065,0.009130829,0.010540977,0.011953765,0.015236685,0.0119475,0.008589759,0.007419593,0.007247286,0.007076071,0.005668262,0.003851176,0.001715558,0.000935858,0.000348397,-99999,-99999,-99999,-99999,0.009787572,0.009969769,0.009850542,0.010109283,0.010432398,0.012270491,0.012984483,0.018491706,0.014094179,0.009567963,0.0081119,0.010113572,0.00941441,0.007588503,0.005127169,0.002421933,0.001138948,0.00046868,-99999,-99999,-99999,-99999,0.00778,0.00974,0.004733,0.0053
1348340,1999-01-03T07:00:20.568000Z,I9605B22,5.22,0.15,Slab,N,1,211,80,-8.30E+01,nlloc,-41.0938,174.519,-41.2074,174.9401,6011432.3,2637591.18,5998119,2672679,3.7,3.7,37.45,68.03,37.01,66.31,-36.61,-6.66,0,56.68,54.84,nu,FAIS,B,760,Q3,0.27,Q1,0,Q2,0,-99999,-99999,0,0.3,45,0.51,45,HarvardCMT,0.011408197,0.0117746,0.012178947,0.012824128,0.013498035,0.016651615,0.01839876,0.019829072,0.014209336,0.013466687,0.014719095,0.014383453,0.010924003,0.006527789,0.003712283,0.001479551,-99999,-99999,-99999,-99999,-99999,-99999,0.013876502,0.01412923,0.014401025,0.016237655,0.018792461,0.01950465,0.019903283,0.0219538,0.019027487,0.016896391,0.01949956,0.019385407,0.015370814,0.009228109,0.00521247,0.001988056,-99999,-99999,-99999,-99999,-99999,-99999,0.011282,0.013748,0.005969,0.008408
1348340,1999-01-03T07:00:20.568000Z,I9606B03,5.22,0.15,Slab,N,1,211,80,-8.30E+01,nlloc,-41.0938,174.519,-41.2333,174.9199,6011432.3,2637591.18,5995282,2670919,3.7,3.7,36.97,67.71,36.61,65.99,-36.56,-3.32,0,56.68,54.84,nu,606B,B,800,Q3,<0.1,Q3,0,Q3,0,-99999,-99999,0,0.18,52,0.306,52,HarvardCMT,0.012852943,0.013318,0.013687848,0.016084031,0.01792749,0.021375686,0.020906361,0.014562651,0.012672151,0.010545365,0.010947593,0.009369337,0.006455285,0.004129028,0.002413905,0.000875439,0.000488086,0.00023575,-99999,-99999,-99999,-99999,0.017248794,0.017874017,0.018354151,0.020667669,0.023649184,0.028443508,0.02268139,0.017248666,0.015517877,0.014322219,0.013448771,0.012628684,0.009070248,0.005803389,0.00337578,0.001071432,0.000655587,0.000332554,-99999,-99999,-99999,-99999,0.012759,0.017084,0.004154,0.004607
1348340,1999-01-03T07:00:20.568000Z,I9640A06,5.22,0.15,Slab,N,1,211,80,-8.30E+01,nlloc,-41.0938,174.519,-41.235,174.9147,6011432.3,2637591.18,5995103,2670479,3.7,3.7,36.65,67.54,36.31,65.82,-36.28,-2.94,0,56.68,54.84,nu,640A,E,230,Q3,0.5,Q3,60,Q3,0,-99999,-99999,0,0.3,20,0.51,20,HarvardCMT,0.021813165,0.022107223,0.0226213,0.023292253,0.025242286,0.033813298,0.036503389,0.032492448,0.030320573,0.02838334,0.030319567,0.031207846,0.024386025,0.009824604,0.006055959,0.002271124,-99999,-99999,-99999,-99999,-99999,-99999,0.029000961,0.029307694,0.029972913,0.031065922,0.033253381,0.039560678,0.041591803,0.037678065,0.033965028,0.032862826,0.039597504,0.039386982,0.031163786,0.013580277,0.008076709,0.003013254,-99999,-99999,-99999,-99999,-99999,-99999,0.021522,0.029039,0.010105,0.014102
1348340,1999-01-03T07:00:20.568000Z,I9646B03,5.22,0.15,Slab,N,1,211,80,-8.30E+01,nlloc,-41.0938,174.519,-41.2574,174.9485,6011432.3,2637591.18,5992552,2673256,3.7,3.7,40.29,69.65,39.95,67.96,-39.97,-2.19,0,56.68,54.84,nu,WDAS,E,120,Q1,1.6,Q2,62,Q2,0,-99999,-99999,0,0.4,35,0.68,35,HarvardCMT,0.019617303,0.020128714,0.020685299,0.022204912,0.023582489,0.029369313,0.029247404,0.035038679,0.03088333,0.028351835,0.026251633,0.021782841,0.02121076,0.025276506,0.022833247,-99999,-99999,-99999,-99999,-99999,-99999,-99999,0.02056951,0.020892333,0.021685262,0.023557366,0.025542393,0.03379531,0.035570803,0.043131931,0.032941755,0.032015982,0.031494196,0.029723546,0.028226408,0.028317244,0.028148723,-99999,-99999,-99999,-99999,-99999,-99999,-99999,0.019566,0.020568,0.016838,0.020664
1348340,1999-01-03T07:00:20.568000Z,I9708A04,5.22,0.15,Slab,N,1,211,80,-8.30E+01,nlloc,-41.0938,174.519,-41.1314,174.8391,6011432.3,2637591.18,6006740,2664387,3.7,3.7,27.14,62.88,26.45,61.06,-25.06,-9.78,0,56.68,54.84,nu,POLS,C,250,Q2,0.4,Q1,25,Q2,0,-99999,-99999,0,0.25,20,0.425,20,HarvardCMT,0.015908069,0.016179191,0.016645922,0.017643098,0.019703863,0.025092326,0.025190444,0.030094025,0.026322813,0.024856198,0.024253081,0.013450583,0.012478997,0.008402603,0.004823369,0.001715297,0.000882542,-99999,-99999,-99999,-99999,-99999,0.020215983,0.020490582,0.021021676,0.022052656,0.024156075,0.028806947,0.031643787,0.038913397,0.036389332,0.033854095,0.030013965,0.016953833,0.014541915,0.011882088,0.006186621,0.002419069,0.001247386,-99999,-99999,-99999,-99999,-99999,0.015729,0.019999,0.007194,0.008358
1348340,1999-01-03T07:00:20.568000Z,I9918C01,5.22,0.15,Slab,N,1,211,80,-8.30E+01,nlloc,-41.0938,174.519,-41.284,174.7682,6011432.3,2637591.18,5989908,2658140,3.7,3.7,29.7,64.14,29.14,62.35,-28.37,7.87,0,56.68,54.84,nu,WEL,B,1000,Q3,0.3,Q1,0,Q2,0,-99999,-99999,0,0.35,35,0.595,35,HarvardCMT,0.018660455,0.019371101,0.022138532,0.024060223,0.026114719,0.032718815,0.033750516,0.038034096,0.028105751,0.017707,0.012709441,0.009159956,0.007513042,0.00405018,0.002957286,0.001526351,-99999,-99999,-99999,-99999,-99999,-99999,0.022730317,0.023246208,0.024194555,0.025808351,0.030131855,0.046248394,0.036676564,0.048980726,0.039740781,0.025007586,0.017825298,0.012953207,0.009597511,0.005114299,0.004066848,0.00181765,-99999,-99999,-99999,-99999,-99999,-99999,0.018532,0.022602,0.006648,0.009403
