CuspID,Origin_time,Record,Mw,MwUncert,TectClass,Mech,PreferredFaultPlane,Strike,Dip,Rake,Location,HypLat,HypLon,StationLat,StationLon,HypN,HypE,StationN,StationE,LENGTH_km,WIDTH_km,Repi_km,Rhyp_km,Rjb_km,Rrup_km,Rx_km,Ry_km,Rvol_km,HypDepth_km,ZTOR_km,HWFW,SiteCode,SiteClass1170,Vs30,Vs30Uncert,Tsite,TsiteUncert,Z1,Z1Uncertainty,Directivity,Pulse_or,Pulse_T,S_Trigger_Flag,fcButterHP,f_iniLP,fmin,fmax,References,f100.0000SA_RotD50,f50.0000SA_RotD50,f33.3333SA_RotD50,f25.0000SA_RotD50,f20.0000SA_RotD50,f13.3333SA_RotD50,f10.0000SA_RotD50,f6.6667SA_RotD50,f5.0000SA_RotD50,f4.0000SA_RotD50,f3.3333SA_RotD50,f2.5000SA_RotD50,f2.0000SA_RotD50,f1.3333SA_RotD50,f1.0000SA_RotD50,f0.6667SA_RotD50,f0.5000SA_RotD50,f0.3333SA_RotD50,f0.2500SA_RotD50,f0.2000SA_RotD50,f0.1333SA_RotD50,f0.1000SA_RotD50,f100.0000SA_RotD100,f50.0000SA_RotD100,f33.3333SA_RotD100,f25.0000SA_RotD100,f20.0000SA_RotD100,f13.3333SA_RotD100,f10.0000SA_RotD100,f6.6667SA_RotD100,f5.0000SA_RotD100,f4.0000SA_RotD100,f3.3333SA_RotD100,f2.5000SA_RotD100,f2.0000SA_RotD100,f1.3333SA_RotD100,f1.0000SA_RotD100,f0.6667SA_RotD100,f0.5000SA_RotD100,f0.3333SA_RotD100,f0.2500SA_RotD100,f0.2000SA_RotD100,f0.1333SA_RotD100,f0.1000SA_RotD100,PGA_RotD50,PGA_RotD100,PGV_RotD50,PGV_RotD100
241414,1991-07-12T04:42:23.301999Z,D91302A4,5.3,0.15,Slab,S,1,135,57,25,geonet,-39.3052,175.9748,-39.9338,175.053,6206777.74,2766544.08,6139282,2685450,4.1,4.1,105.45,126.78,104.32,126.64,106.19,-9.62,0,70.28,68.56,nu,302A,D,250,Q2,0.8,Q3,80,Q3,0,-99999,-99999,1,0.3,12,0.51,12,HarvardCMT,0.017614338,0.017675705,0.017784642,0.01786636,0.018062713,0.018606926,0.021644807,0.022005236,0.024258133,0.029993041,0.030249022,0.028343497,0.024466466,0.016271397,0.011816821,0.005520014,-99999,-99999,-99999,-99999,-99999,-99999,0.019821464,0.019903832,0.020050341,0.020234142,0.020479573,0.021341884,0.023247526,0.025788363,0.028769623,0.034167442,0.034748741,0.037536288,0.030676787,0.022738247,0.016699877,0.007427897,-99999,-99999,-99999,-99999,-99999,-99999,0.01761,0.019802,0.015326,0.018936
255338,1991-09-08T13:50:30.989999Z,A92087A4,5.61,0.15,Slab,R,1,95,70,108,geonet,-40.2442,175.1672,-39.7163,175.1455,6104594.2,2694363.31,6163232,2693941,5.9,5.9,58.73,104.69,57.7,101.84,-57.37,-5.53,0,86.69,83.93,nu,087A,B,1000,Q3,<0.1,Q3,0,Q2,0,-99999,-99999,1,0.6,27,1.02,27,HarvardCMT,0.142766088,0.146073086,0.153358456,0.166627501,0.172788134,0.197834249,0.232703505,0.292820944,0.195273185,0.176263459,0.142946224,0.140993812,0.078488344,0.033377804,-99999,-99999,-99999,-99999,-99999,-99999,-99999,-99999,0.165778174,0.168372283,0.174111006,0.182440693,0.202008589,0.213865794,0.240766707,0.363244259,0.253067101,0.218902224,0.168918122,0.150064396,0.105294502,0.036553147,-99999,-99999,-99999,-99999,-99999,-99999,-99999,-99999,0.138426,0.165445,0.052495,0.059593
255338,1991-09-08T13:50:30.989999Z,D91302A5,5.61,0.15,Slab,R,1,95,70,108,geonet,-40.2442,175.1672,-39.9338,175.053,6104594.2,2694363.31,6139282,2685450,5.9,5.9,35.86,93.81,34.54,90.88,-32.78,-11.9,0,86.69,83.93,nu,302A,D,250,Q2,0.8,Q3,80,Q3,0,-99999,-99999,0,0.35,20,0.595,20,HarvardCMT,0.099110769,0.100067164,0.101658293,0.106424792,0.1190838,0.138440719,0.171371626,0.15832382,0.165546283,0.173329043,0.144686435,0.116619965,0.10004411,0.058212503,0.036827968,0.011107105,-99999,-99999,-99999,-99999,-99999,-99999,0.102914922,0.104171035,0.107534579,0.114735256,0.130160511,0.159307124,0.188618331,0.165910931,0.233194161,0.241640368,0.186412036,0.164548846,0.137684683,0.064100339,0.043517911,0.015030687,-99999,-99999,-99999,-99999,-99999,-99999,0.098958,0.102989,0.049331,0.058808
255338,1991-09-08T13:50:30.989999Z,D91467A2,5.61,0.15,Slab,R,1,95,70,108,geonet,-40.2442,175.1672,-41.2425,174.9024,6104594.2,2694363.31,5994293,2669430,5.9,5.9,113.22,142.49,112.16,141.58,113.06,-15.23,0,86.69,83.93,nu,467A,D,218,Q3,1.5,Q3,200,Q3,0,-99999,-99999,1,0.25,15,0.425,15,HarvardCMT,0.025394856,0.025591497,0.025899726,0.026338224,0.026967384,0.029178754,0.035812373,0.037031453,0.045670181,0.038640777,0.036040852,0.044774685,0.046964474,0.027725481,0.011586355,0.005526724,0.00248322,-99999,-99999,-99999,-99999,-99999,0.028935712,0.029175379,0.029576315,0.030197265,0.031114185,0.032588913,0.041300888,0.043748234,0.059249256,0.046620507,0.046198064,0.056696996,0.05697946,0.034392901,0.016386399,0.006084613,0.002750388,-99999,-99999,-99999,-99999,-99999,0.025376,0.028816,0.019351,0.021977
255338,1991-09-08T13:50:30.989999Z,D91468A2,5.61,0.15,Slab,R,1,95,70,108,geonet,-40.2442,175.1672,-41.2011,174.9547,6104594.2,2694363.31,5998793,2673916,5.9,5.9,107.9,138.3,106.86,137.35,108.18,-11.15,0,86.69,83.93,nu,468A,D,190,Q1,0.9,Q3,50,Q3,0,-99999,-99999,0,0.45,13,0.765,13,HarvardCMT,0.041219491,0.041659725,0.04233332,0.043227386,0.044309852,0.051482613,0.068952202,0.065950309,0.078815492,0.073426736,0.067799628,0.065910376,0.054771175,0.032654869,0.020082818,-99999,-99999,-99999,-99999,-99999,-99999,-99999,0.056428756,0.056946194,0.057810992,0.059130496,0.061084859,0.071884686,0.096083283,0.08660599,0.111087036,0.090140458,0.075071378,0.092796238,0.065441218,0.035474444,0.024409243,-99999,-99999,-99999,-99999,-99999,-99999,-99999,0.041167,0.056406,0.028165,0.036325
255338,1991-09-08T13:50:30.989999Z,D91606B1,5.61,0.15,Slab,R,1,95,70,108,geonet,-40.2442,175.1672,-41.2333,174.9199,6104594.2,2694363.31,5995282,2670919,5.9,5.9,111.94,141.47,110.88,140.55,111.94,-13.83,0,86.69,83.93,nu,606B,B,800,Q3,<0.1,Q3,0,Q3,0,-99999,-99999,0,0.45,26,0.765,26,HarvardCMT,0.018284108,0.018524147,0.018892148,0.019912004,0.020757807,0.024896989,0.026515081,0.022021878,0.028597107,0.034705495,0.033605324,0.023646224,0.014199775,0.007172462,0.003980114,-99999,-99999,-99999,-99999,-99999,-99999,-99999,0.022028642,0.022412236,0.023118749,0.023465877,0.023644439,0.028135051,0.029507244,0.024858547,0.037656076,0.041669709,0.040368446,0.030154856,0.018996505,0.009271135,0.005393481,-99999,-99999,-99999,-99999,-99999,-99999,-99999,0.018079,0.022062,0.00858,0.011222
255338,1991-09-08T13:50:30.989999Z,D91642E7,5.61,0.15,Slab,R,1,95,70,108,geonet,-40.2442,175.1672,-41.2341,174.918,6104594.2,2694363.31,5995197,2670758,5.9,5.9,112.06,141.57,111,140.65,112.04,-13.98,0,86.69,83.93,nu,642E,C,350,Q1,0.35,Q2,50,Q3,0,-99999,-99999,0,0.5,12,0.85,12,HarvardCMT,0.04974791,0.049874435,0.050064829,0.050324986,0.050743593,0.052162906,0.051265501,0.064752236,0.091323378,0.101604689,0.112151844,0.093464745,0.04710243,0.020587607,0.010197622,-99999,-99999,-99999,-99999,-99999,-99999,-99999,0.060246991,0.060415552,0.060747863,0.061221115,0.061814928,0.063936081,0.06606801,0.084636141,0.111481725,0.122363227,0.141560223,0.106961434,0.050623003,0.023272308,0.010914906,-99999,-99999,-99999,-99999,-99999,-99999,-99999,0.049631,0.060112,0.028527,0.031818
255338,1991-09-08T13:50:30.989999Z,D91644C3,5.61,0.15,Slab,R,1,95,70,108,geonet,-40.2442,175.1672,-41.2187,174.8826,6104594.2,2694363.31,5996970,2667828,5.9,5.9,110.98,140.72,109.9,139.76,110.53,-17.05,0,86.69,83.93,nu,644C,D,189,Q3,2,Q3,250,Q3,0,-99999,-99999,0,0.35,15,0.595,15,HarvardCMT,0.02210463,0.022262208,0.022539511,0.022930961,0.02348921,0.026290276,0.03063918,0.037053572,0.040868746,0.037699439,0.04209937,0.042486434,0.031016239,0.012584368,0.007268775,0.004123385,-99999,-99999,-99999,-99999,-99999,-99999,0.025346305,0.025473416,0.025742146,0.026046371,0.026255596,0.030326569,0.034788572,0.04038569,0.044196779,0.043091365,0.050965514,0.049817702,0.032278908,0.014564393,0.009646974,0.004901868,-99999,-99999,-99999,-99999,-99999,-99999,0.022024,0.025364,0.012054,0.01511
255338,1991-09-08T13:50:30.989999Z,D91646A2,5.61,0.15,Slab,R,1,95,70,108,geonet,-40.2442,175.1672,-41.2574,174.9485,6104594.2,2694363.31,5992552,2673256,5.9,5.9,114.16,143.28,113.12,142.4,114.46,-11.26,0,86.69,83.93,nu,WDAS,E,120,Q1,1.6,Q2,62,Q2,0,-99999,-99999,0,0.35,18,0.595,18,HarvardCMT,0.051333128,0.051579021,0.052143878,0.053080265,0.054669765,0.057665164,0.061715451,0.072949905,0.074223307,0.08336021,0.098241404,0.072432344,0.052070623,0.027800847,0.020950328,0.010434571,-99999,-99999,-99999,-99999,-99999,-99999,0.055364562,0.055629767,0.056110907,0.056871094,0.058290561,0.06616517,0.074796234,0.083985093,0.084211835,0.109817383,0.127809483,0.087970636,0.062194232,0.0320692,0.029123883,0.013612561,-99999,-99999,-99999,-99999,-99999,-99999,0.051233,0.055137,0.027295,0.029666
255338,1991-09-08T13:50:30.989999Z,D91705B3,5.61,0.15,Slab,R,1,95,70,108,geonet,-40.2442,175.1672,-41.1391,174.8502,6104594.2,2694363.31,6005867,2665298,5.9,5.9,103.03,134.58,101.9,133.49,101.89,-20.35,0,86.69,83.93,nu,707A,C,570,Q3,0.15,Q3,10,Q3,0,-99999,-99999,0,0.5,15,0.85,15,HarvardCMT,0.033751345,0.034054778,0.034494472,0.035238708,0.036224613,0.037673004,0.045207245,0.049139379,0.069434787,0.066828055,0.059360047,0.043134825,0.021616914,0.009836909,0.005714594,-99999,-99999,-99999,-99999,-99999,-99999,-99999,0.03922786,0.039388231,0.039731603,0.040232938,0.040841858,0.044832514,0.05963417,0.068710275,0.095988896,0.091318361,0.070982179,0.050901963,0.026524301,0.012260426,0.007500208,-99999,-99999,-99999,-99999,-99999,-99999,-99999,0.033595,0.039242,0.013553,0.018716
255338,1991-09-08T13:50:30.989999Z,D91706A2,5.61,0.15,Slab,R,1,95,70,108,geonet,-40.2442,175.1672,-41.1288,174.8382,6104594.2,2694363.31,6007032,2664315,5.9,5.9,102.2,133.93,101.05,132.82,100.81,-21.43,0,86.69,83.93,nu,706A,C,210,Q3,0.5,Q2,30,Q3,0,-99999,-99999,0,0.35,12,0.595,12,HarvardCMT,0.074968147,0.075334203,0.075904239,0.076782198,0.078280089,0.085193959,0.095737497,0.119097442,0.13126525,0.121277642,0.130533714,0.134610701,0.081757316,0.036356524,0.016772389,0.006757043,-99999,-99999,-99999,-99999,-99999,-99999,0.089344823,0.089743469,0.090367233,0.091277866,0.092540643,0.098435995,0.106295679,0.154417733,0.175778949,0.132616791,0.173433037,0.180291955,0.103001117,0.041958433,0.020618131,0.008717533,-99999,-99999,-99999,-99999,-99999,-99999,0.074799,0.089337,0.037786,0.048001
255338,1991-09-08T13:50:30.989999Z,D91900B7,5.61,0.15,Slab,R,1,95,70,108,geonet,-40.2442,175.1672,-41.2921,174.779,6104594.2,2694363.31,5989003,2658976,5.9,5.9,121.02,148.76,119.87,147.84,119.24,-25.18,0,86.69,83.93,nu,941A,D,272,Q2,0.85,Q2,9.85E+01,Q2,0,-99999,-99999,0,0.45,12,0.765,12,HarvardCMT,0.03602758,0.036147599,0.036324821,0.03656954,0.036968824,0.03828048,0.040451823,0.053780052,0.064101903,0.073823449,0.074346558,0.066116681,0.052301479,0.029698944,0.016302232,-99999,-99999,-99999,-99999,-99999,-99999,-99999,0.050777837,0.050986209,0.051290321,0.051696199,0.052186473,0.054086477,0.052630899,0.069467585,0.088218794,0.102254816,0.099705205,0.086397084,0.073911901,0.039804512,0.022508202,-99999,-99999,-99999,-99999,-99999,-99999,-99999,0.035998,0.05075,0.022835,0.030844
255338,1991-09-08T13:50:30.989999Z,D91918B7,5.61,0.15,Slab,R,1,95,70,108,geonet,-40.2442,175.1672,-41.284,174.7682,6104594.2,2694363.31,5989908,2658140,5.9,5.9,120.4,148.34,119.25,147.39,118.41,-26.09,0,86.69,83.93,nu,WEL,B,1000,Q3,0.3,Q1,0,Q2,0,-99999,-99999,0,0.5,18,0.85,18,HarvardCMT,0.041827538,0.042064151,0.042450651,0.043067259,0.044168705,0.047929513,0.053298339,0.066480686,0.085835071,0.09175268,0.069612036,0.039935057,0.019154302,0.008953262,0.004525245,-99999,-99999,-99999,-99999,-99999,-99999,-99999,0.057587038,0.057927453,0.058533109,0.059527591,0.061157053,0.066644474,0.072849757,0.088916994,0.120235621,0.127592139,0.09418978,0.050681247,0.026190864,0.012623957,0.006213151,-99999,-99999,-99999,-99999,-99999,-99999,-99999,0.041816,0.05761,0.016822,0.023348
255338,1991-09-08T13:50:30.989999Z,D91935B3,5.61,0.15,Slab,R,1,95,70,108,geonet,-40.2442,175.1672,-41.2108,174.9047,6104594.2,2694363.31,5997808,2669699,5.9,5.9,109.73,139.74,108.66,138.78,109.53,-15.26,0,86.69,83.93,nu,935A,D,240,Q3,1.2,Q3,275,Q3,0,-99999,-99999,1,0.45,15,0.765,15,HarvardCMT,0.035510707,0.03559658,0.035742656,0.035935389,0.036084678,0.039206485,0.0458103,0.051079328,0.069241569,0.086438234,0.082428635,0.06391503,0.043132821,0.017433222,0.009225497,-99999,-99999,-99999,-99999,-99999,-99999,-99999,0.050144624,0.050261696,0.050406555,0.050563324,0.050658007,0.053239083,0.064001885,0.072238464,0.095750795,0.122255603,0.114838702,0.08453507,0.048630778,0.019965075,0.010029491,-99999,-99999,-99999,-99999,-99999,-99999,-99999,0.035455,0.050141,0.022492,0.028499
255338,1991-09-08T13:50:30.989999Z,K91102A3,5.61,0.15,Slab,R,1,95,70,108,geonet,-40.2442,175.1672,-39.4637,175.5669,6104594.2,2694363.31,6190285,2730871,5.9,5.9,93.25,127.72,91.95,125.06,-87.54,28.9,0,86.69,83.93,nu,102A,C,555,Q3,0.15,Q3,12,Q3,0,-99999,-99999,1,0.5,18,0.85,18,HarvardCMT,0.045319457,0.045979095,0.046846162,0.048432112,0.050456839,0.055824094,0.072477797,0.09224436,0.085259382,0.069698062,0.05237558,0.032863657,0.020369252,0.01329666,0.008434998,-99999,-99999,-99999,-99999,-99999,-99999,-99999,0.0517501,0.052529064,0.054263262,0.056770005,0.060315427,0.074078148,0.098663395,0.098415375,0.099295112,0.078916843,0.062131049,0.041422357,0.026149105,0.015900373,0.011215093,-99999,-99999,-99999,-99999,-99999,-99999,-99999,0.044941,0.051243,0.015324,0.0173
314805,1992-03-30T07:02:51.226999Z,D92505A1,5.5,0.15,Crustal,R,1,205,76,77,nlloc,-43.0605,171.212,-42.9489,171.5677,5792540.97,2364375.65,5805487,2393135,5.17,5.17,31.47,32.08,29.52,30.01,-19.97,-23.89,0,5.12,2.61,nu,APPS,C,300,Q2,0.4,Q1,30,Q2,0,-99999,-99999,0,0.6,20,1.02,20,HarvardCMT,0.026720822,0.027070209,0.02770755,0.028819201,0.031672059,0.037278292,0.038271402,0.054802569,0.0476754,0.043734231,0.046893824,0.04558002,0.027729705,0.012630238,-99999,-99999,-99999,-99999,-99999,-99999,-99999,-99999,0.031044948,0.031174241,0.031435615,0.031822624,0.034535954,0.040237617,0.041036759,0.060989522,0.051218486,0.057722181,0.054853807,0.057270757,0.035827794,0.015000579,-99999,-99999,-99999,-99999,-99999,-99999,-99999,-99999,0.026526,0.031057,0.016402,0.018266
339342,1992-05-27T22:30:35.064000Z,D92129A2,5.9,0.08,Slab,S,1,117,85,21,special,-41.63,173.62,-41.7999,172.328,5952812.98,2561652.09,5933893,2454147,8.2,8.2,108.89,128.17,105.65,124.79,66.02,-87.2,0,67,62.92,nu,MCAS,D,501,Q3,1.6,Q3,200,Q3,0,-99999,-99999,0,0.23,19,0.391,19,Webb_Anderson_1998&Dowrick_Rhoades1998&HarvardCMT,0.028706402,0.02917128,0.029890464,0.030880561,0.032641751,0.038134938,0.039214439,0.04006004,0.042589542,0.038471509,0.045853702,0.039447257,0.029001677,0.021593456,0.012768752,0.007042564,0.005080807,-99999,-99999,-99999,-99999,-99999,0.032365611,0.032646254,0.033115717,0.033975136,0.036016375,0.042072044,0.041738136,0.044471419,0.048575415,0.046535471,0.050747146,0.041123512,0.031609105,0.025491108,0.014867185,0.007237111,0.006704626,-99999,-99999,-99999,-99999,-99999,0.028644,0.032355,0.016475,0.019402
339342,1992-05-27T22:30:35.064000Z,D92467A3,5.9,0.08,Slab,S,1,117,85,21,special,-41.63,173.62,-41.2425,174.9024,5952812.98,2561652.09,5994293,2669430,8.2,8.2,115.26,133.52,112.56,130.25,-85.53,77.2,0,67,62.92,nu,467A,D,218,Q3,1.5,Q3,200,Q3,0,-99999,-99999,0,0.35,14,0.595,14,Webb_Anderson_1998&Dowrick_Rhoades1998&HarvardCMT,0.031673974,0.031779449,0.03201031,0.032291323,0.032768131,0.034004256,0.035602116,0.040398992,0.048283092,0.053378213,0.042658795,0.05197325,0.050653936,0.018852399,0.012923028,0.007407653,-99999,-99999,-99999,-99999,-99999,-99999,0.034825811,0.034987294,0.035258649,0.035767869,0.036586733,0.042363109,0.04266602,0.043784295,0.051504822,0.058265583,0.051532159,0.059842041,0.060334011,0.022752764,0.014486516,0.008106094,-99999,-99999,-99999,-99999,-99999,-99999,0.031627,0.034838,0.01937,0.02218
339342,1992-05-27T22:30:35.064000Z,D92468A6,5.9,0.08,Slab,S,1,117,85,21,special,-41.63,173.62,-41.2011,174.9547,5952812.98,2561652.09,5998793,2673916,8.2,8.2,121.08,138.59,118.45,135.4,-91.58,79.15,0,67,62.92,nu,468A,D,190,Q1,0.9,Q3,50,Q3,0,-99999,-99999,0,0.4,19,0.68,19,Webb_Anderson_1998&Dowrick_Rhoades1998&HarvardCMT,0.030554824,0.030771491,0.03104796,0.031413076,0.0320969,0.035155144,0.042645521,0.050146931,0.048563603,0.051085237,0.049872014,0.053282293,0.033203799,0.017410773,0.015199695,-99999,-99999,-99999,-99999,-99999,-99999,-99999,0.035642154,0.035846872,0.036189729,0.036743874,0.037409639,0.040274319,0.04578961,0.055986203,0.057595942,0.05683402,0.057050246,0.058098438,0.041695112,0.022797008,0.01732998,-99999,-99999,-99999,-99999,-99999,-99999,-99999,0.030491,0.035661,0.016906,0.020622
339342,1992-05-27T22:30:35.064000Z,D92644C3,5.9,0.08,Slab,S,1,117,85,21,special,-41.63,173.62,-41.2187,174.8826,5952812.98,2561652.09,5996970,2667828,8.2,8.2,114.77,133.09,112.16,129.87,-87.19,74.56,0,67,62.92,nu,644C,D,189,Q3,2,Q3,250,Q3,0,-99999,-99999,0,0.25,12,0.425,12,Webb_Anderson_1998&Dowrick_Rhoades1998&HarvardCMT,0.021867075,0.021969668,0.022150293,0.022353468,0.02265615,0.024648689,0.030229672,0.034104206,0.033692421,0.04032495,0.034950762,0.040664696,0.037504651,0.016722596,0.008777165,0.004468191,0.002928002,-99999,-99999,-99999,-99999,-99999,0.025544017,0.025682192,0.025925199,0.026318762,0.026908751,0.03073307,0.035848466,0.041811476,0.040882683,0.049803743,0.047073693,0.050551771,0.045930856,0.02151,0.010169107,0.005263953,0.003951791,-99999,-99999,-99999,-99999,-99999,0.021789,0.025551,0.015829,0.019203
339342,1992-05-27T22:30:35.064000Z,D92646A5,5.9,0.08,Slab,S,1,117,85,21,special,-41.63,173.62,-41.2574,174.9485,5952812.98,2561652.09,5992552,2673256,8.2,8.2,118.23,136.15,115.45,132.85,-85.72,81.4,0,67,62.92,nu,WDAS,E,120,Q1,1.6,Q2,62,Q2,0,-99999,-99999,0,0.5,16,0.85,16,Webb_Anderson_1998&Dowrick_Rhoades1998&HarvardCMT,0.027546321,0.027755819,0.0280283,0.028537342,0.029253712,0.03200375,0.031984879,0.031529053,0.036626244,0.046813618,0.056111836,0.037670397,0.036579276,0.025213037,0.028450571,-99999,-99999,-99999,-99999,-99999,-99999,-99999,0.03183818,0.031988567,0.032233911,0.032642636,0.03344618,0.036084666,0.036165042,0.035638471,0.039144562,0.050043898,0.060916306,0.04399314,0.040975436,0.030626291,0.035190891,-99999,-99999,-99999,-99999,-99999,-99999,-99999,0.027296,0.031602,0.020955,0.023387
339342,1992-05-27T22:30:35.064000Z,D92647A1,5.9,0.08,Slab,S,1,117,85,21,special,-41.63,173.62,-41.2871,174.778,5952812.98,2561652.09,5989560,2658904,8.2,8.2,103.76,123.68,101.04,120.35,-76.54,69.97,0,67,62.92,nu,647A,C,474,Q2,0.12,Q2,5.70E+00,Q2,0,-99999,-99999,0,0.4,19,0.68,19,Webb_Anderson_1998&Dowrick_Rhoades1998&HarvardCMT,0.019833362,0.02011141,0.020598103,0.021322888,0.02231335,0.024324998,0.027456679,0.029673275,0.029404762,0.031028232,0.036363916,0.033349225,0.02031759,0.00785378,0.006178469,-99999,-99999,-99999,-99999,-99999,-99999,-99999,0.024830032,0.025022426,0.025340338,0.025827641,0.026596012,0.031731159,0.033148068,0.03849028,0.035897789,0.041407245,0.040288743,0.041327576,0.0287327,0.011028314,0.008561148,-99999,-99999,-99999,-99999,-99999,-99999,-99999,0.01987,0.024677,0.010584,0.014771
339342,1992-05-27T22:30:35.064000Z,D92706A2,5.9,0.08,Slab,S,1,117,85,21,special,-41.63,173.62,-41.1288,174.8382,5952812.98,2561652.09,6007032,2664315,8.2,8.2,115.91,134.05,113.6,131,-94.56,66.86,0,67,62.92,nu,706A,C,210,Q3,0.5,Q2,30,Q3,0,-99999,-99999,0,0.45,12,0.765,12,Webb_Anderson_1998&Dowrick_Rhoades1998&HarvardCMT,0.030395037,0.03060551,0.030944837,0.031335918,0.0318897,0.033990946,0.038632011,0.04567726,0.05612565,0.063589957,0.050064956,0.046238798,0.034560259,0.018638071,0.01144467,-99999,-99999,-99999,-99999,-99999,-99999,-99999,0.033416339,0.033662945,0.034052827,0.034609651,0.03542446,0.039189891,0.041609849,0.05060008,0.062830463,0.077801959,0.058201886,0.05367067,0.037468199,0.021991322,0.015307636,-99999,-99999,-99999,-99999,-99999,-99999,-99999,0.030306,0.033412,0.017727,0.019672
