CuspID,Origin_time,Record,Mw,MwUncert,TectClass,Mech,PreferredFaultPlane,Strike,Dip,Rake,Location,HypLat,HypLon,StationLat,StationLon,HypN,HypE,StationN,StationE,LENGTH_km,WIDTH_km,Repi_km,Rhyp_km,Rjb_km,Rrup_km,Rx_km,Ry_km,Rvol_km,HypDepth_km,ZTOR_km,HWFW,SiteCode,SiteClass1170,Vs30,Vs30Uncert,Tsite,TsiteUncert,Z1,Z1Uncertainty,Directivity,Pulse_or,Pulse_T,S_Trigger_Flag,fcButterHP,f_iniLP,fmin,fmax,References,f100.0000SA_RotD50,f50.0000SA_RotD50,f33.3333SA_RotD50,f25.0000SA_RotD50,f20.0000SA_RotD50,f13.3333SA_RotD50,f10.0000SA_RotD50,f6.6667SA_RotD50,f5.0000SA_RotD50,f4.0000SA_RotD50,f3.3333SA_RotD50,f2.5000SA_RotD50,f2.0000SA_RotD50,f1.3333SA_RotD50,f1.0000SA_RotD50,f0.6667SA_RotD50,f0.5000SA_RotD50,f0.3333SA_RotD50,f0.2500SA_RotD50,f0.2000SA_RotD50,f0.1333SA_RotD50,f0.1000SA_RotD50,f100.0000SA_RotD100,f50.0000SA_RotD100,f33.3333SA_RotD100,f25.0000SA_RotD100,f20.0000SA_RotD100,f13.3333SA_RotD100,f10.0000SA_RotD100,f6.6667SA_RotD100,f5.0000SA_RotD100,f4.0000SA_RotD100,f3.3333SA_RotD100,f2.5000SA_RotD100,f2.0000SA_RotD100,f1.3333SA_RotD100,f1.0000SA_RotD100,f0.6667SA_RotD100,f0.5000SA_RotD100,f0.3333SA_RotD100,f0.2500SA_RotD100,f0.2000SA_RotD100,f0.1333SA_RotD100,f0.1000SA_RotD100,PGA_RotD50,PGA_RotD100,PGV_RotD50,PGV_RotD100
339342,1992-05-27T22:30:35.064000Z,D92707A1,5.9,0.08,Slab,S,1,117,85,21,special,-41.63,173.62,-41.1391,174.8502,5952812.98,2561652.09,6005867,2665298,8.2,8.2,116.24,134.35,113.89,131.28,-93.97,68.26,0,67,62.92,nu,707A,C,570,Q3,0.15,Q3,10,Q3,0,-99999,-99999,0,0.5,21,0.85,21,Webb_Anderson_1998&Dowrick_Rhoades1998&HarvardCMT,0.022482167,0.022660717,0.02298744,0.023401163,0.024012778,0.029897361,0.037727551,0.03990824,0.03056109,0.026902948,0.026088126,0.021300836,0.015012977,0.005155276,0.002807383,-99999,-99999,-99999,-99999,-99999,-99999,-99999,0.02708185,0.027370137,0.027952654,0.028876866,0.029396398,0.035396543,0.042854918,0.046942297,0.034405598,0.031014325,0.032849302,0.02878117,0.020909134,0.006724475,0.003119363,-99999,-99999,-99999,-99999,-99999,-99999,-99999,0.022265,0.027107,0.007825,0.010582
339342,1992-05-27T22:30:35.064000Z,D92918B5,5.9,0.08,Slab,S,1,117,85,21,special,-41.63,173.62,-41.284,174.7682,5952812.98,2561652.09,5989908,2658140,8.2,8.2,103.13,123.26,100.44,119.93,-76.5,69.13,0,67,62.92,nu,WEL,B,1000,Q3,0.3,Q1,0,Q2,0,-99999,-99999,0,0.4,18,0.68,18,Webb_Anderson_1998&Dowrick_Rhoades1998&HarvardCMT,0.020404992,0.020502226,0.020664093,0.020908874,0.021275739,0.023440842,0.025343517,0.033280493,0.041764732,0.04249311,0.037023678,0.035744823,0.019096882,0.008124955,0.005675133,-99999,-99999,-99999,-99999,-99999,-99999,-99999,0.025816313,0.02603121,0.026366574,0.02682437,0.027364223,0.026744697,0.035179188,0.043933504,0.052118412,0.05527384,0.050622552,0.047183922,0.024044013,0.009425099,0.007942233,-99999,-99999,-99999,-99999,-99999,-99999,-99999,0.020406,0.02579,0.01161,0.014177
339342,1992-05-27T22:30:35.064000Z,D92935B2,5.9,0.08,Slab,S,1,117,85,21,special,-41.63,173.62,-41.2108,174.9047,5952812.98,2561652.09,5997808,2669699,8.2,8.2,116.82,134.86,114.21,131.66,-88.79,75.84,0,67,62.92,nu,935A,D,240,Q3,1.2,Q3,275,Q3,0,-99999,-99999,0,0.35,16,0.595,16,Webb_Anderson_1998&Dowrick_Rhoades1998&HarvardCMT,0.018493436,0.01859064,0.018979007,0.019721793,0.020911197,0.025048295,0.032435611,0.032917218,0.032398696,0.041507247,0.040689185,0.028857778,0.01997035,0.010264766,0.006871787,0.00442107,-99999,-99999,-99999,-99999,-99999,-99999,0.022392649,0.022683284,0.023166522,0.023921529,0.025010471,0.027303462,0.034286088,0.040027693,0.040215636,0.050408517,0.049157373,0.036036699,0.025765078,0.012767988,0.009348835,0.004824022,-99999,-99999,-99999,-99999,-99999,-99999,0.018451,0.022359,0.01207,0.013051
339342,1992-05-27T22:30:35.064000Z,K92934B1,5.9,0.08,Slab,S,1,117,85,21,special,-41.63,173.62,-41.2436,174.908,5952812.98,2561652.09,5994160,2669897,8.2,8.2,115.64,133.85,112.94,130.58,-85.63,77.68,0,67,62.92,nu,934B,D,180,Q1,1.1,Q3,100,Q3,0,-99999,-99999,1,0.4,16,0.68,16,Webb_Anderson_1998&Dowrick_Rhoades1998&HarvardCMT,0.025406424,0.025502329,0.025713164,0.026033364,0.026495427,0.027958268,0.032113659,0.0397914,0.035764122,0.039103281,0.042010683,0.049977471,0.049414697,0.018437349,0.011308418,-99999,-99999,-99999,-99999,-99999,-99999,-99999,0.035623764,0.035798736,0.036086444,0.03648046,0.037012131,0.038926763,0.039413139,0.053253875,0.05057507,0.043441478,0.048173177,0.064097101,0.063125676,0.024099217,0.014218511,-99999,-99999,-99999,-99999,-99999,-99999,-99999,0.025401,0.035412,0.017923,0.022841
338849,1992-06-21T17:43:09.086000Z,K92028A1,6.25,0.08,Crustal,N,1,32,41,246,special,-37.67,176.86,-38.0079,177.284,6385179.66,2850645.07,6346024,2886230,12.26,12.26,52.9,53.06,48.15,48.79,55.55,-14.35,25,4,0.01,nu,028A,D,210,Q3,1,Q3,75,Q3,0,-99999,-99999,1,0.2,15,0.34,15,Webb_Anderson_1998&Dowrick_Rhoades1998&HarvardCMT,0.031133297,0.031385192,0.031864301,0.032606795,0.033826021,0.042777926,0.048154642,0.055664121,0.052774414,0.044752747,0.043374946,0.04893498,0.050042965,0.040176971,0.036546645,0.026028325,0.024052456,-99999,-99999,-99999,-99999,-99999,0.033825424,0.034087591,0.034552011,0.035349154,0.036656755,0.047138185,0.051057896,0.063264287,0.065640259,0.055426902,0.046440872,0.053727501,0.055958335,0.04798225,0.041530061,0.0323997,0.028382722,-99999,-99999,-99999,-99999,-99999,0.031059,0.033848,0.042707,0.059619
338849,1992-06-21T17:43:09.086000Z,A92930A1,6.25,0.08,Crustal,N,1,32,41,246,special,-37.67,176.86,-37.9885,176.8294,6385179.66,2850645.07,6349976,2846440,12.26,12.26,35.52,35.68,29.64,30.05,19.71,-32.08,30,4,0.01,nu,930A,E,150,Q3,>2,Q3,300,Q3,0,-99999,-99999,1,0.15,12,0.255,12,Webb_Anderson_1998&Dowrick_Rhoades1998&HarvardCMT,0.041405827,0.04147219,0.041599529,0.041788164,0.042066543,0.043055178,0.047807426,0.050739316,0.048602308,0.056563169,0.055709301,0.056728735,0.071913486,0.061833482,0.063229435,0.048039199,0.032451555,0.02603405,-99999,-99999,-99999,-99999,0.052090423,0.05220065,0.052374331,0.052653423,0.053088712,0.054930454,0.05808095,0.062074166,0.059152762,0.063474537,0.065144824,0.074093096,0.079335181,0.070146905,0.07110064,0.052984478,0.034281499,0.032682863,-99999,-99999,-99999,-99999,0.041386,0.051907,0.084975,0.103354
435226,1993-04-11T06:59:48.228000Z,A93032A1,5.68,0.08,Interface,O,1,198,15,52,special,-39.74,176.52,-39.9425,176.5874,6156829.5,2811622.89,6134136,2816486,8.63,8.63,23.24,34.95,18.95,31.74,-7.47,20.08,0,26,24.88,nu,032A,C,495,Q3,0.13,Q3,10,Q3,0,-99999,-99999,1,0.4,10,0.68,10,Webb_Anderson_1998&Dowrick_Rhoades1998&HarvardCMT,0.158458787,0.158859178,0.159499474,0.160397609,0.161592977,0.165431475,0.172102311,0.215056504,0.247780909,0.249142465,0.267386208,0.267943505,0.252123255,0.166233089,0.109511392,-99999,-99999,-99999,-99999,-99999,-99999,-99999,0.185053656,0.185463427,0.186098608,0.186985037,0.188290307,0.192002003,0.193506138,0.247942345,0.31452383,0.334189133,0.340885181,0.336068584,0.307589201,0.2099418,0.125890003,-99999,-99999,-99999,-99999,-99999,-99999,-99999,0.158186,0.185064,0.131958,0.175139
435226,1993-04-11T06:59:48.228000Z,D93014A2,5.68,0.08,Interface,O,1,198,15,52,special,-39.74,176.52,-39.4984,176.8761,6156829.5,2811622.89,6182359,2843283,8.63,8.63,40.64,48.27,36.38,44.35,-18.05,-34.06,0,26,24.88,nu,NCDS,E,162,Q3,1.25,Q2,110,Q3,0,-99999,-99999,0,0.24,12,0.408,12,Webb_Anderson_1998&Dowrick_Rhoades1998&HarvardCMT,0.032494665,0.032764061,0.033365352,0.034138185,0.035366434,0.040330254,0.044858911,0.053999096,0.053672229,0.053609562,0.048563634,0.045234137,0.034700785,0.028414529,0.019924128,0.008006177,0.00368368,-99999,-99999,-99999,-99999,-99999,0.039520989,0.039712392,0.040045114,0.040603007,0.041324886,0.043947591,0.050447141,0.063507677,0.058395348,0.058450461,0.053591632,0.061024594,0.043363802,0.032416786,0.02103004,0.01043389,0.004861748,-99999,-99999,-99999,-99999,-99999,0.032393,0.039539,0.021884,0.02309
435226,1993-04-11T06:59:48.228000Z,D93015A1,5.68,0.08,Interface,O,1,198,15,52,special,-39.74,176.52,-39.4891,176.8982,6156829.5,2811622.89,6183313,2845228,8.63,8.63,42.76,50.1,38.49,46.14,-19.61,-35.57,0,26,24.88,nu,015A,B,1000,Q3,<0.1,Q3,0,Q3,0,-99999,-99999,0,0.5,12,0.85,12,Webb_Anderson_1998&Dowrick_Rhoades1998&HarvardCMT,0.016452339,0.016555305,0.016708375,0.017006844,0.017356136,0.019219102,0.020094205,0.023267463,0.026571549,0.031923993,0.03280866,0.027517074,0.022763589,0.008638658,0.006028683,-99999,-99999,-99999,-99999,-99999,-99999,-99999,0.017768857,0.017903835,0.018106495,0.018454394,0.018983624,0.020902545,0.023627919,0.025392953,0.02988174,0.037732607,0.040140623,0.034951628,0.025986896,0.009694628,0.007341317,-99999,-99999,-99999,-99999,-99999,-99999,-99999,0.016392,0.017773,0.009443,0.011342
435226,1993-04-11T06:59:48.228000Z,D93029A2,5.68,0.08,Interface,O,1,198,15,52,special,-39.74,176.52,-39.6458,176.8429,6156829.5,2811622.89,6166127,2839726,8.63,8.63,29.55,39.41,25.33,35.69,-19.69,-17.53,0,26,24.88,nu,HCDS,D,182,Q2,>2,Q3,1000,Q3,0,-99999,-99999,0,0.2,15,0.34,15,Webb_Anderson_1998&Dowrick_Rhoades1998&HarvardCMT,0.029054055,0.029339127,0.029733811,0.03058954,0.031814675,0.035913136,0.039281757,0.047648046,0.050255729,0.056102728,0.060277621,0.046855921,0.030437464,0.028681392,0.019841371,0.008732408,0.007854101,-99999,-99999,-99999,-99999,-99999,0.03461182,0.034700776,0.03483511,0.035043538,0.035376969,0.038086869,0.043654181,0.063759568,0.06848686,0.064659903,0.074351564,0.063838882,0.039227056,0.03691111,0.025227612,0.010340972,0.009373438,-99999,-99999,-99999,-99999,-99999,0.02904,0.034619,0.026152,0.030611
471730,1993-08-10T00:51:55.033000Z,A93070A1,6.89,0.08,Interface,R,1,41,41,107,nlloc,-45.3625,166.649,-45.4167,167.7191,5519161.25,2012843.95,5519112,2096857,34.75,34.75,83.78,85.7,74.67,77.26,68.91,55.08,0,16.72,11.96,nu,TAFS,D,298,Q3,1.4,Q3,200,Q3,0,-99999,-99999,1,0.2,19,0.34,19,Robinson_etal_2003&Dowrick_Rhoades1998&HarvardCMT,0.063894706,0.064539166,0.065639574,0.067462347,0.068943348,0.087271265,0.106711733,0.110015301,0.100367814,0.095138414,0.078868265,0.069458874,0.06719065,0.052832598,0.051435292,0.042788814,0.030356213,-99999,-99999,-99999,-99999,-99999,0.085584366,0.086526308,0.088124221,0.090504342,0.093814346,0.110354722,0.113736129,0.147869109,0.12968049,0.128071428,0.109391802,0.093841482,0.07447811,0.066637739,0.061661915,0.051839533,0.04147153,-99999,-99999,-99999,-99999,-99999,0.063904,0.085534,0.06115,0.07679
471730,1993-08-10T00:51:55.033000Z,A93940A1,6.89,0.08,Interface,R,1,41,41,107,nlloc,-45.3625,166.649,-45.0322,168.6629,5519161.25,2012843.95,5566104,2168345,34.75,34.75,162.01,163.32,150.75,152.25,92.03,137.45,0,16.72,11.96,nu,QTPS,D,350,Q3,0.95,Q1,90,Q3,0,-99999,-99999,1,0.5,10,0.85,10,Robinson_etal_2003&Dowrick_Rhoades1998&HarvardCMT,0.035841957,0.035987305,0.036239105,0.036563815,0.037041923,0.038881775,0.04232759,0.053492123,0.072823202,0.076396768,0.072922363,0.059203851,0.045370315,0.033345728,0.019223233,-99999,-99999,-99999,-99999,-99999,-99999,-99999,0.040264512,0.040515066,0.040906247,0.041442666,0.042146211,0.044729419,0.050141244,0.062128122,0.080646837,0.081841325,0.079542519,0.073566613,0.054776656,0.041909641,0.021352351,-99999,-99999,-99999,-99999,-99999,-99999,-99999,0.035774,0.040236,0.023354,0.02647
471730,1993-08-10T00:51:55.033000Z,D93044A2s,6.89,0.08,Interface,R,1,41,41,107,nlloc,-45.3625,166.649,-45.8986,170.5097,5519161.25,2012843.95,5475848,2316608,34.75,34.75,306.03,307.29,297.73,299.13,263.14,166.6,0,16.72,11.96,nu,SKFS,D,140,Q2,0.8,Q3,25,Q3,0,-99999,-99999,1,0.25,10,0.425,10,Robinson_etal_2003&Dowrick_Rhoades1998&HarvardCMT,0.014962935,0.014979976,0.015009945,0.015080931,0.015185839,0.015724764,0.016502634,0.018015972,0.022065163,0.02255981,0.02367629,0.025340335,0.028550455,0.031149527,0.017978085,0.008141776,0.00418553,-99999,-99999,-99999,-99999,-99999,0.016289716,0.016308775,0.016337363,0.016366419,0.016406619,0.016551192,0.017467014,0.0224336,0.024089888,0.026952785,0.027037582,0.028207192,0.033421359,0.036601766,0.023749116,0.009753614,0.004988536,-99999,-99999,-99999,-99999,-99999,0.014949,0.016283,0.018465,0.019737
471730,1993-08-10T00:51:55.033000Z,D93054A6,6.89,0.08,Interface,R,1,41,41,107,nlloc,-45.3625,166.649,-43.883,169.0441,5519161.25,2012843.95,5695156,2192230,34.75,34.75,250.97,251.86,238.02,238.93,25.39,250.51,0,16.72,11.96,nu,HDWS,D,210,Q3,0.87,Q1,100,Q3,0,-99999,-99999,0,0.35,14,0.595,14,Robinson_etal_2003&Dowrick_Rhoades1998&HarvardCMT,0.030134191,0.03054101,0.031209432,0.032141357,0.033529482,0.04036338,0.048768234,0.066173109,0.049847432,0.045127253,0.047377463,0.033363131,0.027775117,0.035609183,0.020575612,0.009095526,-99999,-99999,-99999,-99999,-99999,-99999,0.035443627,0.035564321,0.03577893,0.036088727,0.03728531,0.04418322,0.057202523,0.072753859,0.055812591,0.055233619,0.058219204,0.035689673,0.036211953,0.045506835,0.021821583,0.012258594,-99999,-99999,-99999,-99999,-99999,-99999,0.029905,0.035416,0.021456,0.023931
471755,1993-08-10T09:46:38.453000Z,K93018A1,6.3,0.08,Slab,S,1,354,64,168,special,-38.55,177.92,-38.6665,178.0227,6283090.62,2938734.07,6269685,2946952,30,15,15.73,42.06,5.22,35.18,10.06,-14.19,0,39,32.26,nu,GISS,D,138,Q2,1,Q1,40,Q3,0,-99999,-99999,1,0.28,19,0.476,19,Reyners_et_al2010&Webb_Anderson_1998&Dowrick_Rhoades1998&HarvardCMT,0.200892431,0.202101869,0.204316009,0.208394218,0.217344538,0.243781459,0.255726548,0.283319745,0.32466619,0.360014052,0.375279343,0.326876604,0.232581666,0.168941262,0.115158635,0.060810553,0.029072918,-99999,-99999,-99999,-99999,-99999,0.265587326,0.266846695,0.268770884,0.271160463,0.272715112,0.284705446,0.297292828,0.375864998,0.391855024,0.441450373,0.521787826,0.412832759,0.300491348,0.198534291,0.141441767,0.068826508,0.038682092,-99999,-99999,-99999,-99999,-99999,0.200716,0.265478,0.143928,0.170791
471755,1993-08-10T09:46:38.453000Z,A93028A1,6.3,0.08,Slab,S,1,354,64,168,special,-38.55,177.92,-38.0079,177.284,6283090.62,2938734.07,6346024,2886230,30,15,81.95,90.77,69.76,78.95,-42.35,68.08,0,39,32.26,nu,028A,D,210,Q3,1,Q3,75,Q3,0,-99999,-99999,1,0.35,15,0.595,15,Reyners_et_al2010&Webb_Anderson_1998&Dowrick_Rhoades1998&HarvardCMT,0.061387129,0.061607172,0.061938727,0.062414005,0.062981404,0.065565721,0.072751362,0.081494027,0.114044699,0.104257134,0.100548977,0.114068672,0.114028726,0.06187097,0.050391279,0.037706295,-99999,-99999,-99999,-99999,-99999,-99999,0.069007692,0.06918611,0.069469928,0.069878114,0.070422573,0.073923758,0.09089217,0.115260757,0.159658126,0.136072326,0.116523674,0.143441667,0.139188523,0.070922518,0.055097903,0.041255292,-99999,-99999,-99999,-99999,-99999,-99999,0.061272,0.068831,0.052639,0.065922
471755,1993-08-10T09:46:38.453000Z,A93096A1,6.3,0.08,Slab,S,1,354,64,168,special,-38.55,177.92,-39.0342,177.4249,6283090.62,2938734.07,6231637,2892985,30,15,68.85,79.13,59.27,69.25,-47.59,-46.39,0,39,32.26,nu,WFSS,D,155,Q3,1.5,Q3,100,Q3,0,-99999,-99999,1,0.35,13,0.595,13,Reyners_et_al2010&Webb_Anderson_1998&Dowrick_Rhoades1998&HarvardCMT,0.043891976,0.044005043,0.044200813,0.04446028,0.044782952,0.047268085,0.050785837,0.062217465,0.070570825,0.078759097,0.085846592,0.089537092,0.072279793,0.064277506,0.05709788,0.035354796,-99999,-99999,-99999,-99999,-99999,-99999,0.056444343,0.056564661,0.056761899,0.057041186,0.057409657,0.059020781,0.063349029,0.06565759,0.073706372,0.085879847,0.101799789,0.103179761,0.081619416,0.071232842,0.068344552,0.039336686,-99999,-99999,-99999,-99999,-99999,-99999,0.043862,0.056459,0.046615,0.050072
471755,1993-08-10T09:46:38.453000Z,A93113A1,6.3,0.08,Slab,S,1,354,64,168,special,-38.55,177.92,-37.8735,177.5847,6283090.62,2938734.07,6359624,2913365,30,15,80.72,89.57,66.1,76.08,-13.94,78.77,0,39,32.26,nu,113A,C,522,Q3,0.15,Q3,10,Q3,0,-99999,-99999,1,0.42,13,0.714,13,Reyners_et_al2010&Webb_Anderson_1998&Dowrick_Rhoades1998&HarvardCMT,0.08980198,0.090321751,0.091152452,0.092338373,0.094095874,0.100456111,0.108796143,0.128026476,0.195509563,0.194371979,0.168853663,0.10511431,0.069180109,0.027603485,0.020474768,-99999,-99999,-99999,-99999,-99999,-99999,-99999,0.111068752,0.111443536,0.112047552,0.112903413,0.114094085,0.117999156,0.131380789,0.167542806,0.224018381,0.27244289,0.225377217,0.14124881,0.085397439,0.039026274,0.026519094,-99999,-99999,-99999,-99999,-99999,-99999,-99999,0.089493,0.110538,0.041559,0.054997
471755,1993-08-10T09:46:38.453000Z,D93014A4,6.3,0.08,Slab,S,1,354,64,168,special,-38.55,177.92,-39.4984,176.8761,6283090.62,2938734.07,6182359,2843283,30,15,138.75,144.15,129.07,134.18,-102.17,-90.2,0,39,32.26,nu,NCDS,E,162,Q3,1.25,Q2,110,Q3,0,-99999,-99999,0,0.25,10,0.425,10,Reyners_et_al2010&Webb_Anderson_1998&Dowrick_Rhoades1998&HarvardCMT,0.015076533,0.015171458,0.015318154,0.015527592,0.015810508,0.017048456,0.019272687,0.024279647,0.026254234,0.025278448,0.02442597,0.020997975,0.019721238,0.023401105,0.016473242,0.008526355,0.004614367,-99999,-99999,-99999,-99999,-99999,0.016767512,0.016847345,0.016975712,0.017147515,0.017382426,0.018318207,0.020945329,0.026857875,0.028904309,0.027123431,0.028758787,0.022679892,0.023358766,0.029734792,0.019923301,0.009769163,0.005753308,-99999,-99999,-99999,-99999,-99999,0.015065,0.016758,0.013876,0.016776
471755,1993-08-10T09:46:38.453000Z,D93016A1,6.3,0.08,Slab,S,1,354,64,168,special,-38.55,177.92,-38.6774,178.031,6283090.62,2938734.07,6268431,2947608,30,15,17.14,42.71,6.16,35.7,10.58,-15.51,0,39,32.26,nu,016A,C,480,Q3,0.15,Q3,10,Q3,0,-99999,-99999,0,0.3,21,0.51,21,Reyners_et_al2010&Webb_Anderson_1998&Dowrick_Rhoades1998&HarvardCMT,0.155861081,0.15683438,0.158389655,0.160653021,0.164021021,0.172862951,0.19598741,0.278945149,0.288785419,0.232505714,0.210906768,0.209238376,0.247517136,0.162966254,0.084277146,0.034116446,-99999,-99999,-99999,-99999,-99999,-99999,0.193097611,0.194408525,0.196490088,0.199463187,0.204435725,0.221014526,0.233048062,0.359430772,0.318997265,0.272544756,0.238273086,0.284444605,0.334946606,0.194484991,0.101546156,0.039002628,-99999,-99999,-99999,-99999,-99999,-99999,0.154414,0.193073,0.103709,0.140525
471755,1993-08-10T09:46:38.453000Z,D93017A1,6.3,0.08,Slab,S,1,354,64,168,special,-38.55,177.92,-38.6665,178.0227,6283090.62,2938734.07,6269685,2946952,30,15,15.73,42.06,5.22,35.18,10.06,-14.19,0,39,32.26,nu,GISS,D,138,Q2,1,Q1,40,Q3,0,-99999,-99999,0,0.25,30,0.425,30,Reyners_et_al2010&Webb_Anderson_1998&Dowrick_Rhoades1998&HarvardCMT,0.187048739,0.188885803,0.193343868,0.200875964,0.199515908,0.217916765,0.250766866,0.268096338,0.296013279,0.359751622,0.412399267,0.344228938,0.240986385,0.154425103,0.111665904,0.050329891,0.024116195,-99999,-99999,-99999,-99999,-99999,0.217063976,0.218110589,0.219134918,0.222852669,0.221112553,0.266339421,0.278019029,0.327055822,0.35031219,0.440174343,0.461690149,0.351689793,0.308702777,0.205565482,0.133225525,0.055693966,0.029073113,-99999,-99999,-99999,-99999,-99999,0.186203,0.217059,0.121691,0.144066
471755,1993-08-10T09:46:38.453000Z,D93021A3,6.3,0.08,Slab,S,1,354,64,168,special,-38.55,177.92,-38.4249,176.3157,6283090.62,2938734.07,6303375,2799556,30,15,140.32,146.04,135.79,140.25,-133.01,34.72,10,39,32.26,nu,021A,D,210,Q3,2,Q3,200,Q3,0,-99999,-99999,1,0.18,10,0.306,10,Reyners_et_al2010&Webb_Anderson_1998&Dowrick_Rhoades1998&HarvardCMT,0.026354749,0.02636293,0.026393578,0.026443741,0.026503699,0.026692812,0.02689148,0.027637614,0.028262916,0.027893931,0.030773089,0.036533137,0.038599747,0.042133132,0.053924021,0.055791796,0.023691534,0.007874982,-99999,-99999,-99999,-99999,0.028011957,0.028021189,0.02804423,0.028055156,0.028087606,0.028166197,0.028292774,0.030589551,0.033261664,0.034612481,0.03809726,0.041295869,0.042007455,0.045822072,0.059047176,0.062922101,0.029288633,0.009168797,-99999,-99999,-99999,-99999,0.026355,0.028006,0.056127,0.064898
