CuspID,Origin_time,Record,Mw,MwUncert,TectClass,Mech,PreferredFaultPlane,Strike,Dip,Rake,Location,HypLat,HypLon,StationLat,StationLon,HypN,HypE,StationN,StationE,LENGTH_km,WIDTH_km,Repi_km,Rhyp_km,Rjb_km,Rrup_km,Rx_km,Ry_km,Rvol_km,HypDepth_km,ZTOR_km,HWFW,SiteCode,SiteClass1170,Vs30,Vs30Uncert,Tsite,TsiteUncert,Z1,Z1Uncertainty,Directivity,Pulse_or,Pulse_T,S_Trigger_Flag,fcButterHP,f_iniLP,fmin,fmax,References,f100.0000SA_RotD50,f50.0000SA_RotD50,f33.3333SA_RotD50,f25.0000SA_RotD50,f20.0000SA_RotD50,f13.3333SA_RotD50,f10.0000SA_RotD50,f6.6667SA_RotD50,f5.0000SA_RotD50,f4.0000SA_RotD50,f3.3333SA_RotD50,f2.5000SA_RotD50,f2.0000SA_RotD50,f1.3333SA_RotD50,f1.0000SA_RotD50,f0.6667SA_RotD50,f0.5000SA_RotD50,f0.3333SA_RotD50,f0.2500SA_RotD50,f0.2000SA_RotD50,f0.1333SA_RotD50,f0.1000SA_RotD50,f100.0000SA_RotD100,f50.0000SA_RotD100,f33.3333SA_RotD100,f25.0000SA_RotD100,f20.0000SA_RotD100,f13.3333SA_RotD100,f10.0000SA_RotD100,f6.6667SA_RotD100,f5.0000SA_RotD100,f4.0000SA_RotD100,f3.3333SA_RotD100,f2.5000SA_RotD100,f2.0000SA_RotD100,f1.3333SA_RotD100,f1.0000SA_RotD100,f0.6667SA_RotD100,f0.5000SA_RotD100,f0.3333SA_RotD100,f0.2500SA_RotD100,f0.2000SA_RotD100,f0.1333SA_RotD100,f0.1000SA_RotD100,PGA_RotD50,PGA_RotD100,PGV_RotD50,PGV_RotD100
164529,1990-10-04T23:48:26.123000Z,D90606B5,5.57,0.15,Interface,O,1,190,21,58,special,-41.61,175.44,-41.2333,174.9199,5952370.8,2713346.37,5995282,2670919,7.6,7.6,60.3,61.9,58.15,59.96,51.33,-34.89,0,13.8,12.99,nu,606B,B,800,Q3,<0.1,Q3,0,Q3,0,-99999,-99999,0,0.4,12,0.68,12,HarvardCMT&Luo(1992),0.01374994,0.013861252,0.014089779,0.014422432,0.014879093,0.017879444,0.023476423,0.058062189,0.048765457,0.031282141,0.045047926,0.035147887,0.031272708,0.014629431,0.019998766,-99999,-99999,-99999,-99999,-99999,-99999,-99999,0.018028501,0.018201084,0.018526648,0.018970357,0.019617357,0.023765105,0.029480578,0.078818598,0.061367361,0.038728489,0.06063836,0.048033424,0.038024311,0.018372188,0.021715256,-99999,-99999,-99999,-99999,-99999,-99999,-99999,0.013701,0.018028,0.009334,0.010354
164529,1990-10-04T23:48:26.123000Z,D90642E8,5.57,0.15,Interface,O,1,190,21,58,special,-41.61,175.44,-41.2341,174.918,5952370.8,2713346.37,5995197,2670758,7.6,7.6,60.35,61.96,58.2,60.01,51.48,-34.78,0,13.8,12.99,nu,642E,C,350,Q1,0.35,Q2,50,Q3,0,-99999,-99999,0,0.4,13,0.68,13,HarvardCMT&Luo(1992),0.037692364,0.037899495,0.038148953,0.038600221,0.039098719,0.043870263,0.047963915,0.099858484,0.110766922,0.099742379,0.217573639,0.137237016,0.133897977,0.027942052,0.029737945,-99999,-99999,-99999,-99999,-99999,-99999,-99999,0.042374151,0.04257548,0.042877277,0.043358997,0.043998838,0.05657137,0.052231093,0.132102212,0.13491711,0.128679809,0.249991863,0.178571705,0.181413658,0.033153326,0.037010002,-99999,-99999,-99999,-99999,-99999,-99999,-99999,0.037615,0.042374,0.022462,0.02414
164529,1990-10-04T23:48:26.123000Z,D90900B5,5.57,0.15,Interface,O,1,190,21,58,special,-41.61,175.44,-41.2921,174.779,5952370.8,2713346.37,5989003,2658976,7.6,7.6,65.46,67,63.34,65.08,62.01,-26.63,0,13.8,12.99,nu,941A,D,272,Q2,0.85,Q2,9.85E+01,Q2,0,-99999,-99999,0,0.4,11.5,0.68,11.5,HarvardCMT&Luo(1992),0.022650322,0.022705344,0.02281851,0.023013243,0.02325965,0.024173678,0.027526998,0.055840158,0.059196612,0.056208175,0.071790275,0.077659278,0.090969045,0.072987818,0.052404546,-99999,-99999,-99999,-99999,-99999,-99999,-99999,0.025337911,0.025422734,0.025518746,0.025696189,0.025970613,0.027459084,0.031483713,0.065490713,0.062761082,0.063420997,0.079512688,0.086592921,0.127037342,0.081379564,0.062350426,-99999,-99999,-99999,-99999,-99999,-99999,-99999,0.02265,0.025338,0.022889,0.025328
164529,1990-10-04T23:48:26.123000Z,D90935B2,5.57,0.15,Interface,O,1,190,21,58,special,-41.61,175.44,-41.2108,174.9047,5952370.8,2713346.37,5997808,2669699,7.6,7.6,62.96,64.5,60.81,62.54,52.97,-37.17,0,13.8,12.99,nu,935A,D,240,Q3,1.2,Q3,275,Q3,0,-99999,-99999,0,0.4,15,0.68,15,HarvardCMT&Luo(1992),0.032911542,0.033092033,0.033443398,0.033983285,0.034811401,0.041265902,0.047337584,0.072522677,0.098876898,0.095423326,0.196810253,0.092697416,0.088859112,0.05182094,0.087635875,-99999,-99999,-99999,-99999,-99999,-99999,-99999,0.037518046,0.037661881,0.037895455,0.038315851,0.039044301,0.049539035,0.055407482,0.075641511,0.112873147,0.119740642,0.249738188,0.105144687,0.098693115,0.063062176,0.102362503,-99999,-99999,-99999,-99999,-99999,-99999,-99999,0.032746,0.037519,0.034941,0.042109
164529,1990-10-04T23:48:26.123000Z,D90941A5,5.57,0.15,Interface,O,1,190,21,58,special,-41.61,175.44,-41.2921,174.779,5952370.8,2713346.37,5989003,2658976,7.6,7.6,65.46,67,63.34,65.08,62.01,-26.63,0,13.8,12.99,nu,941A,D,272,Q2,0.85,Q2,9.85E+01,Q2,0,-99999,-99999,0,0.41,11,0.697,11,HarvardCMT&Luo(1992),0.022981912,0.023069807,0.023243364,0.023506076,0.0238526,0.025422909,0.03073024,0.056778579,0.056168657,0.057689109,0.081858854,0.087963205,0.056946663,0.066927261,0.036919478,-99999,-99999,-99999,-99999,-99999,-99999,-99999,0.031420773,0.031521663,0.031685383,0.031900111,0.032181409,0.033320977,0.032492939,0.07332388,0.060737717,0.073847316,0.088435486,0.118493782,0.072370023,0.074878605,0.043836645,-99999,-99999,-99999,-99999,-99999,-99999,-99999,0.022982,0.031422,0.021391,0.023599
160610,1990-10-06T02:41:12.583000Z,D90642EB,5.46,0.15,Interface,O,1,250,38,145,special,-41.61,175.43,-41.2341,174.918,5952394.08,2712513.04,5995197,2670758,6.7,6.7,59.75,61.46,58.1,60.11,56.08,24.6,0,14.2,12.97,nu,642E,C,350,Q1,0.35,Q2,50,Q3,0,-99999,-99999,0,0.6,11,1.02,11,HarvardCMT&Luo(1992),0.028071424,0.028186125,0.028331639,0.028565797,0.028806668,0.029937377,0.036963503,0.060096195,0.090952029,0.107352235,0.118912719,0.135623833,0.087331264,0.023446437,-99999,-99999,-99999,-99999,-99999,-99999,-99999,-99999,0.03010674,0.030260755,0.030522278,0.030906425,0.031413507,0.033730331,0.0428907,0.067684861,0.098101798,0.120546037,0.149839158,0.175428232,0.118316627,0.032011254,-99999,-99999,-99999,-99999,-99999,-99999,-99999,-99999,0.027979,0.030104,0.016174,0.019076
160610,1990-10-06T02:41:12.583000Z,D90900B6,5.46,0.15,Interface,O,1,250,38,145,special,-41.61,175.43,-41.2921,174.779,5952394.08,2712513.04,5989003,2658976,6.7,6.7,64.76,66.39,63.03,64.9,54.29,37.79,0,14.2,12.97,nu,941A,D,272,Q2,0.85,Q2,9.85E+01,Q2,0,-99999,-99999,0,0.4,10,0.68,10,HarvardCMT&Luo(1992),0.014070794,0.014100596,0.014159808,0.01423637,0.01433415,0.014670492,0.01968489,0.025950801,0.034278393,0.040691905,0.039205231,0.047198468,0.037020755,0.050010554,0.033255368,-99999,-99999,-99999,-99999,-99999,-99999,-99999,0.019033864,0.019073901,0.019133211,0.019236695,0.019331509,0.019673923,0.023087868,0.032483231,0.046323483,0.04633616,0.044567243,0.056722603,0.044332916,0.061309554,0.043769352,-99999,-99999,-99999,-99999,-99999,-99999,-99999,0.014052,0.019034,0.012221,0.01399
160610,1990-10-06T02:41:12.583000Z,D90935B3,5.46,0.15,Interface,O,1,250,38,145,special,-41.61,175.43,-41.2108,174.9047,5952394.08,2712513.04,5997808,2669699,6.7,6.7,62.37,64.01,60.72,62.65,58.89,24.7,0,14.2,12.97,nu,935A,D,240,Q3,1.2,Q3,275,Q3,0,-99999,-99999,0,0.3,15,0.51,15,HarvardCMT&Luo(1992),0.019815408,0.019913013,0.020022849,0.020210617,0.020477367,0.023793338,0.031655657,0.053176464,0.043075626,0.083728618,0.095694872,0.07804297,0.048938603,0.048822312,0.029419288,0.016294441,-99999,-99999,-99999,-99999,-99999,-99999,0.021461772,0.021564442,0.02170898,0.021950011,0.022213157,0.0280595,0.039533181,0.064495239,0.047963109,0.097501898,0.12472496,0.104910049,0.054388472,0.057274112,0.032784867,0.020981236,-99999,-99999,-99999,-99999,-99999,-99999,0.019813,0.021374,0.01878,0.023053
160610,1990-10-06T02:41:12.583000Z,D90941A6,5.46,0.15,Interface,O,1,250,38,145,special,-41.61,175.43,-41.2921,174.779,5952394.08,2712513.04,5989003,2658976,6.7,6.7,64.76,66.39,63.03,64.9,54.29,37.79,0,14.2,12.97,nu,941A,D,272,Q2,0.85,Q2,9.85E+01,Q2,0,-99999,-99999,0,0.35,12,0.595,12,HarvardCMT&Luo(1992),0.013388297,0.013427286,0.013499692,0.013614662,0.013757171,0.014112203,0.021132684,0.030591603,0.039266877,0.05231424,0.04438817,0.058495813,0.022864712,0.050395588,0.02272147,0.007263126,-99999,-99999,-99999,-99999,-99999,-99999,0.016519087,0.01659252,0.016699434,0.016885276,0.017109113,0.018603713,0.025676494,0.033540673,0.05244451,0.057983825,0.050277576,0.073999782,0.025642661,0.056313292,0.026045867,0.008960752,-99999,-99999,-99999,-99999,-99999,-99999,0.013333,0.016519,0.009242,0.010038
194283,1991-01-28T12:58:46.823000Z,A91051B1,5.76,0.08,Crustal,R,1,42,30,99,special,-41.89,171.58,-41.7557,171.5998,5923123.14,2392149.06,5938069,2393545,6.97,6.97,15.03,18.04,11.7,14.67,-5.94,12.04,0,10,8.26,nu,WBCS,D,300,Q3,1.2,Q2,105,Q3,0,-99999,-99999,1,0.4,27,0.68,27,Anderson_etal_1993&Dowrick_Rhoades1998&HarvardCMT,0.143895423,0.146085924,0.149303473,0.195572865,0.247354965,0.335576572,0.552705898,0.384026037,0.426932476,0.305222227,0.291367736,0.339942786,0.317305294,0.40947148,0.262106845,-99999,-99999,-99999,-99999,-99999,-99999,-99999,0.162959469,0.165482879,0.17086541,0.215596137,0.294358759,0.449845808,0.603667662,0.50388682,0.517853926,0.419656609,0.412117568,0.417590757,0.412080532,0.563406778,0.353382396,-99999,-99999,-99999,-99999,-99999,-99999,-99999,0.142879,0.161382,0.10733,0.128337
194283,1991-01-28T12:58:46.823000Z,A91083A1,5.76,0.08,Crustal,R,1,42,30,99,special,-41.89,171.58,-41.8311,171.6606,5923123.14,2392149.06,5929772,2398735,6.97,6.97,9.35,13.7,5.87,11.28,3.46,9.35,0,10,8.26,nu,083A,B,1200,Q3,<0.1,Q3,0,Q2,0,-99999,-99999,0,0.5,40,0.85,40,Anderson_etal_1993&Dowrick_Rhoades1998&HarvardCMT,0.202638159,0.223572403,0.517917775,0.467717641,0.516856418,0.665520231,0.501950046,0.376336072,0.334121813,0.156519487,0.167688635,0.207246563,0.17394313,0.126195434,0.104883381,-99999,-99999,-99999,-99999,-99999,-99999,-99999,0.262413307,0.316157846,0.561185053,0.626960844,0.673999507,0.896203371,0.579978307,0.505981033,0.433288355,0.181175919,0.186258516,0.238675907,0.240345836,0.175363724,0.144269878,-99999,-99999,-99999,-99999,-99999,-99999,-99999,0.193315,0.234507,0.065445,0.081315
194283,1991-01-28T12:58:46.823000Z,A91090A1,5.76,0.08,Crustal,R,1,42,30,99,special,-41.89,171.58,-41.8553,171.9539,5923123.14,2392149.06,5927428,2423132,6.97,6.97,31.2,32.86,27.91,30.07,23.16,23.93,0,10,8.26,nu,090A,C,270,Q3,0.33,Q3,40,Q3,0,-99999,-99999,1,0.3,22,0.51,22,Anderson_etal_1993&Dowrick_Rhoades1998&HarvardCMT,0.083406781,0.084463116,0.086318501,0.089313162,0.100233349,0.14035057,0.156520429,0.249548371,0.297547503,0.241684724,0.163961381,0.192974001,0.248468513,0.109224885,0.071639052,0.035084703,-99999,-99999,-99999,-99999,-99999,-99999,0.115106452,0.116272275,0.118636405,0.122219586,0.140535632,0.195877156,0.201406501,0.278640134,0.410939481,0.326385102,0.193709242,0.272081085,0.32357752,0.128045853,0.100757249,0.046007684,-99999,-99999,-99999,-99999,-99999,-99999,0.08299,0.115127,0.061288,0.084013
194283,1991-01-28T12:58:46.823000Z,A91122A1,5.76,0.08,Crustal,R,1,42,30,99,special,-41.89,171.58,-41.8025,172.3248,5923123.14,2392149.06,5933606,2453884,6.97,6.97,62.46,63.44,59.16,60.33,41.88,49.1,0,10,8.26,nu,122A,D,500,Q3,1.6,Q3,250,Q3,0,-99999,-99999,1,0.4,40,0.68,40,Anderson_etal_1993&Dowrick_Rhoades1998&HarvardCMT,0.128652261,0.139215192,0.168054084,0.277411751,0.212707099,0.31214699,0.388027572,0.371314876,0.208152954,0.309182632,0.250875144,0.235865306,0.240584221,0.117241109,0.060827078,-99999,-99999,-99999,-99999,-99999,-99999,-99999,0.172482323,0.176939274,0.208984302,0.360924005,0.272154466,0.41040876,0.506734917,0.473314955,0.286086507,0.384779081,0.353962878,0.323792121,0.331364843,0.143016877,0.072726933,-99999,-99999,-99999,-99999,-99999,-99999,-99999,0.128037,0.172541,0.069375,0.08888
194283,1991-01-28T12:58:46.823000Z,D91042A3,5.76,0.08,Crustal,R,1,42,30,99,special,-41.89,171.58,-42.5232,172.8305,5923123.14,2392149.06,5853765,2496076,6.97,6.97,124.76,125.38,121.74,122.51,126.66,18,0,10,8.26,nu,HSES,D,280,Q3,0.9,Q1,85,Q3,0,-99999,-99999,1,0.2,11,0.34,11,Anderson_etal_1993&Dowrick_Rhoades1998&HarvardCMT,0.023586781,0.02366198,0.02376332,0.023949268,0.024167588,0.025175584,0.031247692,0.044460977,0.062108544,0.049659732,0.088890152,0.065212874,0.111715386,0.081219182,0.041221941,0.011779466,0.006738164,-99999,-99999,-99999,-99999,-99999,0.026776801,0.026829153,0.026951701,0.027075747,0.027257698,0.028016107,0.033849242,0.052882066,0.07083223,0.055595857,0.103623231,0.091028799,0.154327985,0.102465647,0.056597286,0.013512504,0.009521299,-99999,-99999,-99999,-99999,-99999,0.023586,0.026774,0.023361,0.029622
201724,1991-01-28T18:00:53.158000Z,A91051B2,5.89,0.08,Crustal,S,1,48,77,11,special,-41.9,171.67,-41.7557,171.5998,5922133.85,2399635.78,5938069,2393545,8.1,8.1,17.07,20.86,15.62,17.84,-15.01,6.14,0,12,8.05,fw,WBCS,D,300,Q3,1.2,Q2,105,Q3,0,-99999,-99999,1,0.3,20,0.51,20,Anderson_etal_1993&Dowrick_Rhoades1998&HarvardCMT,0.147490814,0.150191333,0.154922279,0.161973099,0.190646477,0.383368368,0.780343687,0.443829131,0.376844751,0.341035587,0.348109815,0.209084324,0.243986122,0.266451232,0.144728396,0.092430597,-99999,-99999,-99999,-99999,-99999,-99999,0.163610362,0.16520384,0.167878746,0.171204146,0.216587255,0.480076494,0.933490157,0.542039045,0.404558766,0.444860869,0.492299282,0.246138424,0.283129615,0.375041317,0.200648091,0.118302135,-99999,-99999,-99999,-99999,-99999,-99999,0.146803,0.16229,0.090179,0.110719
201724,1991-01-28T18:00:53.158000Z,A91052A2,5.89,0.08,Crustal,S,1,48,77,11,special,-41.9,171.67,-42.1166,171.8604,5922133.85,2399635.78,5898305,2415760,8.1,8.1,28.77,31.24,27.75,30.62,29.41,-3.96,0,12,8.05,hw,052A,C,333,Q3,0.3,Q3,30,Q3,0,-99999,-99999,1,0.5,35,0.85,35,Anderson_etal_1993&Dowrick_Rhoades1998&HarvardCMT,0.173659076,0.179444304,0.220696121,0.38231855,0.492020965,0.595764162,0.917701391,0.442433755,0.387182566,0.299618055,0.282834484,0.113768622,0.091338953,0.064758196,0.04938933,-99999,-99999,-99999,-99999,-99999,-99999,-99999,0.182612606,0.193345027,0.241420287,0.400026005,0.612938569,0.727047653,1.270497217,0.541217365,0.48735173,0.31145133,0.32927344,0.126386361,0.108843458,0.090490869,0.065691209,-99999,-99999,-99999,-99999,-99999,-99999,-99999,0.172849,0.182562,0.048354,0.054283
201724,1991-01-28T18:00:53.158000Z,A91083A2,5.89,0.08,Crustal,S,1,48,77,11,special,-41.9,171.67,-41.8311,171.6606,5922133.85,2399635.78,5929772,2398735,8.1,8.1,7.7,14.26,5.85,10.38,-5.37,4.44,0,12,8.05,fw,083A,B,1200,Q3,<0.1,Q3,0,Q2,0,-99999,-99999,1,1,35,1.7,35,Anderson_etal_1993&Dowrick_Rhoades1998&HarvardCMT,0.143204736,0.153661184,0.2311719,0.351673791,0.388602518,0.690461764,0.43053591,0.421024127,0.29770868,0.17255819,0.163471598,0.098316223,0.060061465,-99999,-99999,-99999,-99999,-99999,-99999,-99999,-99999,-99999,0.201945062,0.216427159,0.29218253,0.397664396,0.477652872,0.905991317,0.544752368,0.485675171,0.321014548,0.233254815,0.222194422,0.125460441,0.070053342,-99999,-99999,-99999,-99999,-99999,-99999,-99999,-99999,-99999,0.14279,0.201932,0.029918,0.038692
201724,1991-01-28T18:00:53.158000Z,A91090A2,5.89,0.08,Crustal,S,1,48,77,11,special,-41.9,171.67,-41.8553,171.9539,5922133.85,2399635.78,5927428,2423132,8.1,8.1,24.03,26.94,20.56,23.59,12.7,21,0,12,8.05,nu,090A,C,270,Q3,0.33,Q3,40,Q3,0,-99999,-99999,1,0.3,20,0.51,20,Anderson_etal_1993&Dowrick_Rhoades1998&HarvardCMT,0.166897434,0.16744462,0.168424823,0.172116337,0.188773953,0.197314018,0.293079621,0.391802888,0.703429029,0.601965453,0.416869538,0.738187479,0.335854359,0.293305108,0.226238218,0.066885217,-99999,-99999,-99999,-99999,-99999,-99999,0.185597417,0.186068991,0.186881223,0.188135277,0.198059575,0.22110207,0.352572507,0.469700622,0.732185629,0.746811308,0.581714165,0.977497985,0.469444067,0.359186955,0.304936823,0.085539963,-99999,-99999,-99999,-99999,-99999,-99999,0.16676,0.185405,0.123361,0.148819
201724,1991-01-28T18:00:53.158000Z,A91122A2,5.89,0.08,Crustal,S,1,48,77,11,special,-41.9,171.67,-41.8025,172.3248,5922133.85,2399635.78,5933606,2453884,8.1,8.1,55.31,56.76,51.82,53.36,28.68,47.99,0,12,8.05,nu,122A,D,500,Q3,1.6,Q3,250,Q3,0,-99999,-99999,1,0.3,33,0.51,33,Anderson_etal_1993&Dowrick_Rhoades1998&HarvardCMT,0.260917697,0.293749129,0.438392793,0.751167299,0.60151681,0.483095418,0.793583095,1.15325269,0.598805272,0.494575851,0.495301797,0.292113905,0.276362681,0.185043174,0.106280976,0.050629478,-99999,-99999,-99999,-99999,-99999,-99999,0.319993742,0.339449661,0.496788887,1.046769797,0.825202916,0.55842806,0.989337383,1.449623028,0.831896719,0.634262538,0.592620473,0.405859048,0.369544024,0.234588785,0.121726921,0.06551498,-99999,-99999,-99999,-99999,-99999,-99999,0.259538,0.310917,0.0751,0.09991
201724,1991-01-28T18:00:53.158000Z,D91042A4,5.89,0.08,Crustal,S,1,48,77,11,special,-41.9,171.67,-42.5232,172.8305,5922133.85,2399635.78,5853765,2496076,8.1,8.1,118.06,118.86,116.84,117.93,116.25,25.92,0,12,8.05,nu,HSES,D,280,Q3,0.9,Q1,85,Q3,0,-99999,-99999,0,0.3,12,0.51,12,Anderson_etal_1993&Dowrick_Rhoades1998&HarvardCMT,0.027224056,0.027273745,0.02735809,0.027487502,0.027670894,0.028617276,0.034570067,0.051134952,0.065592273,0.07344763,0.092984223,0.079333741,0.086080412,0.139104539,0.053527749,0.02493433,-99999,-99999,-99999,-99999,-99999,-99999,0.030577381,0.030619002,0.030631725,0.03066655,0.030933868,0.032526589,0.039122173,0.061920756,0.082166899,0.091506517,0.122169774,0.098158944,0.109379742,0.196507874,0.074290173,0.032328913,-99999,-99999,-99999,-99999,-99999,-99999,0.027216,0.030578,0.029481,0.035726
201354,1991-02-15T10:48:09.669000Z,A91051B3,5.42,0.15,Crustal,R,0,213,37,90,geonet,-42.0386,171.5897,-41.7557,171.5998,5906631.78,2393229.54,5938069,2393545,4.7,4.7,31.47,32.19,29.3,30.05,-99999,-99999,0,6.92,5.27,nu,WBCS,D,300,Q3,1.2,Q2,105,Q3,0,-99999,-99999,1,0.3,22,0.51,22,HarvardCMT,0.097940803,0.099345778,0.10178246,0.112748703,0.166978208,0.461465504,0.284362831,0.361521118,0.238958658,0.150275639,0.158220754,0.151139263,0.153284297,0.146864507,0.065438109,0.063966121,-99999,-99999,-99999,-99999,-99999,-99999,0.119190444,0.122591495,0.128524568,0.136858695,0.230765291,0.592533106,0.389168788,0.492788633,0.327643311,0.173124505,0.207301877,0.162499302,0.175441249,0.180777875,0.07291135,0.083845449,-99999,-99999,-99999,-99999,-99999,-99999,0.09661,0.119132,0.037472,0.047378
201354,1991-02-15T10:48:09.669000Z,A91052A3,5.42,0.15,Crustal,R,0,213,37,90,geonet,-42.0386,171.5897,-42.1166,171.8604,5906631.78,2393229.54,5898305,2415760,4.7,4.7,23.97,25.04,22.28,23.52,-99999,-99999,0,6.92,5.27,nu,052A,C,333,Q3,0.3,Q3,30,Q3,0,-99999,-99999,0,0.5,32,0.85,32,HarvardCMT,0.15954978,0.163314815,0.184826079,0.277905875,0.413907697,0.486714434,0.570006924,0.522507464,0.457029006,0.323753135,0.196837298,0.126726171,0.087684195,0.066940162,0.040399792,-99999,-99999,-99999,-99999,-99999,-99999,-99999,0.191400044,0.194774443,0.206360139,0.314546505,0.497448537,0.551737652,0.733699078,0.678394746,0.482074294,0.372166905,0.223996572,0.139829022,0.11563547,0.08263307,0.057115816,-99999,-99999,-99999,-99999,-99999,-99999,-99999,0.159601,0.19139,0.046705,0.056129
201354,1991-02-15T10:48:09.669000Z,A91090A3,5.42,0.15,Crustal,R,0,213,37,90,geonet,-42.0386,171.5897,-41.8553,171.9539,5906631.78,2393229.54,5927428,2423132,4.7,4.7,36.37,37.09,34.1,34.84,-99999,-99999,0,6.92,5.27,nu,090A,C,270,Q3,0.33,Q3,40,Q3,0,-99999,-99999,1,0.45,13,0.765,13,HarvardCMT,0.080308424,0.080714862,0.081380781,0.082361593,0.083734989,0.088125986,0.094848611,0.170485442,0.212538944,0.278849295,0.216899374,0.165274827,0.127406732,0.067874169,0.030327848,-99999,-99999,-99999,-99999,-99999,-99999,-99999,0.107711997,0.108177492,0.108991293,0.110109267,0.11162607,0.117825161,0.134006954,0.24106675,0.285774376,0.367927409,0.279417081,0.181073286,0.168179805,0.087865593,0.035724282,-99999,-99999,-99999,-99999,-99999,-99999,-99999,0.080027,0.10772,0.042587,0.057742
