CuspID,Origin_time,Record,Mw,MwUncert,TectClass,Mech,PreferredFaultPlane,Strike,Dip,Rake,Location,HypLat,HypLon,StationLat,StationLon,HypN,HypE,StationN,StationE,LENGTH_km,WIDTH_km,Repi_km,Rhyp_km,Rjb_km,Rrup_km,Rx_km,Ry_km,Rvol_km,HypDepth_km,ZTOR_km,HWFW,SiteCode,SiteClass1170,Vs30,Vs30Uncert,Tsite,TsiteUncert,Z1,Z1Uncertainty,Directivity,Pulse_or,Pulse_T,S_Trigger_Flag,fcButterHP,f_iniLP,fmin,fmax,References,f100.0000SA_RotD50,f50.0000SA_RotD50,f33.3333SA_RotD50,f25.0000SA_RotD50,f20.0000SA_RotD50,f13.3333SA_RotD50,f10.0000SA_RotD50,f6.6667SA_RotD50,f5.0000SA_RotD50,f4.0000SA_RotD50,f3.3333SA_RotD50,f2.5000SA_RotD50,f2.0000SA_RotD50,f1.3333SA_RotD50,f1.0000SA_RotD50,f0.6667SA_RotD50,f0.5000SA_RotD50,f0.3333SA_RotD50,f0.2500SA_RotD50,f0.2000SA_RotD50,f0.1333SA_RotD50,f0.1000SA_RotD50,f100.0000SA_RotD100,f50.0000SA_RotD100,f33.3333SA_RotD100,f25.0000SA_RotD100,f20.0000SA_RotD100,f13.3333SA_RotD100,f10.0000SA_RotD100,f6.6667SA_RotD100,f5.0000SA_RotD100,f4.0000SA_RotD100,f3.3333SA_RotD100,f2.5000SA_RotD100,f2.0000SA_RotD100,f1.3333SA_RotD100,f1.0000SA_RotD100,f0.6667SA_RotD100,f0.5000SA_RotD100,f0.3333SA_RotD100,f0.2500SA_RotD100,f0.2000SA_RotD100,f0.1333SA_RotD100,f0.1000SA_RotD100,PGA_RotD50,PGA_RotD100,PGV_RotD50,PGV_RotD100
339342,1992-05-27T22:30:35.064000Z,D92707A1,5.9,0.08,Slab,S,1,117,85,21,special,-41.63,173.62,-41.1391,174.8502,5952812.98,2561652.09,6005867,2665298,8.2,8.2,116.24,134.35,113.89,131.28,-93.97,68.26,0,67,62.92,nu,707A,C,570,Q3,0.15,Q3,10,Q3,0,-99999,-99999,0,0.5,21,0.85,21,Webb_Anderson_1998&Dowrick_Rhoades1998&HarvardCMT,0.022489493,0.022686001,0.023008651,0.023437298,0.024445445,0.031165926,0.043679011,0.05369289,0.033520775,0.032456022,0.031564765,0.025042776,0.017740394,0.005679278,0.003203667,-99999,-99999,-99999,-99999,-99999,-99999,-99999,0.027090253,0.027402742,0.027953094,0.029006259,0.029696953,0.037307196,0.047625458,0.061170821,0.036732966,0.035721657,0.038952832,0.033438944,0.024839387,0.007038473,0.003452454,-99999,-99999,-99999,-99999,-99999,-99999,-99999,0.022265,0.027107,0.007825,0.010582
339342,1992-05-27T22:30:35.064000Z,D92918B5,5.9,0.08,Slab,S,1,117,85,21,special,-41.63,173.62,-41.284,174.7682,5952812.98,2561652.09,5989908,2658140,8.2,8.2,103.13,123.26,100.44,119.93,-76.5,69.13,0,67,62.92,nu,WEL,B,1000,Q3,0.3,Q1,0,Q2,0,-99999,-99999,0,0.4,18,0.68,18,Webb_Anderson_1998&Dowrick_Rhoades1998&HarvardCMT,0.020406016,0.020506914,0.020671673,0.020918698,0.021244124,0.024046123,0.027399659,0.035192321,0.047265036,0.051497958,0.045708052,0.047773806,0.021669339,0.00871412,0.006635866,-99999,-99999,-99999,-99999,-99999,-99999,-99999,0.025808789,0.026025564,0.026381647,0.02691079,0.027625637,0.026855661,0.038179612,0.046617938,0.060415841,0.070166831,0.064640565,0.064149807,0.027506763,0.009697712,0.00932283,-99999,-99999,-99999,-99999,-99999,-99999,-99999,0.020406,0.02579,0.01161,0.014177
339342,1992-05-27T22:30:35.064000Z,D92935B2,5.9,0.08,Slab,S,1,117,85,21,special,-41.63,173.62,-41.2108,174.9047,5952812.98,2561652.09,5997808,2669699,8.2,8.2,116.82,134.86,114.21,131.66,-88.79,75.84,0,67,62.92,nu,935A,D,240,Q3,1.2,Q3,275,Q3,0,-99999,-99999,0,0.35,16,0.595,16,Webb_Anderson_1998&Dowrick_Rhoades1998&HarvardCMT,0.018493684,0.018594531,0.019038986,0.019791376,0.021092107,0.026498093,0.037464548,0.036343206,0.03633611,0.052048808,0.051158544,0.035151672,0.024122196,0.012004521,0.007908387,0.005219406,-99999,-99999,-99999,-99999,-99999,-99999,0.022382802,0.022670893,0.02316145,0.023955281,0.025243343,0.028936098,0.045387445,0.044984046,0.044567551,0.063180097,0.062002211,0.043645157,0.030891282,0.01461209,0.010210776,0.005980745,-99999,-99999,-99999,-99999,-99999,-99999,0.018451,0.022359,0.01207,0.013051
339342,1992-05-27T22:30:35.064000Z,K92934B1,5.9,0.08,Slab,S,1,117,85,21,special,-41.63,173.62,-41.2436,174.908,5952812.98,2561652.09,5994160,2669897,8.2,8.2,115.64,133.85,112.94,130.58,-85.63,77.68,0,67,62.92,nu,934B,D,180,Q1,1.1,Q3,100,Q3,0,-99999,-99999,1,0.4,16,0.68,16,Webb_Anderson_1998&Dowrick_Rhoades1998&HarvardCMT,0.025405243,0.025505849,0.025736622,0.026087979,0.026568247,0.028175048,0.033745034,0.045053581,0.037567428,0.044574984,0.04902868,0.060595952,0.06397332,0.019156599,0.012526368,-99999,-99999,-99999,-99999,-99999,-99999,-99999,0.035624197,0.035807085,0.036115447,0.036544565,0.037102557,0.03938339,0.038869953,0.055868828,0.053136196,0.048052487,0.054781488,0.078872061,0.081711836,0.025841343,0.016016585,-99999,-99999,-99999,-99999,-99999,-99999,-99999,0.025401,0.035412,0.017923,0.022841
338849,1992-06-21T17:43:09.086000Z,K92028A1,6.25,0.08,Crustal,N,1,32,41,246,special,-37.67,176.86,-38.0079,177.284,6385179.66,2850645.07,6346024,2886230,12.26,12.26,52.9,53.06,48.15,48.79,55.55,-14.35,25,4,0.01,nu,028A,D,210,Q3,1,Q3,75,Q3,0,-99999,-99999,1,0.2,15,0.34,15,Webb_Anderson_1998&Dowrick_Rhoades1998&HarvardCMT,0.031132963,0.031392296,0.031889497,0.032685761,0.033884142,0.04542067,0.052247464,0.065555365,0.061990445,0.051384132,0.048351459,0.057379893,0.059745328,0.044934991,0.046224549,0.030311086,0.031870227,-99999,-99999,-99999,-99999,-99999,0.033834519,0.034113121,0.034594486,0.035412456,0.036767336,0.051104938,0.055952452,0.079673603,0.077807658,0.064823149,0.052076132,0.069480112,0.072911864,0.055488354,0.051624157,0.04037058,0.035096318,-99999,-99999,-99999,-99999,-99999,0.031059,0.033848,0.042707,0.059619
338849,1992-06-21T17:43:09.086000Z,A92930A1,6.25,0.08,Crustal,N,1,32,41,246,special,-37.67,176.86,-37.9885,176.8294,6385179.66,2850645.07,6349976,2846440,12.26,12.26,35.52,35.68,29.64,30.05,19.71,-32.08,30,4,0.01,nu,930A,E,150,Q3,>2,Q3,300,Q3,0,-99999,-99999,1,0.15,12,0.255,12,Webb_Anderson_1998&Dowrick_Rhoades1998&HarvardCMT,0.04140836,0.0414796,0.041615904,0.041806165,0.042088453,0.043366687,0.050591458,0.055704087,0.056578825,0.062441586,0.064469549,0.064187863,0.084089828,0.071508777,0.074844477,0.058141974,0.03952129,0.032910199,-99999,-99999,-99999,-99999,0.052092284,0.052208936,0.052401836,0.052673104,0.053130444,0.055431703,0.06249799,0.066174727,0.070005473,0.06900688,0.068497038,0.079268983,0.08733325,0.085355461,0.089472081,0.067361491,0.042356471,0.04086998,-99999,-99999,-99999,-99999,0.041386,0.051907,0.084975,0.103354
435226,1993-04-11T06:59:48.228000Z,A93032A1,5.68,0.08,Interface,O,1,198,15,52,special,-39.74,176.52,-39.9425,176.5874,6156829.5,2811622.89,6134136,2816486,8.63,8.63,23.24,34.95,18.95,31.74,-7.47,20.08,0,26,24.88,nu,032A,C,495,Q3,0.13,Q3,10,Q3,0,-99999,-99999,1,0.4,10,0.68,10,Webb_Anderson_1998&Dowrick_Rhoades1998&HarvardCMT,0.158452375,0.158855593,0.159506908,0.160412737,0.161623861,0.165480903,0.17107629,0.220324357,0.269851901,0.279075763,0.289120398,0.299585753,0.287876201,0.1935846,0.120085097,-99999,-99999,-99999,-99999,-99999,-99999,-99999,0.185059769,0.185496866,0.186191915,0.187116176,0.188424043,0.192597708,0.193496786,0.260433874,0.349674541,0.369938214,0.382231668,0.3865518,0.359023822,0.245333665,0.160247896,-99999,-99999,-99999,-99999,-99999,-99999,-99999,0.158186,0.185064,0.131958,0.175139
435226,1993-04-11T06:59:48.228000Z,D93014A2,5.68,0.08,Interface,O,1,198,15,52,special,-39.74,176.52,-39.4984,176.8761,6156829.5,2811622.89,6182359,2843283,8.63,8.63,40.64,48.27,36.38,44.35,-18.05,-34.06,0,26,24.88,nu,NCDS,E,162,Q3,1.25,Q2,110,Q3,0,-99999,-99999,0,0.24,12,0.408,12,Webb_Anderson_1998&Dowrick_Rhoades1998&HarvardCMT,0.032498002,0.032787647,0.033401193,0.034167516,0.035456822,0.040886685,0.047268387,0.064157765,0.061931157,0.064763393,0.053715639,0.054056868,0.042396198,0.035105673,0.025068902,0.009219002,0.003974175,-99999,-99999,-99999,-99999,-99999,0.039528222,0.039736249,0.040092078,0.040608662,0.041382639,0.044413108,0.052100364,0.07654884,0.06613226,0.074358523,0.066350551,0.074699165,0.049546207,0.041616589,0.027545017,0.012678982,0.004854924,-99999,-99999,-99999,-99999,-99999,0.032393,0.039539,0.021884,0.02309
435226,1993-04-11T06:59:48.228000Z,D93015A1,5.68,0.08,Interface,O,1,198,15,52,special,-39.74,176.52,-39.4891,176.8982,6156829.5,2811622.89,6183313,2845228,8.63,8.63,42.76,50.1,38.49,46.14,-19.61,-35.57,0,26,24.88,nu,015A,B,1000,Q3,<0.1,Q3,0,Q3,0,-99999,-99999,0,0.5,12,0.85,12,Webb_Anderson_1998&Dowrick_Rhoades1998&HarvardCMT,0.016447895,0.016556302,0.016711969,0.017029301,0.017398031,0.019617087,0.020807603,0.024945069,0.030179865,0.039450412,0.042849503,0.033856071,0.029959029,0.010512775,0.007107093,-99999,-99999,-99999,-99999,-99999,-99999,-99999,0.017771202,0.0179186,0.018139951,0.018480531,0.019050378,0.021625457,0.025836031,0.027673172,0.032775903,0.047843677,0.049294571,0.043112042,0.036946977,0.011956266,0.008566134,-99999,-99999,-99999,-99999,-99999,-99999,-99999,0.016392,0.017773,0.009443,0.011342
435226,1993-04-11T06:59:48.228000Z,D93029A2,5.68,0.08,Interface,O,1,198,15,52,special,-39.74,176.52,-39.6458,176.8429,6156829.5,2811622.89,6166127,2839726,8.63,8.63,29.55,39.41,25.33,35.69,-19.69,-17.53,0,26,24.88,nu,HCDS,D,182,Q2,>2,Q3,1000,Q3,0,-99999,-99999,0,0.2,15,0.34,15,Webb_Anderson_1998&Dowrick_Rhoades1998&HarvardCMT,0.029051816,0.02933871,0.029751885,0.030601298,0.031915171,0.037849343,0.040163196,0.053617346,0.064230048,0.068627478,0.076046935,0.054767667,0.034197266,0.038130707,0.023852636,0.010481612,0.009839044,-99999,-99999,-99999,-99999,-99999,0.034611443,0.034695774,0.034829928,0.035050388,0.035388717,0.040133648,0.047866761,0.072246104,0.08524437,0.081508995,0.0873664,0.077155343,0.043338949,0.046964728,0.031042269,0.011687448,0.010973857,-99999,-99999,-99999,-99999,-99999,0.02904,0.034619,0.026152,0.030611
471730,1993-08-10T00:51:55.033000Z,A93070A1,6.89,0.08,Interface,R,1,41,41,107,nlloc,-45.3625,166.649,-45.4167,167.7191,5519161.25,2012843.95,5519112,2096857,34.75,34.75,83.78,85.7,74.67,77.26,68.91,55.08,0,16.72,11.96,nu,TAFS,D,298,Q3,1.4,Q3,200,Q3,0,-99999,-99999,1,0.2,19,0.34,19,Robinson_etal_2003&Dowrick_Rhoades1998&HarvardCMT,0.063901991,0.064584583,0.065738004,0.067667453,0.069425862,0.096496286,0.118877192,0.131461287,0.118272953,0.108678146,0.094994213,0.086264214,0.076665169,0.062018746,0.059493303,0.053055624,0.037837086,-99999,-99999,-99999,-99999,-99999,0.085572969,0.086533435,0.088173408,0.090699957,0.093976998,0.118679905,0.130719763,0.172256467,0.142494857,0.144869442,0.126048067,0.121436567,0.083471773,0.079773834,0.070398974,0.069428761,0.050185193,-99999,-99999,-99999,-99999,-99999,0.063904,0.085534,0.06115,0.07679
471730,1993-08-10T00:51:55.033000Z,A93940A1,6.89,0.08,Interface,R,1,41,41,107,nlloc,-45.3625,166.649,-45.0322,168.6629,5519161.25,2012843.95,5566104,2168345,34.75,34.75,162.01,163.32,150.75,152.25,92.03,137.45,0,16.72,11.96,nu,QTPS,D,350,Q3,0.95,Q1,90,Q3,0,-99999,-99999,1,0.5,10,0.85,10,Robinson_etal_2003&Dowrick_Rhoades1998&HarvardCMT,0.0358385,0.035989824,0.036252704,0.036595797,0.037069842,0.038965052,0.042966075,0.05712175,0.087167877,0.09180371,0.08483319,0.073227995,0.057832692,0.041778982,0.022647206,-99999,-99999,-99999,-99999,-99999,-99999,-99999,0.04025648,0.040507283,0.040911165,0.04146952,0.042218984,0.044999512,0.051719752,0.068131731,0.096429152,0.09700537,0.098146206,0.091107348,0.072525995,0.049035783,0.02549642,-99999,-99999,-99999,-99999,-99999,-99999,-99999,0.035774,0.040236,0.023354,0.02647
471730,1993-08-10T00:51:55.033000Z,D93044A2s,6.89,0.08,Interface,R,1,41,41,107,nlloc,-45.3625,166.649,-45.8986,170.5097,5519161.25,2012843.95,5475848,2316608,34.75,34.75,306.03,307.29,297.73,299.13,263.14,166.6,0,16.72,11.96,nu,SKFS,D,140,Q2,0.8,Q3,25,Q3,0,-99999,-99999,1,0.25,10,0.425,10,Robinson_etal_2003&Dowrick_Rhoades1998&HarvardCMT,0.014963808,0.014982539,0.015010914,0.015084908,0.015192156,0.015747394,0.016555761,0.019423542,0.024660214,0.027727882,0.028776182,0.028344574,0.033459802,0.039960023,0.021785178,0.009649368,0.005112001,-99999,-99999,-99999,-99999,-99999,0.016290626,0.01630887,0.01633885,0.016369041,0.016411077,0.016573556,0.018142298,0.024260357,0.026997166,0.031701135,0.03147157,0.031690234,0.042423897,0.045752826,0.028275664,0.012879793,0.005736723,-99999,-99999,-99999,-99999,-99999,0.014949,0.016283,0.018465,0.019737
471730,1993-08-10T00:51:55.033000Z,D93054A6,6.89,0.08,Interface,R,1,41,41,107,nlloc,-45.3625,166.649,-43.883,169.0441,5519161.25,2012843.95,5695156,2192230,34.75,34.75,250.97,251.86,238.02,238.93,25.39,250.51,0,16.72,11.96,nu,HDWS,D,210,Q3,0.87,Q1,100,Q3,0,-99999,-99999,0,0.35,14,0.595,14,Robinson_etal_2003&Dowrick_Rhoades1998&HarvardCMT,0.030146298,0.030538644,0.031234244,0.032210348,0.033581482,0.042544612,0.051528479,0.079537226,0.057582522,0.051280096,0.061938596,0.035255554,0.030662382,0.047772182,0.023486772,0.011405754,-99999,-99999,-99999,-99999,-99999,-99999,0.03545011,0.035576765,0.035787321,0.036107971,0.037306388,0.046448134,0.062958835,0.088041295,0.061609597,0.0578795,0.073508233,0.039903134,0.039413831,0.059645173,0.026969104,0.015585551,-99999,-99999,-99999,-99999,-99999,-99999,0.029905,0.035416,0.021456,0.023931
471755,1993-08-10T09:46:38.453000Z,A93028A1,6.3,0.08,Slab,S,1,354,64,168,special,-38.55,177.92,-38.0079,177.284,6283090.62,2938734.07,6346024,2886230,30,15,81.95,90.77,69.76,78.95,-42.35,68.08,0,39,32.26,nu,028A,D,210,Q3,1,Q3,75,Q3,0,-99999,-99999,1,0.35,15,0.595,15,Reyners_et_al2010&Webb_Anderson_1998&Dowrick_Rhoades1998&HarvardCMT,0.061383288,0.061609328,0.061947728,0.062450802,0.063067626,0.065559511,0.075077155,0.096386311,0.142317445,0.116154074,0.103009336,0.130442901,0.150643212,0.072689048,0.059564435,0.04778075,-99999,-99999,-99999,-99999,-99999,-99999,0.069007554,0.06919338,0.069488271,0.069913125,0.070454025,0.074712063,0.099515001,0.136326553,0.2001152,0.152415984,0.125341555,0.167438826,0.189996353,0.090410041,0.074869444,0.055257086,-99999,-99999,-99999,-99999,-99999,-99999,0.061272,0.068831,0.052639,0.065922
471755,1993-08-10T09:46:38.453000Z,A93096A1,6.3,0.08,Slab,S,1,354,64,168,special,-38.55,177.92,-39.0342,177.4249,6283090.62,2938734.07,6231637,2892985,30,15,68.85,79.13,59.27,69.25,-47.59,-46.39,0,39,32.26,nu,WFSS,D,155,Q3,1.5,Q3,100,Q3,0,-99999,-99999,1,0.35,13,0.595,13,Reyners_et_al2010&Webb_Anderson_1998&Dowrick_Rhoades1998&HarvardCMT,0.043892525,0.044003467,0.044203353,0.044477806,0.044836543,0.047821811,0.051152118,0.065369265,0.076323791,0.08705075,0.102815104,0.113769102,0.084739826,0.079142858,0.06922405,0.044299348,-99999,-99999,-99999,-99999,-99999,-99999,0.056449986,0.056560229,0.056758245,0.057042332,0.057418009,0.059056024,0.065822669,0.06901636,0.082549331,0.097960589,0.126288708,0.124409593,0.09546743,0.089910368,0.084475592,0.050215946,-99999,-99999,-99999,-99999,-99999,-99999,0.043862,0.056459,0.046615,0.050072
471755,1993-08-10T09:46:38.453000Z,A93113A1,6.3,0.08,Slab,S,1,354,64,168,special,-38.55,177.92,-37.8735,177.5847,6283090.62,2938734.07,6359624,2913365,30,15,80.72,89.57,66.1,76.08,-13.94,78.77,0,39,32.26,nu,113A,C,522,Q3,0.15,Q3,10,Q3,0,-99999,-99999,1,0.42,13,0.714,13,Reyners_et_al2010&Webb_Anderson_1998&Dowrick_Rhoades1998&HarvardCMT,0.089791768,0.09031684,0.091173153,0.092408233,0.094292653,0.101629459,0.111068705,0.141618132,0.235149365,0.249215298,0.214041243,0.127882611,0.083041279,0.034092065,0.022768841,-99999,-99999,-99999,-99999,-99999,-99999,-99999,0.111079694,0.111479179,0.112125733,0.113018274,0.114127392,0.117812487,0.137371892,0.17669246,0.253316559,0.348396321,0.267680302,0.164231433,0.105736658,0.045919725,0.029631487,-99999,-99999,-99999,-99999,-99999,-99999,-99999,0.089493,0.110538,0.041559,0.054997
471755,1993-08-10T09:46:38.453000Z,D93014A4,6.3,0.08,Slab,S,1,354,64,168,special,-38.55,177.92,-39.4984,176.8761,6283090.62,2938734.07,6182359,2843283,30,15,138.75,144.15,129.07,134.18,-102.17,-90.2,0,39,32.26,nu,NCDS,E,162,Q3,1.25,Q2,110,Q3,0,-99999,-99999,0,0.25,10,0.425,10,Reyners_et_al2010&Webb_Anderson_1998&Dowrick_Rhoades1998&HarvardCMT,0.015077009,0.015171669,0.015323563,0.015543013,0.015838672,0.017238847,0.02128685,0.029590554,0.033513463,0.030072844,0.029605284,0.026505398,0.02277013,0.029805767,0.020855631,0.010407134,0.005738829,-99999,-99999,-99999,-99999,-99999,0.016764946,0.016843497,0.016977205,0.017154792,0.017404379,0.018412551,0.023344471,0.032143539,0.036311336,0.033638561,0.034314904,0.027785302,0.028452301,0.036604457,0.022981107,0.012180219,0.006858386,-99999,-99999,-99999,-99999,-99999,0.015065,0.016758,0.013876,0.016776
471755,1993-08-10T09:46:38.453000Z,D93016A1,6.3,0.08,Slab,S,1,354,64,168,special,-38.55,177.92,-38.6774,178.031,6283090.62,2938734.07,6268431,2947608,30,15,17.14,42.71,6.16,35.7,10.58,-15.51,0,39,32.26,nu,016A,C,480,Q3,0.15,Q3,10,Q3,0,-99999,-99999,0,0.3,21,0.51,21,Reyners_et_al2010&Webb_Anderson_1998&Dowrick_Rhoades1998&HarvardCMT,0.155871867,0.156899685,0.158563378,0.161072108,0.164936273,0.172813715,0.202836015,0.345527558,0.340233072,0.27749815,0.246957546,0.258662108,0.304717543,0.194548894,0.101655084,0.037463513,-99999,-99999,-99999,-99999,-99999,-99999,0.193097529,0.194463316,0.196658682,0.199790289,0.20525282,0.224759146,0.237119921,0.435234898,0.398448711,0.324711448,0.312691297,0.324296397,0.401267358,0.231036673,0.116594958,0.041758696,-99999,-99999,-99999,-99999,-99999,-99999,0.154414,0.193073,0.103709,0.140525
471755,1993-08-10T09:46:38.453000Z,D93017A1,6.3,0.08,Slab,S,1,354,64,168,special,-38.55,177.92,-38.6665,178.0227,6283090.62,2938734.07,6269685,2946952,30,15,15.73,42.06,5.22,35.18,10.06,-14.19,0,39,32.26,nu,GISS,D,138,Q2,1,Q1,40,Q3,0,-99999,-99999,0,0.25,30,0.425,30,Reyners_et_al2010&Webb_Anderson_1998&Dowrick_Rhoades1998&HarvardCMT,0.187042769,0.189022842,0.194337639,0.206503033,0.205905997,0.226996297,0.262457842,0.321608288,0.326735731,0.416125338,0.509013667,0.417769581,0.278726452,0.19709056,0.143834861,0.056444564,0.025517562,-99999,-99999,-99999,-99999,-99999,0.217034107,0.21811619,0.219839275,0.226731501,0.218817042,0.276152742,0.281945856,0.353397773,0.378111611,0.514946277,0.582665824,0.434835478,0.368366872,0.264101639,0.159071213,0.062978897,0.032112848,-99999,-99999,-99999,-99999,-99999,0.186203,0.217059,0.121691,0.144066
471755,1993-08-10T09:46:38.453000Z,D93021A3,6.3,0.08,Slab,S,1,354,64,168,special,-38.55,177.92,-38.4249,176.3157,6283090.62,2938734.07,6303375,2799556,30,15,140.32,146.04,135.79,140.25,-133.01,34.72,10,39,32.26,nu,021A,D,210,Q3,2,Q3,200,Q3,0,-99999,-99999,1,0.18,10,0.306,10,Reyners_et_al2010&Webb_Anderson_1998&Dowrick_Rhoades1998&HarvardCMT,0.026354829,0.026363254,0.026395128,0.026450712,0.02650613,0.026709699,0.026906925,0.028077006,0.029287733,0.0324775,0.032525537,0.040869433,0.043290932,0.046131393,0.065529718,0.072089618,0.027332048,0.009028125,-99999,-99999,-99999,-99999,0.028011905,0.028021719,0.028048425,0.02805695,0.028092617,0.028188324,0.028520601,0.031619031,0.034464939,0.035232299,0.041146992,0.047018909,0.046757543,0.051172826,0.070659976,0.084434383,0.032674993,0.009753499,-99999,-99999,-99999,-99999,0.026355,0.028006,0.056127,0.064898
608810,1994-06-18T03:25:13.819000Z,D4505A01,6.72,0.08,Crustal,R,1,221,47,112,geonet,-43.0078,171.4762,-42.9489,171.5677,5798820.69,2385786.14,5805487,2393135,21.06,21.06,9.91,11.12,2.02,4.12,2.92,-9.85,0,4.27,1,hw,APPS,C,300,Q2,0.4,Q1,30,Q2,0,-99999,-99999,0,0.11,40,0.187,40,Abercrombie_etal_2000&HarvardCMT,0.434688612,0.446246896,0.472520285,0.451605805,0.465552515,0.543398506,0.585779501,0.742092783,0.939155956,0.879526399,0.714400018,0.806017559,0.797132572,0.339204856,0.1962575,0.105589848,0.074428019,0.040212609,0.027303687,0.01646243,-99999,-99999,0.509291369,0.524896023,0.548145109,0.571270041,0.523811055,0.640089726,0.644745419,0.974914095,1.167535275,1.156071917,0.962257806,0.960711275,0.987044911,0.425552974,0.26822503,0.138738376,0.085066687,0.055890004,0.035313676,0.019746197,-99999,-99999,0.423633,0.509184,0.28269,0.316738
