CuspID,Origin_time,Record,Mw,MwUncert,TectClass,Mech,PreferredFaultPlane,Strike,Dip,Rake,Location,HypLat,HypLon,StationLat,StationLon,HypN,HypE,StationN,StationE,LENGTH_km,WIDTH_km,Repi_km,Rhyp_km,Rjb_km,Rrup_km,Rx_km,Ry_km,Rvol_km,HypDepth_km,ZTOR_km,HWFW,SiteCode,SiteClass1170,Vs30,Vs30Uncert,Tsite,TsiteUncert,Z1,Z1Uncertainty,Directivity,Pulse_or,Pulse_T,S_Trigger_Flag,fcButterHP,f_iniLP,fmin,fmax,References,f100.0000SA_RotD50,f50.0000SA_RotD50,f33.3333SA_RotD50,f25.0000SA_RotD50,f20.0000SA_RotD50,f13.3333SA_RotD50,f10.0000SA_RotD50,f6.6667SA_RotD50,f5.0000SA_RotD50,f4.0000SA_RotD50,f3.3333SA_RotD50,f2.5000SA_RotD50,f2.0000SA_RotD50,f1.3333SA_RotD50,f1.0000SA_RotD50,f0.6667SA_RotD50,f0.5000SA_RotD50,f0.3333SA_RotD50,f0.2500SA_RotD50,f0.2000SA_RotD50,f0.1333SA_RotD50,f0.1000SA_RotD50,f100.0000SA_RotD100,f50.0000SA_RotD100,f33.3333SA_RotD100,f25.0000SA_RotD100,f20.0000SA_RotD100,f13.3333SA_RotD100,f10.0000SA_RotD100,f6.6667SA_RotD100,f5.0000SA_RotD100,f4.0000SA_RotD100,f3.3333SA_RotD100,f2.5000SA_RotD100,f2.0000SA_RotD100,f1.3333SA_RotD100,f1.0000SA_RotD100,f0.6667SA_RotD100,f0.5000SA_RotD100,f0.3333SA_RotD100,f0.2500SA_RotD100,f0.2000SA_RotD100,f0.1333SA_RotD100,f0.1000SA_RotD100,PGA_RotD50,PGA_RotD100,PGV_RotD50,PGV_RotD100
722185,1995-03-22T19:43:30.268000Z,D5646A05,5.83,0.15,Slab,S,0,27,64,30,nlloc,-41.0514,174.216,-41.2574,174.9485,6016538.56,2612205.51,5992552,2673256,7.6,7.6,65.46,107.84,62.76,105.2,-99999,-99999,0,85.51,82.13,nu,WDAS,E,120,Q1,1.6,Q2,62,Q2,0,-99999,-99999,0,0.25,19,0.425,19,HarvardCMT,0.044251369,0.044747416,0.045732048,0.047326344,0.049987418,0.091663518,0.086376825,0.144935454,0.157294525,0.173701869,0.137065063,0.115643207,0.125532985,0.11905316,0.06213377,0.033568268,0.009499235,-99999,-99999,-99999,-99999,-99999,0.061447903,0.06199201,0.062972166,0.064697725,0.06638245,0.112335637,0.093806752,0.168587352,0.21554057,0.239156446,0.175044856,0.126481421,0.145670089,0.163446186,0.076691135,0.045005134,0.012811894,-99999,-99999,-99999,-99999,-99999,0.044194,0.061457,0.031242,0.043211
722185,1995-03-22T19:43:30.268000Z,D5647D02,5.83,0.15,Slab,S,0,27,64,30,nlloc,-41.0514,174.216,-41.2875,174.7769,6016538.56,2612205.51,5989514,2658817,7.6,7.6,53.8,101.07,51.16,98.26,-99999,-99999,0,85.51,82.13,nu,647D,D,474,Q2,0.12,Q2,5.70E+00,Q2,0,-99999,-99999,0,0.3,18,0.51,18,HarvardCMT,0.044003066,0.044500394,0.045272158,0.046593867,0.048933406,0.082514481,0.106122441,0.180581779,0.266793896,0.133265767,0.134627572,0.137254685,0.061025977,0.026749935,0.013474064,0.008938262,-99999,-99999,-99999,-99999,-99999,-99999,0.053277847,0.053401301,0.05360863,0.054245964,0.057166893,0.092008363,0.115640468,0.188468074,0.301107309,0.176342239,0.143722973,0.17920274,0.084545843,0.033222797,0.018527586,0.011032774,-99999,-99999,-99999,-99999,-99999,-99999,0.044004,0.053275,0.021937,0.024439
722185,1995-03-22T19:43:30.268000Z,D5648A03,5.83,0.15,Slab,S,0,27,64,30,nlloc,-41.0514,174.216,-41.2775,174.7735,6016538.56,2612205.51,5990634,2658549,7.6,7.6,53.01,109.27,50.36,106.39,-99999,-99999,0,85.51,82.13,nu,921A,C,330,Q3,0.5,Q3,38,Q3,0,-99999,-99999,0,0.35,32,0.595,32,HarvardCMT,0.05777299,0.058805149,0.063644763,0.112104126,0.104619412,0.116357001,0.201730714,0.303919588,0.265593345,0.185101373,0.198715374,0.149469843,0.082321368,0.042090604,0.018703669,0.010569041,-99999,-99999,-99999,-99999,-99999,-99999,0.060726607,0.061303669,0.076916431,0.152253046,0.129979579,0.156836246,0.242252291,0.415530643,0.319083916,0.209226188,0.277003013,0.189939469,0.106993545,0.047049779,0.02289877,0.014194963,-99999,-99999,-99999,-99999,-99999,-99999,0.057084,0.060531,0.025057,0.029225
722185,1995-03-22T19:43:30.268000Z,D5707A02,5.83,0.15,Slab,S,0,27,64,30,nlloc,-41.0514,174.216,-41.1391,174.8502,6016538.56,2612205.51,6005867,2665298,7.6,7.6,54.03,101.23,51.21,98.48,-99999,-99999,0,85.51,82.13,nu,707A,C,570,Q3,0.15,Q3,10,Q3,0,-99999,-99999,0,0.25,20,0.425,20,HarvardCMT,0.032795051,0.033854141,0.035639663,0.038989294,0.063845379,0.095999662,0.144394585,0.130265953,0.056797731,0.076055533,0.040423447,0.047312407,0.023628364,0.016617434,0.009422697,0.007128863,0.003697403,-99999,-99999,-99999,-99999,-99999,0.038070994,0.038914698,0.040406687,0.042592008,0.074570222,0.112653649,0.171233451,0.179766227,0.061216784,0.088101178,0.04958303,0.054493712,0.025368865,0.021950528,0.011771506,0.009198833,0.005222347,-99999,-99999,-99999,-99999,-99999,0.032794,0.037966,0.009417,0.01102
722185,1995-03-22T19:43:30.268000Z,D5900C02,5.83,0.15,Slab,S,0,27,64,30,nlloc,-41.0514,174.216,-41.2891,174.7799,6016538.56,2612205.51,5989335,2659058,7.6,7.6,54.09,101.23,51.45,98.43,-99999,-99999,0,85.51,82.13,nu,900C,D,250,Q3,0.8,Q3,60,Q3,0,-99999,-99999,0,0.3,15,0.51,15,HarvardCMT,0.054895478,0.05518252,0.05564498,0.056339421,0.057325294,0.071072068,0.095556173,0.150716897,0.258821817,0.295279198,0.20779783,0.223068273,0.090552515,0.051024396,0.023112546,0.009473372,-99999,-99999,-99999,-99999,-99999,-99999,0.070221388,0.070570263,0.071215492,0.072211343,0.073549323,0.093305548,0.106952297,0.205253117,0.318644676,0.366431165,0.264490019,0.293142823,0.112030736,0.064653648,0.025816982,0.011315256,-99999,-99999,-99999,-99999,-99999,-99999,0.054898,0.07014,0.030361,0.034038
722185,1995-03-22T19:43:30.268000Z,D5935C03,5.83,0.15,Slab,S,0,27,64,30,nlloc,-41.0514,174.216,-41.2108,174.9047,6016538.56,2612205.51,5997808,2669699,7.6,7.6,60.34,104.73,57.6,102.04,-99999,-99999,0,85.51,82.13,nu,935A,D,240,Q3,1.2,Q3,275,Q3,0,-99999,-99999,0,0.25,24.5,0.425,24.5,HarvardCMT,0.038869508,0.039211031,0.039911309,0.043010066,0.050568087,0.076357466,0.084674083,0.093910221,0.124113864,0.141577868,0.136517114,0.158986745,0.117553283,0.032663612,0.041419276,0.014050612,0.00833313,-99999,-99999,-99999,-99999,-99999,0.042453766,0.042902848,0.043704268,0.049965004,0.056892297,0.087929838,0.092731604,0.104458266,0.16243107,0.170312523,0.17217606,0.21594621,0.136867984,0.044315751,0.045505082,0.019231428,0.009895815,-99999,-99999,-99999,-99999,-99999,0.038712,0.042452,0.023412,0.027531
722185,1995-03-22T19:43:30.268000Z,I5027F03,5.83,0.15,Slab,S,0,27,64,30,nlloc,-41.0514,174.216,-39.4884,176.9189,6016538.56,2612205.51,6183307,2847012,7.6,7.6,287.72,300.43,284.58,297.6,-99999,-99999,0,85.51,82.13,nu,NAMS,C,268,Q3,0.4,Q3,20,Q3,0,-99999,-99999,1,0.5,21,0.85,21,HarvardCMT,0.007504017,0.007532194,0.007585726,0.007703992,0.008225778,0.00992018,0.012214101,0.015442887,0.017609933,0.019951563,0.028649346,0.060042933,0.020009544,0.006382191,0.00297471,-99999,-99999,-99999,-99999,-99999,-99999,-99999,0.010086844,0.010126325,0.010193557,0.010295447,0.01059998,0.013959374,0.014177256,0.020264103,0.019552951,0.027757577,0.037783783,0.078254105,0.026622218,0.008620902,0.004147929,-99999,-99999,-99999,-99999,-99999,-99999,-99999,0.00749,0.010072,0.004646,0.005415
722185,1995-03-22T19:43:30.268000Z,I5467A07,5.83,0.15,Slab,S,0,27,64,30,nlloc,-41.0514,174.216,-41.2425,174.9024,6016538.56,2612205.51,5994293,2669430,7.6,7.6,61.27,105.27,58.57,102.59,-99999,-99999,0,85.51,82.13,nu,467A,D,218,Q3,1.5,Q3,200,Q3,0,-99999,-99999,0,0.19,28,0.323,28,HarvardCMT,0.037783573,0.03817473,0.038962301,0.040422308,0.045321615,0.066181266,0.080805271,0.14983058,0.180206859,0.087465011,0.052207602,0.058931145,0.094652131,0.058121566,0.037724005,0.034822788,0.009430041,0.00225705,-99999,-99999,-99999,-99999,0.043064907,0.043524046,0.044311521,0.044428525,0.054710216,0.072522224,0.083808891,0.207021552,0.236428004,0.104825281,0.056349807,0.073853875,0.106535485,0.07723131,0.048448679,0.049018487,0.010117904,0.002409519,-99999,-99999,-99999,-99999,0.037621,0.042592,0.02036,0.023217
722185,1995-03-22T19:43:30.268000Z,I5468A06,5.83,0.15,Slab,S,0,27,64,30,nlloc,-41.0514,174.216,-41.2011,174.9547,6016538.56,2612205.51,5998793,2673916,7.6,7.6,64.07,106.94,61.31,104.29,-99999,-99999,0,85.51,82.13,nu,468A,D,190,Q1,0.9,Q3,50,Q3,0,-99999,-99999,0,0.25,24,0.425,24,HarvardCMT,0.057138744,0.057732286,0.058842792,0.063781791,0.083108909,0.123105697,0.127294807,0.364528587,0.372176462,0.220547036,0.178992231,0.154868098,0.126883104,0.080621007,0.090754831,0.015723457,0.007811005,-99999,-99999,-99999,-99999,-99999,0.074548555,0.075324619,0.076609362,0.079359886,0.093978261,0.146437138,0.14079667,0.437027954,0.463970539,0.260668703,0.195976483,0.210793432,0.156626696,0.097954098,0.104765312,0.018769369,0.009576861,-99999,-99999,-99999,-99999,-99999,0.057084,0.07455,0.031492,0.037271
722185,1995-03-22T19:43:30.268000Z,I5602C01,5.83,0.15,Slab,S,0,27,64,30,nlloc,-41.0514,174.216,-41.1903,174.928,6016538.56,2612205.51,6000041,2671703,7.6,7.6,61.61,105.49,58.84,102.81,-99999,-99999,0,85.51,82.13,nu,602C,B,1000,Q3,<0.1,Q3,0,Q3,0,-99999,-99999,0,0.2,45,0.34,45,HarvardCMT,0.018186645,0.018677257,0.021329272,0.02734634,0.027123082,0.063007708,0.064656715,0.04751572,0.062441829,0.05802234,0.053601669,0.035174433,0.022201402,0.012283844,0.011318367,0.006148489,0.004911885,-99999,-99999,-99999,-99999,-99999,0.022776579,0.023282225,0.025242553,0.032328924,0.029416584,0.077466654,0.09133402,0.064137545,0.080390224,0.079890288,0.06894191,0.040014827,0.027653527,0.014945851,0.013610713,0.007632324,0.005986233,-99999,-99999,-99999,-99999,-99999,0.017965,0.022615,0.008932,0.011987
722185,1995-03-22T19:43:30.268000Z,I5603B03,5.83,0.15,Slab,S,0,27,64,30,nlloc,-41.0514,174.216,-41.2237,174.86,6016538.56,2612205.51,5996453,2665923,7.6,7.6,57.23,102.97,54.52,100.24,-99999,-99999,0,85.51,82.13,nu,603B,B,1000,Q3,<0.1,Q3,0,Q3,0,-99999,-99999,0,0.25,30,0.425,30,HarvardCMT,0.01676836,0.017021128,0.017559636,0.019775386,0.026146654,0.036847303,0.049506805,0.079140701,0.062136046,0.033369284,0.028690218,0.043974541,0.024436091,0.015694531,0.014205652,0.008503118,0.00534066,-99999,-99999,-99999,-99999,-99999,0.023691567,0.024009329,0.024835845,0.024706588,0.032380491,0.049742205,0.068128356,0.108989275,0.083878862,0.043186505,0.036470077,0.05921482,0.027720583,0.017184717,0.016003241,0.011165408,0.007339631,-99999,-99999,-99999,-99999,-99999,0.016751,0.023688,0.00872,0.011914
722185,1995-03-22T19:43:30.268000Z,I5605B05,5.83,0.15,Slab,S,0,27,64,30,nlloc,-41.0514,174.216,-41.2074,174.9401,6016538.56,2612205.51,5998119,2672679,7.6,7.6,63.08,106.39,60.33,103.72,-99999,-99999,0,85.51,82.13,nu,FAIS,B,760,Q3,0.27,Q1,0,Q2,0,-99999,-99999,0,0.15,32,0.255,32,HarvardCMT,0.031848019,0.032365225,0.033709695,0.035795119,0.044588028,0.050728813,0.082197668,0.150639241,0.110460742,0.114122499,0.077721908,0.054094898,0.042864653,0.015252898,0.009162434,0.004730014,0.003421633,0.001210942,-99999,-99999,-99999,-99999,0.037418127,0.037799037,0.038449655,0.043345728,0.050859126,0.062833612,0.087957321,0.189735251,0.142126619,0.155636046,0.085577654,0.075192554,0.050455712,0.016797358,0.011255538,0.006133749,0.00431104,0.001643929,-99999,-99999,-99999,-99999,0.03163,0.037414,0.013971,0.019442
722185,1995-03-22T19:43:30.268000Z,I5606B07,5.83,0.15,Slab,S,0,27,64,30,nlloc,-41.0514,174.216,-41.2333,174.9199,6016538.56,2612205.51,5995282,2670919,7.6,7.6,62.31,105.88,59.59,103.21,-99999,-99999,0,85.51,82.13,nu,606B,B,800,Q3,<0.1,Q3,0,Q3,0,-99999,-99999,0,0.25,35,0.425,35,HarvardCMT,0.033482078,0.034781288,0.040683229,0.051113793,0.062014524,0.096682366,0.100659231,0.163377629,0.126874352,0.051445034,0.044919005,0.030872338,0.022070836,0.012129075,0.004504899,0.00302358,0.002659485,-99999,-99999,-99999,-99999,-99999,0.037318206,0.039102102,0.042362914,0.06329643,0.076549452,0.129829883,0.110940111,0.195216826,0.141086824,0.062744865,0.057295392,0.034847914,0.028670763,0.016862008,0.006166512,0.004210624,0.003046596,-99999,-99999,-99999,-99999,-99999,0.032391,0.036712,0.008125,0.009724
722185,1995-03-22T19:43:30.268000Z,I5642G18,5.83,0.15,Slab,S,0,27,64,30,nlloc,-41.0514,174.216,-41.235,174.9172,6016538.56,2612205.51,5995098,2670688,7.6,7.6,62.16,105.8,59.44,103.12,-99999,-99999,0,85.51,82.13,nu,642G,C,350,Q1,0.35,Q2,50,Q3,0,-99999,-99999,0,0.25,35,0.425,35,HarvardCMT,0.074234114,0.07588431,0.080402868,0.080972191,0.103381973,0.14608341,0.16345818,0.294962814,0.211230604,0.156192175,0.101303849,0.089140209,0.058658171,0.02344939,0.008575111,0.004053805,0.002898159,-99999,-99999,-99999,-99999,-99999,0.083273095,0.084762881,0.087640014,0.087162442,0.112738445,0.158132952,0.173889425,0.384614347,0.277130741,0.173564593,0.123973375,0.099924979,0.06825064,0.031356589,0.009680841,0.005407343,0.00329668,-99999,-99999,-99999,-99999,-99999,0.073975,0.0828,0.018827,0.023045
722185,1995-03-22T19:43:30.268000Z,I5642H18,5.83,0.15,Slab,S,0,27,64,30,nlloc,-41.0514,174.216,-41.235,174.9172,6016538.56,2612205.51,5995098,2670688,7.6,7.6,62.16,105.8,59.44,103.12,-99999,-99999,0,85.51,82.13,nu,642H,C,350,Q1,0.35,Q2,50,Q3,0,-99999,-99999,0,0.25,35,0.425,35,HarvardCMT,0.053425358,0.054427751,0.057266283,0.062908462,0.063342008,0.095792398,0.128551535,0.228162408,0.22401622,0.240963141,0.148289756,0.102518169,0.064663855,0.024756295,0.009268394,0.004307844,0.003223234,-99999,-99999,-99999,-99999,-99999,0.069750728,0.070906304,0.07220663,0.078370992,0.087586867,0.129872915,0.14640898,0.313481596,0.278892554,0.308846648,0.170553655,0.112634096,0.07894022,0.032049158,0.011641308,0.005797413,0.003439981,-99999,-99999,-99999,-99999,-99999,0.053201,0.069069,0.020039,0.022652
722185,1995-03-22T19:43:30.268000Z,I5708A04,5.83,0.15,Slab,S,0,27,64,30,nlloc,-41.0514,174.216,-41.1314,174.8391,6016538.56,2612205.51,6006740,2664387,7.6,7.6,52.97,100.66,50.14,97.89,-99999,-99999,0,85.51,82.13,nu,POLS,C,250,Q2,0.4,Q1,25,Q2,0,-99999,-99999,0,0.15,30,0.255,30,HarvardCMT,0.039467814,0.039954955,0.041143395,0.042145826,0.050969928,0.08611447,0.101469593,0.157248949,0.1048603,0.107571616,0.179251937,0.15064522,0.050232298,0.026405285,0.015282979,0.008852481,0.004548574,0.001789574,-99999,-99999,-99999,-99999,0.044084656,0.044752976,0.046746641,0.053352404,0.056407856,0.100794556,0.115125299,0.210813711,0.123188949,0.129193223,0.235065347,0.203515339,0.059107756,0.029742589,0.019848873,0.01119642,0.006068298,0.002315465,-99999,-99999,-99999,-99999,0.039215,0.044089,0.018455,0.02399
722185,1995-03-22T19:43:30.268000Z,I5711A01,5.83,0.15,Slab,S,0,27,64,30,nlloc,-41.0514,174.216,-41.2294,174.9042,6016538.56,2612205.51,5995739,2669619,7.6,7.6,60.94,105.08,58.22,102.39,-99999,-99999,0,85.51,82.13,nu,LRSS,D,230,Q3,1.4,Q3,175,Q3,0,-99999,-99999,0,0.25,24.5,0.425,24.5,HarvardCMT,0.043219331,0.04371552,0.044585661,0.046389038,0.051615876,0.09789486,0.134315767,0.146780228,0.092957612,0.132761596,0.115090618,0.124498197,0.115307619,0.045694883,0.027178595,0.023941931,0.011927186,-99999,-99999,-99999,-99999,-99999,0.061128595,0.061828369,0.063054491,0.064421975,0.06456955,0.112946868,0.18994563,0.175508371,0.124858267,0.178873036,0.161601459,0.153995617,0.156560073,0.064620104,0.037398009,0.028048683,0.014039371,-99999,-99999,-99999,-99999,-99999,0.042852,0.06009,0.026957,0.036004
722185,1995-03-22T19:43:30.268000Z,I5918B08,5.83,0.15,Slab,S,0,27,64,30,nlloc,-41.0514,174.216,-41.284,174.7682,6016538.56,2612205.51,5989908,2658140,7.6,7.6,52.97,100.77,50.33,97.95,-99999,-99999,0,85.51,82.13,nu,WEL,B,1000,Q3,0.3,Q1,0,Q2,0,-99999,-99999,0,0.25,24.5,0.425,24.5,HarvardCMT,0.058496868,0.05930118,0.060800149,0.064792116,0.068712831,0.103426702,0.103914662,0.439018517,0.285894209,0.193103264,0.13024404,0.083236246,0.056448102,0.019309576,0.017138532,0.010015458,0.006860072,-99999,-99999,-99999,-99999,-99999,0.079343481,0.0801445,0.081413234,0.08335304,0.089349953,0.114029745,0.12089076,0.559925068,0.364073386,0.218062088,0.181966923,0.10446619,0.078524218,0.024492348,0.021783752,0.012813385,0.009072145,-99999,-99999,-99999,-99999,-99999,0.058394,0.078329,0.02109,0.029719
722185,1995-03-22T19:43:30.268000Z,I5926A03,5.83,0.15,Slab,S,0,27,64,30,nlloc,-41.0514,174.216,-39.4883,176.9169,6016538.56,2612205.51,6183331,2846839,7.6,7.6,287.59,300.32,284.45,297.49,-99999,-99999,0,85.51,82.13,nu,926A,C,651,Q3,0.07,Q3,5,Q3,0,-99999,-99999,1,0.35,15,0.595,15,HarvardCMT,0.004262883,0.004281629,0.00431458,0.004364033,0.004454444,0.005677038,0.00783373,0.011129241,0.016642967,0.010939255,0.01874008,0.033895308,0.011828467,0.003921271,0.002654134,0.001164752,-99999,-99999,-99999,-99999,-99999,-99999,0.005463546,0.005501104,0.00556704,0.005671221,0.005835483,0.006121265,0.009370336,0.012529121,0.018209939,0.012904673,0.024730597,0.047717988,0.016238831,0.004772527,0.003596894,0.001644162,-99999,-99999,-99999,-99999,-99999,-99999,0.004257,0.005447,0.002834,0.003776
722185,1995-03-22T19:43:30.268000Z,K5046A01,5.83,0.15,Slab,S,0,27,64,30,nlloc,-41.0514,174.216,-41.2709,173.2837,6016538.56,2612205.51,5992838,2533754,7.6,7.6,81.77,118.44,78.66,114.68,-99999,-99999,0,85.51,82.13,nu,NCBS,D,210,Q3,0.7,Q2,50,Q3,0,-99999,-99999,1,0.7,14,1.19,14,HarvardCMT,0.039034825,0.039351228,0.039866569,0.040569857,0.041539846,0.048059484,0.065410666,0.123119648,0.098614853,0.15106896,0.143862489,0.077177389,0.075413749,0.041493652,-99999,-99999,-99999,-99999,-99999,-99999,-99999,-99999,0.043798521,0.044008435,0.044377154,0.044958788,0.045766714,0.050932751,0.073091595,0.142764108,0.122760316,0.201219812,0.186727754,0.083597986,0.087035012,0.053728427,-99999,-99999,-99999,-99999,-99999,-99999,-99999,-99999,0.038739,0.043798,0.018358,0.023447
722185,1995-03-22T19:43:30.268000Z,K5087A01,5.83,0.15,Slab,S,0,27,64,30,nlloc,-41.0514,174.216,-39.7163,175.1455,6016538.56,2612205.51,6163232,2693941,7.6,7.6,168.04,188.46,165.17,186.14,-99999,-99999,0,85.51,82.13,nu,087A,B,1000,Q3,<0.1,Q3,0,Q2,0,-99999,-99999,1,0.5,20,0.85,20,HarvardCMT,0.057473543,0.058288511,0.059512735,0.061873009,0.07046373,0.116092348,0.167601735,0.161081917,0.293536319,0.170531398,0.15817484,0.258803328,0.082485766,0.029887787,0.031548418,-99999,-99999,-99999,-99999,-99999,-99999,-99999,0.075264277,0.07639513,0.078300718,0.081286069,0.096489278,0.160533027,0.236999541,0.191278123,0.403329531,0.216473224,0.191433656,0.3532685,0.095846334,0.040312766,0.04159756,-99999,-99999,-99999,-99999,-99999,-99999,-99999,0.057253,0.07431,0.025754,0.03317
722185,1995-03-22T19:43:30.268000Z,K5087C01,5.83,0.15,Slab,S,0,27,64,30,nlloc,-41.0514,174.216,-39.7171,175.1382,6016538.56,2612205.51,6163158,2693314,7.6,7.6,167.67,188.13,164.8,185.82,-99999,-99999,0,85.51,82.13,nu,087C,C,425,Q3,0.33,Q3,30,Q3,0,-99999,-99999,1,0.7,14,1.19,14,HarvardCMT,0.064532631,0.064824193,0.065306599,0.065977727,0.066814218,0.090295369,0.111233432,0.224131932,0.326981922,0.312739653,0.2744944,0.322592488,0.288293418,0.063437435,-99999,-99999,-99999,-99999,-99999,-99999,-99999,-99999,0.071402342,0.071698993,0.072146294,0.072797662,0.073626884,0.09752026,0.132363908,0.305065601,0.363915052,0.391797129,0.34385599,0.357913797,0.372336259,0.089046761,-99999,-99999,-99999,-99999,-99999,-99999,-99999,-99999,0.064436,0.071363,0.034959,0.043902
722185,1995-03-22T19:43:30.268000Z,K5608A01,5.83,0.15,Slab,S,0,27,64,30,nlloc,-41.0514,174.216,-41.2241,174.8794,6016538.56,2612205.51,5996377,2667546,7.6,7.6,58.78,103.83,56.06,101.12,-99999,-99999,0,85.51,82.13,nu,608A,D,200,Q2,2,Q2,250,Q3,0,-99999,-99999,1,0.4,11,0.68,11,HarvardCMT,0.029266727,0.029346521,0.029564206,0.029857969,0.030280013,0.031913219,0.042741049,0.070711406,0.092558081,0.049362885,0.056842739,0.105685747,0.133634217,0.061664435,0.029998608,-99999,-99999,-99999,-99999,-99999,-99999,-99999,0.036010436,0.036191793,0.03647217,0.036877428,0.03748475,0.040091828,0.050672154,0.082002082,0.115688278,0.059398863,0.061097685,0.142514811,0.166558699,0.084700091,0.03145352,-99999,-99999,-99999,-99999,-99999,-99999,-99999,0.029264,0.035812,0.024995,0.030959
