CuspID,Origin_time,Record,Mw,MwUncert,TectClass,Mech,PreferredFaultPlane,Strike,Dip,Rake,Location,HypLat,HypLon,StationLat,StationLon,HypN,HypE,StationN,StationE,LENGTH_km,WIDTH_km,Repi_km,Rhyp_km,Rjb_km,Rrup_km,Rx_km,Ry_km,Rvol_km,HypDepth_km,ZTOR_km,HWFW,SiteCode,SiteClass1170,Vs30,Vs30Uncert,Tsite,TsiteUncert,Z1,Z1Uncertainty,Directivity,Pulse_or,Pulse_T,S_Trigger_Flag,fcButterHP,f_iniLP,fmin,fmax,References,f100.0000SA_RotD50,f50.0000SA_RotD50,f33.3333SA_RotD50,f25.0000SA_RotD50,f20.0000SA_RotD50,f13.3333SA_RotD50,f10.0000SA_RotD50,f6.6667SA_RotD50,f5.0000SA_RotD50,f4.0000SA_RotD50,f3.3333SA_RotD50,f2.5000SA_RotD50,f2.0000SA_RotD50,f1.3333SA_RotD50,f1.0000SA_RotD50,f0.6667SA_RotD50,f0.5000SA_RotD50,f0.3333SA_RotD50,f0.2500SA_RotD50,f0.2000SA_RotD50,f0.1333SA_RotD50,f0.1000SA_RotD50,f100.0000SA_RotD100,f50.0000SA_RotD100,f33.3333SA_RotD100,f25.0000SA_RotD100,f20.0000SA_RotD100,f13.3333SA_RotD100,f10.0000SA_RotD100,f6.6667SA_RotD100,f5.0000SA_RotD100,f4.0000SA_RotD100,f3.3333SA_RotD100,f2.5000SA_RotD100,f2.0000SA_RotD100,f1.3333SA_RotD100,f1.0000SA_RotD100,f0.6667SA_RotD100,f0.5000SA_RotD100,f0.3333SA_RotD100,f0.2500SA_RotD100,f0.2000SA_RotD100,f0.1333SA_RotD100,f0.1000SA_RotD100,PGA_RotD50,PGA_RotD100,PGV_RotD50,PGV_RotD100
339342,1992-05-27T22:30:35.064000Z,D92707A1,5.9,0.08,Slab,S,1,117,85,21,special,-41.63,173.62,-41.1391,174.8502,5952812.98,2561652.09,6005867,2665298,8.2,8.2,116.24,134.35,113.89,131.28,-93.97,68.26,0,67,62.92,nu,707A,C,570,Q3,0.15,Q3,10,Q3,0,-99999,-99999,0,0.5,21,0.85,21,Webb_Anderson_1998&Dowrick_Rhoades1998&HarvardCMT,0.022493268,0.022699293,0.023015908,0.02346225,0.024983634,0.0325,0.047729118,0.066655588,0.036336992,0.037950344,0.03570105,0.029162206,0.019665627,0.006000198,0.003499393,-99999,-99999,-99999,-99999,-99999,-99999,-99999,0.027095339,0.027417358,0.027971435,0.029053637,0.030025008,0.039180179,0.052699654,0.074295885,0.04035912,0.041500883,0.045495132,0.039444623,0.027647396,0.007787459,0.003827537,-99999,-99999,-99999,-99999,-99999,-99999,-99999,0.022265,0.027107,0.007825,0.010582
339342,1992-05-27T22:30:35.064000Z,D92918B5,5.9,0.08,Slab,S,1,117,85,21,special,-41.63,173.62,-41.284,174.7682,5952812.98,2561652.09,5989908,2658140,8.2,8.2,103.13,123.26,100.44,119.93,-76.5,69.13,0,67,62.92,nu,WEL,B,1000,Q3,0.3,Q1,0,Q2,0,-99999,-99999,0,0.4,18,0.68,18,Webb_Anderson_1998&Dowrick_Rhoades1998&HarvardCMT,0.020406345,0.020508381,0.020672228,0.020919695,0.021275131,0.024600569,0.029077231,0.040936673,0.049941844,0.063715191,0.05480479,0.059842636,0.0235695,0.009025243,0.007379893,-99999,-99999,-99999,-99999,-99999,-99999,-99999,0.025807785,0.026019177,0.02638404,0.026950168,0.027866752,0.027315566,0.040859715,0.047878955,0.065552913,0.085647637,0.077508239,0.081720363,0.030169471,0.009864771,0.010371229,-99999,-99999,-99999,-99999,-99999,-99999,-99999,0.020406,0.02579,0.01161,0.014177
339342,1992-05-27T22:30:35.064000Z,D92935B2,5.9,0.08,Slab,S,1,117,85,21,special,-41.63,173.62,-41.2108,174.9047,5952812.98,2561652.09,5997808,2669699,8.2,8.2,116.82,134.86,114.21,131.66,-88.79,75.84,0,67,62.92,nu,935A,D,240,Q3,1.2,Q3,275,Q3,0,-99999,-99999,0,0.35,16,0.595,16,Webb_Anderson_1998&Dowrick_Rhoades1998&HarvardCMT,0.018493549,0.018598533,0.019067393,0.01985749,0.021225771,0.027875575,0.047182522,0.038824019,0.038735796,0.061809411,0.059313582,0.03991246,0.029584389,0.013472009,0.009247637,0.005901122,-99999,-99999,-99999,-99999,-99999,-99999,0.022376149,0.022659643,0.023147399,0.023951382,0.025340259,0.031455802,0.058785539,0.048602586,0.048935347,0.073985141,0.071776704,0.051548932,0.034665189,0.016001348,0.010710515,0.007070209,-99999,-99999,-99999,-99999,-99999,-99999,0.018451,0.022359,0.01207,0.013051
339342,1992-05-27T22:30:35.064000Z,K92934B1,5.9,0.08,Slab,S,1,117,85,21,special,-41.63,173.62,-41.2436,174.908,5952812.98,2561652.09,5994160,2669897,8.2,8.2,115.64,133.85,112.94,130.58,-85.63,77.68,0,67,62.92,nu,934B,D,180,Q1,1.1,Q3,100,Q3,0,-99999,-99999,1,0.4,16,0.68,16,Webb_Anderson_1998&Dowrick_Rhoades1998&HarvardCMT,0.025404264,0.025506858,0.025746618,0.026113424,0.026604824,0.028411071,0.035592381,0.050198126,0.038041174,0.05207085,0.055973016,0.068972786,0.077919211,0.020591245,0.014037641,-99999,-99999,-99999,-99999,-99999,-99999,-99999,0.035623925,0.035810301,0.036128264,0.036574267,0.037158093,0.039904476,0.039242715,0.059648694,0.053798237,0.054361296,0.062720034,0.089179903,0.102693719,0.026647081,0.018158336,-99999,-99999,-99999,-99999,-99999,-99999,-99999,0.025401,0.035412,0.017923,0.022841
338849,1992-06-21T17:43:09.086000Z,K92028A1,6.25,0.08,Crustal,N,1,32,41,246,special,-37.67,176.86,-38.0079,177.284,6385179.66,2850645.07,6346024,2886230,12.26,12.26,52.9,53.06,48.15,48.79,55.55,-14.35,25,4,0.01,nu,028A,D,210,Q3,1,Q3,75,Q3,0,-99999,-99999,1,0.2,15,0.34,15,Webb_Anderson_1998&Dowrick_Rhoades1998&HarvardCMT,0.031130066,0.031392697,0.031905405,0.032684511,0.033946558,0.047376908,0.055851445,0.074897598,0.070399595,0.058430458,0.051843183,0.066513224,0.072474253,0.046105727,0.056403419,0.034815567,0.038894332,-99999,-99999,-99999,-99999,-99999,0.03383916,0.034124392,0.034609403,0.035429843,0.036775171,0.054246722,0.060252809,0.09029198,0.086711525,0.0786826,0.060054845,0.083465666,0.089525715,0.058678003,0.059258555,0.046929827,0.041443348,-99999,-99999,-99999,-99999,-99999,0.031059,0.033848,0.042707,0.059619
338849,1992-06-21T17:43:09.086000Z,A92930A1,6.25,0.08,Crustal,N,1,32,41,246,special,-37.67,176.86,-37.9885,176.8294,6385179.66,2850645.07,6349976,2846440,12.26,12.26,35.52,35.68,29.64,30.05,19.71,-32.08,30,4,0.01,nu,930A,E,150,Q3,>2,Q3,300,Q3,0,-99999,-99999,1,0.15,12,0.255,12,Webb_Anderson_1998&Dowrick_Rhoades1998&HarvardCMT,0.041409653,0.041483515,0.041624976,0.041813684,0.042102285,0.043566282,0.053194201,0.059608766,0.063704462,0.068062908,0.072434751,0.071666153,0.093482431,0.085951028,0.083719186,0.064710194,0.046516662,0.039626028,-99999,-99999,-99999,-99999,0.052093051,0.052211069,0.052413589,0.052701897,0.053139379,0.055736678,0.066857372,0.070749259,0.082236626,0.075253904,0.078949901,0.082465909,0.099803667,0.100674951,0.106514572,0.080095621,0.051637572,0.048543695,-99999,-99999,-99999,-99999,0.041386,0.051907,0.084975,0.103354
435226,1993-04-11T06:59:48.228000Z,A93032A1,5.68,0.08,Interface,O,1,198,15,52,special,-39.74,176.52,-39.9425,176.5874,6156829.5,2811622.89,6134136,2816486,8.63,8.63,23.24,34.95,18.95,31.74,-7.47,20.08,0,26,24.88,nu,032A,C,495,Q3,0.13,Q3,10,Q3,0,-99999,-99999,1,0.4,10,0.68,10,Webb_Anderson_1998&Dowrick_Rhoades1998&HarvardCMT,0.158447414,0.158848051,0.159500384,0.160399182,0.161608734,0.165488189,0.170015792,0.223135759,0.29876792,0.306819086,0.328584641,0.326299976,0.334688089,0.216682006,0.137451963,-99999,-99999,-99999,-99999,-99999,-99999,-99999,0.185062135,0.185510842,0.186238455,0.187206331,0.188472333,0.193086835,0.193471135,0.268358976,0.376779531,0.394289965,0.410926559,0.437508606,0.398457891,0.271641026,0.18756993,-99999,-99999,-99999,-99999,-99999,-99999,-99999,0.158186,0.185064,0.131958,0.175139
435226,1993-04-11T06:59:48.228000Z,D93014A2,5.68,0.08,Interface,O,1,198,15,52,special,-39.74,176.52,-39.4984,176.8761,6156829.5,2811622.89,6182359,2843283,8.63,8.63,40.64,48.27,36.38,44.35,-18.05,-34.06,0,26,24.88,nu,NCDS,E,162,Q3,1.25,Q2,110,Q3,0,-99999,-99999,0,0.24,12,0.408,12,Webb_Anderson_1998&Dowrick_Rhoades1998&HarvardCMT,0.032498915,0.032798441,0.033423566,0.034223015,0.03547688,0.041177884,0.048047595,0.078648351,0.072575919,0.077229778,0.064470112,0.063131342,0.050955266,0.042391603,0.031708834,0.01040955,0.004247051,-99999,-99999,-99999,-99999,-99999,0.039531917,0.039747896,0.04011957,0.040625201,0.041395733,0.04516767,0.056340626,0.087378792,0.077503221,0.089833794,0.076768351,0.086496224,0.055024932,0.050986644,0.035789463,0.014650965,0.004753231,-99999,-99999,-99999,-99999,-99999,0.032393,0.039539,0.021884,0.02309
435226,1993-04-11T06:59:48.228000Z,D93015A1,5.68,0.08,Interface,O,1,198,15,52,special,-39.74,176.52,-39.4891,176.8982,6156829.5,2811622.89,6183313,2845228,8.63,8.63,42.76,50.1,38.49,46.14,-19.61,-35.57,0,26,24.88,nu,015A,B,1000,Q3,<0.1,Q3,0,Q3,0,-99999,-99999,0,0.5,12,0.85,12,Webb_Anderson_1998&Dowrick_Rhoades1998&HarvardCMT,0.016444871,0.016556166,0.016710227,0.017034504,0.017425229,0.019958243,0.022554271,0.026839165,0.033340599,0.046571664,0.053088624,0.038612443,0.0373792,0.012418414,0.008014386,-99999,-99999,-99999,-99999,-99999,-99999,-99999,0.017772179,0.01792679,0.018156105,0.018517926,0.01907368,0.022095463,0.027453831,0.029779145,0.03701978,0.058082942,0.062692916,0.050810543,0.049011678,0.01420416,0.009526692,-99999,-99999,-99999,-99999,-99999,-99999,-99999,0.016392,0.017773,0.009443,0.011342
435226,1993-04-11T06:59:48.228000Z,D93029A2,5.68,0.08,Interface,O,1,198,15,52,special,-39.74,176.52,-39.6458,176.8429,6156829.5,2811622.89,6166127,2839726,8.63,8.63,29.55,39.41,25.33,35.69,-19.69,-17.53,0,26,24.88,nu,HCDS,D,182,Q2,>2,Q3,1000,Q3,0,-99999,-99999,0,0.2,15,0.34,15,Webb_Anderson_1998&Dowrick_Rhoades1998&HarvardCMT,0.029052369,0.029344812,0.029793058,0.030653355,0.031917236,0.039775331,0.043180053,0.058386163,0.07785347,0.079561733,0.087891587,0.063261658,0.036764035,0.04816862,0.027788796,0.012252685,0.012210448,-99999,-99999,-99999,-99999,-99999,0.034614052,0.03469702,0.034836977,0.0350556,0.035380923,0.04193322,0.05107782,0.077519748,0.102828812,0.096114217,0.096211917,0.087470463,0.044697824,0.061704813,0.035714448,0.013522281,0.013882483,-99999,-99999,-99999,-99999,-99999,0.02904,0.034619,0.026152,0.030611
471730,1993-08-10T00:51:55.033000Z,A93070A1,6.89,0.08,Interface,R,1,41,41,107,nlloc,-45.3625,166.649,-45.4167,167.7191,5519161.25,2012843.95,5519112,2096857,34.75,34.75,83.78,85.7,74.67,77.26,68.91,55.08,0,16.72,11.96,nu,TAFS,D,298,Q3,1.4,Q3,200,Q3,0,-99999,-99999,1,0.2,19,0.34,19,Robinson_etal_2003&Dowrick_Rhoades1998&HarvardCMT,0.063904395,0.064602944,0.065798894,0.067744264,0.070060915,0.10644587,0.129700446,0.157722412,0.137532948,0.119853105,0.114349996,0.107957396,0.081762383,0.070138883,0.063843129,0.067032048,0.045152994,-99999,-99999,-99999,-99999,-99999,0.085563497,0.086524977,0.088172709,0.090756256,0.093770029,0.12807369,0.146898212,0.19660314,0.157801334,0.157291935,0.147443816,0.152382824,0.089373595,0.0878146,0.086263895,0.087684425,0.057698677,-99999,-99999,-99999,-99999,-99999,0.063904,0.085534,0.06115,0.07679
471730,1993-08-10T00:51:55.033000Z,A93940A1,6.89,0.08,Interface,R,1,41,41,107,nlloc,-45.3625,166.649,-45.0322,168.6629,5519161.25,2012843.95,5566104,2168345,34.75,34.75,162.01,163.32,150.75,152.25,92.03,137.45,0,16.72,11.96,nu,QTPS,D,350,Q3,0.95,Q1,90,Q3,0,-99999,-99999,1,0.5,10,0.85,10,Robinson_etal_2003&Dowrick_Rhoades1998&HarvardCMT,0.035836022,0.035988007,0.036252637,0.036603615,0.037078305,0.03898901,0.04338652,0.060545257,0.097218908,0.103350189,0.093909165,0.082341963,0.072581317,0.049265977,0.025011999,-99999,-99999,-99999,-99999,-99999,-99999,-99999,0.04025098,0.040499487,0.040907408,0.041472428,0.042241618,0.045131809,0.052778944,0.072464429,0.108501408,0.119403701,0.114813655,0.106911853,0.088458896,0.057764474,0.030628982,-99999,-99999,-99999,-99999,-99999,-99999,-99999,0.035774,0.040236,0.023354,0.02647
471730,1993-08-10T00:51:55.033000Z,D93044A2s,6.89,0.08,Interface,R,1,41,41,107,nlloc,-45.3625,166.649,-45.8986,170.5097,5519161.25,2012843.95,5475848,2316608,34.75,34.75,306.03,307.29,297.73,299.13,263.14,166.6,0,16.72,11.96,nu,SKFS,D,140,Q2,0.8,Q3,25,Q3,0,-99999,-99999,1,0.25,10,0.425,10,Robinson_etal_2003&Dowrick_Rhoades1998&HarvardCMT,0.014964273,0.014983728,0.015012519,0.015089556,0.015193502,0.01573618,0.016677439,0.021149615,0.0265846,0.032629478,0.032736635,0.031453087,0.037524202,0.048700383,0.02608761,0.012217951,0.0058813,-99999,-99999,-99999,-99999,-99999,0.01629112,0.016309801,0.016340013,0.016370155,0.016412338,0.01658622,0.018647564,0.02563008,0.029448756,0.037847569,0.038810772,0.034468377,0.049579152,0.053802135,0.032016881,0.016259958,0.006738124,-99999,-99999,-99999,-99999,-99999,0.014949,0.016283,0.018465,0.019737
471730,1993-08-10T00:51:55.033000Z,D93054A6,6.89,0.08,Interface,R,1,41,41,107,nlloc,-45.3625,166.649,-43.883,169.0441,5519161.25,2012843.95,5695156,2192230,34.75,34.75,250.97,251.86,238.02,238.93,25.39,250.51,0,16.72,11.96,nu,HDWS,D,210,Q3,0.87,Q1,100,Q3,0,-99999,-99999,0,0.35,14,0.595,14,Robinson_etal_2003&Dowrick_Rhoades1998&HarvardCMT,0.030152613,0.030540519,0.031222999,0.032222058,0.033601955,0.044012612,0.052699941,0.092605226,0.064158128,0.060353745,0.075308715,0.039565387,0.032275104,0.058303275,0.02505771,0.013485544,-99999,-99999,-99999,-99999,-99999,-99999,0.035453611,0.03558461,0.035795893,0.036111042,0.037419351,0.048214718,0.0670583,0.101652349,0.066216428,0.063877988,0.088275497,0.046461102,0.041055531,0.072199291,0.032204008,0.01876675,-99999,-99999,-99999,-99999,-99999,-99999,0.029905,0.035416,0.021456,0.023931
471755,1993-08-10T09:46:38.453000Z,A93028A1,6.3,0.08,Slab,S,1,354,64,168,special,-38.55,177.92,-38.0079,177.284,6283090.62,2938734.07,6346024,2886230,30,15,81.95,90.77,69.76,78.95,-42.35,68.08,0,39,32.26,nu,028A,D,210,Q3,1,Q3,75,Q3,0,-99999,-99999,1,0.35,15,0.595,15,Reyners_et_al2010&Webb_Anderson_1998&Dowrick_Rhoades1998&HarvardCMT,0.061380369,0.061609253,0.061945702,0.06246181,0.063110259,0.065618391,0.078062171,0.10887569,0.171006681,0.130335972,0.114297328,0.152614608,0.192582246,0.08486694,0.067683801,0.057590192,-99999,-99999,-99999,-99999,-99999,-99999,0.069006932,0.069195668,0.069492587,0.069926226,0.070461327,0.075506919,0.107243682,0.153955927,0.240887301,0.164297078,0.141155018,0.187418864,0.253267231,0.108835894,0.093892148,0.068196763,-99999,-99999,-99999,-99999,-99999,-99999,0.061272,0.068831,0.052639,0.065922
471755,1993-08-10T09:46:38.453000Z,A93096A1,6.3,0.08,Slab,S,1,354,64,168,special,-38.55,177.92,-39.0342,177.4249,6283090.62,2938734.07,6231637,2892985,30,15,68.85,79.13,59.27,69.25,-47.59,-46.39,0,39,32.26,nu,WFSS,D,155,Q3,1.5,Q3,100,Q3,0,-99999,-99999,1,0.35,13,0.595,13,Reyners_et_al2010&Webb_Anderson_1998&Dowrick_Rhoades1998&HarvardCMT,0.043892533,0.04400614,0.044202812,0.044481321,0.044858882,0.048473138,0.052200977,0.069867882,0.084570298,0.093433551,0.126412566,0.135361164,0.104008906,0.091743139,0.083378648,0.052309075,-99999,-99999,-99999,-99999,-99999,-99999,0.056453025,0.05656473,0.056759,0.057035856,0.057411537,0.05914746,0.067781226,0.072907168,0.093257809,0.107160688,0.150295961,0.144673625,0.118636571,0.106515671,0.09889061,0.060975482,-99999,-99999,-99999,-99999,-99999,-99999,0.043862,0.056459,0.046615,0.050072
471755,1993-08-10T09:46:38.453000Z,A93113A1,6.3,0.08,Slab,S,1,354,64,168,special,-38.55,177.92,-37.8735,177.5847,6283090.62,2938734.07,6359624,2913365,30,15,80.72,89.57,66.1,76.08,-13.94,78.77,0,39,32.26,nu,113A,C,522,Q3,0.15,Q3,10,Q3,0,-99999,-99999,1,0.42,13,0.714,13,Reyners_et_al2010&Webb_Anderson_1998&Dowrick_Rhoades1998&HarvardCMT,0.089784198,0.09030657,0.091169616,0.092419215,0.094339588,0.102125105,0.112631071,0.15534228,0.27565953,0.301740037,0.247124608,0.147874057,0.094359037,0.040676048,0.024784523,-99999,-99999,-99999,-99999,-99999,-99999,-99999,0.111085023,0.111493486,0.112160228,0.113078097,0.114213375,0.117579725,0.142367768,0.186697949,0.317900568,0.420184333,0.291169978,0.181165161,0.124269379,0.051868274,0.031765165,-99999,-99999,-99999,-99999,-99999,-99999,-99999,0.089493,0.110538,0.041559,0.054997
471755,1993-08-10T09:46:38.453000Z,D93014A4,6.3,0.08,Slab,S,1,354,64,168,special,-38.55,177.92,-39.4984,176.8761,6283090.62,2938734.07,6182359,2843283,30,15,138.75,144.15,129.07,134.18,-102.17,-90.2,0,39,32.26,nu,NCDS,E,162,Q3,1.25,Q2,110,Q3,0,-99999,-99999,0,0.25,10,0.425,10,Reyners_et_al2010&Webb_Anderson_1998&Dowrick_Rhoades1998&HarvardCMT,0.015077027,0.015170408,0.015324536,0.015546501,0.015850353,0.01732853,0.023078264,0.0352823,0.041277157,0.03367111,0.033594158,0.030213088,0.026206877,0.036137743,0.025311287,0.012464921,0.006654073,-99999,-99999,-99999,-99999,-99999,0.016763186,0.016839488,0.016975191,0.017154533,0.017410624,0.018450822,0.025395463,0.039593508,0.047338454,0.039264351,0.040862586,0.033702778,0.03294784,0.043206113,0.028474286,0.014715587,0.007697572,-99999,-99999,-99999,-99999,-99999,0.015065,0.016758,0.013876,0.016776
471755,1993-08-10T09:46:38.453000Z,D93016A1,6.3,0.08,Slab,S,1,354,64,168,special,-38.55,177.92,-38.6774,178.031,6283090.62,2938734.07,6268431,2947608,30,15,17.14,42.71,6.16,35.7,10.58,-15.51,0,39,32.26,nu,016A,C,480,Q3,0.15,Q3,10,Q3,0,-99999,-99999,0,0.3,21,0.51,21,Reyners_et_al2010&Webb_Anderson_1998&Dowrick_Rhoades1998&HarvardCMT,0.155875354,0.156924439,0.1586345,0.16125316,0.166147238,0.176506368,0.234131059,0.407983863,0.390555486,0.329268384,0.300527777,0.30917236,0.355727049,0.219960805,0.120821627,0.041141256,-99999,-99999,-99999,-99999,-99999,-99999,0.193093572,0.194478964,0.196719448,0.199916897,0.205304591,0.22686265,0.245460846,0.510892513,0.508791252,0.393163671,0.39478637,0.349487637,0.456553367,0.255776965,0.129542548,0.043258936,-99999,-99999,-99999,-99999,-99999,-99999,0.154414,0.193073,0.103709,0.140525
471755,1993-08-10T09:46:38.453000Z,D93017A1,6.3,0.08,Slab,S,1,354,64,168,special,-38.55,177.92,-38.6665,178.0227,6283090.62,2938734.07,6269685,2946952,30,15,15.73,42.06,5.22,35.18,10.06,-14.19,0,39,32.26,nu,GISS,D,138,Q2,1,Q1,40,Q3,0,-99999,-99999,0,0.25,30,0.425,30,Reyners_et_al2010&Webb_Anderson_1998&Dowrick_Rhoades1998&HarvardCMT,0.187033914,0.189072328,0.194675272,0.214344704,0.210776781,0.243036768,0.269591923,0.364072704,0.369514646,0.460722504,0.585745488,0.484362367,0.300288152,0.243041766,0.17728171,0.061922614,0.028406599,-99999,-99999,-99999,-99999,-99999,0.217013348,0.218105424,0.220464885,0.231148271,0.217716986,0.283344822,0.283086146,0.411835286,0.414057804,0.579237265,0.718841336,0.528850317,0.403995539,0.32077085,0.190687481,0.069351742,0.034291409,-99999,-99999,-99999,-99999,-99999,0.186203,0.217059,0.121691,0.144066
471755,1993-08-10T09:46:38.453000Z,D93021A3,6.3,0.08,Slab,S,1,354,64,168,special,-38.55,177.92,-38.4249,176.3157,6283090.62,2938734.07,6303375,2799556,30,15,140.32,146.04,135.79,140.25,-133.01,34.72,10,39,32.26,nu,021A,D,210,Q3,2,Q3,200,Q3,0,-99999,-99999,1,0.18,10,0.306,10,Reyners_et_al2010&Webb_Anderson_1998&Dowrick_Rhoades1998&HarvardCMT,0.026354847,0.026362794,0.026397777,0.026455065,0.02650956,0.026715702,0.026981998,0.028352256,0.033403311,0.034716422,0.034411435,0.044272351,0.050378339,0.050826509,0.077851745,0.087453115,0.03049314,0.00996262,-99999,-99999,-99999,-99999,0.028011838,0.028022882,0.028050648,0.02805686,0.028097964,0.028204608,0.028713699,0.032355366,0.03888943,0.040012118,0.043597369,0.052479987,0.054467677,0.061111292,0.086659779,0.104724338,0.034274584,0.010531003,-99999,-99999,-99999,-99999,0.026355,0.028006,0.056127,0.064898
608810,1994-06-18T03:25:13.819000Z,D4505A01,6.72,0.08,Crustal,R,1,221,47,112,geonet,-43.0078,171.4762,-42.9489,171.5677,5798820.69,2385786.14,5805487,2393135,21.06,21.06,9.91,11.12,2.02,4.12,2.92,-9.85,0,4.27,1,hw,APPS,C,300,Q2,0.4,Q1,30,Q2,0,-99999,-99999,0,0.11,40,0.187,40,Abercrombie_etal_2000&HarvardCMT,0.434804145,0.447693654,0.475744444,0.444073953,0.469653478,0.594112024,0.658062522,0.853576521,1.077596611,1.032476926,0.802903169,0.887240105,0.977539427,0.37758692,0.218960923,0.124395473,0.085378952,0.045669106,0.030727157,0.017685778,-99999,-99999,0.509285128,0.525381149,0.546656029,0.587692844,0.525054752,0.68628075,0.719417382,1.069121605,1.284619075,1.346257377,1.020151265,1.06375308,1.236457376,0.479066683,0.298259104,0.163365785,0.091615697,0.063365883,0.042174782,0.021920636,-99999,-99999,0.423633,0.509184,0.28269,0.316738
