CuspID,Origin_time,Record,Mw,MwUncert,TectClass,Mech,PreferredFaultPlane,Strike,Dip,Rake,Location,HypLat,HypLon,StationLat,StationLon,HypN,HypE,StationN,StationE,LENGTH_km,WIDTH_km,Repi_km,Rhyp_km,Rjb_km,Rrup_km,Rx_km,Ry_km,Rvol_km,HypDepth_km,ZTOR_km,HWFW,SiteCode,SiteClass1170,Vs30,Vs30Uncert,Tsite,TsiteUncert,Z1,Z1Uncertainty,Directivity,Pulse_or,Pulse_T,S_Trigger_Flag,fcButterHP,f_iniLP,fmin,fmax,References,f100.0000SA_LHC,f50.0000SA_LHC,f33.3333SA_LHC,f25.0000SA_LHC,f20.0000SA_LHC,f13.3333SA_LHC,f10.0000SA_LHC,f6.6667SA_LHC,f5.0000SA_LHC,f4.0000SA_LHC,f3.3333SA_LHC,f2.5000SA_LHC,f2.0000SA_LHC,f1.3333SA_LHC,f1.0000SA_LHC,f0.6667SA_LHC,f0.5000SA_LHC,f0.3333SA_LHC,f0.2500SA_LHC,f0.2000SA_LHC,f0.1333SA_LHC,f0.1000SA_LHC,PGA_LHC,PGV_LHC
1553782,1971-08-13T14:42:41.636000Z,A71053A1,5.7,0.15,Crustal,S,1,242,83,207,special,-42.13,172.1,-42.3786,172.3329,5897058.69,2435589.3,5869623,2455066,6.51,6.51,33.64,34.99,33.13,33.79,-32.97,-4.32,0,9,5.77,fw,053A,C,391,Q3,0.27,Q3,20,Q3,0,-99999,-99999,1,0.4,18,0.68,18,Anderson_etal_1993&Dowrick_Rhoades_1998,0.059198912,0.05945354,0.0597486,0.060183478,0.067258113,0.093397456,0.128437925,0.170197874,0.185671769,0.199578847,0.142939795,0.129435626,0.068667323,0.120349801,0.049610051,-99999,-99999,-99999,-99999,-99999,-99999,-99999,0.059195,0.04953
1556608,1975-06-10T10:11:17.094000Z,K75301A2,5.62,0.15,Slab,N,1,250,56,257,special,-40.34,175.93,-40.3553,175.6152,6092087.55,2758882.27,6091232,2732094,5.9,5.9,26.73,46.53,23.88,44.21,10.02,25.47,0,38,35.54,nu,301A,D,341,Q3,0.7,Q2,60,Q3,0,-99999,-99999,1,0.4,19,0.68,19,Webb_Anderson_1998&Dowrick_Rhoades1998,0.040708433,0.040963175,0.041401267,0.042173487,0.044821973,0.064263189,0.103568757,0.110317445,0.135307869,0.078313139,0.080895447,0.083798891,0.076865836,0.044861635,0.033384317,-99999,-99999,-99999,-99999,-99999,-99999,-99999,0.040683,0.03021
1556608,1975-06-10T10:11:17.094000Z,K75340A1,5.62,0.15,Slab,N,1,250,56,257,special,-40.34,175.93,-40.3863,175.6165,6092087.55,2758882.27,6087788,2732102,5.9,5.9,27.06,46.71,24.14,44.26,6.78,26.64,0,38,35.54,nu,340A,D,283,Q3,0.96,Q3,90,Q3,0,-99999,-99999,1,0.65,18,1.105,18,Webb_Anderson_1998&Dowrick_Rhoades1998,0.063103517,0.06365055,0.06472053,0.066157731,0.067057191,0.104449949,0.121198964,0.147332104,0.238206269,0.160456717,0.213908875,0.07800865,0.08005205,0.035798118,-99999,-99999,-99999,-99999,-99999,-99999,-99999,-99999,0.063129,0.02678
1557438,1976-05-04T13:56:29.201000Z,A76080B1,6.51,0.15,Interface,O,1,48,47,130,special,-44.67,167.45,-44.6729,167.9264,5600506.59,2070223.23,5602634,2107939,22.44,22.44,37.67,39.08,27.88,31.04,31.31,29.45,0,10,1.79,nu,080B,C,210,Q3,0.57,Q3,30,Q3,0,-99999,-99999,1,0.2,29,0.34,29,Anderson_etal_1993&Dowrick_Rhoades_1998,0.092460015,0.093037642,0.094645558,0.105180212,0.114618113,0.109821514,0.130850733,0.182007046,0.147887565,0.169060078,0.248240032,0.263282178,0.33974458,0.131622414,0.12936987,0.041650694,0.026496316,-99999,-99999,-99999,-99999,-99999,0.092457,0.09838
1557438,1976-05-04T13:56:29.201000Z,K76070A1,6.51,0.15,Interface,O,1,48,47,130,special,-44.67,167.45,-45.4167,167.7191,5600506.59,2070223.23,5519112,2096857,22.44,22.44,85.68,86.25,77.38,79.21,85.96,-34.67,0,10,1.79,nu,TAFS,D,298,Q3,1.4,Q3,200,Q3,0,-99999,-99999,1,0.28,11,0.476,11,Anderson_etal_1993&Dowrick_Rhoades_1998,0.024621347,0.024659726,0.024700462,0.024905312,0.025381168,0.028061573,0.0586217,0.05923681,0.060347952,0.053834645,0.084836227,0.057754992,0.050716022,0.058360612,0.041656679,0.046790685,0.031397731,-99999,-99999,-99999,-99999,-99999,0.024597,0.03387
1557438,1976-05-04T13:56:29.201000Z,K76089A1,6.51,0.15,Interface,O,1,48,47,130,special,-44.67,167.45,-44.6946,169.143,5600506.59,2070223.23,5605452,2204373,22.44,22.44,133.87,134.63,124.04,125.19,93.74,103,0,10,1.79,nu,WNPS,D,330,Q3,2.1,Q3,300,Q3,0,-99999,-99999,1,0.25,15,0.425,15,Anderson_etal_1993&Dowrick_Rhoades_1998,0.037683662,0.037828813,0.038059088,0.038418718,0.038985916,0.050527226,0.051952802,0.065982458,0.069281275,0.103459405,0.072501226,0.060917935,0.074108207,0.089554592,0.099678768,0.062857101,0.032664069,-99999,-99999,-99999,-99999,-99999,0.037533,0.04556
1558224,1977-01-18T05:41:48.207000Z,A77048C1,6.02,0.15,Slab,R,1,213,68,251,special,-41.73,174.3,-41.5138,173.9572,5941084.19,2618142.66,5965463,2589883,9.4,9.4,37.28,50.49,35.45,48.97,38.74,-5.05,0,34,29.64,nu,048C,D,235,Q3,0.9,Q3,64,Q3,0,-99999,-99999,1,0.4,13,0.68,13,Webb_Anderson_1998&Dowrick_Rhoades1998,0.038159476,0.03827537,0.038491126,0.038774763,0.03916607,0.04288848,0.050775301,0.054392379,0.108407035,0.140891631,0.207711922,0.075057981,0.091069533,0.053574623,0.05102252,-99999,-99999,-99999,-99999,-99999,-99999,-99999,0.038165,0.02221
1558224,1977-01-18T05:41:48.207000Z,A77601A1,6.02,0.15,Slab,R,1,213,68,251,special,-41.73,174.3,-41.2263,174.8719,5941084.19,2618142.66,5996147,2666912,9.4,9.4,73.53,81.03,68.88,76.33,-9.15,-72.74,0,34,29.64,nu,601A,D,161,Q3,2.3,Q3,297,Q3,0,-99999,-99999,1,0.4,20,0.68,20,Webb_Anderson_1998&Dowrick_Rhoades1998,0.044386022,0.044638338,0.045018278,0.045717015,0.046123502,0.047520041,0.079593296,0.072825697,0.124262799,0.153897513,0.094983402,0.072357821,0.12694378,0.088544784,0.039180328,-99999,-99999,-99999,-99999,-99999,-99999,-99999,0.044139,0.02538
1558224,1977-01-18T05:41:48.207000Z,A77902A1,6.02,0.15,Slab,R,1,213,68,251,special,-41.73,174.3,-41.2776,174.7793,5941084.19,2618142.66,5990617,2659034,9.4,9.4,64.22,72.68,59.54,67.99,-5.56,-63.81,0,34,29.64,nu,902A,D,275,Q2,1.25,Q2,1.32E+02,Q2,0,-99999,-99999,1,0.5,20,0.85,20,Webb_Anderson_1998&Dowrick_Rhoades1998,0.085186478,0.085455239,0.085877073,0.086862362,0.091031101,0.09558359,0.171247009,0.244584893,0.232766748,0.324290541,0.278470925,0.189605712,0.151481894,0.100999743,0.042752615,-99999,-99999,-99999,-99999,-99999,-99999,-99999,0.084862,0.05232
1558224,1977-01-18T05:41:48.207000Z,A77907A1,6.02,0.15,Slab,R,1,213,68,251,special,-41.73,174.3,-41.2788,174.7785,5941084.19,2618142.66,5990481,2658964,9.4,9.4,64.07,72.55,59.39,67.86,-5.57,-63.66,0,34,29.64,nu,907A,D,250,Q2,1.2,Q2,116,Q2,0,-99999,-99999,1,0.47,18,0.799,18,Webb_Anderson_1998&Dowrick_Rhoades1998,0.088769662,0.08901517,0.089451973,0.090119794,0.091182618,0.104521159,0.151567652,0.184745323,0.291611625,0.258225022,0.260462908,0.259427171,0.156112829,0.087386129,0.043720331,-99999,-99999,-99999,-99999,-99999,-99999,-99999,0.088573,0.05701
1558224,1977-01-18T05:41:48.207000Z,A77911A1,6.02,0.15,Slab,R,1,213,68,251,special,-41.73,174.3,-41.2886,174.7769,5941084.19,2618142.66,5989396,2658808,9.4,9.4,63.13,71.72,58.46,67.03,-6.03,-62.67,0,34,29.64,nu,911A,C,358,Q2,0.29,Q2,1.85E+01,Q2,0,-99999,-99999,1,0.6,19,1.02,19,Webb_Anderson_1998&Dowrick_Rhoades1998,0.071448638,0.071695684,0.072138501,0.072823445,0.074219496,0.076107036,0.11168942,0.093346167,0.198167295,0.237186716,0.234984986,0.214458935,0.109201303,0.039887653,-99999,-99999,-99999,-99999,-99999,-99999,-99999,-99999,0.071417,0.04237
1558224,1977-01-18T05:41:48.207000Z,A77912A1,6.02,0.15,Slab,R,1,213,68,251,special,-41.73,174.3,-41.3264,174.809,5941084.19,2618142.66,5985141,2661416,9.4,9.4,61.72,70.5,57.11,65.8,-10.54,-60.52,0,34,29.64,nu,WNAS,D,239,Q2,0.78,Q2,64,Q2,0,-99999,-99999,0,0.45,24.5,0.765,24.5,Webb_Anderson_1998&Dowrick_Rhoades1998,0.0670892,0.068397368,0.070596963,0.076808622,0.090022044,0.122892779,0.268201911,0.151343392,0.173379761,0.124220149,0.122472279,0.059962744,0.071105724,0.086995613,0.032271852,-99999,-99999,-99999,-99999,-99999,-99999,-99999,0.067146,0.02687
1558224,1977-01-18T05:41:48.207000Z,A77913A1,6.02,0.15,Slab,R,1,213,68,251,special,-41.73,174.3,-41.2875,174.7727,5941084.19,2618142.66,5989525,2658459,9.4,9.4,63.01,71.61,58.34,66.93,-5.67,-62.58,0,34,29.64,nu,913A,B,1000,Q3,<0.1,Q3,2,Q2,0,-99999,-99999,1,0.35,21,0.595,21,Webb_Anderson_1998&Dowrick_Rhoades1998,0.069482073,0.070022112,0.070928166,0.072170136,0.070722347,0.086497448,0.16461657,0.145140076,0.210192018,0.257502609,0.206477965,0.077309443,0.063122158,0.031579509,0.016630657,0.009072589,-99999,-99999,-99999,-99999,-99999,-99999,0.06895,0.02635
1558224,1977-01-18T05:41:48.207000Z,A77914A1,6.02,0.15,Slab,R,1,213,68,251,special,-41.73,174.3,-41.295,174.7735,5941084.19,2618142.66,5988691,2658509,9.4,9.4,62.4,76.37,57.73,71.7,-6.16,-61.91,0,34,29.64,nu,914B,D,282,Q2,0.61,Q2,4.65E+01,Q2,0,-99999,-99999,1,0.7,24.5,1.19,24.5,Webb_Anderson_1998&Dowrick_Rhoades1998,0.070727792,0.071266246,0.072601174,0.077556488,0.074813897,0.111992497,0.171428092,0.207974689,0.28378483,0.182261211,0.174703319,0.113236481,0.145784388,0.05328294,-99999,-99999,-99999,-99999,-99999,-99999,-99999,-99999,0.070703,0.03893
1558224,1977-01-18T05:41:48.207000Z,A77916A1,6.02,0.15,Slab,R,1,213,68,251,special,-41.73,174.3,-41.2941,174.7757,5941084.19,2618142.66,5988787,2658695,9.4,9.4,62.59,71.26,57.93,66.57,-6.27,-62.09,0,34,29.64,nu,916A,D,291,Q2,0.8,Q2,8.54E+01,Q2,0,-99999,-99999,1,0.55,17,0.935,17,Webb_Anderson_1998&Dowrick_Rhoades1998,0.044215962,0.044628257,0.045330034,0.046479182,0.048716008,0.085103794,0.090102138,0.115348391,0.176204647,0.120567026,0.135875538,0.12042354,0.085321094,0.054803761,0.029300743,-99999,-99999,-99999,-99999,-99999,-99999,-99999,0.04422,0.03022
1561001,1980-06-23T16:45:19.942000Z,K80087C1,5.49,0.15,Slab,R,1,49,87,101,nlloc,-39.8738,175.576,-39.7171,175.1382,6144762.72,2730330.66,6163158,2693314,5.1,5.1,41.27,96.17,40.35,93.78,-38.03,-15.87,0,86.8,84.25,nu,087C,C,425,Q3,0.33,Q3,30,Q3,0,-99999,-99999,1,0.7,18,1.19,18,HarvardCMT,0.099511813,0.099754815,0.100147729,0.100944644,0.103228573,0.111376283,0.143613565,0.153619533,0.266241757,0.338046769,0.260463268,0.358418053,0.23214057,0.106994434,-99999,-99999,-99999,-99999,-99999,-99999,-99999,-99999,0.099429,0.06444
1561256,1980-10-05T15:32:49.243000Z,S80027C1,5.66,0.15,Slab,N,0,235,45,-5.20E+01,geonet,-39.72,176.87,-39.5046,176.896,6157802.95,2841693.87,6181602,2844964,6.2,6.2,24.06,38.47,21.18,36.39,-99999,-99999,0,30,27.61,nu,027C,E,150,Q3,1.7,Q3,200,Q3,0,-99999,-99999,1,0.43,19,0.731,19,HarvardCMT,0.124489754,0.125704574,0.127976103,0.131923939,0.137936716,0.167937169,0.205521598,0.472700248,0.448048033,0.368555274,0.503521261,0.273225868,0.212232917,0.12024039,0.069290051,-99999,-99999,-99999,-99999,-99999,-99999,-99999,0.123965,0.08669
1563250,1982-09-02T15:58:54.183999Z,S82032A1,5.46,0.15,Slab,N,0,76,32,-3.80E+01,nlloc,-39.7432,176.995,-39.9425,176.5874,6154756.79,2852286.05,6134136,2816486,4.9,4.9,41.25,56.9,39.07,55.11,-99999,-99999,0,38.98,37.16,nu,032A,C,495,Q3,0.13,Q3,10,Q3,0,-99999,-99999,1,0.6,16,1.02,16,HarvardCMT,0.090960662,0.091419011,0.092142252,0.093139771,0.094399394,0.11919325,0.169506099,0.27733031,0.294110769,0.152899137,0.166837852,0.176634634,0.100880209,0.03808466,-99999,-99999,-99999,-99999,-99999,-99999,-99999,-99999,0.090968,0.04626
1567345,1985-07-19T14:33:59.829999Z,A86018A1,5.97,0.08,Slab,N,1,213,73,255,special,-38.72,177.3,-38.6665,178.0227,6267008.8,2883855.15,6269685,2946952,11,11,63,70.36,59.68,65.91,-49.85,-36.61,0,31,25.74,nu,GISS,D,138,Q2,1,Q1,40,Q3,0,-99999,-99999,1,0.46,11,0.782,11,Webb_Anderson_1998&Dowrick_Rhoades1998&HarvardCMT,0.089314869,0.089509578,0.089825493,0.090221929,0.090771227,0.092810052,0.100645564,0.132334468,0.211163861,0.225747732,0.219706628,0.26913486,0.183810061,0.194205168,0.172119247,-99999,-99999,-99999,-99999,-99999,-99999,-99999,0.089307,0.0802
16899,1988-06-03T23:27:54.351999Z,A88070A1,6.69,0.08,Slab,R,1,310,86,118,special,-45.1,167.17,-45.4167,167.7191,5551299.74,2051472.44,5519112,2096857,25,55,55.56,81.99,43.13,61.55,6.43,-55.46,0,60,32.57,nu,TAFS,D,298,Q3,1.4,Q3,200,Q3,0,-99999,-99999,1,0.2,22,0.34,22,Robinson_etal_2003&Dowrick_Rhoades1998&HarvardCMT&Reyners_etal1991,0.104335245,0.10481609,0.10560146,0.106781158,0.108685661,0.116316945,0.164703174,0.209570971,0.340328583,0.305207687,0.284798786,0.348265025,0.308578334,0.131112168,0.168721965,0.149483884,0.108500331,-99999,-99999,-99999,-99999,-99999,0.104332,0.10444
16899,1988-06-03T23:27:54.351999Z,A88089A1,6.69,0.08,Slab,R,1,310,86,118,special,-45.1,167.17,-44.6946,169.143,5551299.74,2051472.44,5605452,2204373,25,55,161.81,173.05,155.62,164.27,141.68,-82.32,0,60,32.57,nu,WNPS,D,330,Q3,2.1,Q3,300,Q3,0,-99999,-99999,1,0.21,18,0.357,18,Robinson_etal_2003&Dowrick_Rhoades1998&HarvardCMT&Reyners_etal1991,0.040290451,0.040520119,0.040939307,0.041641589,0.043071923,0.048778769,0.056025796,0.086864248,0.120667563,0.116611813,0.08964238,0.080915945,0.082079275,0.082076351,0.08364632,0.056686371,0.039752692,-99999,-99999,-99999,-99999,-99999,0.040265,0.04767
16899,1988-06-03T23:27:54.351999Z,A88118B1,6.69,0.08,Slab,R,1,310,86,118,special,-45.1,167.17,-45.0387,169.2193,5551299.74,2051472.44,5567539,2212164,25,55,161.07,172.37,152.52,161.6,117.65,-112.66,0,60,32.57,nu,118B,C,520,Q3,0.3,Q3,40,Q3,0,-99999,-99999,1,0.63,11,1.071,11,Robinson_etal_2003&Dowrick_Rhoades1998&HarvardCMT&Reyners_etal1991,0.063242818,0.063559226,0.064054764,0.064764698,0.065709601,0.069658985,0.080686364,0.102970536,0.134645945,0.233966474,0.167662838,0.264680511,0.126129091,0.041805955,-99999,-99999,-99999,-99999,-99999,-99999,-99999,-99999,0.063231,0.0322
53209,1989-05-31T05:54:48.402999Z,A89940A1,6.39,0.08,Interface,O,1,139,67,47,special,-45.27,166.88,-45.0322,168.6629,5530793.17,2030120.65,5566104,2168345,19.54,19.54,142.29,144.72,138.11,139.83,-124.55,64.03,0,24,17.1,nu,QTPS,D,350,Q3,0.95,Q1,90,Q3,0,-99999,-99999,1,0.55,10,0.935,10,Robinson_etal_2003&Dowrick_Rhoades1998&HarvardCMT,0.034386219,0.034586035,0.034896769,0.035351018,0.035957656,0.038403106,0.041473834,0.062312951,0.130521104,0.113880837,0.068958763,0.065052837,0.040307814,0.032470709,0.029099989,-99999,-99999,-99999,-99999,-99999,-99999,-99999,0.034179,0.01387
62461,1989-08-08T07:59:06.546000Z,D89918B1,5.49,0.08,Slab,R,1,208,40,68,special,-40.12,174.3,-41.284,174.7682,6119840.44,2620805.44,5989908,2658140,5.1,5.1,135.31,175.65,133.03,173.12,-92.01,97.2,0,112,110.36,nu,WEL,B,1000,Q3,0.3,Q1,0,Q2,0,-99999,-99999,0,0.4,18,0.68,18,Webb_Anderson_1998&Dowrick_Rhoades1998&HarvardCMT,0.02595094,0.026183314,0.026566606,0.02731454,0.028682309,0.036252862,0.052056139,0.109686465,0.070414225,0.056375403,0.032330591,0.037809825,0.035718081,0.005958614,0.005520343,-99999,-99999,-99999,-99999,-99999,-99999,-99999,0.025953,0.009955
62461,1989-08-08T07:59:06.546000Z,D89935B1,5.49,0.08,Slab,R,1,208,40,68,special,-40.12,174.3,-41.2108,174.9047,6119840.44,2620805.44,5997808,2669699,5.1,5.1,131.58,172.71,129.35,170.17,-98.5,84.79,0,112,110.36,nu,935A,D,240,Q3,1.2,Q3,275,Q3,0,-99999,-99999,1,0.25,18,0.425,18,Webb_Anderson_1998&Dowrick_Rhoades1998&HarvardCMT,0.039590785,0.039839988,0.040318617,0.04105729,0.042433702,0.067656843,0.052366325,0.0918589,0.121148895,0.138237993,0.090970929,0.107779808,0.056023733,0.020646777,0.019998305,0.00714558,0.003231707,-99999,-99999,-99999,-99999,-99999,0.039582,0.01757
62461,1989-08-08T07:59:06.546000Z,K89087A2,5.49,0.08,Slab,R,1,208,40,68,special,-40.12,174.3,-39.7163,175.1455,6119840.44,2620805.44,6163232,2693941,5.1,5.1,84.94,140.65,82.53,138.32,-42.25,-72.65,0,112,110.36,nu,087A,B,1000,Q3,<0.1,Q3,0,Q2,0,-99999,-99999,1,0.64,25,1.088,25,Webb_Anderson_1998&Dowrick_Rhoades1998&HarvardCMT,0.125009848,0.127207431,0.130953583,0.138342879,0.159068403,0.222993529,0.253763247,0.235468234,0.272557409,0.19430776,0.16143166,0.102126773,0.056696506,0.042718794,-99999,-99999,-99999,-99999,-99999,-99999,-99999,-99999,0.122834,0.03489
100789,1990-02-19T05:34:36.673000Z,A90032A1,6.24,0.08,Slab,N,1,209,72,-1.12E+02,special,-40.38,176.22,-39.9425,176.5874,6086791.59,2783346.23,6134136,2816486,13,13,57.81,62.25,51.34,55.75,-4.02,-57.47,0,23,16.82,nu,032A,C,495,Q3,0.13,Q3,10,Q3,0,-99999,-99999,1,0.5,11,0.85,11,Robinson_1994&Dowrick_Rhoades1998&HarvardCMT,0.199381981,0.200175996,0.201443838,0.203193096,0.205434401,0.213399651,0.251192085,0.402354887,0.587380769,0.530439187,0.456886641,0.505351273,0.275376286,0.219737135,0.102633317,-99999,-99999,-99999,-99999,-99999,-99999,-99999,0.199348,0.14673
100789,1990-02-19T05:34:36.673000Z,A90033A1,6.24,0.08,Slab,N,1,209,72,-1.12E+02,special,-40.38,176.22,-40.2088,176.0985,6086791.59,2783346.23,6106160,2773698,13,13,21.65,31.73,18.06,27.95,19.84,-12.26,0,23,16.82,nu,033A,C,367,Q3,0.33,Q3,30,Q3,0,-99999,-99999,1,0.38,19,0.646,19,Robinson_1994&Dowrick_Rhoades1998&HarvardCMT,0.303397341,0.306816584,0.312645087,0.322005266,0.335978197,0.382762691,0.464503242,0.563503818,0.542606002,0.73103986,0.767635175,0.943944678,0.538352141,0.354907382,0.133221347,0.122466245,-99999,-99999,-99999,-99999,-99999,-99999,0.302467,0.18609
100789,1990-02-19T05:34:36.673000Z,A90102A1,6.24,0.08,Slab,N,1,209,72,-1.12E+02,special,-40.38,176.22,-39.4637,175.5669,6086791.59,2783346.23,6190285,2730871,13,13,116.11,118.43,112.17,114.97,98.08,-65.08,0,23,16.82,nu,102A,C,555,Q3,0.15,Q3,12,Q3,0,-99999,-99999,1,0.4,15,0.68,15,Robinson_1994&Dowrick_Rhoades1998&HarvardCMT,0.038386781,0.03851539,0.038740878,0.039106016,0.039661937,0.042791452,0.046129904,0.077279442,0.069797855,0.101598197,0.148804921,0.085308576,0.101623666,0.066321594,0.082131226,-99999,-99999,-99999,-99999,-99999,-99999,-99999,0.038389,0.03372
100789,1990-02-19T05:34:36.673000Z,A90120A1,6.24,0.08,Slab,N,1,209,72,-1.12E+02,special,-40.38,176.22,-40.335,175.8682,6086791.59,2783346.23,6092817,2753648,13,13,30.23,38.1,27.71,35.87,30.9,9.13,0,23,16.82,nu,120A,D,290,Q3,1.1,Q3,100,Q3,0,-99999,-99999,1,0.3,16,0.51,16,Robinson_1994&Dowrick_Rhoades1998&HarvardCMT,0.220664846,0.221385735,0.222544126,0.224179663,0.226116128,0.21961358,0.280156399,0.384720794,0.629124276,0.647585215,0.541414719,0.355625158,0.529784714,0.210573837,0.20972719,0.103948143,-99999,-99999,-99999,-99999,-99999,-99999,0.220683,0.15151
100789,1990-02-19T05:34:36.673000Z,A90301A1,6.24,0.08,Slab,N,1,209,72,-1.12E+02,special,-40.38,176.22,-40.3553,175.6152,6086791.59,2783346.23,6091232,2732094,13,13,51.31,56.37,48.28,54.13,48.99,20.96,0,23,16.82,nu,301A,D,341,Q3,0.7,Q2,60,Q3,0,-99999,-99999,1,0.15,12,0.255,12,Robinson_1994&Dowrick_Rhoades1998&HarvardCMT,0.04697917,0.047074185,0.04723528,0.047500078,0.047901373,0.050296234,0.065227814,0.071387032,0.089668316,0.087286737,0.114268959,0.115701492,0.094826582,0.10031725,0.096260382,0.030257037,0.028185329,0.0154604,-99999,-99999,-99999,-99999,0.046983,0.05483
100789,1990-02-19T05:34:36.673000Z,A90340A2,6.24,0.08,Slab,N,1,209,72,-1.12E+02,special,-40.38,176.22,-40.3863,175.6165,6086791.59,2783346.23,6087788,2732102,13,13,51.12,56.19,47.8,53.59,47.31,23.97,0,23,16.82,nu,340A,D,283,Q3,0.96,Q3,90,Q3,0,-99999,-99999,1,0.33,18,0.561,18,Robinson_1994&Dowrick_Rhoades1998&HarvardCMT,0.054737033,0.055511518,0.056888853,0.059302161,0.064659787,0.077030958,0.098856777,0.121306131,0.185728001,0.153336304,0.156657895,0.14307297,0.099363328,0.055807746,0.05810995,0.031691562,-99999,-99999,-99999,-99999,-99999,-99999,0.054332,0.04485
100789,1990-02-19T05:34:36.673000Z,D90029A2,6.24,0.08,Slab,N,1,209,72,-1.12E+02,special,-40.38,176.22,-39.6458,176.8429,6086791.59,2783346.23,6166127,2839726,13,13,97.36,100.01,90.89,93.52,-8.84,-96.72,0,23,16.82,nu,HCDS,D,182,Q2,>2,Q3,1000,Q3,0,-99999,-99999,0,0.17,11,0.289,11,Robinson_1994&Dowrick_Rhoades1998&HarvardCMT,0.044327391,0.044457667,0.044657831,0.044930131,0.045328233,0.047208708,0.048542823,0.065315841,0.097439867,0.080578165,0.121779214,0.128787507,0.110420734,0.108091676,0.074854149,0.041961524,0.021261786,0.010956517,-99999,-99999,-99999,-99999,0.0442,0.04658
100789,1990-02-19T05:34:36.673000Z,D90039E2,6.24,0.08,Slab,N,1,209,72,-1.12E+02,special,-40.38,176.22,-40.9483,175.6597,6086791.59,2783346.23,6025298,2733883,13,13,78.91,82.2,72.5,75.91,15.46,77.76,0,23,16.82,nu,039E,D,314,Q3,1,Q3,100,Q3,0,-99999,-99999,0,0.15,16.5,0.255,16.5,Robinson_1994&Dowrick_Rhoades1998&HarvardCMT,0.017789382,0.017909097,0.018126743,0.018446349,0.018876853,0.019304093,0.031852839,0.0475976,0.08478163,0.061807476,0.037425225,0.047938245,0.031815924,0.025898359,0.017335661,0.01565934,0.011368377,0.005472906,-99999,-99999,-99999,-99999,0.017768,0.01232
