CuspID,Origin_time,Record,Mw,MwUncert,TectClass,Mech,PreferredFaultPlane,Strike,Dip,Rake,Location,HypLat,HypLon,StationLat,StationLon,HypN,HypE,StationN,StationE,LENGTH_km,WIDTH_km,Repi_km,Rhyp_km,Rjb_km,Rrup_km,Rx_km,Ry_km,Rvol_km,HypDepth_km,ZTOR_km,HWFW,SiteCode,SiteClass1170,Vs30,Vs30Uncert,Tsite,TsiteUncert,Z1,Z1Uncertainty,Directivity,Pulse_or,Pulse_T,S_Trigger_Flag,fcButterHP,f_iniLP,fmin,fmax,References,f100.0000SA_RotD50,f50.0000SA_RotD50,f33.3333SA_RotD50,f25.0000SA_RotD50,f20.0000SA_RotD50,f13.3333SA_RotD50,f10.0000SA_RotD50,f6.6667SA_RotD50,f5.0000SA_RotD50,f4.0000SA_RotD50,f3.3333SA_RotD50,f2.5000SA_RotD50,f2.0000SA_RotD50,f1.3333SA_RotD50,f1.0000SA_RotD50,f0.6667SA_RotD50,f0.5000SA_RotD50,f0.3333SA_RotD50,f0.2500SA_RotD50,f0.2000SA_RotD50,f0.1333SA_RotD50,f0.1000SA_RotD50,f100.0000SA_RotD100,f50.0000SA_RotD100,f33.3333SA_RotD100,f25.0000SA_RotD100,f20.0000SA_RotD100,f13.3333SA_RotD100,f10.0000SA_RotD100,f6.6667SA_RotD100,f5.0000SA_RotD100,f4.0000SA_RotD100,f3.3333SA_RotD100,f2.5000SA_RotD100,f2.0000SA_RotD100,f1.3333SA_RotD100,f1.0000SA_RotD100,f0.6667SA_RotD100,f0.5000SA_RotD100,f0.3333SA_RotD100,f0.2500SA_RotD100,f0.2000SA_RotD100,f0.1333SA_RotD100,f0.1000SA_RotD100,PGA_RotD50,PGA_RotD100,PGV_RotD50,PGV_RotD100
164529,1990-10-04T23:48:26.123000Z,D90606B5,5.57,0.15,Interface,O,1,190,21,58,special,-41.61,175.44,-41.2333,174.9199,5952370.8,2713346.37,5995282,2670919,7.6,7.6,60.3,61.9,58.15,59.96,51.33,-34.89,0,13.8,12.99,nu,606B,B,800,Q3,<0.1,Q3,0,Q3,0,-99999,-99999,0,0.4,12,0.68,12,HarvardCMT&Luo(1992),0.013745258,0.013849598,0.014054276,0.014326867,0.014730881,0.016606273,0.018972686,0.029240713,0.023111858,0.019249946,0.022460607,0.02014549,0.014983041,0.010285732,0.009719677,-99999,-99999,-99999,-99999,-99999,-99999,-99999,0.018028399,0.018197452,0.018474347,0.018878635,0.019459878,0.022619455,0.024723926,0.036294734,0.026925965,0.02208673,0.02653362,0.027722699,0.016379633,0.012965127,0.010792367,-99999,-99999,-99999,-99999,-99999,-99999,-99999,0.013701,0.018028,0.009334,0.010354
164529,1990-10-04T23:48:26.123000Z,D90642E8,5.57,0.15,Interface,O,1,190,21,58,special,-41.61,175.44,-41.2341,174.918,5952370.8,2713346.37,5995197,2670758,7.6,7.6,60.35,61.96,58.2,60.01,51.48,-34.78,0,13.8,12.99,nu,642E,C,350,Q1,0.35,Q2,50,Q3,0,-99999,-99999,0,0.4,13,0.68,13,HarvardCMT&Luo(1992),0.037691342,0.037872845,0.038126386,0.038535233,0.03902622,0.041145022,0.042048497,0.058200006,0.057815635,0.071108816,0.083052724,0.073370155,0.054021734,0.020620538,0.015640852,-99999,-99999,-99999,-99999,-99999,-99999,-99999,0.042371679,0.042562039,0.04286747,0.04333505,0.043986514,0.047310845,0.0501365,0.073998458,0.069938085,0.084611549,0.095827106,0.095116126,0.071401241,0.023054211,0.019267561,-99999,-99999,-99999,-99999,-99999,-99999,-99999,0.037615,0.042374,0.022462,0.02414
164529,1990-10-04T23:48:26.123000Z,D90900B5,5.57,0.15,Interface,O,1,190,21,58,special,-41.61,175.44,-41.2921,174.779,5952370.8,2713346.37,5989003,2658976,7.6,7.6,65.46,67,63.34,65.08,62.01,-26.63,0,13.8,12.99,nu,941A,D,272,Q2,0.85,Q2,9.85E+01,Q2,0,-99999,-99999,0,0.4,11.5,0.68,11.5,HarvardCMT&Luo(1992),0.022651994,0.022712773,0.022827058,0.023004194,0.023229676,0.023976486,0.024822254,0.035291717,0.037183478,0.036781729,0.037458174,0.038714067,0.03981871,0.036748618,0.025095733,-99999,-99999,-99999,-99999,-99999,-99999,-99999,0.025335989,0.025397173,0.025499314,0.025651204,0.025893537,0.026628893,0.027129521,0.039644293,0.040185302,0.038367008,0.043206585,0.051023763,0.049478489,0.0381546,0.026552696,-99999,-99999,-99999,-99999,-99999,-99999,-99999,0.02265,0.025338,0.022889,0.025328
164529,1990-10-04T23:48:26.123000Z,D90935B2,5.57,0.15,Interface,O,1,190,21,58,special,-41.61,175.44,-41.2108,174.9047,5952370.8,2713346.37,5997808,2669699,7.6,7.6,62.96,64.5,60.81,62.54,52.97,-37.17,0,13.8,12.99,nu,935A,D,240,Q3,1.2,Q3,275,Q3,0,-99999,-99999,0,0.4,15,0.68,15,HarvardCMT&Luo(1992),0.032904682,0.033068847,0.033409187,0.033916643,0.034643406,0.036589113,0.038468128,0.04734548,0.057486358,0.066648163,0.073825123,0.049812715,0.043389467,0.031576703,0.035180173,-99999,-99999,-99999,-99999,-99999,-99999,-99999,0.037510789,0.037641661,0.03787702,0.038263219,0.038881893,0.040819362,0.042195175,0.055260636,0.062768386,0.071237086,0.089736738,0.05539973,0.048244747,0.043467573,0.044272975,-99999,-99999,-99999,-99999,-99999,-99999,-99999,0.032746,0.037519,0.034941,0.042109
164529,1990-10-04T23:48:26.123000Z,D90941A5,5.57,0.15,Interface,O,1,190,21,58,special,-41.61,175.44,-41.2921,174.779,5952370.8,2713346.37,5989003,2658976,7.6,7.6,65.46,67,63.34,65.08,62.01,-26.63,0,13.8,12.99,nu,941A,D,272,Q2,0.85,Q2,9.85E+01,Q2,0,-99999,-99999,0,0.41,11,0.697,11,HarvardCMT&Luo(1992),0.022978959,0.023074048,0.023222989,0.023456488,0.023787991,0.025265204,0.027715659,0.035873739,0.035222779,0.033940881,0.036550475,0.040497499,0.035281151,0.03092181,0.018786659,-99999,-99999,-99999,-99999,-99999,-99999,-99999,0.031410326,0.031492015,0.031663193,0.031884916,0.032164481,0.032922892,0.034585213,0.046162544,0.045194477,0.04714554,0.050952529,0.056998772,0.048842756,0.035730327,0.025676254,-99999,-99999,-99999,-99999,-99999,-99999,-99999,0.022982,0.031422,0.021391,0.023599
160610,1990-10-06T02:41:12.583000Z,D90642EB,5.46,0.15,Interface,O,1,250,38,145,special,-41.61,175.43,-41.2341,174.918,5952394.08,2712513.04,5995197,2670758,6.7,6.7,59.75,61.46,58.1,60.11,56.08,24.6,0,14.2,12.97,nu,642E,C,350,Q1,0.35,Q2,50,Q3,0,-99999,-99999,0,0.6,11,1.02,11,HarvardCMT&Luo(1992),0.028064709,0.028175237,0.02831749,0.028545294,0.02880428,0.029902282,0.032309365,0.041897818,0.049136349,0.051147653,0.054202853,0.058629687,0.041618452,0.014794863,-99999,-99999,-99999,-99999,-99999,-99999,-99999,-99999,0.030122065,0.030285124,0.030543284,0.030911075,0.031393793,0.033215644,0.035719193,0.049272439,0.052262155,0.058420823,0.066018568,0.072630019,0.056041097,0.020866753,-99999,-99999,-99999,-99999,-99999,-99999,-99999,-99999,0.027979,0.030104,0.016174,0.019076
160610,1990-10-06T02:41:12.583000Z,D90900B6,5.46,0.15,Interface,O,1,250,38,145,special,-41.61,175.43,-41.2921,174.779,5952394.08,2712513.04,5989003,2658976,6.7,6.7,64.76,66.39,63.03,64.9,54.29,37.79,0,14.2,12.97,nu,941A,D,272,Q2,0.85,Q2,9.85E+01,Q2,0,-99999,-99999,0,0.4,10,0.68,10,HarvardCMT&Luo(1992),0.014072033,0.01410379,0.014156349,0.014223383,0.014318839,0.014586594,0.015134411,0.016963449,0.020791035,0.021569425,0.021489742,0.018712089,0.016829208,0.020634939,0.014471955,-99999,-99999,-99999,-99999,-99999,-99999,-99999,0.019032591,0.019065117,0.019124306,0.019205495,0.019304984,0.019669681,0.02069735,0.021811279,0.029233639,0.030259502,0.029815826,0.023671283,0.023402196,0.028679485,0.018762584,-99999,-99999,-99999,-99999,-99999,-99999,-99999,0.014052,0.019034,0.012221,0.01399
160610,1990-10-06T02:41:12.583000Z,D90935B3,5.46,0.15,Interface,O,1,250,38,145,special,-41.61,175.43,-41.2108,174.9047,5952394.08,2712513.04,5997808,2669699,6.7,6.7,62.37,64.01,60.72,62.65,58.89,24.7,0,14.2,12.97,nu,935A,D,240,Q3,1.2,Q3,275,Q3,0,-99999,-99999,0,0.3,15,0.51,15,HarvardCMT&Luo(1992),0.019824429,0.019924085,0.020035947,0.020209207,0.020433612,0.021471462,0.022162996,0.028168522,0.032508094,0.034324457,0.03693329,0.033373528,0.030519653,0.019490076,0.014561248,0.010059722,-99999,-99999,-99999,-99999,-99999,-99999,0.021463224,0.021553582,0.021699505,0.021904318,0.022172409,0.02345875,0.024329655,0.03451993,0.036796032,0.042220627,0.041877823,0.041989423,0.034065659,0.025840994,0.018974524,0.012252503,-99999,-99999,-99999,-99999,-99999,-99999,0.019813,0.021374,0.01878,0.023053
160610,1990-10-06T02:41:12.583000Z,D90941A6,5.46,0.15,Interface,O,1,250,38,145,special,-41.61,175.43,-41.2921,174.779,5952394.08,2712513.04,5989003,2658976,6.7,6.7,64.76,66.39,63.03,64.9,54.29,37.79,0,14.2,12.97,nu,941A,D,272,Q2,0.85,Q2,9.85E+01,Q2,0,-99999,-99999,0,0.35,12,0.595,12,HarvardCMT&Luo(1992),0.013385611,0.013429699,0.013499215,0.013604918,0.013751484,0.014325732,0.015960157,0.019860548,0.02226637,0.021102359,0.020786489,0.018028316,0.015069354,0.017218018,0.010897318,0.004374248,-99999,-99999,-99999,-99999,-99999,-99999,0.016521963,0.016595261,0.016706104,0.016878241,0.017135389,0.018518081,0.020858076,0.022095507,0.023229972,0.021994395,0.026945681,0.021788066,0.017522479,0.021862643,0.012831254,0.005445021,-99999,-99999,-99999,-99999,-99999,-99999,0.013333,0.016519,0.009242,0.010038
194283,1991-01-28T12:58:46.823000Z,A91051B1,5.76,0.08,Crustal,R,1,42,30,99,special,-41.89,171.58,-41.7557,171.5998,5923123.14,2392149.06,5938069,2393545,6.97,6.97,15.03,18.04,11.7,14.67,-5.94,12.04,0,10,8.26,nu,WBCS,D,300,Q3,1.2,Q2,105,Q3,0,-99999,-99999,1,0.4,27,0.68,27,Anderson_etal_1993&Dowrick_Rhoades1998&HarvardCMT,0.143851538,0.145970143,0.149256125,0.159170266,0.170956959,0.220372415,0.23873403,0.222430904,0.197436233,0.170378578,0.174559276,0.175743193,0.177733867,0.17239439,0.116972366,-99999,-99999,-99999,-99999,-99999,-99999,-99999,0.162728013,0.164732408,0.170144676,0.177270651,0.193600685,0.248860961,0.3339965,0.247656676,0.230712207,0.206648127,0.186264914,0.230028982,0.22495889,0.236448039,0.157130226,-99999,-99999,-99999,-99999,-99999,-99999,-99999,0.142879,0.161382,0.10733,0.128337
194283,1991-01-28T12:58:46.823000Z,A91083A1,5.76,0.08,Crustal,R,1,42,30,99,special,-41.89,171.58,-41.8311,171.6606,5923123.14,2392149.06,5929772,2398735,6.97,6.97,9.35,13.7,5.87,11.28,3.46,9.35,0,10,8.26,nu,083A,B,1200,Q3,<0.1,Q3,0,Q2,0,-99999,-99999,0,0.5,40,0.85,40,Anderson_etal_1993&Dowrick_Rhoades1998&HarvardCMT,0.20224575,0.21461826,0.292930938,0.295490791,0.321312384,0.274486665,0.231616704,0.228972062,0.185828704,0.11170968,0.113767448,0.101618793,0.101659349,0.075666807,0.058350447,-99999,-99999,-99999,-99999,-99999,-99999,-99999,0.25994001,0.303516153,0.414320457,0.417864835,0.430121549,0.314434594,0.291447752,0.261269821,0.233098687,0.138796886,0.137329857,0.113493389,0.132997497,0.10665189,0.08162253,-99999,-99999,-99999,-99999,-99999,-99999,-99999,0.193315,0.234507,0.065445,0.081315
194283,1991-01-28T12:58:46.823000Z,A91090A1,5.76,0.08,Crustal,R,1,42,30,99,special,-41.89,171.58,-41.8553,171.9539,5923123.14,2392149.06,5927428,2423132,6.97,6.97,31.2,32.86,27.91,30.07,23.16,23.93,0,10,8.26,nu,090A,C,270,Q3,0.33,Q3,40,Q3,0,-99999,-99999,1,0.3,22,0.51,22,Anderson_etal_1993&Dowrick_Rhoades1998&HarvardCMT,0.083429639,0.084396592,0.086017274,0.088135197,0.0910887,0.09722704,0.117589582,0.133846936,0.141749421,0.123798422,0.102092179,0.126518101,0.115945761,0.065417638,0.041295702,0.02264035,-99999,-99999,-99999,-99999,-99999,-99999,0.115021511,0.11642521,0.118487726,0.120806232,0.125035563,0.136244788,0.142811681,0.173398359,0.200074761,0.16188801,0.142366114,0.178601913,0.162640662,0.085508792,0.05494866,0.03037886,-99999,-99999,-99999,-99999,-99999,-99999,0.08299,0.115127,0.061288,0.084013
194283,1991-01-28T12:58:46.823000Z,A91122A1,5.76,0.08,Crustal,R,1,42,30,99,special,-41.89,171.58,-41.8025,172.3248,5923123.14,2392149.06,5933606,2453884,6.97,6.97,62.46,63.44,59.16,60.33,41.88,49.1,0,10,8.26,nu,122A,D,500,Q3,1.6,Q3,250,Q3,0,-99999,-99999,1,0.4,40,0.68,40,Anderson_etal_1993&Dowrick_Rhoades1998&HarvardCMT,0.128486474,0.139099654,0.14747989,0.158903046,0.156437727,0.191122944,0.239226576,0.18812194,0.17115493,0.182439173,0.1803972,0.15064944,0.143965964,0.071385593,0.039822827,-99999,-99999,-99999,-99999,-99999,-99999,-99999,0.1719998,0.176570169,0.179191017,0.196773798,0.182703865,0.228670173,0.294889899,0.257677207,0.23765702,0.256195464,0.254245059,0.210908273,0.203326304,0.076546525,0.044085601,-99999,-99999,-99999,-99999,-99999,-99999,-99999,0.128037,0.172541,0.069375,0.08888
194283,1991-01-28T12:58:46.823000Z,D91042A3,5.76,0.08,Crustal,R,1,42,30,99,special,-41.89,171.58,-42.5232,172.8305,5923123.14,2392149.06,5853765,2496076,6.97,6.97,124.76,125.38,121.74,122.51,126.66,18,0,10,8.26,nu,HSES,D,280,Q3,0.9,Q1,85,Q3,0,-99999,-99999,1,0.2,11,0.34,11,Anderson_etal_1993&Dowrick_Rhoades1998&HarvardCMT,0.023587935,0.023656593,0.023765364,0.023937609,0.024171247,0.024987364,0.027001325,0.03089022,0.032115515,0.033891489,0.039942272,0.036411395,0.04691049,0.040494231,0.025579929,0.009852547,0.005642878,-99999,-99999,-99999,-99999,-99999,0.026782576,0.026841579,0.026945907,0.027082116,0.02726145,0.027795193,0.029080814,0.038334487,0.041100536,0.03772951,0.043371427,0.049556462,0.055509961,0.049846509,0.035730272,0.012036142,0.00796073,-99999,-99999,-99999,-99999,-99999,0.023586,0.026774,0.023361,0.029622
201724,1991-01-28T18:00:53.158000Z,A91051B2,5.89,0.08,Crustal,S,1,48,77,11,special,-41.9,171.67,-41.7557,171.5998,5922133.85,2399635.78,5938069,2393545,8.1,8.1,17.07,20.86,15.62,17.84,-15.01,6.14,0,12,8.05,fw,WBCS,D,300,Q3,1.2,Q2,105,Q3,0,-99999,-99999,1,0.3,20,0.51,20,Anderson_etal_1993&Dowrick_Rhoades1998&HarvardCMT,0.147563678,0.149807041,0.154685836,0.161459423,0.174731073,0.249481896,0.284483279,0.200091084,0.216000161,0.198928277,0.152584476,0.115498758,0.120454039,0.130469158,0.076973079,0.036359674,-99999,-99999,-99999,-99999,-99999,-99999,0.163646078,0.165072104,0.16722809,0.169642166,0.184332584,0.315565653,0.385966017,0.261619442,0.242623218,0.232182522,0.171883602,0.126378936,0.164505463,0.155757243,0.101730284,0.045285096,-99999,-99999,-99999,-99999,-99999,-99999,0.146803,0.16229,0.090179,0.110719
201724,1991-01-28T18:00:53.158000Z,A91052A2,5.89,0.08,Crustal,S,1,48,77,11,special,-41.9,171.67,-42.1166,171.8604,5922133.85,2399635.78,5898305,2415760,8.1,8.1,28.77,31.24,27.75,30.62,29.41,-3.96,0,12,8.05,hw,052A,C,333,Q3,0.3,Q3,30,Q3,0,-99999,-99999,1,0.5,35,0.85,35,Anderson_etal_1993&Dowrick_Rhoades1998&HarvardCMT,0.173224553,0.177785756,0.190212887,0.237495771,0.258557742,0.310054157,0.371591273,0.208539877,0.173355963,0.146449818,0.12874358,0.077911789,0.050584263,0.033832665,0.02318035,-99999,-99999,-99999,-99999,-99999,-99999,-99999,0.18272271,0.191259832,0.200450369,0.260650689,0.286482068,0.367257935,0.485623596,0.290890807,0.210599272,0.187097991,0.138373919,0.097009133,0.060712427,0.044636081,0.026570437,-99999,-99999,-99999,-99999,-99999,-99999,-99999,0.172849,0.182562,0.048354,0.054283
201724,1991-01-28T18:00:53.158000Z,A91083A2,5.89,0.08,Crustal,S,1,48,77,11,special,-41.9,171.67,-41.8311,171.6606,5922133.85,2399635.78,5929772,2398735,8.1,8.1,7.7,14.26,5.85,10.38,-5.37,4.44,0,12,8.05,fw,083A,B,1200,Q3,<0.1,Q3,0,Q2,0,-99999,-99999,1,1,35,1.7,35,Anderson_etal_1993&Dowrick_Rhoades1998&HarvardCMT,0.142693161,0.154957876,0.1767782,0.203957217,0.245781149,0.290162757,0.211965221,0.161101091,0.129303099,0.102195544,0.085712332,0.053432678,0.036018729,-99999,-99999,-99999,-99999,-99999,-99999,-99999,-99999,-99999,0.20174329,0.21383709,0.240809803,0.250008907,0.279216009,0.40120153,0.298377453,0.215645888,0.165455401,0.143642391,0.119559103,0.069063891,0.043095675,-99999,-99999,-99999,-99999,-99999,-99999,-99999,-99999,-99999,0.14279,0.201932,0.029918,0.038692
201724,1991-01-28T18:00:53.158000Z,A91090A2,5.89,0.08,Crustal,S,1,48,77,11,special,-41.9,171.67,-41.8553,171.9539,5922133.85,2399635.78,5927428,2423132,8.1,8.1,24.03,26.94,20.56,23.59,12.7,21,0,12,8.05,nu,090A,C,270,Q3,0.33,Q3,40,Q3,0,-99999,-99999,1,0.3,20,0.51,20,Anderson_etal_1993&Dowrick_Rhoades1998&HarvardCMT,0.166883427,0.167381978,0.168266599,0.170854986,0.175559789,0.184975213,0.211196817,0.247139616,0.324814591,0.304903468,0.294873067,0.286926687,0.252995258,0.153763495,0.115404859,0.049874878,-99999,-99999,-99999,-99999,-99999,-99999,0.185632602,0.186140606,0.186956775,0.188370948,0.19276075,0.199121726,0.227125415,0.269211554,0.383750105,0.352149456,0.31170514,0.394435163,0.282801291,0.200471105,0.140464489,0.05992741,-99999,-99999,-99999,-99999,-99999,-99999,0.16676,0.185405,0.123361,0.148819
201724,1991-01-28T18:00:53.158000Z,A91122A2,5.89,0.08,Crustal,S,1,48,77,11,special,-41.9,171.67,-41.8025,172.3248,5922133.85,2399635.78,5933606,2453884,8.1,8.1,55.31,56.76,51.82,53.36,28.68,47.99,0,12,8.05,nu,122A,D,500,Q3,1.6,Q3,250,Q3,0,-99999,-99999,1,0.3,33,0.51,33,Anderson_etal_1993&Dowrick_Rhoades1998&HarvardCMT,0.260079882,0.287950779,0.355232723,0.351729416,0.349070205,0.317693779,0.368632077,0.512207336,0.320604026,0.281016531,0.250219806,0.179531053,0.140126315,0.078271003,0.051812085,0.025547034,-99999,-99999,-99999,-99999,-99999,-99999,0.320696329,0.338394641,0.407568981,0.462385034,0.413964067,0.449337245,0.449200404,0.635200538,0.364422421,0.305220899,0.287641666,0.212926845,0.195351754,0.109806038,0.062827791,0.029215196,-99999,-99999,-99999,-99999,-99999,-99999,0.259538,0.310917,0.0751,0.09991
201724,1991-01-28T18:00:53.158000Z,D91042A4,5.89,0.08,Crustal,S,1,48,77,11,special,-41.9,171.67,-42.5232,172.8305,5922133.85,2399635.78,5853765,2496076,8.1,8.1,118.06,118.86,116.84,117.93,116.25,25.92,0,12,8.05,nu,HSES,D,280,Q3,0.9,Q1,85,Q3,0,-99999,-99999,0,0.3,12,0.51,12,Anderson_etal_1993&Dowrick_Rhoades1998&HarvardCMT,0.027228588,0.027280388,0.027366824,0.027489884,0.027636899,0.028342922,0.029798864,0.033174939,0.035235438,0.040778316,0.04518608,0.045817868,0.04303288,0.053711792,0.031764836,0.014999536,-99999,-99999,-99999,-99999,-99999,-99999,0.030577177,0.030601712,0.03063133,0.030675459,0.030892352,0.032216495,0.033336,0.042374208,0.046573906,0.046522461,0.056989368,0.061030811,0.054548412,0.074059442,0.044875527,0.020829267,-99999,-99999,-99999,-99999,-99999,-99999,0.027216,0.030578,0.029481,0.035726
201354,1991-02-15T10:48:09.669000Z,A91051B3,5.42,0.15,Crustal,R,0,213,37,90,geonet,-42.0386,171.5897,-41.7557,171.5998,5906631.78,2393229.54,5938069,2393545,4.7,4.7,31.47,32.19,29.3,30.05,-99999,-99999,0,6.92,5.27,nu,WBCS,D,300,Q3,1.2,Q2,105,Q3,0,-99999,-99999,1,0.3,22,0.51,22,HarvardCMT,0.097903794,0.09914701,0.101430795,0.107577211,0.123661856,0.200085407,0.153558479,0.164850318,0.121723247,0.091552354,0.089433538,0.066659603,0.062854517,0.055055704,0.033212482,0.020073586,-99999,-99999,-99999,-99999,-99999,-99999,0.119495703,0.123006095,0.128759724,0.136893834,0.164381973,0.253436921,0.182606799,0.194727032,0.158239174,0.119828275,0.099675523,0.07265146,0.084801072,0.06609833,0.040312282,0.024453997,-99999,-99999,-99999,-99999,-99999,-99999,0.09661,0.119132,0.037472,0.047378
201354,1991-02-15T10:48:09.669000Z,A91052A3,5.42,0.15,Crustal,R,0,213,37,90,geonet,-42.0386,171.5897,-42.1166,171.8604,5906631.78,2393229.54,5898305,2415760,4.7,4.7,23.97,25.04,22.28,23.52,-99999,-99999,0,6.92,5.27,nu,052A,C,333,Q3,0.3,Q3,30,Q3,0,-99999,-99999,0,0.5,32,0.85,32,HarvardCMT,0.159144463,0.163108342,0.175798068,0.202470937,0.233542456,0.286509341,0.304211205,0.326247058,0.23372311,0.149513972,0.12548058,0.07124259,0.061575918,0.037559239,0.024323099,-99999,-99999,-99999,-99999,-99999,-99999,-99999,0.191429565,0.195105174,0.203352088,0.223036867,0.276301104,0.313072978,0.406694651,0.402161887,0.299986297,0.201022135,0.141633344,0.088179838,0.072707133,0.051835208,0.031894336,-99999,-99999,-99999,-99999,-99999,-99999,-99999,0.159601,0.19139,0.046705,0.056129
201354,1991-02-15T10:48:09.669000Z,A91090A3,5.42,0.15,Crustal,R,0,213,37,90,geonet,-42.0386,171.5897,-41.8553,171.9539,5906631.78,2393229.54,5927428,2423132,4.7,4.7,36.37,37.09,34.1,34.84,-99999,-99999,0,6.92,5.27,nu,090A,C,270,Q3,0.33,Q3,40,Q3,0,-99999,-99999,1,0.45,13,0.765,13,HarvardCMT,0.080295603,0.080657464,0.081247145,0.082207807,0.083502989,0.088313023,0.09504544,0.129240457,0.148722922,0.154685061,0.132341481,0.100280915,0.078451779,0.044417026,0.02251515,-99999,-99999,-99999,-99999,-99999,-99999,-99999,0.107740371,0.108242505,0.109025691,0.11014422,0.111621509,0.116837422,0.128587577,0.181850346,0.197949761,0.210762364,0.180511958,0.123833838,0.095183024,0.053572021,0.028863777,-99999,-99999,-99999,-99999,-99999,-99999,-99999,0.080027,0.10772,0.042587,0.057742
