CuspID,Origin_time,Record,Mw,MwUncert,TectClass,Mech,PreferredFaultPlane,Strike,Dip,Rake,Location,HypLat,HypLon,StationLat,StationLon,HypN,HypE,StationN,StationE,LENGTH_km,WIDTH_km,Repi_km,Rhyp_km,Rjb_km,Rrup_km,Rx_km,Ry_km,Rvol_km,HypDepth_km,ZTOR_km,HWFW,SiteCode,SiteClass1170,Vs30,Vs30Uncert,Tsite,TsiteUncert,Z1,Z1Uncertainty,Directivity,Pulse_or,Pulse_T,S_Trigger_Flag,fcButterHP,f_iniLP,fmin,fmax,References,f100.0000SA_LHC,f50.0000SA_LHC,f33.3333SA_LHC,f25.0000SA_LHC,f20.0000SA_LHC,f13.3333SA_LHC,f10.0000SA_LHC,f6.6667SA_LHC,f5.0000SA_LHC,f4.0000SA_LHC,f3.3333SA_LHC,f2.5000SA_LHC,f2.0000SA_LHC,f1.3333SA_LHC,f1.0000SA_LHC,f0.6667SA_LHC,f0.5000SA_LHC,f0.3333SA_LHC,f0.2500SA_LHC,f0.2000SA_LHC,f0.1333SA_LHC,f0.1000SA_LHC,PGA_LHC,PGV_LHC
471730,1993-08-10T00:51:55.033000Z,A93940A1,6.89,0.08,Interface,R,1,41,41,107,nlloc,-45.3625,166.649,-45.0322,168.6629,5519161.25,2012843.95,5566104,2168345,34.75,34.75,162.01,163.32,150.75,152.25,92.03,137.45,0,16.72,11.96,nu,QTPS,D,350,Q3,0.95,Q1,90,Q3,0,-99999,-99999,1,0.5,10,0.85,10,Robinson_etal_2003&Dowrick_Rhoades1998&HarvardCMT,0.039908559,0.040145394,0.040543645,0.041090041,0.041842535,0.044686835,0.052057078,0.073962904,0.107995275,0.120061646,0.112157093,0.091422664,0.095402362,0.058590557,0.030224175,-99999,-99999,-99999,-99999,-99999,-99999,-99999,0.039898,0.02612
471730,1993-08-10T00:51:55.033000Z,D93044A2s,6.89,0.08,Interface,R,1,41,41,107,nlloc,-45.3625,166.649,-45.8986,170.5097,5519161.25,2012843.95,5475848,2316608,34.75,34.75,306.03,307.29,297.73,299.13,263.14,166.6,0,16.72,11.96,nu,SKFS,D,140,Q2,0.8,Q3,25,Q3,0,-99999,-99999,1,0.25,10,0.425,10,Robinson_etal_2003&Dowrick_Rhoades1998&HarvardCMT,0.015860484,0.015887237,0.015919994,0.015963735,0.015994515,0.016266862,0.016760567,0.026648397,0.031382903,0.042492671,0.038790724,0.036148701,0.055882849,0.061310207,0.030409263,0.019618958,0.006971619,-99999,-99999,-99999,-99999,-99999,0.015861,0.01873
471730,1993-08-10T00:51:55.033000Z,D93054A6,6.89,0.08,Interface,R,1,41,41,107,nlloc,-45.3625,166.649,-43.883,169.0441,5519161.25,2012843.95,5695156,2192230,34.75,34.75,250.97,251.86,238.02,238.93,25.39,250.51,0,16.72,11.96,nu,HDWS,D,210,Q3,0.87,Q1,100,Q3,0,-99999,-99999,0,0.35,14,0.595,14,Robinson_etal_2003&Dowrick_Rhoades1998&HarvardCMT,0.035386999,0.035507787,0.035707197,0.035969009,0.037463952,0.049296212,0.06673449,0.110210885,0.070644659,0.068270566,0.105733779,0.045273691,0.040614845,0.07387888,0.031591365,0.020928194,-99999,-99999,-99999,-99999,-99999,-99999,0.035382,0.02366
471755,1993-08-10T09:46:38.453000Z,K93018A1,6.3,0.08,Slab,S,1,354,64,168,special,-38.55,177.92,-38.6665,178.0227,6283090.62,2938734.07,6269685,2946952,30,15,15.73,42.06,5.22,35.18,10.06,-14.19,0,39,32.26,nu,GISS,D,138,Q2,1,Q1,40,Q3,0,-99999,-99999,1,0.28,19,0.476,19,Reyners_et_al2010&Webb_Anderson_1998&Dowrick_Rhoades1998&HarvardCMT,0.261456083,0.262688972,0.26474737,0.26776899,0.270811504,0.283260107,0.307749764,0.38600933,0.695468594,0.572966301,0.705919472,0.615571207,0.437399152,0.220915241,0.220292578,0.09101668,0.041005807,-99999,-99999,-99999,-99999,-99999,0.261458,0.16787
471755,1993-08-10T09:46:38.453000Z,A93028A1,6.3,0.08,Slab,S,1,354,64,168,special,-38.55,177.92,-38.0079,177.284,6283090.62,2938734.07,6346024,2886230,30,15,81.95,90.77,69.76,78.95,-42.35,68.08,0,39,32.26,nu,028A,D,210,Q3,1,Q3,75,Q3,0,-99999,-99999,1,0.35,15,0.595,15,Reyners_et_al2010&Webb_Anderson_1998&Dowrick_Rhoades1998&HarvardCMT,0.067709932,0.067894753,0.068173293,0.068593333,0.069139541,0.075672415,0.113678642,0.149456082,0.251738016,0.153420901,0.16072387,0.204886212,0.323755649,0.113858174,0.105223942,0.079698755,-99999,-99999,-99999,-99999,-99999,-99999,0.067717,0.06536
471755,1993-08-10T09:46:38.453000Z,A93096A1,6.3,0.08,Slab,S,1,354,64,168,special,-38.55,177.92,-39.0342,177.4249,6283090.62,2938734.07,6231637,2892985,30,15,68.85,79.13,59.27,69.25,-47.59,-46.39,0,39,32.26,nu,WFSS,D,155,Q3,1.5,Q3,100,Q3,0,-99999,-99999,1,0.35,13,0.595,13,Reyners_et_al2010&Webb_Anderson_1998&Dowrick_Rhoades1998&HarvardCMT,0.054136606,0.054262145,0.054440851,0.0547066,0.055060311,0.056699003,0.066686306,0.074504988,0.097096893,0.102974698,0.126367522,0.150668793,0.137506002,0.119821467,0.116798717,0.06870108,-99999,-99999,-99999,-99999,-99999,-99999,0.054057,0.04939
471755,1993-08-10T09:46:38.453000Z,A93113A1,6.3,0.08,Slab,S,1,354,64,168,special,-38.55,177.92,-37.8735,177.5847,6283090.62,2938734.07,6359624,2913365,30,15,80.72,89.57,66.1,76.08,-13.94,78.77,0,39,32.26,nu,113A,C,522,Q3,0.15,Q3,10,Q3,0,-99999,-99999,1,0.42,13,0.714,13,Reyners_et_al2010&Webb_Anderson_1998&Dowrick_Rhoades1998&HarvardCMT,0.107833774,0.108270269,0.108994651,0.110001851,0.11128301,0.114550285,0.138379679,0.191182083,0.369822014,0.48407292,0.289927456,0.165446959,0.113235328,0.05310574,0.028627792,-99999,-99999,-99999,-99999,-99999,-99999,-99999,0.107146,0.05232
471755,1993-08-10T09:46:38.453000Z,D93014A4,6.3,0.08,Slab,S,1,354,64,168,special,-38.55,177.92,-39.4984,176.8761,6283090.62,2938734.07,6182359,2843283,30,15,138.75,144.15,129.07,134.18,-102.17,-90.2,0,39,32.26,nu,NCDS,E,162,Q3,1.25,Q2,110,Q3,0,-99999,-99999,0,0.25,10,0.425,10,Reyners_et_al2010&Webb_Anderson_1998&Dowrick_Rhoades1998&HarvardCMT,0.016052817,0.01611723,0.01623531,0.016388329,0.016620297,0.017604813,0.02720466,0.047705012,0.05135333,0.043727081,0.044337844,0.037267228,0.035833209,0.050442716,0.027144847,0.015581418,0.007614538,-99999,-99999,-99999,-99999,-99999,0.016004,0.01671
471755,1993-08-10T09:46:38.453000Z,D93016A1,6.3,0.08,Slab,S,1,354,64,168,special,-38.55,177.92,-38.6774,178.031,6283090.62,2938734.07,6268431,2947608,30,15,17.14,42.71,6.16,35.7,10.58,-15.51,0,39,32.26,nu,016A,C,480,Q3,0.15,Q3,10,Q3,0,-99999,-99999,0,0.3,21,0.51,21,Reyners_et_al2010&Webb_Anderson_1998&Dowrick_Rhoades1998&HarvardCMT,0.182099086,0.18327444,0.185132563,0.18775335,0.196241903,0.215477664,0.287517886,0.494091461,0.611176992,0.439687235,0.477000401,0.36135873,0.45352229,0.278539451,0.141821892,0.047524889,-99999,-99999,-99999,-99999,-99999,-99999,0.182049,0.10659
471755,1993-08-10T09:46:38.453000Z,D93017A1,6.3,0.08,Slab,S,1,354,64,168,special,-38.55,177.92,-38.6665,178.0227,6283090.62,2938734.07,6269685,2946952,30,15,15.73,42.06,5.22,35.18,10.06,-14.19,0,39,32.26,nu,GISS,D,138,Q2,1,Q1,40,Q3,0,-99999,-99999,0,0.25,30,0.425,30,Reyners_et_al2010&Webb_Anderson_1998&Dowrick_Rhoades1998&HarvardCMT,0.184278278,0.185976559,0.192873205,0.209667471,0.215183348,0.258537824,0.283429366,0.457501902,0.455775249,0.53856579,0.809308196,0.582330379,0.382358713,0.338338793,0.213588948,0.067561541,0.032319958,-99999,-99999,-99999,-99999,-99999,0.183639,0.14321
471755,1993-08-10T09:46:38.453000Z,D93021A3,6.3,0.08,Slab,S,1,354,64,168,special,-38.55,177.92,-38.4249,176.3157,6283090.62,2938734.07,6303375,2799556,30,15,140.32,146.04,135.79,140.25,-133.01,34.72,10,39,32.26,nu,021A,D,210,Q3,2,Q3,200,Q3,0,-99999,-99999,1,0.18,10,0.306,10,Reyners_et_al2010&Webb_Anderson_1998&Dowrick_Rhoades1998&HarvardCMT,0.026210285,0.026214624,0.026224109,0.026233113,0.026238246,0.026261203,0.026551196,0.028929803,0.038968861,0.046897261,0.041789308,0.054875108,0.061539498,0.072370643,0.09083957,0.114061136,0.033472278,0.011163468,-99999,-99999,-99999,-99999,0.026208,0.06174
608810,1994-06-18T03:25:13.819000Z,D4505A01,6.72,0.08,Crustal,R,1,221,47,112,geonet,-43.0078,171.4762,-42.9489,171.5677,5798820.69,2385786.14,5805487,2393135,21.06,21.06,9.91,11.12,2.02,4.12,2.92,-9.85,0,4.27,1,hw,APPS,C,300,Q2,0.4,Q1,30,Q2,0,-99999,-99999,0,0.11,40,0.187,40,Abercrombie_etal_2000&HarvardCMT,0.458272752,0.465082379,0.543835683,0.516336097,0.536716456,0.657527076,0.759917851,1.099476317,1.282718812,1.325025263,0.988614524,1.157749594,1.440030849,0.450773114,0.288213263,0.170670756,0.097460035,0.05443619,0.048278515,0.021678979,-99999,-99999,0.458583,0.29519
608810,1994-06-18T03:25:13.819000Z,D94042A1,6.72,0.08,Crustal,R,1,221,47,112,geonet,-43.0078,171.4762,-42.5232,172.8305,5798820.69,2385786.14,5853765,2496076,21.06,21.06,122.98,123.31,115.46,115.74,-43.1,-113.82,0,4.27,1,nu,HSES,D,280,Q3,0.9,Q1,85,Q3,0,-99999,-99999,1,0.25,10,0.425,10,Abercrombie_etal_2000&HarvardCMT,0.01716594,0.017173228,0.017188959,0.017220339,0.017243699,0.017338031,0.018112024,0.019159855,0.019880121,0.025798233,0.02706879,0.034437799,0.042418576,0.06188892,0.029821371,0.018263121,0.014289533,-99999,-99999,-99999,-99999,-99999,0.017166,0.02154
608810,1994-06-18T03:25:13.819000Z,D94044A1b,6.72,0.08,Crustal,R,1,221,47,112,geonet,-43.0078,171.4762,-45.8986,170.5097,5798820.69,2385786.14,5475848,2316608,21.06,21.06,330.46,330.33,323.2,323.05,-155.59,289.14,0,4.27,1,nu,SKFS,D,140,Q2,0.8,Q3,25,Q3,0,-99999,-99999,1,0.2,10,0.34,10,Abercrombie_etal_2000&HarvardCMT,0.015321078,0.015332847,0.01532525,0.015330948,0.015346473,0.015347229,0.015658741,0.01681087,0.017869397,0.022830107,0.025094997,0.025982513,0.048495507,0.072577631,0.040797344,0.015607592,0.006605905,-99999,-99999,-99999,-99999,-99999,0.015321,0.01986
608810,1994-06-18T03:25:13.819000Z,D94051D1,6.72,0.08,Crustal,R,1,221,47,112,geonet,-43.0078,171.4762,-41.7557,171.5998,5798820.69,2385786.14,5938069,2393545,21.06,21.06,139.6,139.53,132.84,132.84,89.59,-110.18,0,4.27,1,nu,WBCS,D,300,Q3,1.2,Q2,105,Q3,0,-99999,-99999,0,0.25,20,0.425,20,Abercrombie_etal_2000&HarvardCMT,0.049508328,0.049773308,0.05034575,0.051309808,0.055885069,0.07992335,0.083797808,0.095594524,0.105838841,0.096629349,0.120390064,0.104578128,0.117205407,0.172819225,0.080129444,0.043999886,0.03405851,-99999,-99999,-99999,-99999,-99999,0.049419,0.04896
608810,1994-06-18T03:25:13.819000Z,D94054A3,6.72,0.08,Crustal,R,1,221,47,112,geonet,-43.0078,171.4762,-43.883,169.0441,5798820.69,2385786.14,5695156,2192230,21.06,21.06,219.12,219.61,211.53,212.02,82.16,205.22,0,4.27,1,nu,HDWS,D,210,Q3,0.87,Q1,100,Q3,0,-99999,-99999,1,0.3,11,0.51,11,Abercrombie_etal_2000&HarvardCMT,0.018593427,0.01870105,0.018864365,0.0191384,0.019503029,0.021305383,0.027462169,0.036230983,0.036529449,0.053042513,0.048630876,0.045736662,0.042577098,0.027213782,0.022081582,0.012357128,-99999,-99999,-99999,-99999,-99999,-99999,0.018593,0.01412
608810,1994-06-18T03:25:13.819000Z,D94129A2,6.72,0.08,Crustal,R,1,221,47,112,geonet,-43.0078,171.4762,-41.7999,172.328,5798820.69,2385786.14,5933893,2454147,21.06,21.06,151.43,151.45,143.62,143.66,41.11,-146.79,0,4.27,1,nu,MCAS,D,501,Q3,1.6,Q3,200,Q3,0,-99999,-99999,0,0.1,13,0.17,13,Abercrombie_etal_2000&HarvardCMT,0.029163508,0.029289583,0.029482,0.029776081,0.030196657,0.035081181,0.039250113,0.069508336,0.068025263,0.07183371,0.079138338,0.088898549,0.086778765,0.050393984,0.063362569,0.027125721,0.033037723,0.009110817,0.004787447,0.004556147,-99999,-99999,0.028991,0.02629
608810,1994-06-18T03:25:13.819000Z,K94112A1,6.72,0.08,Crustal,R,1,221,47,112,geonet,-43.0078,171.4762,-43.1325,171.7693,5798820.69,2385786.14,5785358,2409884,21.06,21.06,27.55,28.04,23.3,23.35,-22.93,-5.65,0,4.27,1,fw,112B,C,667,Q3,0.36,Q3,60,Q3,0,-99999,-99999,1,0.35,18,0.595,18,Abercrombie_etal_2000&HarvardCMT,0.144028743,0.144616165,0.145829922,0.14804895,0.152312678,0.207247648,0.34374625,0.343918579,0.37354949,0.431541904,0.378989245,0.267654023,0.241876449,0.134494217,0.092432572,0.044144462,-99999,-99999,-99999,-99999,-99999,-99999,0.144006,0.10634
697172,1994-12-15T11:20:17.858000Z,K5113A01,6.31,0.15,Crustal,S,0,194,77,-1.61E+02,geonet,-37.1987,177.528,-37.8735,177.5847,6434683.68,2912134.85,6359624,2913365,13.1,13.1,75.2,76.03,70.88,72.17,-99999,-99999,10,12,5.68,nu,113A,C,522,Q3,0.15,Q3,10,Q3,0,-99999,-99999,1,0.5,11,0.85,11,HarvardCMT,0.085675123,0.086093462,0.086739475,0.087712423,0.089326204,0.096767245,0.115817166,0.177165764,0.345896006,0.378871644,0.220403295,0.167934605,0.078953507,0.033915887,0.02279103,-99999,-99999,-99999,-99999,-99999,-99999,-99999,0.08527,0.04349
731516,1995-02-05T22:51:04.665000Z,D5016A02,7.09,0.15,Crustal,N,0,215,58,-9.00E+01,geonet,-37.6496,179.4886,-38.6774,178.031,6374193.93,3082358.22,6268431,2947608,32.2,32.2,171.17,171.73,155.42,156.01,-99999,-99999,0,12,1.73,nu,016A,C,480,Q3,0.15,Q3,10,Q3,0,-99999,-99999,0,0.35,14,0.595,14,HarvardCMT,0.021935802,0.022008932,0.022148231,0.022337714,0.022619402,0.023882703,0.028590605,0.041303813,0.039091602,0.039744935,0.054506119,0.059056281,0.07319444,0.050282757,0.026836839,0.013147574,-99999,-99999,-99999,-99999,-99999,-99999,0.021937,0.01344
731516,1995-02-05T22:51:04.665000Z,D5017A02,7.09,0.15,Crustal,N,0,215,58,-9.00E+01,geonet,-37.6496,179.4886,-38.6665,178.0227,6374193.93,3082358.22,6269685,2946952,32.2,32.2,170.91,171.47,155.18,155.77,-99999,-99999,0,12,1.73,nu,GISS,D,138,Q2,1,Q1,40,Q3,0,-99999,-99999,0,0.18,12,0.306,12,HarvardCMT,0.026392045,0.02644212,0.026535974,0.026661673,0.026851691,0.027657387,0.030825318,0.035847754,0.056372243,0.050924702,0.054943692,0.055906078,0.058037689,0.09322421,0.052522877,0.016275405,0.008917044,0.003963552,-99999,-99999,-99999,-99999,0.026361,0.02795
731516,1995-02-05T22:51:04.665000Z,D5709A03,7.09,0.15,Crustal,N,0,215,58,-9.00E+01,geonet,-37.6496,179.4886,-38.6257,177.9216,6374193.93,3082358.22,6274694,2938413,32.2,32.2,174.82,175.4,159.22,159.85,-99999,-99999,0,12,1.73,nu,GWTS,D,245,Q3,1.5,Q3,125,Q3,0,-99999,-99999,0,0.15,10,0.255,10,HarvardCMT,0.023477141,0.023527334,0.023600808,0.02369917,0.02384587,0.024408532,0.025047186,0.026995419,0.041965637,0.045144333,0.051090947,0.049795578,0.052426474,0.071582061,0.057560834,0.074970694,0.045411966,0.021845923,-99999,-99999,-99999,-99999,0.023476,0.04919
731516,1995-02-05T22:51:04.665000Z,D5712A03,7.09,0.15,Crustal,N,0,215,58,-9.00E+01,geonet,-37.6496,179.4886,-37.9615,176.9855,6374193.93,3082358.22,6352382,2860270,32.2,32.2,222.62,223.48,209.17,210.15,-99999,-99999,0,12,1.73,nu,WKHS,D,210,Q3,0.71,Q2,100,Q3,0,-99999,-99999,0,0.25,12,0.425,12,HarvardCMT,0.018991363,0.019032499,0.019103417,0.019186985,0.019353535,0.020477751,0.023704989,0.034513863,0.032842833,0.036688964,0.043942099,0.054119103,0.078189229,0.03794698,0.021863715,0.009645481,0.005829387,-99999,-99999,-99999,-99999,-99999,0.01896,0.01629
731516,1995-02-05T22:51:04.665000Z,K5113A02,7.09,0.15,Crustal,N,0,215,58,-9.00E+01,geonet,-37.6496,179.4886,-37.8735,177.5847,6374193.93,3082358.22,6359624,2913365,32.2,32.2,169.2,170.05,155.84,156.86,-99999,-99999,0,12,1.73,nu,113A,C,522,Q3,0.15,Q3,10,Q3,0,-99999,-99999,1,0.4,11,0.68,11,HarvardCMT,0.041295118,0.041502451,0.041862183,0.042388899,0.043087337,0.045386081,0.050346162,0.085203804,0.185250986,0.2085067,0.146198497,0.092292312,0.052352516,0.029204929,0.015796013,-99999,-99999,-99999,-99999,-99999,-99999,-99999,0.041305,0.01747
721911,1995-02-10T01:44:56.764000Z,D5016A04,6.49,0.15,Crustal,N,0,220,41,-7.80E+01,fdsn,-38.1086,178.6757,-38.6774,178.031,6344659.25,3005555.26,6268431,2947608,16.2,16.2,84.6,96.52,87.77,88.47,-99999,-99999,0,12,6.26,nu,016A,C,480,Q3,0.15,Q3,10,Q3,0,-99999,-99999,1,0.3,10,0.51,10,HarvardCMT,0.01479244,0.014843935,0.014924675,0.015019725,0.015167318,0.015686414,0.016594548,0.023439405,0.033455782,0.031273173,0.040912466,0.039464008,0.047105325,0.032044555,0.020930985,0.011332451,-99999,-99999,-99999,-99999,-99999,-99999,0.014791,0.01111
721911,1995-02-10T01:44:56.764000Z,D5017A03,6.49,0.15,Crustal,N,0,220,41,-7.80E+01,fdsn,-38.1086,178.6757,-38.6665,178.0227,6344659.25,3005555.26,6269685,2946952,16.2,16.2,84.19,95.91,87.18,87.87,-99999,-99999,0,12,6.26,nu,GISS,D,138,Q2,1,Q1,40,Q3,0,-99999,-99999,1,0.2,10,0.34,10,HarvardCMT,0.018346828,0.018379318,0.018408755,0.018480345,0.018557966,0.018914785,0.022200468,0.030567911,0.035890453,0.044264025,0.049627812,0.038785147,0.049876242,0.04178722,0.03704282,0.018936102,0.008577175,-99999,-99999,-99999,-99999,-99999,0.018328,0.01793
722185,1995-03-22T19:43:30.268000Z,D5040A01,5.83,0.15,Slab,S,0,27,64,30,nlloc,-41.0514,174.216,-41.5763,175.2269,6016538.56,2612205.51,5956588,2695679,7.6,7.6,102.64,133.7,100.01,131.33,-99999,-99999,0,85.51,82.13,nu,040A,B,770,Q3,0.08,Q3,7,Q3,0,-99999,-99999,1,0.25,22,0.425,22,HarvardCMT,0.027179248,0.027983888,0.029553278,0.033970337,0.051536367,0.072639144,0.099911488,0.067366589,0.05388279,0.069204378,0.045787288,0.020023933,0.016847995,0.009460377,0.005507587,0.004098201,0.003148417,-99999,-99999,-99999,-99999,-99999,0.02682,0.006983
722185,1995-03-22T19:43:30.268000Z,D5050A02,5.83,0.15,Slab,S,0,27,64,30,nlloc,-41.0514,174.216,-41.1247,173.0095,6016538.56,2612205.51,6009109,2510784,7.6,7.6,101.44,132.87,98.42,129.2,-99999,-99999,0,85.51,82.13,nu,MOTS,D,300,Q3,1.27,Q3,300,Q3,0,-99999,-99999,0,0.3,25,0.51,25,HarvardCMT,0.075384269,0.076603655,0.078997575,0.084979166,0.115821442,0.185651548,0.209182236,0.200859053,0.333408382,0.304706908,0.24555095,0.184216735,0.094947477,0.032366211,0.0178576,0.015827126,-99999,-99999,-99999,-99999,-99999,-99999,0.075138,0.03805
722185,1995-03-22T19:43:30.268000Z,D5056A02,5.83,0.15,Slab,S,0,27,64,30,nlloc,-41.0514,174.216,-41.2758,173.2851,6016538.56,2612205.51,5992292,2533876,7.6,7.6,81.82,118.48,78.7,114.72,-99999,-99999,0,85.51,82.13,nu,056A,B,450,Q3,0.07,Q3,5,Q3,0,-99999,-99999,0,0.3,15,0.51,15,HarvardCMT,0.232707544,0.234375686,0.237224981,0.241529705,0.247958163,0.295428876,0.317832584,0.490593456,0.561198362,0.656747017,0.63720779,0.336367877,0.199551722,0.087152718,0.027053462,0.016392721,-99999,-99999,-99999,-99999,-99999,-99999,0.230826,0.09704
722185,1995-03-22T19:43:30.268000Z,D5129A01,5.83,0.15,Slab,S,0,27,64,30,nlloc,-41.0514,174.216,-41.7999,172.328,6016538.56,2612205.51,5933893,2454147,7.6,7.6,178.06,197.87,174.9,194.27,-99999,-99999,0,85.51,82.13,nu,MCAS,D,501,Q3,1.6,Q3,200,Q3,0,-99999,-99999,0,0.3,17,0.51,17,HarvardCMT,0.041221709,0.041583726,0.042179136,0.043084434,0.044481569,0.053358534,0.079587596,0.095006819,0.131667959,0.108162501,0.122745585,0.067467261,0.057378197,0.028458833,0.032850902,0.013822035,-99999,-99999,-99999,-99999,-99999,-99999,0.041213,0.02076
722185,1995-03-22T19:43:30.268000Z,D5130B01,5.83,0.15,Slab,S,0,27,64,30,nlloc,-41.0514,174.216,-41.6696,173.2029,6016538.56,2612205.51,5948576,2526890,7.6,7.6,108.97,138.82,105.86,135.11,-99999,-99999,0,85.51,82.13,nu,130B,D,367,Q3,0.85,Q3,100,Q3,0,-99999,-99999,1,0.4,24,0.68,24,HarvardCMT,0.022462842,0.023175132,0.024499957,0.027497145,0.050085072,0.080016968,0.074972707,0.057906546,0.039091564,0.047222547,0.045507231,0.037298139,0.016177719,0.014263144,0.005176777,-99999,-99999,-99999,-99999,-99999,-99999,-99999,0.021519,0.008189
722185,1995-03-22T19:43:30.268000Z,D5131A06,5.83,0.15,Slab,S,0,27,64,30,nlloc,-41.0514,174.216,-40.9143,175.005,6016538.56,2612205.51,6030534,2678862,7.6,7.6,67.96,109.33,64.87,106.63,-99999,-99999,0,85.51,82.13,nu,PAPS,D,200,Q3,1.4,Q1,100,Q3,0,-99999,-99999,0,0.45,18,0.765,18,HarvardCMT,0.065616092,0.066676479,0.068516425,0.071517018,0.076868914,0.115698955,0.154641969,0.180930475,0.166384749,0.197126038,0.127667889,0.113953812,0.065044497,0.033921301,0.024383713,-99999,-99999,-99999,-99999,-99999,-99999,-99999,0.065627,0.02032
722185,1995-03-22T19:43:30.268000Z,D5132A05,5.83,0.15,Slab,S,0,27,64,30,nlloc,-41.0514,174.216,-41.2975,174.781,6016538.56,2612205.51,5988401,2659132,7.6,7.6,54.63,101.53,52,98.73,-99999,-99999,0,85.51,82.13,nu,132A,C,245,Q2,0.47,Q2,27,Q2,0,-99999,-99999,0,0.3,15,0.51,15,HarvardCMT,0.059722218,0.060431591,0.061846697,0.064540093,0.068622241,0.094646287,0.175085499,0.254727529,0.160210109,0.109793332,0.117427364,0.099705123,0.112074742,0.045103232,0.014035081,0.011098521,-99999,-99999,-99999,-99999,-99999,-99999,0.059286,0.02664
722185,1995-03-22T19:43:30.268000Z,D5302A03,5.83,0.15,Slab,S,0,27,64,30,nlloc,-41.0514,174.216,-39.9338,175.053,6016538.56,2612205.51,6139282,2685450,7.6,7.6,143.02,166.57,140.12,164.23,-99999,-99999,0,85.51,82.13,nu,302A,D,250,Q2,0.8,Q3,80,Q3,0,-99999,-99999,0,0.4,18,0.68,18,HarvardCMT,0.028740196,0.02899278,0.029450423,0.030282557,0.032081813,0.052695748,0.091044715,0.085633428,0.082935259,0.098070878,0.099057597,0.090618621,0.075289397,0.031064911,0.016823826,-99999,-99999,-99999,-99999,-99999,-99999,-99999,0.028644,0.01905
