CuspID,Origin_time,Record,Mw,MwUncert,TectClass,Mech,PreferredFaultPlane,Strike,Dip,Rake,Location,HypLat,HypLon,StationLat,StationLon,HypN,HypE,StationN,StationE,LENGTH_km,WIDTH_km,Repi_km,Rhyp_km,Rjb_km,Rrup_km,Rx_km,Ry_km,Rvol_km,HypDepth_km,ZTOR_km,HWFW,SiteCode,SiteClass1170,Vs30,Vs30Uncert,Tsite,TsiteUncert,Z1,Z1Uncertainty,Directivity,Pulse_or,Pulse_T,S_Trigger_Flag,fcButterHP,f_iniLP,fmin,fmax,References,f100.0000SA_LHC,f50.0000SA_LHC,f33.3333SA_LHC,f25.0000SA_LHC,f20.0000SA_LHC,f13.3333SA_LHC,f10.0000SA_LHC,f6.6667SA_LHC,f5.0000SA_LHC,f4.0000SA_LHC,f3.3333SA_LHC,f2.5000SA_LHC,f2.0000SA_LHC,f1.3333SA_LHC,f1.0000SA_LHC,f0.6667SA_LHC,f0.5000SA_LHC,f0.3333SA_LHC,f0.2500SA_LHC,f0.2000SA_LHC,f0.1333SA_LHC,f0.1000SA_LHC,PGA_LHC,PGV_LHC
2359081,2005-01-31T17:31:53.470999Z,I05465B13,5.1,0.06,Interface,R,1,267,38,164,nlloc,-41.4249,175.709,-41.2058,174.9544,5972260.68,2736400.47,5998271,2673878,4.43,4.43,67.57,69.02,65.44,67.01,30.99,61.08,0,13.32,11.96,nu,DAVS,C,600,Q3,0.1,Q3,5,Q3,0,-99999,-99999,0,0.25,20,0.425,20,Ristau2013&HarvardCMT,0.035602108,0.035767836,0.036091609,0.036587252,0.037834025,0.042293777,0.043311156,0.057439639,0.062129391,0.082458474,0.129649723,0.08547396,0.031769238,0.018500615,0.014544916,0.00314322,0.001773506,-99999,-99999,-99999,-99999,-99999,0.035484,0.01808
2359081,2005-01-31T17:31:53.470999Z,I05467A10,5.1,0.06,Interface,R,1,267,38,164,nlloc,-41.4249,175.709,-41.2425,174.9024,5972260.68,2736400.47,5994293,2669430,4.43,4.43,70.34,71.75,68.19,69.69,27.25,65.73,0,13.32,11.96,nu,467A,D,218,Q3,1.5,Q3,200,Q3,0,-99999,-99999,0,0.27,14,0.459,14,Ristau2013&HarvardCMT,0.016699964,0.016804249,0.016981729,0.017224019,0.017545319,0.019387285,0.022993066,0.034134365,0.058339526,0.050676487,0.031694295,0.053133322,0.030098162,0.021467397,0.017588484,0.006961238,0.001930773,-99999,-99999,-99999,-99999,-99999,0.016697,0.01094
2359081,2005-01-31T17:31:53.470999Z,I05468A09,5.1,0.06,Interface,R,1,267,38,164,nlloc,-41.4249,175.709,-41.2011,174.9547,5972260.68,2736400.47,5998793,2673916,4.43,4.43,67.74,69.18,65.61,67.17,31.51,61.01,0,13.32,11.96,nu,468A,D,190,Q1,0.9,Q3,50,Q3,0,-99999,-99999,0,0.3,17,0.51,17,Ristau2013&HarvardCMT,0.029714383,0.02993744,0.030355538,0.030948872,0.031902822,0.034567618,0.045139514,0.103256068,0.069447268,0.072746304,0.104454553,0.075810484,0.036067911,0.035626707,0.035254396,0.00563605,-99999,-99999,-99999,-99999,-99999,-99999,0.029664,0.01778
2359081,2005-01-31T17:31:53.470999Z,I05642G14,5.1,0.06,Interface,R,1,267,38,164,nlloc,-41.4249,175.709,-41.235,174.9172,5972260.68,2736400.47,5995098,2670688,4.43,4.43,69.41,70.83,67.26,68.79,27.99,64.43,0,13.32,11.96,nu,642G,C,350,Q1,0.35,Q2,50,Q3,0,-99999,-99999,0,0.25,18,0.425,18,Ristau2013&HarvardCMT,0.037887785,0.038161938,0.038550401,0.039117498,0.039887245,0.04876483,0.064205491,0.094777517,0.085329459,0.082742666,0.104886326,0.080830833,0.027250926,0.011181118,0.006226872,0.001986032,0.001267013,-99999,-99999,-99999,-99999,-99999,0.037798,0.01689
2359081,2005-01-31T17:31:53.470999Z,I05646B11,5.1,0.06,Interface,R,1,267,38,164,nlloc,-41.4249,175.709,-41.2574,174.9485,5972260.68,2736400.47,5992552,2673256,4.43,4.43,66.17,67.67,64.01,65.62,25.31,62,0,13.32,11.96,nu,WDAS,E,120,Q1,1.6,Q2,62,Q2,0,-99999,-99999,0,0.25,18,0.425,18,Ristau2013&HarvardCMT,0.015561568,0.01564032,0.015840336,0.01613511,0.016627012,0.01715813,0.01716892,0.028026289,0.044075034,0.043513105,0.058109804,0.047671267,0.024225674,0.041704693,0.045620726,0.009403545,0.003273769,-99999,-99999,-99999,-99999,-99999,0.015566,0.01628
2359081,2005-01-31T17:31:53.470999Z,I05918C11,5.1,0.06,Interface,R,1,267,38,164,nlloc,-41.4249,175.709,-41.284,174.7682,5972260.68,2736400.47,5989908,2658140,4.43,4.43,80.07,81.35,77.9,79.23,23.46,77.23,0,13.32,11.96,nu,WEL,B,1000,Q3,0.3,Q1,0,Q2,0,-99999,-99999,0,0.3,21,0.51,21,Ristau2013&HarvardCMT,0.007931851,0.008001484,0.008122412,0.008313186,0.008736514,0.01091854,0.014463695,0.026214286,0.032481209,0.022392837,0.018606182,0.013551617,0.007727292,0.006556625,0.003783298,0.001133024,-99999,-99999,-99999,-99999,-99999,-99999,0.0079,0.004099
2366369,2005-02-17T21:31:09.762000Z,D05302A02,4.62,0.1,Crustal,R,0,43,70,77,simulps,-39.894,174.6308,-39.9338,175.053,6144453.04,2649466.16,6139282,2685450,1.9,1.9,36.27,48.28,35.52,47.6,-99999,-99999,0,31.75,31.12,nu,302A,D,250,Q2,0.8,Q3,80,Q3,0,-99999,-99999,0,0.6,20,1.02,20,Ristau2013,0.02821274,0.028628077,0.029457111,0.031372115,0.040825913,0.041341463,0.05178018,0.079346654,0.067762729,0.057765371,0.073810757,0.066341178,0.04374331,0.016529329,-99999,-99999,-99999,-99999,-99999,-99999,-99999,-99999,0.028216,0.01722
2376455,2005-03-13T15:08:13.134000Z,I05464A11,5.36,0.06,Slab,U,0,317,86,-6.70E+01,simulps,-40.1015,173.5983,-41.2308,174.9135,6122550.1,2561016.88,5995572,2670389,4.4,4.4,167.54,225.47,165.43,223.9,-99999,-99999,0,150.82,149.29,nu,464A,D,210,Q3,1.2,Q3,170,Q3,0,-99999,-99999,1,0.3,18,0.51,18,Ristau2013&HarvardCMT,0.014382903,0.014499534,0.014796811,0.015553697,0.016801924,0.023071024,0.030411948,0.03439839,0.041462336,0.033634178,0.053018334,0.045803124,0.028437514,0.008044462,0.005787915,0.002250921,-99999,-99999,-99999,-99999,-99999,-99999,0.014353,0.007967
2376455,2005-03-13T15:08:13.134000Z,I05467A13,5.36,0.06,Slab,U,0,317,86,-6.70E+01,simulps,-40.1015,173.5983,-41.2425,174.9024,6122550.1,2561016.88,5994293,2669430,4.4,4.4,167.9,225.73,165.79,224.16,-99999,-99999,0,150.82,149.29,nu,467A,D,218,Q3,1.5,Q3,200,Q3,0,-99999,-99999,0,0.35,13,0.595,13,Ristau2013&HarvardCMT,0.019639626,0.019781926,0.020035795,0.020392573,0.020862935,0.025151215,0.025973352,0.048008086,0.101887051,0.034978327,0.035245981,0.046212555,0.038388739,0.012107353,0.006891391,0.005779635,-99999,-99999,-99999,-99999,-99999,-99999,0.019633,0.0101
2376455,2005-03-13T15:08:13.134000Z,I05468A10,5.36,0.06,Slab,U,0,317,86,-6.70E+01,simulps,-40.1015,173.5983,-41.2011,174.9547,6122550.1,2561016.88,5998793,2673916,4.4,4.4,167.45,225.41,165.34,223.85,-99999,-99999,0,150.82,149.29,nu,468A,D,190,Q1,0.9,Q3,50,Q3,0,-99999,-99999,1,0.5,21,0.85,21,Ristau2013&HarvardCMT,0.021429323,0.021513853,0.021656709,0.021731996,0.024161022,0.025077825,0.037304997,0.053048681,0.089433581,0.064897592,0.059038959,0.046578576,0.035370892,0.012645577,0.013004549,-99999,-99999,-99999,-99999,-99999,-99999,-99999,0.021376,0.01061
2376455,2005-03-13T15:08:13.134000Z,I05603B01,5.36,0.06,Slab,U,0,317,86,-6.70E+01,simulps,-40.1015,173.5983,-41.2237,174.86,6122550.1,2561016.88,5996453,2665923,4.4,4.4,164,222.83,161.89,221.28,-99999,-99999,0,150.82,149.29,nu,603B,B,1000,Q3,<0.1,Q3,0,Q3,0,-99999,-99999,1,0.4,15,0.68,15,Ristau2013&HarvardCMT,0.015427321,0.015529598,0.015737299,0.016038867,0.016491012,0.016260795,0.02089392,0.036994007,0.057854815,0.030840933,0.036773416,0.027046381,0.01212136,0.003754227,0.002207729,-99999,-99999,-99999,-99999,-99999,-99999,-99999,0.015392,0.006608
2376455,2005-03-13T15:08:13.134000Z,I05642G18,5.36,0.06,Slab,U,0,317,86,-6.70E+01,simulps,-40.1015,173.5983,-41.235,174.9172,6122550.1,2561016.88,5995098,2670688,4.4,4.4,168.1,225.88,165.99,224.31,-99999,-99999,0,150.82,149.29,nu,642G,C,350,Q1,0.35,Q2,50,Q3,0,-99999,-99999,0,0.35,24.5,0.595,24.5,Ristau2013&HarvardCMT,0.024776875,0.025087893,0.025652841,0.026674124,0.027390728,0.030691948,0.037965187,0.09148873,0.082037583,0.038935796,0.059858914,0.054421075,0.026509521,0.006787777,0.002797083,0.001200414,-99999,-99999,-99999,-99999,-99999,-99999,0.024699,0.008846
2376455,2005-03-13T15:08:13.134000Z,I05646B13,5.36,0.06,Slab,U,0,317,86,-6.70E+01,simulps,-40.1015,173.5983,-41.2574,174.9485,6122550.1,2561016.88,5992552,2673256,4.4,4.4,171.7,228.63,169.59,227.05,-99999,-99999,0,150.82,149.29,nu,WDAS,E,120,Q1,1.6,Q2,62,Q2,0,-99999,-99999,0,0.3,20,0.51,20,Ristau2013&HarvardCMT,0.025280886,0.02534332,0.025466808,0.025661293,0.026225379,0.029774178,0.030175078,0.048941146,0.065627808,0.04563638,0.070322295,0.079870626,0.050244439,0.019271118,0.020120195,0.006990113,-99999,-99999,-99999,-99999,-99999,-99999,0.02528,0.0192
2376455,2005-03-13T15:08:13.134000Z,I05918C13,5.36,0.06,Slab,U,0,317,86,-6.70E+01,simulps,-40.1015,173.5983,-41.284,174.7682,6122550.1,2561016.88,5989908,2658140,4.4,4.4,164.37,223.19,162.26,221.64,-99999,-99999,0,150.82,149.29,nu,WEL,B,1000,Q3,0.3,Q1,0,Q2,0,-99999,-99999,0,0.3,30,0.51,30,Ristau2013&HarvardCMT,0.016772164,0.016928905,0.017217374,0.017464624,0.019947454,0.026150891,0.024286318,0.048127624,0.073967257,0.027310731,0.03820133,0.031739169,0.019663884,0.004050584,0.002159144,0.00144846,-99999,-99999,-99999,-99999,-99999,-99999,0.016565,0.00554
2388847,2005-04-11T07:51:37.085000Z,I05464A12,4.31,0.1,Slab,S,0,81,77,25,simulps,-41.6702,174.523,-41.2308,174.9135,5947427.6,2636809.75,5995572,2670389,1.3,1.3,58.7,66.92,58.24,66.45,-99999,-99999,0,32.13,31.51,nu,464A,D,210,Q3,1.2,Q3,170,Q3,0,-99999,-99999,0,0.6,20,1.02,20,Ristau2013,0.005455178,0.005566651,0.005780762,0.006172651,0.007030973,0.012657431,0.011902823,0.012184274,0.01189083,0.012667952,0.013388313,0.01942548,0.007956536,0.003249842,-99999,-99999,-99999,-99999,-99999,-99999,-99999,-99999,0.005422,0.003192
2388847,2005-04-11T07:51:37.085000Z,I05467A14,4.31,0.1,Slab,S,0,81,77,25,simulps,-41.6702,174.523,-41.2425,174.9024,5947427.6,2636809.75,5994293,2669430,1.3,1.3,57.11,65.52,56.64,65.05,-99999,-99999,0,32.13,31.51,nu,467A,D,218,Q3,1.5,Q3,200,Q3,0,-99999,-99999,0,0.6,15,1.02,15,Ristau2013,0.004037958,0.004065681,0.004114189,0.004186466,0.004285853,0.00511577,0.007248059,0.009398592,0.014938636,0.007806315,0.005899385,0.010881144,0.009737257,0.003076983,-99999,-99999,-99999,-99999,-99999,-99999,-99999,-99999,0.004031,0.002601
2388847,2005-04-11T07:51:37.085000Z,I05468A11,4.31,0.1,Slab,S,0,81,77,25,simulps,-41.6702,174.523,-41.2011,174.9547,5947427.6,2636809.75,5998793,2673916,1.3,1.3,63.37,71.05,62.9,70.58,-99999,-99999,0,32.13,31.51,nu,468A,D,190,Q1,0.9,Q3,50,Q3,0,-99999,-99999,0,0.6,15,1.02,15,Ristau2013,0.006249823,0.006306297,0.006401424,0.006532363,0.006688382,0.009288236,0.011269589,0.013525939,0.016823232,0.015656209,0.018137732,0.012665501,0.011112278,0.00830584,-99999,-99999,-99999,-99999,-99999,-99999,-99999,-99999,0.006216,0.002989
2388847,2005-04-11T07:51:37.085000Z,I05642G21,4.31,0.1,Slab,S,0,81,77,25,simulps,-41.6702,174.523,-41.235,174.9172,5947427.6,2636809.75,5995098,2670688,1.3,1.3,58.49,66.73,58.02,66.26,-99999,-99999,0,32.13,31.51,nu,642G,C,350,Q1,0.35,Q2,50,Q3,0,-99999,-99999,0,0.6,28,1.02,28,Ristau2013,0.007899195,0.007981193,0.008134237,0.008078014,0.009343031,0.010753279,0.017430117,0.01462698,0.016478482,0.022630345,0.028339131,0.019232209,0.008087208,0.002529736,-99999,-99999,-99999,-99999,-99999,-99999,-99999,-99999,0.007855,0.004304
2388847,2005-04-11T07:51:37.085000Z,I05646B14,4.31,0.1,Slab,S,0,81,77,25,simulps,-41.6702,174.523,-41.2574,174.9485,5947427.6,2636809.75,5992552,2673256,1.3,1.3,58,66.35,57.53,65.89,-99999,-99999,0,32.13,31.51,nu,WDAS,E,120,Q1,1.6,Q2,62,Q2,0,-99999,-99999,0,0.5,20,0.85,20,Ristau2013,0.004255549,0.004289247,0.004357247,0.004483283,0.004909274,0.005866142,0.006574155,0.009861626,0.007320143,0.010082025,0.011179847,0.010312144,0.008466005,0.005520963,0.005724524,-99999,-99999,-99999,-99999,-99999,-99999,-99999,0.004247,0.002736
2388847,2005-04-11T07:51:37.085000Z,I05918C14,4.31,0.1,Slab,S,0,81,77,25,simulps,-41.6702,174.523,-41.284,174.7682,5947427.6,2636809.75,5989908,2658140,1.3,1.3,47.55,57.45,47.09,56.95,-99999,-99999,0,32.13,31.51,nu,WEL,B,1000,Q3,0.3,Q1,0,Q2,0,-99999,-99999,0,0.6,24.5,1.02,24.5,Ristau2013,0.013766849,0.014643569,0.016382396,0.019643721,0.032433013,0.057689099,0.029950221,0.012168101,0.01209039,0.015323198,0.012949879,0.006719715,0.005965509,0.002419839,-99999,-99999,-99999,-99999,-99999,-99999,-99999,-99999,0.013323,0.00225
2480685,2005-11-01T05:39:50.929999Z,I05918C34,4.53,0.1,Crustal,S,0,250,74,-1.59E+02,simulps,-41.6872,174.1785,-41.284,174.7682,5945984.83,2608099.66,5989908,2658140,1.7,1.7,66.5,67.3,65.93,66.69,-99999,-99999,0,9.63,8.83,nu,WEL,B,1000,Q3,0.3,Q1,0,Q2,0,-99999,-99999,0,0.45,18,0.765,18,Ristau2013,0.003394617,0.003417969,0.003464337,0.003541297,0.003694317,0.004475512,0.004969166,0.009236924,0.008576967,0.008291015,0.010206501,0.00652151,0.00347901,0.000883737,0.000441164,-99999,-99999,-99999,-99999,-99999,-99999,-99999,0.003389,0.001533
2499328,2005-12-13T08:09:47.911000Z,I05464A14,4.24,0.1,Slab,N,0,203,70,-9.70E+01,simulps,-41.0992,174.866,-41.2308,174.9135,6010272.19,2666724.27,5995572,2670389,1.2,1.2,15.17,35.53,14.63,35.16,-99999,-99999,0,32.13,31.74,nu,464A,D,210,Q3,1.2,Q3,170,Q3,0,-99999,-99999,0,0.35,20,0.595,20,Ristau2013,0.043543381,0.044733251,0.046867537,0.050263329,0.058143947,0.10019853,0.131688751,0.064553621,0.042052119,0.037646483,0.04186539,0.02927472,0.017946359,0.006491194,0.003651867,0.00127866,-99999,-99999,-99999,-99999,-99999,-99999,0.042987,0.008834
2499328,2005-12-13T08:09:47.911000Z,I05468A14,4.24,0.1,Slab,N,0,203,70,-9.70E+01,simulps,-41.0992,174.866,-41.2011,174.9547,6010272.19,2666724.27,5998793,2673916,1.2,1.2,13.55,34.88,13.07,34.55,-99999,-99999,0,32.13,31.74,nu,468A,D,190,Q1,0.9,Q3,50,Q3,0,-99999,-99999,0,0.4,40,0.68,40,Ristau2013,0.04528734,0.046976915,0.052272657,0.062072131,0.066028107,0.11946164,0.148344367,0.099829119,0.08824174,0.057633302,0.033097982,0.0187898,0.015880981,0.008250286,0.006443948,-99999,-99999,-99999,-99999,-99999,-99999,-99999,0.045056,0.01204
2499328,2005-12-13T08:09:47.911000Z,I05602C03,4.24,0.1,Slab,N,0,203,70,-9.70E+01,simulps,-41.0992,174.866,-41.1903,174.928,6010272.19,2666724.27,6000041,2671703,1.2,1.2,11.38,34.11,10.89,33.77,-99999,-99999,0,32.13,31.74,nu,602C,B,1000,Q3,<0.1,Q3,0,Q3,0,-99999,-99999,0,0.5,40,0.85,40,Ristau2013,0.014232861,0.014533994,0.016044225,0.018838259,0.020711344,0.057506004,0.051220899,0.036219795,0.030799062,0.019733233,0.011804995,0.006541078,0.004767436,0.002754978,0.001557418,-99999,-99999,-99999,-99999,-99999,-99999,-99999,0.014159,0.003568
2499328,2005-12-13T08:09:47.911000Z,I05603B05,4.24,0.1,Slab,N,0,203,70,-9.70E+01,simulps,-41.0992,174.866,-41.2237,174.86,6010272.19,2666724.27,5996453,2665923,1.2,1.2,13.86,34.99,13.28,34.6,-99999,-99999,0,32.13,31.74,nu,603B,B,1000,Q3,<0.1,Q3,0,Q3,0,-99999,-99999,0,0.6,24.5,1.02,24.5,Ristau2013,0.009300483,0.00950848,0.009909544,0.010622514,0.014191522,0.018886786,0.016619972,0.026696067,0.020406894,0.016087989,0.0106164,0.00766301,0.004531475,0.002212167,-99999,-99999,-99999,-99999,-99999,-99999,-99999,-99999,0.009222,0.002843
2499328,2005-12-13T08:09:47.911000Z,I05651A01,4.24,0.1,Slab,N,0,203,70,-9.70E+01,simulps,-41.0992,174.866,-41.2047,174.9233,6010272.19,2666724.27,5998451,2671274,1.2,1.2,12.68,34.54,12.16,34.19,-99999,-99999,0,32.13,31.74,nu,651A,D,330,Q2,1,Q3,120,Q3,0,-99999,-99999,0,0.33,30,0.561,30,Ristau2013,0.021851841,0.022280851,0.023041879,0.025449544,0.02862882,0.040810524,0.062756573,0.047213039,0.041388413,0.03611375,0.02850107,0.010340906,0.006958158,0.00401294,0.002690806,0.000699641,-99999,-99999,-99999,-99999,-99999,-99999,0.021733,0.005013
2499328,2005-12-13T08:09:47.911000Z,I05918C37,4.24,0.1,Slab,N,0,203,70,-9.70E+01,simulps,-41.0992,174.866,-41.284,174.7682,6010272.19,2666724.27,5989908,2658140,1.2,1.2,22.12,39.11,21.52,38.66,-99999,-99999,0,32.13,31.74,nu,WEL,B,1000,Q3,0.3,Q1,0,Q2,0,-99999,-99999,0,0.43,26,0.731,26,Ristau2013,0.030874273,0.031437889,0.032342684,0.035154305,0.044598356,0.048356027,0.095152703,0.108286323,0.063021156,0.030872417,0.021689195,0.011977428,0.00505258,0.004573954,0.001886398,-99999,-99999,-99999,-99999,-99999,-99999,-99999,0.030591,0.008974
2567873,2006-05-14T17:32:37.615999Z,I06464A04,4.54,0.1,Slab,S,0,219,82,-1.68E+02,simulps,-40.914,174.4445,-41.2308,174.9135,6031501.19,2631663.43,5995572,2670389,1.7,1.7,52.78,80.69,52.29,79.92,-99999,-99999,0,60.99,60.15,nu,464A,D,210,Q3,1.2,Q3,170,Q3,0,-99999,-99999,0,0.6,20,1.02,20,Ristau2013,0.00622448,0.00635555,0.006590389,0.006952244,0.007232535,0.011699157,0.019512161,0.016137632,0.011622963,0.011428886,0.011936449,0.013105564,0.008730824,0.00250924,-99999,-99999,-99999,-99999,-99999,-99999,-99999,-99999,0.006145,0.002361
2567873,2006-05-14T17:32:37.615999Z,I06465B06,4.54,0.1,Slab,S,0,219,82,-1.68E+02,simulps,-40.914,174.4445,-41.2058,174.9544,6031501.19,2631663.43,5998271,2673878,1.7,1.7,53.67,81.29,53.18,80.51,-99999,-99999,0,60.99,60.15,nu,DAVS,C,600,Q3,0.1,Q3,5,Q3,0,-99999,-99999,0,0.8,20,1.36,20,Ristau2013,0.008583653,0.008695084,0.008886964,0.009161105,0.010070358,0.014552224,0.018234828,0.026781029,0.024470283,0.013479555,0.008372429,0.005772669,0.004553182,-99999,-99999,-99999,-99999,-99999,-99999,-99999,-99999,-99999,0.008555,0.002205
2567873,2006-05-14T17:32:37.615999Z,I06467A07,4.54,0.1,Slab,S,0,219,82,-1.68E+02,simulps,-40.914,174.4445,-41.2425,174.9024,6031501.19,2631663.43,5994293,2669430,1.7,1.7,52.98,80.82,52.48,80.04,-99999,-99999,0,60.99,60.15,nu,467A,D,218,Q3,1.5,Q3,200,Q3,0,-99999,-99999,0,0.67,18,1.139,18,Ristau2013,0.005576827,0.00561832,0.00569571,0.00583158,0.006132823,0.007862041,0.012682688,0.019026578,0.023606298,0.009760379,0.007268512,0.009088703,0.008219527,0.002513489,-99999,-99999,-99999,-99999,-99999,-99999,-99999,-99999,0.005567,0.002364
2567873,2006-05-14T17:32:37.615999Z,I06468A04,4.54,0.1,Slab,S,0,219,82,-1.68E+02,simulps,-40.914,174.4445,-41.2011,174.9547,6031501.19,2631663.43,5998793,2673916,1.7,1.7,53.37,81.09,52.89,80.31,-99999,-99999,0,60.99,60.15,nu,468A,D,190,Q1,0.9,Q3,50,Q3,0,-99999,-99999,1,0.65,20,1.105,20,Ristau2013,0.013888296,0.014084968,0.01446511,0.01509176,0.01618639,0.023733929,0.033016427,0.045138833,0.036249639,0.018828826,0.015525978,0.009086639,0.013023923,0.004533273,-99999,-99999,-99999,-99999,-99999,-99999,-99999,-99999,0.013833,0.003498
2567873,2006-05-14T17:32:37.615999Z,I06602C02,4.54,0.1,Slab,S,0,219,82,-1.68E+02,simulps,-40.914,174.4445,-41.1903,174.928,6031501.19,2631663.43,6000041,2671703,1.7,1.7,50.87,79.47,50.38,78.69,-99999,-99999,0,60.99,60.15,nu,602C,B,1000,Q3,<0.1,Q3,0,Q3,0,-99999,-99999,0,0.6,35,1.02,35,Ristau2013,0.005364401,0.00550641,0.00579826,0.006665729,0.006002599,0.015102499,0.012153152,0.012948142,0.013524299,0.014147743,0.009386009,0.003113287,0.00330894,0.000839036,-99999,-99999,-99999,-99999,-99999,-99999,-99999,-99999,0.005319,0.001822
2567873,2006-05-14T17:32:37.615999Z,I06605B05,4.54,0.1,Slab,S,0,219,82,-1.68E+02,simulps,-40.914,174.4445,-41.2074,174.9401,6031501.19,2631663.43,5998119,2672679,1.7,1.7,52.83,80.77,52.34,79.99,-99999,-99999,0,60.99,60.15,nu,FAIS,B,760,Q3,0.27,Q1,0,Q2,0,-99999,-99999,0,0.9,24.5,1.53,24.5,Ristau2013,0.004855676,0.00492773,0.005058999,0.005333901,0.005651413,0.007647312,0.0111423,0.013578252,0.011018504,0.007757842,0.003894636,0.002060651,0.002269481,-99999,-99999,-99999,-99999,-99999,-99999,-99999,-99999,-99999,0.004826,0.001285
2567873,2006-05-14T17:32:37.615999Z,I06642G10,4.54,0.1,Slab,S,0,219,82,-1.68E+02,simulps,-40.914,174.4445,-41.235,174.9172,6031501.19,2631663.43,5995098,2670688,1.7,1.7,53.33,81.05,52.83,80.27,-99999,-99999,0,60.99,60.15,nu,642G,C,350,Q1,0.35,Q2,50,Q3,0,-99999,-99999,0,0.9,20,1.53,20,Ristau2013,0.010737642,0.010896229,0.011186805,0.011552305,0.012067498,0.022520308,0.024319632,0.031292692,0.020567104,0.017068892,0.016773893,0.008065307,0.003983049,-99999,-99999,-99999,-99999,-99999,-99999,-99999,-99999,-99999,0.010693,0.002681
2567873,2006-05-14T17:32:37.615999Z,I06651A06,4.54,0.1,Slab,S,0,219,82,-1.68E+02,simulps,-40.914,174.4445,-41.2047,174.9233,6031501.19,2631663.43,5998451,2671274,1.7,1.7,51.54,79.89,51.05,79.1,-99999,-99999,0,60.99,60.15,nu,651A,D,330,Q2,1,Q3,120,Q3,0,-99999,-99999,0,0.6,18,1.02,18,Ristau2013,0.004012479,0.004067486,0.004162461,0.004335035,0.004782256,0.010274962,0.011663438,0.01219119,0.015641066,0.013486459,0.011478493,0.004892511,0.003105197,0.001892042,-99999,-99999,-99999,-99999,-99999,-99999,-99999,-99999,0.003998,0.001281
