CuspID,Origin_time,Record,Mw,MwUncert,TectClass,Mech,PreferredFaultPlane,Strike,Dip,Rake,Location,HypLat,HypLon,StationLat,StationLon,HypN,HypE,StationN,StationE,LENGTH_km,WIDTH_km,Repi_km,Rhyp_km,Rjb_km,Rrup_km,Rx_km,Ry_km,Rvol_km,HypDepth_km,ZTOR_km,HWFW,SiteCode,SiteClass1170,Vs30,Vs30Uncert,Tsite,TsiteUncert,Z1,Z1Uncertainty,Directivity,Pulse_or,Pulse_T,S_Trigger_Flag,fcButterHP,f_iniLP,fmin,fmax,References,f100.0000SA_LHC,f50.0000SA_LHC,f33.3333SA_LHC,f25.0000SA_LHC,f20.0000SA_LHC,f13.3333SA_LHC,f10.0000SA_LHC,f6.6667SA_LHC,f5.0000SA_LHC,f4.0000SA_LHC,f3.3333SA_LHC,f2.5000SA_LHC,f2.0000SA_LHC,f1.3333SA_LHC,f1.0000SA_LHC,f0.6667SA_LHC,f0.5000SA_LHC,f0.3333SA_LHC,f0.2500SA_LHC,f0.2000SA_LHC,f0.1333SA_LHC,f0.1000SA_LHC,PGA_LHC,PGV_LHC
1348340,1999-01-03T07:00:20.568000Z,G9713A02,5.22,0.15,Slab,N,1,211,80,-8.30E+01,nlloc,-41.0938,174.519,-41.1257,174.8392,6011432.3,2637591.18,6007373,2664412,3.7,3.7,27.06,62.84,26.34,61.02,-24.76,-10.33,0,56.68,54.84,nu,713A,D,210,Q3,0.6,Q3,40,Q3,0,-99999,-99999,0,0.6,12.5,1.02,12.5,HarvardCMT,0.027778396,0.027965169,0.028299778,0.028781956,0.029455525,0.031565253,0.04377748,0.063340922,0.062219225,0.041706395,0.042587891,0.036325739,0.059811726,0.046405809,-99999,-99999,-99999,-99999,-99999,-99999,-99999,-99999,0.027727,0.0125
1348340,1999-01-03T07:00:20.568000Z,I9467A03,5.22,0.15,Slab,N,1,211,80,-8.30E+01,nlloc,-41.0938,174.519,-41.2425,174.9024,6011432.3,2637591.18,5994293,2669430,3.7,3.7,36.1,67.24,35.77,65.51,-35.79,-1.71,0,56.68,54.84,nu,467A,D,218,Q3,1.5,Q3,200,Q3,0,-99999,-99999,0,0.35,18,0.595,18,HarvardCMT,0.021626105,0.021693963,0.021806265,0.021991334,0.022552794,0.030239248,0.025686814,0.032972906,0.053626443,0.03593323,0.037676742,0.056857652,0.063001476,0.039041004,0.024005406,0.007027438,-99999,-99999,-99999,-99999,-99999,-99999,0.0216,0.02163
1348340,1999-01-03T07:00:20.568000Z,I9468A01,5.22,0.15,Slab,N,1,211,80,-8.30E+01,nlloc,-41.0938,174.519,-41.2011,174.9547,6011432.3,2637591.18,5998793,2673916,3.7,3.7,38.38,68.5,37.91,66.79,-37.32,-7.87,0,56.68,54.84,nu,468A,D,190,Q1,0.9,Q3,50,Q3,0,-99999,-99999,0,0.3,20,0.51,20,HarvardCMT,0.035375709,0.035984648,0.037172111,0.039402387,0.047373926,0.07713679,0.11675227,0.119174496,0.115750148,0.074900869,0.073571313,0.060168878,0.043894253,0.042340993,0.044680261,0.011993777,-99999,-99999,-99999,-99999,-99999,-99999,0.035392,0.01877
1348340,1999-01-03T07:00:20.568000Z,I9602C01,5.22,0.15,Slab,N,1,211,80,-8.30E+01,nlloc,-41.0938,174.519,-41.1903,174.928,6011432.3,2637591.18,6000041,2671703,3.7,3.7,35.89,67.15,35.4,65.41,-34.78,-7.8,0,56.68,54.84,nu,602C,B,1000,Q3,<0.1,Q3,0,Q3,0,-99999,-99999,0,0.3,40,0.51,40,HarvardCMT,0.016502417,0.016705875,0.017231526,0.019972683,0.020451122,0.030632803,0.033910302,0.030287383,0.029164528,0.022212848,0.014493086,0.023210178,0.016432653,0.010220825,0.007577736,0.003284451,-99999,-99999,-99999,-99999,-99999,-99999,0.016432,0.007103
1348340,1999-01-03T07:00:20.568000Z,I9603B02,5.22,0.15,Slab,N,1,211,80,-8.30E+01,nlloc,-41.0938,174.519,-41.2237,174.86,6011432.3,2637591.18,5996453,2665923,3.7,3.7,31.99,65.12,31.66,63.36,-31.67,-1.75,0,56.68,54.84,nu,603B,B,1000,Q3,<0.1,Q3,0,Q3,0,-99999,-99999,0,0.19,55,0.323,55,HarvardCMT,0.008731405,0.009057016,0.008934288,0.010236775,0.011147221,0.01409917,0.015119975,0.03192514,0.019516522,0.011924929,0.009558292,0.012639376,0.010663413,0.009384197,0.006564126,0.002782386,0.001114656,0.000458311,-99999,-99999,-99999,-99999,0.008695,0.005282
1348340,1999-01-03T07:00:20.568000Z,I9605B22,5.22,0.15,Slab,N,1,211,80,-8.30E+01,nlloc,-41.0938,174.519,-41.2074,174.9401,6011432.3,2637591.18,5998119,2672679,3.7,3.7,37.45,68.03,37.01,66.31,-36.61,-6.66,0,56.68,54.84,nu,FAIS,B,760,Q3,0.27,Q1,0,Q2,0,-99999,-99999,0,0.3,45,0.51,45,HarvardCMT,0.013669246,0.013938592,0.01386189,0.01644383,0.019313332,0.018726715,0.030310195,0.035846649,0.026758679,0.021263884,0.025687871,0.030051067,0.019430584,0.010785964,0.005990144,0.002122601,-99999,-99999,-99999,-99999,-99999,-99999,0.013558,0.008239
1348340,1999-01-03T07:00:20.568000Z,I9606B03,5.22,0.15,Slab,N,1,211,80,-8.30E+01,nlloc,-41.0938,174.519,-41.2333,174.9199,6011432.3,2637591.18,5995282,2670919,3.7,3.7,36.97,67.71,36.61,65.99,-36.56,-3.32,0,56.68,54.84,nu,606B,B,800,Q3,<0.1,Q3,0,Q3,0,-99999,-99999,0,0.18,52,0.306,52,HarvardCMT,0.017141459,0.018115761,0.017794065,0.021824341,0.022562915,0.035473718,0.034798498,0.028430451,0.020073402,0.021175076,0.021537608,0.016541356,0.009877102,0.00649984,0.003194795,0.001052102,0.00057994,0.000316448,-99999,-99999,-99999,-99999,0.016993,0.004218
1348340,1999-01-03T07:00:20.568000Z,I9640A06,5.22,0.15,Slab,N,1,211,80,-8.30E+01,nlloc,-41.0938,174.519,-41.235,174.9147,6011432.3,2637591.18,5995103,2670479,3.7,3.7,36.65,67.54,36.31,65.82,-36.28,-2.94,0,56.68,54.84,nu,640A,E,230,Q3,0.5,Q3,60,Q3,0,-99999,-99999,0,0.3,20,0.51,20,HarvardCMT,0.026557244,0.026807701,0.027267211,0.027992456,0.02985568,0.049002918,0.052674118,0.040258072,0.044636521,0.045237536,0.05705466,0.058218483,0.036252495,0.017186376,0.00914263,0.003145877,-99999,-99999,-99999,-99999,-99999,-99999,0.026514,0.01354
1348340,1999-01-03T07:00:20.568000Z,I9646B03,5.22,0.15,Slab,N,1,211,80,-8.30E+01,nlloc,-41.0938,174.519,-41.2574,174.9485,6011432.3,2637591.18,5992552,2673256,3.7,3.7,40.29,69.65,39.95,67.96,-39.97,-2.19,0,56.68,54.84,nu,WDAS,E,120,Q1,1.6,Q2,62,Q2,0,-99999,-99999,0,0.4,35,0.68,35,HarvardCMT,0.019065797,0.019270431,0.02138011,0.023117242,0.025932405,0.038440823,0.034571375,0.067169194,0.056929043,0.043461678,0.041387421,0.035779299,0.041558619,0.047604202,0.048221891,-99999,-99999,-99999,-99999,-99999,-99999,-99999,0.019062,0.02056
1348340,1999-01-03T07:00:20.568000Z,I9708A04,5.22,0.15,Slab,N,1,211,80,-8.30E+01,nlloc,-41.0938,174.519,-41.1314,174.8391,6011432.3,2637591.18,6006740,2664387,3.7,3.7,27.14,62.88,26.45,61.06,-25.06,-9.78,0,56.68,54.84,nu,POLS,C,250,Q2,0.4,Q1,25,Q2,0,-99999,-99999,0,0.25,20,0.425,20,HarvardCMT,0.017538183,0.017881156,0.018548154,0.019870426,0.0229082,0.03788989,0.034733751,0.053503695,0.041013131,0.048989952,0.052419031,0.022665022,0.020633749,0.018696711,0.008254629,0.002512292,0.001232042,-99999,-99999,-99999,-99999,-99999,0.017523,0.00828
1348340,1999-01-03T07:00:20.568000Z,I9918C01,5.22,0.15,Slab,N,1,211,80,-8.30E+01,nlloc,-41.0938,174.519,-41.284,174.7682,6011432.3,2637591.18,5989908,2658140,3.7,3.7,29.7,64.14,29.14,62.35,-28.37,7.87,0,56.68,54.84,nu,WEL,B,1000,Q3,0.3,Q1,0,Q2,0,-99999,-99999,0,0.35,35,0.595,35,HarvardCMT,0.022155587,0.022765657,0.024260095,0.02564842,0.029268873,0.057046536,0.051505688,0.082305372,0.05297276,0.032884702,0.017978667,0.018403108,0.014971866,0.005108695,0.005014684,0.002486679,-99999,-99999,-99999,-99999,-99999,-99999,0.022008,0.007422
1444773,1999-10-25T20:31:43.627000Z,D9014A02,6.02,0.15,Slab,O,0,158,54,35,nlloc,-38.5427,175.885,-39.4984,176.8761,6291620.32,2761553.77,6182359,2843283,9.4,9.4,136.47,204.75,133.03,201.69,-99999,-99999,0,152.66,148.68,nu,NCDS,E,162,Q3,1.25,Q2,110,Q3,0,-99999,-99999,1,0.25,14,0.425,14,HarvardCMT,0.043234695,0.043488947,0.043911494,0.044529181,0.045374376,0.053896329,0.066157662,0.113001159,0.1420656,0.159951013,0.085042734,0.064532976,0.057939653,0.117065232,0.038635741,0.018566774,0.012894535,-99999,-99999,-99999,-99999,-99999,0.042987,0.03236
1444773,1999-10-25T20:31:43.627000Z,D9027G06,6.02,0.15,Slab,O,0,158,54,35,nlloc,-38.5427,175.885,-39.4884,176.9189,6291620.32,2761553.77,6183307,2847012,9.4,9.4,137.97,205.77,134.56,202.73,-99999,-99999,0,152.66,148.68,nu,NAMS,C,268,Q3,0.4,Q3,20,Q3,0,-99999,-99999,1,0.25,12,0.425,12,HarvardCMT,0.016937595,0.017052211,0.017218126,0.017467257,0.017846661,0.020651162,0.029511106,0.056245845,0.086685437,0.062121214,0.040440481,0.038943133,0.029656623,0.019046615,0.010112566,0.010702739,0.006788602,-99999,-99999,-99999,-99999,-99999,0.016942,0.01087
1444773,1999-10-25T20:31:43.627000Z,D9029A04,6.02,0.15,Slab,O,0,158,54,35,nlloc,-38.5427,175.885,-39.6458,176.8429,6291620.32,2761553.77,6166127,2839726,9.4,9.4,147.92,212.53,144.4,209.52,-99999,-99999,0,152.66,148.68,nu,HCDS,D,182,Q2,>2,Q3,1000,Q3,0,-99999,-99999,1,0.2,10,0.34,10,HarvardCMT,0.018794352,0.018904687,0.019086167,0.019338474,0.019681905,0.021082141,0.024678781,0.030041995,0.045597382,0.039773535,0.051486955,0.040167633,0.036386109,0.060841439,0.023937385,0.013953441,0.011801494,-99999,-99999,-99999,-99999,-99999,0.018797,0.02057
1444773,1999-10-25T20:31:43.627000Z,D9302A06,6.02,0.15,Slab,O,0,158,54,35,nlloc,-38.5427,175.885,-39.9338,175.053,6291620.32,2761553.77,6139282,2685450,9.4,9.4,170.47,228.71,166.35,225.48,-99999,-99999,0,152.66,148.68,nu,302A,D,250,Q2,0.8,Q3,80,Q3,0,-99999,-99999,0,0.35,10,0.595,10,HarvardCMT,0.013572197,0.013603852,0.013652822,0.013712131,0.013805229,0.014148537,0.017224769,0.01856262,0.022592884,0.032288392,0.039078799,0.05054412,0.033430295,0.016826631,0.01210084,0.00452944,-99999,-99999,-99999,-99999,-99999,-99999,0.013537,0.01082
1444773,1999-10-25T20:31:43.627000Z,I9025A06,6.02,0.15,Slab,O,0,158,54,35,nlloc,-38.5427,175.885,-39.5851,174.2742,6291620.32,2761553.77,6179245,2619477,9.4,9.4,181.03,236.96,177.21,234.15,-99999,-99999,0,152.66,148.68,nu,HWHS,C,210,Q2,0.6,Q2,12,Q2,0,-99999,-99999,0,0.15,10,0.255,10,HarvardCMT,0.0057778,0.005783566,0.005797232,0.005815457,0.005839591,0.005939816,0.006185333,0.007311491,0.008268225,0.00814714,0.008747676,0.015241919,0.018781054,0.015983476,0.012919733,0.008581884,0.005199354,0.001932318,-99999,-99999,-99999,-99999,0.005782,0.008803
1444773,1999-10-25T20:31:43.627000Z,I9467A11,6.02,0.15,Slab,O,0,158,54,35,nlloc,-38.5427,175.885,-41.2425,174.9024,6291620.32,2761553.77,5994293,2669430,9.4,9.4,311.68,346.69,307.53,343.17,-99999,-99999,0,152.66,148.68,nu,467A,D,218,Q3,1.5,Q3,200,Q3,0,-99999,-99999,0,0.25,10,0.425,10,HarvardCMT,0.022999268,0.023051518,0.023148537,0.023281117,0.023457581,0.024261932,0.027965011,0.031602915,0.046900982,0.044076255,0.049048174,0.064712964,0.089520442,0.032193367,0.026255554,0.00615894,0.002919072,-99999,-99999,-99999,-99999,-99999,0.022915,0.01849
1444773,1999-10-25T20:31:43.627000Z,I9468A07,6.02,0.15,Slab,O,0,158,54,35,nlloc,-38.5427,175.885,-41.2011,174.9547,6291620.32,2761553.77,5998793,2673916,9.4,9.4,306.07,341.66,301.92,338.15,-99999,-99999,0,152.66,148.68,nu,468A,D,190,Q1,0.9,Q3,50,Q3,0,-99999,-99999,0,0.15,19,0.255,19,HarvardCMT,0.027475262,0.027571205,0.027731856,0.028030711,0.029102216,0.02929061,0.033710402,0.04797417,0.067272614,0.061503788,0.056077922,0.077125969,0.065053407,0.046998915,0.061800256,0.011562839,0.005238204,0.002054287,-99999,-99999,-99999,-99999,0.027411,0.02284
1444773,1999-10-25T20:31:43.627000Z,I9605B42,6.02,0.15,Slab,O,0,158,54,35,nlloc,-38.5427,175.885,-41.2074,174.9401,6291620.32,2761553.77,5998119,2672679,9.4,9.4,307.07,342.58,302.92,339.07,-99999,-99999,0,152.66,148.68,nu,FAIS,B,760,Q3,0.27,Q1,0,Q2,0,-99999,-99999,0,0.28,24.5,0.476,24.5,HarvardCMT,0.01068225,0.010718782,0.010750575,0.010949319,0.012171622,0.012738003,0.012729232,0.014412758,0.015961047,0.023408489,0.035203436,0.027497141,0.020660259,0.00795122,0.008553976,0.001619815,0.001123946,-99999,-99999,-99999,-99999,-99999,0.010683,0.007702
1444773,1999-10-25T20:31:43.627000Z,I9646B11,6.02,0.15,Slab,O,0,158,54,35,nlloc,-38.5427,175.885,-41.2574,174.9485,6291620.32,2761553.77,5992552,2673256,9.4,9.4,312.25,347.23,308.1,343.71,-99999,-99999,0,152.66,148.68,nu,WDAS,E,120,Q1,1.6,Q2,62,Q2,0,-99999,-99999,1,0.33,10,0.561,10,HarvardCMT,0.014617453,0.01462912,0.014638626,0.01466998,0.014671943,0.014719097,0.016350055,0.03118875,0.026552155,0.023935982,0.032201537,0.054772374,0.038713472,0.043924575,0.059222386,0.009230828,-99999,-99999,-99999,-99999,-99999,-99999,0.014628,0.01607
1444773,1999-10-25T20:31:43.627000Z,I9918C30,6.02,0.15,Slab,O,0,158,54,35,nlloc,-38.5427,175.885,-41.284,174.7682,6291620.32,2761553.77,5989908,2658140,9.4,9.4,319.35,353.65,315.2,350.13,-99999,-99999,0,152.66,148.68,nu,WEL,B,1000,Q3,0.3,Q1,0,Q2,0,-99999,-99999,0,0.3,24.5,0.51,24.5,HarvardCMT,0.009723038,0.009821074,0.009979985,0.010416548,0.01113617,0.018374857,0.021457525,0.03182823,0.026968337,0.012485795,0.020655017,0.018393201,0.011850956,0.006943664,0.006385889,0.002005094,-99999,-99999,-99999,-99999,-99999,-99999,0.009723,0.003834
1444773,1999-10-25T20:31:43.627000Z,I9926A14,6.02,0.15,Slab,O,0,158,54,35,nlloc,-38.5427,175.885,-39.4883,176.9169,6291620.32,2761553.77,6183331,2846839,9.4,9.4,137.85,205.71,134.43,202.67,-99999,-99999,0,152.66,148.68,nu,926A,C,651,Q3,0.07,Q3,5,Q3,0,-99999,-99999,1,0.18,19.5,0.306,19.5,HarvardCMT,0.01347221,0.013583477,0.013768084,0.014100044,0.014763863,0.018236276,0.027052171,0.03363637,0.055627639,0.048209265,0.048936572,0.02360275,0.028984625,0.014691026,0.007746318,0.010468463,0.007187738,0.00196561,-99999,-99999,-99999,-99999,0.013445,0.01171
1502698,2000-03-29T14:30:58.189000Z,D00131A01,5.25,0.15,Slab,N,0,54,14,-7.60E+01,nlloc,-41.0482,175.43,-40.9143,175.005,6014768.04,2714246.82,6030534,2678862,3.9,3.9,38.66,49.3,37.39,47.98,-99999,-99999,0,30.49,29.31,nu,PAPS,D,200,Q3,1.4,Q1,100,Q3,0,-99999,-99999,1,0.35,18,0.595,18,HarvardCMT,0.04577125,0.046518132,0.047862801,0.05051319,0.057444945,0.107014755,0.133747681,0.144984142,0.121953226,0.094472778,0.082949638,0.09587765,0.053749764,0.01581513,0.019012289,0.00764543,-99999,-99999,-99999,-99999,-99999,-99999,0.045749,0.0183
1502698,2000-03-29T14:30:58.189000Z,D00469A01,5.25,0.15,Slab,N,0,54,14,-7.60E+01,nlloc,-41.0482,175.43,-41.2117,174.9033,6014768.04,2714246.82,5997711,2669586,3.9,3.9,47.71,56.71,45.9,55.04,-99999,-99999,0,30.49,29.31,nu,LHES,D,240,Q3,1.16,Q3,280,Q3,0,-99999,-99999,0,0.25,14,0.425,14,HarvardCMT,0.029549615,0.029781611,0.0301931,0.030828865,0.031804086,0.039977234,0.044866104,0.042461265,0.069583718,0.095333546,0.063429824,0.074399968,0.038219604,0.0251043,0.010104223,0.009421005,0.00350106,-99999,-99999,-99999,-99999,-99999,0.029358,0.01614
1502698,2000-03-29T14:30:58.189000Z,D00643B01,5.25,0.15,Slab,N,0,54,14,-7.60E+01,nlloc,-41.0482,175.43,-41.1513,174.9794,6014768.04,2714246.82,6004275,2676112,3.9,3.9,39.46,50,37.7,48.39,-99999,-99999,0,30.49,29.31,nu,643B,B,1000,Q3,<0.1,Q3,1.50E+00,Q3,0,-99999,-99999,0,0.4,22,0.68,22,HarvardCMT,0.052458549,0.052864894,0.053543171,0.05484376,0.055190467,0.076286351,0.081647764,0.099615571,0.239699541,0.260489881,0.160828789,0.095454567,0.045346556,0.014248594,0.008269002,-99999,-99999,-99999,-99999,-99999,-99999,-99999,0.052446,0.01957
1502698,2000-03-29T14:30:58.189000Z,D00644C01,5.25,0.15,Slab,N,0,54,14,-7.60E+01,nlloc,-41.0482,175.43,-41.2187,174.8826,6014768.04,2714246.82,5996970,2667828,3.9,3.9,49.61,58.32,47.8,56.64,-99999,-99999,0,30.49,29.31,nu,644C,D,189,Q3,2,Q3,250,Q3,0,-99999,-99999,0,0.35,16,0.595,16,HarvardCMT,0.035691514,0.035785089,0.035981554,0.036281469,0.036804144,0.040143736,0.05675044,0.079487337,0.070549313,0.091398482,0.100279526,0.146546977,0.086688931,0.030195163,0.011701264,0.007346142,-99999,-99999,-99999,-99999,-99999,-99999,0.035668,0.02375
1502698,2000-03-29T14:30:58.189000Z,D00900C01,5.25,0.15,Slab,N,0,54,14,-7.60E+01,nlloc,-41.0482,175.43,-41.2891,174.7799,6014768.04,2714246.82,5989335,2659058,3.9,3.9,60.65,67.99,58.81,66.25,-99999,-99999,0,30.49,29.31,nu,900C,D,250,Q3,0.8,Q3,60,Q3,0,-99999,-99999,1,0.75,12,1.275,12,HarvardCMT,0.044681958,0.044824585,0.045056788,0.04540975,0.045860266,0.048058318,0.046888418,0.080908657,0.089462666,0.096585381,0.111926212,0.167672298,0.069440822,0.025738401,-99999,-99999,-99999,-99999,-99999,-99999,-99999,-99999,0.044506,0.02325
1502698,2000-03-29T14:30:58.189000Z,G00646C02,5.25,0.15,Slab,N,0,54,14,-7.60E+01,nlloc,-41.0482,175.43,-41.2574,174.9485,6014768.04,2714246.82,5992552,2673256,3.9,3.9,46.55,55.76,44.68,54.05,-99999,-99999,0,30.49,29.31,nu,WDAS,E,120,Q1,1.6,Q2,62,Q2,0,-99999,-99999,0,0.45,20,0.765,20,HarvardCMT,0.029246569,0.029731849,0.030683403,0.032675172,0.044449198,0.069823026,0.069907067,0.071659273,0.082689557,0.073302583,0.106623244,0.104714807,0.049282232,0.023674347,0.016886547,-99999,-99999,-99999,-99999,-99999,-99999,-99999,0.029134,0.02293
1502698,2000-03-29T14:30:58.189000Z,I00467A02,5.25,0.15,Slab,N,0,54,14,-7.60E+01,nlloc,-41.0482,175.43,-41.2425,174.9024,6014768.04,2714246.82,5994293,2669430,3.9,3.9,49.18,57.95,47.34,56.25,-99999,-99999,0,30.49,29.31,nu,467A,D,218,Q3,1.5,Q3,200,Q3,0,-99999,-99999,0,0.3,24.5,0.51,24.5,HarvardCMT,0.033861938,0.034296558,0.034968302,0.034825801,0.047109491,0.04854341,0.06754426,0.093749602,0.116300029,0.058407473,0.049279223,0.076277609,0.052201801,0.029632596,0.017272591,0.009058899,-99999,-99999,-99999,-99999,-99999,-99999,0.033374,0.0158
1502698,2000-03-29T14:30:58.189000Z,I00468A03,5.25,0.15,Slab,N,0,54,14,-7.60E+01,nlloc,-41.0482,175.43,-41.2011,174.9547,6014768.04,2714246.82,5998793,2673916,3.9,3.9,43.29,53.03,41.47,51.37,-99999,-99999,0,30.49,29.31,nu,468A,D,190,Q1,0.9,Q3,50,Q3,0,-99999,-99999,0,0.3,20,0.51,20,HarvardCMT,0.076356623,0.077402823,0.079158017,0.081705182,0.092468164,0.107328011,0.133845348,0.270314292,0.247532689,0.160087887,0.102355699,0.072845176,0.072093772,0.0417404,0.033427408,0.014032872,-99999,-99999,-99999,-99999,-99999,-99999,0.075066,0.02649
1502698,2000-03-29T14:30:58.189000Z,I00602C01,5.25,0.15,Slab,N,0,54,14,-7.60E+01,nlloc,-41.0482,175.43,-41.1903,174.928,6014768.04,2714246.82,6000041,2671703,3.9,3.9,44.92,54.39,43.13,52.73,-99999,-99999,0,30.49,29.31,nu,602C,B,1000,Q3,<0.1,Q3,0,Q3,0,-99999,-99999,1,0.25,45,0.425,45,HarvardCMT,0.03851478,0.038809222,0.040342192,0.041457929,0.038891722,0.0522926,0.053257196,0.061520384,0.071934007,0.121002439,0.11850063,0.089705205,0.038763827,0.015652923,0.007683906,0.003948494,0.001903442,-99999,-99999,-99999,-99999,-99999,0.03843,0.01991
1502698,2000-03-29T14:30:58.189000Z,I00603B01,5.25,0.15,Slab,N,0,54,14,-7.60E+01,nlloc,-41.0482,175.43,-41.2237,174.86,6014768.04,2714246.82,5996453,2665923,3.9,3.9,51.57,60.01,49.76,58.32,-99999,-99999,0,30.49,29.31,nu,603B,B,1000,Q3,<0.1,Q3,0,Q3,0,-99999,-99999,0,0.25,16,0.425,16,HarvardCMT,0.010692611,0.010767192,0.010912408,0.011132938,0.011834766,0.01968188,0.018974629,0.020513832,0.040613814,0.047474686,0.026606737,0.017411161,0.022237221,0.006290068,0.004742347,0.003830019,0.001616172,-99999,-99999,-99999,-99999,-99999,0.010673,0.004949
1502698,2000-03-29T14:30:58.189000Z,I00605B03,5.25,0.15,Slab,N,0,54,14,-7.60E+01,nlloc,-41.0482,175.43,-41.2074,174.9401,6014768.04,2714246.82,5998119,2672679,3.9,3.9,44.69,54.21,42.87,52.54,-99999,-99999,0,30.49,29.31,nu,FAIS,B,760,Q3,0.27,Q1,0,Q2,0,-99999,-99999,0,0.25,50,0.425,50,HarvardCMT,0.015643375,0.015942232,0.015804596,0.017541351,0.020584457,0.031639977,0.03235199,0.055356003,0.045962885,0.049876099,0.049898656,0.049633193,0.023757014,0.006751491,0.003514777,0.002957408,0.001269923,-99999,-99999,-99999,-99999,-99999,0.015535,0.008118
1502698,2000-03-29T14:30:58.189000Z,I00606B05,5.25,0.15,Slab,N,0,54,14,-7.60E+01,nlloc,-41.0482,175.43,-41.2333,174.9199,6014768.04,2714246.82,5995282,2670919,3.9,3.9,47.42,56.45,45.58,54.76,-99999,-99999,0,30.49,29.31,nu,606B,B,800,Q3,<0.1,Q3,0,Q3,0,-99999,-99999,0,0.6,45,1.02,45,HarvardCMT,0.022309859,0.0236592,0.024480112,0.032731116,0.042746545,0.0726548,0.056720069,0.05795515,0.044275328,0.033110566,0.039097942,0.02577842,0.017130619,0.003928856,-99999,-99999,-99999,-99999,-99999,-99999,-99999,-99999,0.022018,0.006358
1502698,2000-03-29T14:30:58.189000Z,I00640A06,5.25,0.15,Slab,N,0,54,14,-7.60E+01,nlloc,-41.0482,175.43,-41.235,174.9147,6014768.04,2714246.82,5995103,2670479,3.9,3.9,47.89,56.85,46.05,55.16,-99999,-99999,0,30.49,29.31,nu,640A,E,230,Q3,0.5,Q3,60,Q3,0,-99999,-99999,0,0.32,24.5,0.544,24.5,HarvardCMT,0.058766613,0.059474102,0.060859303,0.063922901,0.06094959,0.082071534,0.135904805,0.125691857,0.12351773,0.241780378,0.226795608,0.085069806,0.049108945,0.012832189,0.006061447,0.003396208,-99999,-99999,-99999,-99999,-99999,-99999,0.058491,0.02233
