CuspID,Origin_time,Record,Mw,MwUncert,TectClass,Mech,PreferredFaultPlane,Strike,Dip,Rake,Location,HypLat,HypLon,StationLat,StationLon,HypN,HypE,StationN,StationE,LENGTH_km,WIDTH_km,Repi_km,Rhyp_km,Rjb_km,Rrup_km,Rx_km,Ry_km,Rvol_km,HypDepth_km,ZTOR_km,HWFW,SiteCode,SiteClass1170,Vs30,Vs30Uncert,Tsite,TsiteUncert,Z1,Z1Uncertainty,Directivity,Pulse_or,Pulse_T,S_Trigger_Flag,fcButterHP,f_iniLP,fmin,fmax,References,f100.0000SA_RotD50,f50.0000SA_RotD50,f33.3333SA_RotD50,f25.0000SA_RotD50,f20.0000SA_RotD50,f13.3333SA_RotD50,f10.0000SA_RotD50,f6.6667SA_RotD50,f5.0000SA_RotD50,f4.0000SA_RotD50,f3.3333SA_RotD50,f2.5000SA_RotD50,f2.0000SA_RotD50,f1.3333SA_RotD50,f1.0000SA_RotD50,f0.6667SA_RotD50,f0.5000SA_RotD50,f0.3333SA_RotD50,f0.2500SA_RotD50,f0.2000SA_RotD50,f0.1333SA_RotD50,f0.1000SA_RotD50,f100.0000SA_RotD100,f50.0000SA_RotD100,f33.3333SA_RotD100,f25.0000SA_RotD100,f20.0000SA_RotD100,f13.3333SA_RotD100,f10.0000SA_RotD100,f6.6667SA_RotD100,f5.0000SA_RotD100,f4.0000SA_RotD100,f3.3333SA_RotD100,f2.5000SA_RotD100,f2.0000SA_RotD100,f1.3333SA_RotD100,f1.0000SA_RotD100,f0.6667SA_RotD100,f0.5000SA_RotD100,f0.3333SA_RotD100,f0.2500SA_RotD100,f0.2000SA_RotD100,f0.1333SA_RotD100,f0.1000SA_RotD100,PGA_RotD50,PGA_RotD100,PGV_RotD50,PGV_RotD100
771645,1995-11-24T06:18:56.622999Z,D5505A37,6.19,0.08,Crustal,O,1,176,46,44,geonet,-42.953,171.8188,-42.9489,171.5677,5805359.34,2413627.76,5805487,2393135,11.44,11.44,20.44,22,18.34,21,22.52,-1.56,0,7.26,5.1,hw,APPS,C,300,Q2,0.4,Q1,30,Q2,0,-99999,-99999,0,0.29,20,0.493,20,Gledhill_etal_2000,0.133679744,0.135194579,0.137631796,0.142115481,0.210956531,0.309816517,0.382065595,0.465410596,0.796439683,0.386993176,0.32219882,0.46234923,0.345701582,0.133627981,0.060162925,0.020996544,0.012935176,-99999,-99999,-99999,-99999,-99999,0.150158389,0.152555201,0.157122184,0.163921647,0.249249726,0.335002272,0.535884408,0.535209151,1.088731258,0.439162572,0.44327834,0.649463169,0.407881911,0.16091467,0.081317871,0.026007437,0.017036992,-99999,-99999,-99999,-99999,-99999,0.132025,0.149811,0.066529,0.086571
771645,1995-11-24T06:18:56.622999Z,D6051D01,6.19,0.08,Crustal,O,1,176,46,44,geonet,-42.953,171.8188,-41.7557,171.5998,5805359.34,2413627.76,5938069,2393545,11.44,11.44,134.35,134.42,128.36,128.45,12.86,-133.79,0,7.26,5.1,nu,WBCS,D,300,Q3,1.2,Q2,105,Q3,0,-99999,-99999,0,0.2,20,0.34,20,Gledhill_etal_2000,0.018578165,0.018702172,0.018863231,0.01926312,0.023769786,0.044886895,0.036823767,0.06710161,0.064583542,0.05486336,0.081296063,0.05341487,0.069809898,0.047889085,0.059328649,0.024721622,0.009920718,-99999,-99999,-99999,-99999,-99999,0.023429744,0.023612079,0.023939892,0.024393231,0.027224695,0.049747307,0.040025362,0.079037172,0.079367876,0.063891116,0.087489988,0.056157927,0.092163905,0.057557476,0.082410877,0.032267472,0.01351215,-99999,-99999,-99999,-99999,-99999,0.018493,0.023427,0.015306,0.017548
771645,1995-11-24T06:18:56.622999Z,D6129A01,6.19,0.08,Crustal,O,1,176,46,44,geonet,-42.953,171.8188,-41.7999,172.328,5805359.34,2413627.76,5933893,2454147,11.44,11.44,134.87,134.97,129.24,129.34,-47.3,-125.39,0,7.26,5.1,nu,MCAS,D,501,Q3,1.6,Q3,200,Q3,0,-99999,-99999,1,0.2,10,0.34,10,Gledhill_etal_2000,0.018072156,0.018098635,0.018175608,0.018245961,0.018345178,0.018677201,0.023272391,0.031255333,0.047038117,0.048532202,0.070202692,0.082663692,0.069724061,0.053043035,0.067084316,0.047002517,0.020399604,-99999,-99999,-99999,-99999,-99999,0.022487342,0.022536892,0.02260398,0.022643267,0.02275344,0.023186733,0.028128597,0.038636057,0.054404618,0.060074757,0.075435727,0.111584017,0.081242853,0.058971123,0.073197861,0.055142647,0.026718289,-99999,-99999,-99999,-99999,-99999,0.018047,0.022471,0.028369,0.03326
771645,1995-11-24T06:18:56.622999Z,K5112B01,6.19,0.08,Crustal,O,1,176,46,44,geonet,-42.953,171.8188,-43.1325,171.7693,5805359.34,2413627.76,5785358,2409884,11.44,11.44,20.36,21.83,14.58,16.61,7.21,19.69,0,7.26,5.1,nu,112B,C,667,Q3,0.36,Q3,60,Q3,0,-99999,-99999,1,0.25,20,0.425,20,Gledhill_etal_2000,0.137299548,0.139697164,0.144544506,0.153496574,0.192720102,0.377816959,0.565581724,0.525658163,0.435283353,0.700945227,0.359675766,0.179523344,0.182429434,0.063305886,0.039801345,0.051198128,0.020812178,-99999,-99999,-99999,-99999,-99999,0.155584818,0.15810855,0.162598363,0.170250042,0.225116609,0.441953608,0.679762512,0.649290895,0.517446337,0.92344367,0.386629438,0.204916588,0.254602888,0.089534176,0.045957284,0.06804728,0.026104558,-99999,-99999,-99999,-99999,-99999,0.136134,0.153001,0.051684,0.068418
1037562,1996-08-29T04:47:00.878000Z,D6042A01,5.25,0.15,Crustal,S,0,317,67,-2.00E+01,geonet,-42.4891,172.7921,-42.5232,172.8305,5857551.8,2492912.82,5853765,2496076,3.9,3.9,4.93,10.98,3.66,9.43,-99999,-99999,0,9.43,7.61,nu,HSES,D,280,Q3,0.9,Q1,85,Q3,0,-99999,-99999,0,0.2,18,0.34,18,HarvardCMT,0.237052935,0.237583243,0.239025369,0.240752795,0.242989487,0.287075896,0.467140338,0.522592777,0.460230625,0.481947144,0.559239737,0.642338002,0.443598049,0.550386093,0.50503684,0.156215371,0.075355529,-99999,-99999,-99999,-99999,-99999,0.274830616,0.276407177,0.279203133,0.283967634,0.293878751,0.375906642,0.634186596,0.642630034,0.519354548,0.515607732,0.650451909,0.824665647,0.483872281,0.655618157,0.610984501,0.210336217,0.09372436,-99999,-99999,-99999,-99999,-99999,0.236709,0.274839,0.238508,0.283921
1348340,1999-01-03T07:00:20.568000Z,D9131A03,5.22,0.15,Slab,N,1,211,80,-8.30E+01,nlloc,-41.0938,174.519,-40.9143,175.005,6011432.3,2637591.18,6030534,2678862,3.7,3.7,45.4,72.68,43.85,70.85,-25.21,-37.63,0,56.68,54.84,nu,PAPS,D,200,Q3,1.4,Q1,100,Q3,0,-99999,-99999,0,0.4,15,0.68,15,HarvardCMT,0.025663973,0.026014974,0.026691843,0.027675332,0.02914911,0.046712571,0.07550471,0.133306471,0.108175621,0.058856559,0.044464934,0.033576943,0.037514649,0.027594479,0.023144025,-99999,-99999,-99999,-99999,-99999,-99999,-99999,0.027301395,0.027631321,0.028209787,0.02906507,0.030376248,0.054521776,0.08753957,0.181867722,0.146273561,0.070643906,0.047505413,0.047254909,0.04823609,0.033078216,0.02894496,-99999,-99999,-99999,-99999,-99999,-99999,-99999,0.025641,0.027261,0.012535,0.014003
1348340,1999-01-03T07:00:20.568000Z,D9469A01,5.22,0.15,Slab,N,1,211,80,-8.30E+01,nlloc,-41.0938,174.519,-41.2117,174.9033,6011432.3,2637591.18,5997711,2669586,3.7,3.7,34.75,66.53,34.35,64.79,-34.17,-4.72,0,56.68,54.84,nu,LHES,D,240,Q3,1.16,Q3,280,Q3,0,-99999,-99999,0,0.35,12.5,0.595,12.5,HarvardCMT,0.018480656,0.018538879,0.018640516,0.018829068,0.019108539,0.021953702,0.032226691,0.036875411,0.05471012,0.046654376,0.051685971,0.043052905,0.039871072,0.030994434,0.020385636,0.006592934,-99999,-99999,-99999,-99999,-99999,-99999,0.02613493,0.026217631,0.026362481,0.026610453,0.027025121,0.030940928,0.041771478,0.050628549,0.064572883,0.058689859,0.060698399,0.060885295,0.055224523,0.0401664,0.022207221,0.008774453,-99999,-99999,-99999,-99999,-99999,-99999,0.018481,0.026135,0.01573,0.02148
1348340,1999-01-03T07:00:20.568000Z,D9643B07,5.22,0.15,Slab,N,1,211,80,-8.30E+01,nlloc,-41.0938,174.519,-41.1513,174.9794,6011432.3,2637591.18,6004275,2676112,3.7,3.7,39.09,68.98,38.4,67.25,-36.38,-13.7,0,56.68,54.84,nu,643B,B,1000,Q3,<0.1,Q3,1.50E+00,Q3,0,-99999,-99999,0,0.45,18,0.765,18,HarvardCMT,0.027613053,0.028231718,0.02933747,0.031239528,0.034540367,0.067996533,0.076899449,0.123336636,0.149954683,0.048005145,0.025121056,0.019471558,0.01273181,0.011772378,0.007070117,-99999,-99999,-99999,-99999,-99999,-99999,-99999,0.03623661,0.036654159,0.037387857,0.03853199,0.040675865,0.074555949,0.093423547,0.15080101,0.185979567,0.065500134,0.02758117,0.021944876,0.017262468,0.013955284,0.008920621,-99999,-99999,-99999,-99999,-99999,-99999,-99999,0.027619,0.036236,0.008702,0.010464
1348340,1999-01-03T07:00:20.568000Z,D9644C05,5.22,0.15,Slab,N,1,211,80,-8.30E+01,nlloc,-41.0938,174.519,-41.2187,174.8826,6011432.3,2637591.18,5996970,2667828,3.7,3.7,33.46,65.85,33.1,64.1,-33.04,-3.18,0,56.68,54.84,nu,644C,D,189,Q3,2,Q3,250,Q3,0,-99999,-99999,0,0.3,18,0.51,18,HarvardCMT,0.019755549,0.019865343,0.020045329,0.020452761,0.021381893,0.038069593,0.045524534,0.041176728,0.061721689,0.027100303,0.034756311,0.065658554,0.05404351,0.021972682,0.01263618,0.005198995,-99999,-99999,-99999,-99999,-99999,-99999,0.027198306,0.027268896,0.027406936,0.027603593,0.028573123,0.052894258,0.050547691,0.05812829,0.084253703,0.037491671,0.04079585,0.079433142,0.068643864,0.025775825,0.016102664,0.006171836,-99999,-99999,-99999,-99999,-99999,-99999,0.019756,0.027164,0.011757,0.016601
1348340,1999-01-03T07:00:20.568000Z,D9900C01,5.22,0.15,Slab,N,1,211,80,-8.30E+01,nlloc,-41.0938,174.519,-41.2891,174.7799,6011432.3,2637591.18,5989335,2659058,3.7,3.7,30.79,64.52,30.25,62.73,-29.46,7.88,0,56.68,54.84,nu,900C,D,250,Q3,0.8,Q3,60,Q3,0,-99999,-99999,0,0.52,10,0.884,10,HarvardCMT,0.017130171,0.017235657,0.017384916,0.017636156,0.017999025,0.019454372,0.033118973,0.06365152,0.063588398,0.05467465,0.050617565,0.042412215,0.039429082,0.018076181,0.007759424,-99999,-99999,-99999,-99999,-99999,-99999,-99999,0.020908895,0.021081637,0.021362672,0.021851991,0.022542183,0.025955651,0.04256269,0.084727034,0.081708749,0.059090346,0.05651701,0.054990263,0.054887773,0.02404718,0.010889244,-99999,-99999,-99999,-99999,-99999,-99999,-99999,0.017089,0.02082,0.011181,0.013802
1348340,1999-01-03T07:00:20.568000Z,G9713A02,5.22,0.15,Slab,N,1,211,80,-8.30E+01,nlloc,-41.0938,174.519,-41.1257,174.8392,6011432.3,2637591.18,6007373,2664412,3.7,3.7,27.06,62.84,26.34,61.02,-24.76,-10.33,0,56.68,54.84,nu,713A,D,210,Q3,0.6,Q3,40,Q3,0,-99999,-99999,0,0.6,12.5,1.02,12.5,HarvardCMT,0.020879071,0.021095046,0.021494188,0.022223043,0.02306477,0.028348745,0.045640043,0.072890703,0.068400201,0.048855634,0.054377779,0.039371309,0.074230412,0.055113258,-99999,-99999,-99999,-99999,-99999,-99999,-99999,-99999,0.028206986,0.028404386,0.028740121,0.029235772,0.029904533,0.033572959,0.05064467,0.100742135,0.093230909,0.054680441,0.072658096,0.046753326,0.083568157,0.065985731,-99999,-99999,-99999,-99999,-99999,-99999,-99999,-99999,0.020826,0.028155,0.012396,0.013872
1348340,1999-01-03T07:00:20.568000Z,I9467A03,5.22,0.15,Slab,N,1,211,80,-8.30E+01,nlloc,-41.0938,174.519,-41.2425,174.9024,6011432.3,2637591.18,5994293,2669430,3.7,3.7,36.1,67.24,35.77,65.51,-35.79,-1.71,0,56.68,54.84,nu,467A,D,218,Q3,1.5,Q3,200,Q3,0,-99999,-99999,0,0.35,18,0.595,18,HarvardCMT,0.015965392,0.016023075,0.016237984,0.016541363,0.017401489,0.033254462,0.026424624,0.036450382,0.063824326,0.029395663,0.031578603,0.047203683,0.056511426,0.034390813,0.024057697,0.008138904,-99999,-99999,-99999,-99999,-99999,-99999,0.02204654,0.022126751,0.022250992,0.022443437,0.023150053,0.039787274,0.032766133,0.038624326,0.07327062,0.038991286,0.040937282,0.062944444,0.071969888,0.047502294,0.032472366,0.009647237,-99999,-99999,-99999,-99999,-99999,-99999,0.015965,0.021979,0.016572,0.021891
1348340,1999-01-03T07:00:20.568000Z,I9468A01,5.22,0.15,Slab,N,1,211,80,-8.30E+01,nlloc,-41.0938,174.519,-41.2011,174.9547,6011432.3,2637591.18,5998793,2673916,3.7,3.7,38.38,68.5,37.91,66.79,-37.32,-7.87,0,56.68,54.84,nu,468A,D,190,Q1,0.9,Q3,50,Q3,0,-99999,-99999,0,0.3,20,0.51,20,HarvardCMT,0.034265819,0.035024335,0.036351134,0.038706614,0.045533471,0.085589966,0.12889518,0.105969684,0.168858184,0.077554712,0.081269753,0.070131073,0.042609017,0.04878341,0.057256147,0.011323125,-99999,-99999,-99999,-99999,-99999,-99999,0.037355005,0.03815854,0.039645466,0.042228635,0.050273138,0.090680384,0.180960844,0.143962844,0.201994756,0.088022443,0.087105543,0.092191134,0.049486686,0.057234412,0.064945002,0.014683348,-99999,-99999,-99999,-99999,-99999,-99999,0.033923,0.037196,0.017852,0.019378
1348340,1999-01-03T07:00:20.568000Z,I9602C01,5.22,0.15,Slab,N,1,211,80,-8.30E+01,nlloc,-41.0938,174.519,-41.1903,174.928,6011432.3,2637591.18,6000041,2671703,3.7,3.7,35.89,67.15,35.4,65.41,-34.78,-7.8,0,56.68,54.84,nu,602C,B,1000,Q3,<0.1,Q3,0,Q3,0,-99999,-99999,0,0.3,40,0.51,40,HarvardCMT,0.012076251,0.012308139,0.015682587,0.016611658,0.016294723,0.035763107,0.044037747,0.024619768,0.031048176,0.024346506,0.020555025,0.020318798,0.020034397,0.007523909,0.007408434,0.002757373,-99999,-99999,-99999,-99999,-99999,-99999,0.016507476,0.01670124,0.017599016,0.020608694,0.020239971,0.041007915,0.057914495,0.034662823,0.034553172,0.03289379,0.022011674,0.028552649,0.025803877,0.010325112,0.009800954,0.003830606,-99999,-99999,-99999,-99999,-99999,-99999,0.012032,0.01644,0.005437,0.007595
1348340,1999-01-03T07:00:20.568000Z,I9603B02,5.22,0.15,Slab,N,1,211,80,-8.30E+01,nlloc,-41.0938,174.519,-41.2237,174.86,6011432.3,2637591.18,5996453,2665923,3.7,3.7,31.99,65.12,31.66,63.36,-31.67,-1.75,0,56.68,54.84,nu,603B,B,1000,Q3,<0.1,Q3,0,Q3,0,-99999,-99999,0,0.19,55,0.323,55,HarvardCMT,0.007814814,0.008417533,0.008385433,0.011395909,0.01068029,0.017211664,0.018581331,0.029713183,0.024883764,0.015692373,0.010934472,0.012621232,0.010975989,0.010334766,0.006085447,0.002598009,0.001110767,0.000379507,-99999,-99999,-99999,-99999,0.009799632,0.00997944,0.010142138,0.013981485,0.01153295,0.019472975,0.025000029,0.041973516,0.031860285,0.016782399,0.012736557,0.014944389,0.01361378,0.014463601,0.008521447,0.003542985,0.001567632,0.000479518,-99999,-99999,-99999,-99999,0.00778,0.00974,0.004733,0.0053
1348340,1999-01-03T07:00:20.568000Z,I9605B22,5.22,0.15,Slab,N,1,211,80,-8.30E+01,nlloc,-41.0938,174.519,-41.2074,174.9401,6011432.3,2637591.18,5998119,2672679,3.7,3.7,37.45,68.03,37.01,66.31,-36.61,-6.66,0,56.68,54.84,nu,FAIS,B,760,Q3,0.27,Q1,0,Q2,0,-99999,-99999,0,0.3,45,0.51,45,HarvardCMT,0.01141559,0.011836464,0.01220717,0.013831389,0.017923999,0.019009267,0.03823238,0.041883691,0.031750991,0.022093541,0.022093503,0.025466044,0.017016888,0.008379434,0.005072724,0.0021645,-99999,-99999,-99999,-99999,-99999,-99999,0.013869604,0.014194672,0.014243435,0.017084428,0.021550667,0.020923104,0.044353739,0.052025963,0.033929347,0.030941547,0.030813138,0.035062192,0.023678215,0.011581287,0.006503254,0.002380654,-99999,-99999,-99999,-99999,-99999,-99999,0.011282,0.013748,0.005969,0.008408
1348340,1999-01-03T07:00:20.568000Z,I9606B03,5.22,0.15,Slab,N,1,211,80,-8.30E+01,nlloc,-41.0938,174.519,-41.2333,174.9199,6011432.3,2637591.18,5995282,2670919,3.7,3.7,36.97,67.71,36.61,65.99,-36.56,-3.32,0,56.68,54.84,nu,606B,B,800,Q3,<0.1,Q3,0,Q3,0,-99999,-99999,0,0.18,52,0.306,52,HarvardCMT,0.012883381,0.013251699,0.014720293,0.024026217,0.021704335,0.044002182,0.038947355,0.035165965,0.026411875,0.019075038,0.020356056,0.014584267,0.010337825,0.005842534,0.003098594,0.001010272,0.000565548,0.000241317,-99999,-99999,-99999,-99999,0.01723966,0.018495034,0.017434723,0.025932985,0.026880999,0.052972104,0.046817895,0.043079197,0.029765474,0.026764783,0.026521918,0.019138566,0.014135702,0.007769113,0.00412847,0.001195455,0.000653771,0.000340848,-99999,-99999,-99999,-99999,0.012759,0.017084,0.004154,0.004607
1348340,1999-01-03T07:00:20.568000Z,I9640A06,5.22,0.15,Slab,N,1,211,80,-8.30E+01,nlloc,-41.0938,174.519,-41.235,174.9147,6011432.3,2637591.18,5995103,2670479,3.7,3.7,36.65,67.54,36.31,65.82,-36.28,-2.94,0,56.68,54.84,nu,640A,E,230,Q3,0.5,Q3,60,Q3,0,-99999,-99999,0,0.3,20,0.51,20,HarvardCMT,0.021831183,0.022168139,0.022726535,0.02336612,0.02666823,0.057211384,0.054085251,0.043668088,0.051516679,0.051881523,0.056113347,0.052709649,0.035787554,0.014340459,0.007588705,0.0024534,-99999,-99999,-99999,-99999,-99999,-99999,0.029035369,0.029407863,0.030045207,0.031126231,0.032971175,0.06197625,0.060750128,0.046135975,0.067631431,0.058923594,0.072274937,0.066840956,0.045013067,0.019545958,0.010134805,0.003297258,-99999,-99999,-99999,-99999,-99999,-99999,0.021522,0.029039,0.010105,0.014102
1348340,1999-01-03T07:00:20.568000Z,I9646B03,5.22,0.15,Slab,N,1,211,80,-8.30E+01,nlloc,-41.0938,174.519,-41.2574,174.9485,6011432.3,2637591.18,5992552,2673256,3.7,3.7,40.29,69.65,39.95,67.96,-39.97,-2.19,0,56.68,54.84,nu,WDAS,E,120,Q1,1.6,Q2,62,Q2,0,-99999,-99999,0,0.4,35,0.68,35,HarvardCMT,0.019624362,0.020080257,0.021737291,0.024807174,0.02541109,0.050150147,0.039477792,0.089916287,0.077298067,0.059848697,0.054332094,0.045719385,0.054286444,0.067330737,0.049494474,-99999,-99999,-99999,-99999,-99999,-99999,-99999,0.020569047,0.020895788,0.023639951,0.027410906,0.027122103,0.053341925,0.046784772,0.107967819,0.100583249,0.065566507,0.057809891,0.062295232,0.071490589,0.07273512,0.068506531,-99999,-99999,-99999,-99999,-99999,-99999,-99999,0.019566,0.020568,0.016838,0.020664
1348340,1999-01-03T07:00:20.568000Z,I9708A04,5.22,0.15,Slab,N,1,211,80,-8.30E+01,nlloc,-41.0938,174.519,-41.1314,174.8391,6011432.3,2637591.18,6006740,2664387,3.7,3.7,27.14,62.88,26.45,61.06,-25.06,-9.78,0,56.68,54.84,nu,POLS,C,250,Q2,0.4,Q1,25,Q2,0,-99999,-99999,0,0.25,20,0.425,20,HarvardCMT,0.01593085,0.016210689,0.016719462,0.017855898,0.021923674,0.047541272,0.036926401,0.068227202,0.043866278,0.054330496,0.054763227,0.02393322,0.026747159,0.017052677,0.007401044,0.001956647,0.000943906,-99999,-99999,-99999,-99999,-99999,0.020210862,0.020478467,0.020947498,0.022055191,0.024035073,0.059139393,0.041921924,0.088722015,0.055084852,0.071800127,0.071250535,0.028422637,0.032490909,0.023120821,0.009373475,0.002710514,0.001334875,-99999,-99999,-99999,-99999,-99999,0.015729,0.019999,0.007194,0.008358
1348340,1999-01-03T07:00:20.568000Z,I9918C01,5.22,0.15,Slab,N,1,211,80,-8.30E+01,nlloc,-41.0938,174.519,-41.284,174.7682,6011432.3,2637591.18,5989908,2658140,3.7,3.7,29.7,64.14,29.14,62.35,-28.37,7.87,0,56.68,54.84,nu,WEL,B,1000,Q3,0.3,Q1,0,Q2,0,-99999,-99999,0,0.35,35,0.595,35,HarvardCMT,0.018664537,0.019659507,0.02374451,0.028610308,0.040098111,0.064668617,0.07256806,0.088087356,0.057035745,0.030403109,0.022157346,0.020715458,0.01711389,0.006011814,0.005597279,0.002701986,-99999,-99999,-99999,-99999,-99999,-99999,0.022727937,0.023266563,0.026763602,0.035439865,0.051894173,0.083420234,0.09497048,0.116147387,0.072502696,0.041841508,0.028808188,0.028608409,0.023671673,0.006479391,0.006647582,0.003284857,-99999,-99999,-99999,-99999,-99999,-99999,0.018532,0.022602,0.006648,0.009403
1444773,1999-10-25T20:31:43.627000Z,D9014A02,6.02,0.15,Slab,O,0,158,54,35,nlloc,-38.5427,175.885,-39.4984,176.8761,6291620.32,2761553.77,6182359,2843283,9.4,9.4,136.47,204.75,133.03,201.69,-99999,-99999,0,152.66,148.68,nu,NCDS,E,162,Q3,1.25,Q2,110,Q3,0,-99999,-99999,1,0.25,14,0.425,14,HarvardCMT,0.037371777,0.03755382,0.037696457,0.037983839,0.03853817,0.04719638,0.067165447,0.133334083,0.224410813,0.183351949,0.090398866,0.069147263,0.052973971,0.165825631,0.045777584,0.018572368,0.013895933,-99999,-99999,-99999,-99999,-99999,0.048766266,0.049030431,0.049467316,0.050062794,0.050862453,0.064166625,0.087395514,0.176206383,0.274709535,0.238584229,0.110080033,0.077188197,0.065120876,0.228489269,0.06084899,0.025223326,0.018000158,-99999,-99999,-99999,-99999,-99999,0.037263,0.048479,0.027826,0.03757
1444773,1999-10-25T20:31:43.627000Z,D9027G06,6.02,0.15,Slab,O,0,158,54,35,nlloc,-38.5427,175.885,-39.4884,176.9189,6291620.32,2761553.77,6183307,2847012,9.4,9.4,137.97,205.77,134.56,202.73,-99999,-99999,0,152.66,148.68,nu,NAMS,C,268,Q3,0.4,Q3,20,Q3,0,-99999,-99999,1,0.25,12,0.425,12,HarvardCMT,0.017807989,0.017897562,0.018076779,0.018334265,0.018660889,0.020683317,0.034844756,0.057339184,0.103517881,0.070541347,0.043949427,0.043675484,0.032255883,0.026740382,0.011518784,0.012877049,0.008289316,-99999,-99999,-99999,-99999,-99999,0.020257932,0.020347984,0.020494585,0.02070785,0.021007005,0.022752653,0.044583343,0.080777602,0.131767559,0.079493076,0.052173875,0.053716012,0.042478898,0.037176623,0.0148075,0.017393611,0.009178264,-99999,-99999,-99999,-99999,-99999,0.017732,0.020169,0.011055,0.013032
