CuspID,Origin_time,Record,Mw,MwUncert,TectClass,Mech,PreferredFaultPlane,Strike,Dip,Rake,Location,HypLat,HypLon,StationLat,StationLon,HypN,HypE,StationN,StationE,LENGTH_km,WIDTH_km,Repi_km,Rhyp_km,Rjb_km,Rrup_km,Rx_km,Ry_km,Rvol_km,HypDepth_km,ZTOR_km,HWFW,SiteCode,SiteClass1170,Vs30,Vs30Uncert,Tsite,TsiteUncert,Z1,Z1Uncertainty,Directivity,Pulse_or,Pulse_T,S_Trigger_Flag,fcButterHP,f_iniLP,fmin,fmax,References,f100.0000SA_RotD50,f50.0000SA_RotD50,f33.3333SA_RotD50,f25.0000SA_RotD50,f20.0000SA_RotD50,f13.3333SA_RotD50,f10.0000SA_RotD50,f6.6667SA_RotD50,f5.0000SA_RotD50,f4.0000SA_RotD50,f3.3333SA_RotD50,f2.5000SA_RotD50,f2.0000SA_RotD50,f1.3333SA_RotD50,f1.0000SA_RotD50,f0.6667SA_RotD50,f0.5000SA_RotD50,f0.3333SA_RotD50,f0.2500SA_RotD50,f0.2000SA_RotD50,f0.1333SA_RotD50,f0.1000SA_RotD50,f100.0000SA_RotD100,f50.0000SA_RotD100,f33.3333SA_RotD100,f25.0000SA_RotD100,f20.0000SA_RotD100,f13.3333SA_RotD100,f10.0000SA_RotD100,f6.6667SA_RotD100,f5.0000SA_RotD100,f4.0000SA_RotD100,f3.3333SA_RotD100,f2.5000SA_RotD100,f2.0000SA_RotD100,f1.3333SA_RotD100,f1.0000SA_RotD100,f0.6667SA_RotD100,f0.5000SA_RotD100,f0.3333SA_RotD100,f0.2500SA_RotD100,f0.2000SA_RotD100,f0.1333SA_RotD100,f0.1000SA_RotD100,PGA_RotD50,PGA_RotD100,PGV_RotD50,PGV_RotD100
1553782,1971-08-13T14:42:41.636000Z,A71053A1,5.7,0.15,Crustal,S,1,242,83,207,special,-42.13,172.1,-42.3786,172.3329,5897058.69,2435589.3,5869623,2455066,6.51,6.51,33.64,34.99,33.13,33.79,-32.97,-4.32,0,9,5.77,fw,053A,C,391,Q3,0.27,Q3,20,Q3,0,-99999,-99999,1,0.4,18,0.68,18,Anderson_etal_1993&Dowrick_Rhoades_1998,0.056219013,0.056724688,0.057898082,0.060105333,0.063993898,0.085585776,0.092005273,0.125999978,0.141050291,0.156591545,0.127415172,0.100115578,0.062453074,0.081133832,0.041581445,-99999,-99999,-99999,-99999,-99999,-99999,-99999,0.070729626,0.07115624,0.071840249,0.072883004,0.074421101,0.10519974,0.116544974,0.15190401,0.16844947,0.177059583,0.153616125,0.130480287,0.075734129,0.110067475,0.050340512,-99999,-99999,-99999,-99999,-99999,-99999,-99999,0.056127,0.07071,0.042573,0.053299
1556608,1975-06-10T10:11:17.094000Z,K75301A2,5.62,0.15,Slab,N,1,250,56,257,special,-40.34,175.93,-40.3553,175.6152,6092087.55,2758882.27,6091232,2732094,5.9,5.9,26.73,46.53,23.88,44.21,10.02,25.47,0,38,35.54,nu,301A,D,341,Q3,0.7,Q2,60,Q3,0,-99999,-99999,1,0.4,19,0.68,19,Webb_Anderson_1998&Dowrick_Rhoades1998,0.037885838,0.038547586,0.039792687,0.041681288,0.044605502,0.061892891,0.085641369,0.093762521,0.103507322,0.068485744,0.069039239,0.056581989,0.052664708,0.031153178,0.023609569,-99999,-99999,-99999,-99999,-99999,-99999,-99999,0.043982287,0.044316667,0.044904032,0.04593441,0.04861932,0.07109036,0.097169535,0.09844137,0.116217742,0.078182847,0.078311397,0.075906089,0.070225801,0.043632234,0.032529688,-99999,-99999,-99999,-99999,-99999,-99999,-99999,0.037864,0.043987,0.023645,0.030684
1556608,1975-06-10T10:11:17.094000Z,K75340A1,5.62,0.15,Slab,N,1,250,56,257,special,-40.34,175.93,-40.3863,175.6165,6092087.55,2758882.27,6087788,2732102,5.9,5.9,27.06,46.71,24.14,44.26,6.78,26.64,0,38,35.54,nu,340A,D,283,Q3,0.96,Q3,90,Q3,0,-99999,-99999,1,0.65,18,1.105,18,Webb_Anderson_1998&Dowrick_Rhoades1998,0.049390734,0.049777371,0.050428015,0.051437158,0.053281706,0.07994611,0.0935797,0.108087684,0.150983067,0.125518251,0.144256417,0.066165882,0.061166195,0.026013365,-99999,-99999,-99999,-99999,-99999,-99999,-99999,-99999,0.063113893,0.063703498,0.064772829,0.066153272,0.067237568,0.092707568,0.114638184,0.144665524,0.201861945,0.143818227,0.199017226,0.072997604,0.073621595,0.03400988,-99999,-99999,-99999,-99999,-99999,-99999,-99999,-99999,0.049392,0.063153,0.024416,0.028186
1557438,1976-05-04T13:56:29.201000Z,A76080B1,6.51,0.15,Interface,O,1,48,47,130,special,-44.67,167.45,-44.6729,167.9264,5600506.59,2070223.23,5602634,2107939,22.44,22.44,37.67,39.08,27.88,31.04,31.31,29.45,0,10,1.79,nu,080B,C,210,Q3,0.57,Q3,30,Q3,0,-99999,-99999,1,0.2,29,0.34,29,Anderson_etal_1993&Dowrick_Rhoades_1998,0.088283937,0.089016074,0.09154138,0.094881957,0.097234447,0.102652857,0.113932984,0.160437902,0.127492497,0.150832245,0.192006856,0.195702758,0.277557205,0.110775918,0.096369346,0.033029181,0.019015402,-99999,-99999,-99999,-99999,-99999,0.098435994,0.098942226,0.100608909,0.107981665,0.112843309,0.122769824,0.14945533,0.194270168,0.16275085,0.170699539,0.231316529,0.253598116,0.349053287,0.153264576,0.136277887,0.044734729,0.026364211,-99999,-99999,-99999,-99999,-99999,0.087882,0.098438,0.089847,0.115009
1557438,1976-05-04T13:56:29.201000Z,K76070A1,6.51,0.15,Interface,O,1,48,47,130,special,-44.67,167.45,-45.4167,167.7191,5600506.59,2070223.23,5519112,2096857,22.44,22.44,85.68,86.25,77.38,79.21,85.96,-34.67,0,10,1.79,nu,TAFS,D,298,Q3,1.4,Q3,200,Q3,0,-99999,-99999,1,0.28,11,0.476,11,Anderson_etal_1993&Dowrick_Rhoades_1998,0.024411055,0.024511301,0.024631693,0.024821979,0.0251248,0.027718844,0.049245065,0.049213213,0.044614957,0.047330937,0.062230134,0.047920394,0.044260313,0.046537883,0.035125163,0.036394399,0.025433571,-99999,-99999,-99999,-99999,-99999,0.029522054,0.029608903,0.029761607,0.029991486,0.030293651,0.032653545,0.057233585,0.066921533,0.057206152,0.0576157,0.077144338,0.055299905,0.048476557,0.059903652,0.045631268,0.044487647,0.033693413,-99999,-99999,-99999,-99999,-99999,0.024409,0.029457,0.031912,0.037482
1557438,1976-05-04T13:56:29.201000Z,K76089A1,6.51,0.15,Interface,O,1,48,47,130,special,-44.67,167.45,-44.6946,169.143,5600506.59,2070223.23,5605452,2204373,22.44,22.44,133.87,134.63,124.04,125.19,93.74,103,0,10,1.79,nu,WNPS,D,330,Q3,2.1,Q3,300,Q3,0,-99999,-99999,1,0.25,15,0.425,15,Anderson_etal_1993&Dowrick_Rhoades_1998,0.031046048,0.031155633,0.031255658,0.031450503,0.031951869,0.037063492,0.042077116,0.050652161,0.061148316,0.086029107,0.063073203,0.053849782,0.058781693,0.075813628,0.062504379,0.052822891,0.025256766,-99999,-99999,-99999,-99999,-99999,0.039762795,0.039897228,0.040139876,0.040478089,0.040977286,0.049038057,0.053674222,0.066632682,0.066599064,0.093841048,0.069199488,0.068693764,0.0664185,0.083849959,0.087827017,0.06154397,0.028620094,-99999,-99999,-99999,-99999,-99999,0.031017,0.039762,0.04426,0.048661
1558224,1977-01-18T05:41:48.207000Z,A77048C1,6.02,0.15,Slab,R,1,213,68,251,special,-41.73,174.3,-41.5138,173.9572,5941084.19,2618142.66,5965463,2589883,9.4,9.4,37.28,50.49,35.45,48.97,38.74,-5.05,0,34,29.64,nu,048C,D,235,Q3,0.9,Q3,64,Q3,0,-99999,-99999,1,0.4,13,0.68,13,Webb_Anderson_1998&Dowrick_Rhoades1998,0.036999707,0.037129383,0.037327946,0.037660863,0.038187833,0.041992523,0.047924448,0.051318985,0.085376168,0.120420052,0.144121681,0.065562217,0.059762526,0.044529218,0.039432196,-99999,-99999,-99999,-99999,-99999,-99999,-99999,0.041506372,0.041712623,0.042061084,0.042549906,0.043238665,0.045866412,0.052643878,0.056514951,0.095794715,0.131469374,0.17897251,0.089187523,0.084528609,0.055709255,0.051479353,-99999,-99999,-99999,-99999,-99999,-99999,-99999,0.036924,0.041508,0.022251,0.027174
1558224,1977-01-18T05:41:48.207000Z,A77601A1,6.02,0.15,Slab,R,1,213,68,251,special,-41.73,174.3,-41.2263,174.8719,5941084.19,2618142.66,5996147,2666912,9.4,9.4,73.53,81.03,68.88,76.33,-9.15,-72.74,0,34,29.64,nu,601A,D,161,Q3,2.3,Q3,297,Q3,0,-99999,-99999,1,0.4,20,0.68,20,Webb_Anderson_1998&Dowrick_Rhoades1998,0.043806234,0.044095642,0.044586668,0.045249556,0.044516493,0.046723387,0.063719959,0.067556439,0.103757831,0.12085281,0.075523826,0.06500387,0.080351077,0.064217624,0.030426542,-99999,-99999,-99999,-99999,-99999,-99999,-99999,0.055776942,0.056171754,0.056895798,0.058098792,0.059549315,0.065114964,0.089716835,0.090009727,0.134821762,0.147387688,0.097612079,0.069832751,0.110139547,0.076754026,0.036600571,-99999,-99999,-99999,-99999,-99999,-99999,-99999,0.043685,0.055421,0.023094,0.026097
1558224,1977-01-18T05:41:48.207000Z,A77902A1,6.02,0.15,Slab,R,1,213,68,251,special,-41.73,174.3,-41.2776,174.7793,5941084.19,2618142.66,5990617,2659034,9.4,9.4,64.22,72.68,59.54,67.99,-5.56,-63.81,0,34,29.64,nu,902A,D,275,Q2,1.25,Q2,1.32E+02,Q2,0,-99999,-99999,1,0.5,20,0.85,20,Webb_Anderson_1998&Dowrick_Rhoades1998,0.08193672,0.082448094,0.083153862,0.084546538,0.088001741,0.093307006,0.145674213,0.217826911,0.202494435,0.247759103,0.213432033,0.15910601,0.126422487,0.077821177,0.033407744,-99999,-99999,-99999,-99999,-99999,-99999,-99999,0.112030031,0.112487394,0.113348122,0.115417127,0.12208741,0.118215028,0.171465669,0.241396465,0.224351327,0.308052056,0.297545352,0.220529251,0.159952261,0.10930296,0.038239294,-99999,-99999,-99999,-99999,-99999,-99999,-99999,0.081898,0.112007,0.047444,0.060139
1558224,1977-01-18T05:41:48.207000Z,A77907A1,6.02,0.15,Slab,R,1,213,68,251,special,-41.73,174.3,-41.2788,174.7785,5941084.19,2618142.66,5990481,2658964,9.4,9.4,64.07,72.55,59.39,67.86,-5.57,-63.66,0,34,29.64,nu,907A,D,250,Q2,1.2,Q2,116,Q2,0,-99999,-99999,1,0.47,18,0.799,18,Webb_Anderson_1998&Dowrick_Rhoades1998,0.079751589,0.080001974,0.080380653,0.080843534,0.081738529,0.097579021,0.13259084,0.133577885,0.181123092,0.222576882,0.215685758,0.211837322,0.141704298,0.070424759,0.030080409,-99999,-99999,-99999,-99999,-99999,-99999,-99999,0.088846147,0.089091207,0.089521263,0.090189227,0.091222689,0.102271068,0.160376426,0.170816385,0.255665979,0.241811099,0.243567354,0.232607827,0.166793441,0.07928489,0.041557992,-99999,-99999,-99999,-99999,-99999,-99999,-99999,0.079581,0.088573,0.052515,0.058943
1558224,1977-01-18T05:41:48.207000Z,A77911A1,6.02,0.15,Slab,R,1,213,68,251,special,-41.73,174.3,-41.2886,174.7769,5941084.19,2618142.66,5989396,2658808,9.4,9.4,63.13,71.72,58.46,67.03,-6.03,-62.67,0,34,29.64,nu,911A,C,358,Q2,0.29,Q2,1.85E+01,Q2,0,-99999,-99999,1,0.6,19,1.02,19,Webb_Anderson_1998&Dowrick_Rhoades1998,0.060043473,0.060273548,0.060631314,0.061090994,0.062485668,0.069364122,0.087112564,0.090246439,0.142066316,0.155600717,0.164596749,0.135622186,0.078716488,0.032286631,-99999,-99999,-99999,-99999,-99999,-99999,-99999,-99999,0.075263521,0.075515679,0.075948408,0.076564498,0.077817937,0.082113922,0.102892233,0.100282035,0.172575917,0.207150317,0.211293511,0.191007893,0.101934039,0.039970715,-99999,-99999,-99999,-99999,-99999,-99999,-99999,-99999,0.060043,0.074911,0.030987,0.042595
1558224,1977-01-18T05:41:48.207000Z,A77912A1,6.02,0.15,Slab,R,1,213,68,251,special,-41.73,174.3,-41.3264,174.809,5941084.19,2618142.66,5985141,2661416,9.4,9.4,61.72,70.5,57.11,65.8,-10.54,-60.52,0,34,29.64,nu,WNAS,D,239,Q2,0.78,Q2,64,Q2,0,-99999,-99999,0,0.45,24.5,0.765,24.5,Webb_Anderson_1998&Dowrick_Rhoades1998,0.052675506,0.053493553,0.056792122,0.062006748,0.068949581,0.102568549,0.171976567,0.1287239,0.128434279,0.098321877,0.090473605,0.055733116,0.054988781,0.054029015,0.027910544,-99999,-99999,-99999,-99999,-99999,-99999,-99999,0.067692055,0.068786903,0.070817295,0.076914232,0.091431511,0.115938863,0.239622141,0.15765414,0.178905059,0.114299612,0.111536759,0.062048516,0.06766587,0.067884258,0.030107582,-99999,-99999,-99999,-99999,-99999,-99999,-99999,0.052681,0.067417,0.023664,0.029786
1558224,1977-01-18T05:41:48.207000Z,A77913A1,6.02,0.15,Slab,R,1,213,68,251,special,-41.73,174.3,-41.2875,174.7727,5941084.19,2618142.66,5989525,2658459,9.4,9.4,63.01,71.61,58.34,66.93,-5.67,-62.58,0,34,29.64,nu,913A,B,1000,Q3,<0.1,Q3,2,Q2,0,-99999,-99999,1,0.35,21,0.595,21,Webb_Anderson_1998&Dowrick_Rhoades1998,0.052396739,0.0532315,0.054744298,0.057276401,0.062859143,0.078693875,0.113494765,0.128284889,0.163939557,0.161322046,0.131608859,0.060209681,0.046508153,0.023027567,0.013363747,0.007247307,-99999,-99999,-99999,-99999,-99999,-99999,0.070555036,0.071049701,0.071910787,0.073112287,0.073166595,0.086913793,0.148861278,0.157174334,0.191391265,0.222351498,0.178081978,0.080175365,0.061370964,0.030568027,0.015606646,0.008327586,-99999,-99999,-99999,-99999,-99999,-99999,0.052221,0.070372,0.02514,0.032603
1558224,1977-01-18T05:41:48.207000Z,A77914A1,6.02,0.15,Slab,R,1,213,68,251,special,-41.73,174.3,-41.295,174.7735,5941084.19,2618142.66,5988691,2658509,9.4,9.4,62.4,76.37,57.73,71.7,-6.16,-61.91,0,34,29.64,nu,914B,D,282,Q2,0.61,Q2,4.65E+01,Q2,0,-99999,-99999,1,0.7,24.5,1.19,24.5,Webb_Anderson_1998&Dowrick_Rhoades1998,0.069261855,0.069602038,0.070465478,0.072619402,0.077364233,0.096572954,0.128674398,0.177335148,0.218019096,0.153966168,0.147263784,0.112835231,0.099651531,0.038139722,-99999,-99999,-99999,-99999,-99999,-99999,-99999,-99999,0.092104144,0.092361649,0.092783581,0.09750759,0.101897157,0.118332203,0.17151616,0.199919912,0.256846363,0.17846945,0.182778374,0.123413364,0.133010142,0.052786859,-99999,-99999,-99999,-99999,-99999,-99999,-99999,-99999,0.068777,0.092105,0.039386,0.043406
1558224,1977-01-18T05:41:48.207000Z,A77916A1,6.02,0.15,Slab,R,1,213,68,251,special,-41.73,174.3,-41.2941,174.7757,5941084.19,2618142.66,5988787,2658695,9.4,9.4,62.59,71.26,57.93,66.57,-6.27,-62.09,0,34,29.64,nu,916A,D,291,Q2,0.8,Q2,8.54E+01,Q2,0,-99999,-99999,1,0.55,17,0.935,17,Webb_Anderson_1998&Dowrick_Rhoades1998,0.047499706,0.047890849,0.048566806,0.049618521,0.051278062,0.076093592,0.075516745,0.103477624,0.140692157,0.094720885,0.107892897,0.097009647,0.06981993,0.048849428,0.022738441,-99999,-99999,-99999,-99999,-99999,-99999,-99999,0.05941471,0.059936999,0.060804944,0.062132875,0.06387287,0.079924592,0.089696945,0.129865296,0.148435966,0.118937155,0.125626136,0.113280323,0.083012472,0.053238859,0.027775253,-99999,-99999,-99999,-99999,-99999,-99999,-99999,0.047512,0.059028,0.027303,0.035633
1561001,1980-06-23T16:45:19.942000Z,K80087C1,5.49,0.15,Slab,R,1,49,87,101,nlloc,-39.8738,175.576,-39.7171,175.1382,6144762.72,2730330.66,6163158,2693314,5.1,5.1,41.27,96.17,40.35,93.78,-38.03,-15.87,0,86.8,84.25,nu,087C,C,425,Q3,0.33,Q3,30,Q3,0,-99999,-99999,1,0.7,18,1.19,18,HarvardCMT,0.097381433,0.09796525,0.098624591,0.099931741,0.102200328,0.10516665,0.127385956,0.137210534,0.195461649,0.21171899,0.197423342,0.242057134,0.184079608,0.085226903,-99999,-99999,-99999,-99999,-99999,-99999,-99999,-99999,0.109982008,0.110325714,0.110824512,0.111477033,0.112302158,0.12297482,0.137864971,0.144430526,0.232219129,0.285325929,0.259497079,0.297640674,0.198411806,0.101849062,-99999,-99999,-99999,-99999,-99999,-99999,-99999,-99999,0.096925,0.109994,0.059819,0.06454
1561256,1980-10-05T15:32:49.243000Z,S80027C1,5.66,0.15,Slab,N,0,235,45,-5.20E+01,geonet,-39.72,176.87,-39.5046,176.896,6157802.95,2841693.87,6181602,2844964,6.2,6.2,24.06,38.47,21.18,36.39,-99999,-99999,0,30,27.61,nu,027C,E,150,Q3,1.7,Q3,200,Q3,0,-99999,-99999,1,0.43,19,0.731,19,HarvardCMT,0.136768262,0.137414929,0.138237379,0.138938066,0.139886103,0.178462772,0.213364385,0.402551593,0.394764161,0.330491536,0.358250029,0.228273944,0.164004643,0.088305119,0.056863504,-99999,-99999,-99999,-99999,-99999,-99999,-99999,0.156756238,0.157423846,0.15847803,0.159934511,0.161563661,0.189559655,0.223054017,0.436590859,0.470833697,0.41678554,0.485573137,0.25285118,0.204777407,0.117238901,0.068656009,-99999,-99999,-99999,-99999,-99999,-99999,-99999,0.136702,0.155901,0.066808,0.091566
1563250,1982-09-02T15:58:54.183999Z,S82032A1,5.46,0.15,Slab,N,0,76,32,-3.80E+01,nlloc,-39.7432,176.995,-39.9425,176.5874,6154756.79,2852286.05,6134136,2816486,4.9,4.9,41.25,56.9,39.07,55.11,-99999,-99999,0,38.98,37.16,nu,032A,C,495,Q3,0.13,Q3,10,Q3,0,-99999,-99999,1,0.6,16,1.02,16,HarvardCMT,0.077434191,0.078151826,0.079324266,0.081115633,0.083866484,0.094608672,0.124624987,0.233920143,0.225188348,0.128466656,0.146965225,0.112948384,0.074174435,0.030212235,-99999,-99999,-99999,-99999,-99999,-99999,-99999,-99999,0.091538986,0.09200208,0.092742482,0.093793372,0.095244492,0.118132422,0.158625986,0.269112209,0.285888918,0.151088108,0.171468765,0.156949583,0.095631894,0.041257828,-99999,-99999,-99999,-99999,-99999,-99999,-99999,-99999,0.077398,0.091552,0.036493,0.047274
1567345,1985-07-19T14:33:59.829999Z,A86018A1,5.97,0.08,Slab,N,1,213,73,255,special,-38.72,177.3,-38.6665,178.0227,6267008.8,2883855.15,6269685,2946952,11,11,63,70.36,59.68,65.91,-49.85,-36.61,0,31,25.74,nu,GISS,D,138,Q2,1,Q1,40,Q3,0,-99999,-99999,1,0.46,11,0.782,11,Webb_Anderson_1998&Dowrick_Rhoades1998&HarvardCMT,0.077322722,0.077545847,0.077899224,0.078397277,0.079064762,0.081652488,0.092464652,0.112967645,0.154417218,0.180644273,0.180850472,0.191086625,0.140958371,0.139946838,0.133703777,-99999,-99999,-99999,-99999,-99999,-99999,-99999,0.09447262,0.094667468,0.09498539,0.095423289,0.096010465,0.098476279,0.110008158,0.133165037,0.17416203,0.197064229,0.206545873,0.241730678,0.191694075,0.180056986,0.147723369,-99999,-99999,-99999,-99999,-99999,-99999,-99999,0.077059,0.09437,0.067476,0.081824
16899,1988-06-03T23:27:54.351999Z,A88070A1,6.69,0.08,Slab,R,1,310,86,118,special,-45.1,167.17,-45.4167,167.7191,5551299.74,2051472.44,5519112,2096857,25,55,55.56,81.99,43.13,61.55,6.43,-55.46,0,60,32.57,nu,TAFS,D,298,Q3,1.4,Q3,200,Q3,0,-99999,-99999,1,0.2,22,0.34,22,Robinson_etal_2003&Dowrick_Rhoades1998&HarvardCMT&Reyners_etal1991,0.097904639,0.098271564,0.098868454,0.099718933,0.102913505,0.110618259,0.142000747,0.176373107,0.256798092,0.26427991,0.221445812,0.220249477,0.190454124,0.11014942,0.121327518,0.098240267,0.080492944,-99999,-99999,-99999,-99999,-99999,0.110188636,0.110613114,0.111316347,0.112439525,0.112180473,0.124811222,0.154713197,0.194816643,0.325244972,0.297930973,0.252270554,0.311076909,0.269139224,0.140331644,0.170960045,0.133617803,0.097262577,-99999,-99999,-99999,-99999,-99999,0.097738,0.110206,0.094318,0.104734
16899,1988-06-03T23:27:54.351999Z,A88089A1,6.69,0.08,Slab,R,1,310,86,118,special,-45.1,167.17,-44.6946,169.143,5551299.74,2051472.44,5605452,2204373,25,55,161.81,173.05,155.62,164.27,141.68,-82.32,0,60,32.57,nu,WNPS,D,330,Q3,2.1,Q3,300,Q3,0,-99999,-99999,1,0.21,18,0.357,18,Robinson_etal_2003&Dowrick_Rhoades1998&HarvardCMT&Reyners_etal1991,0.03399007,0.034193364,0.034539499,0.035177411,0.036192452,0.039281063,0.047912809,0.069792277,0.089520537,0.098637136,0.079953319,0.063270968,0.061711872,0.068755408,0.068902307,0.042689117,0.028852595,-99999,-99999,-99999,-99999,-99999,0.040688863,0.040980208,0.041452445,0.042109246,0.043504217,0.048602193,0.054188042,0.081241307,0.126583682,0.112724475,0.085850002,0.072518677,0.073247243,0.076690597,0.07452563,0.057262233,0.033525125,-99999,-99999,-99999,-99999,-99999,0.033813,0.040656,0.043268,0.047679
16899,1988-06-03T23:27:54.351999Z,A88118B1,6.69,0.08,Slab,R,1,310,86,118,special,-45.1,167.17,-45.0387,169.2193,5551299.74,2051472.44,5567539,2212164,25,55,161.07,172.37,152.52,161.6,117.65,-112.66,0,60,32.57,nu,118B,C,520,Q3,0.3,Q3,40,Q3,0,-99999,-99999,1,0.63,11,1.071,11,Robinson_etal_2003&Dowrick_Rhoades1998&HarvardCMT&Reyners_etal1991,0.053904595,0.054157062,0.054548228,0.055088954,0.05585822,0.059800742,0.06623005,0.087881544,0.116863256,0.178105336,0.147693085,0.175424724,0.094689755,0.035165951,-99999,-99999,-99999,-99999,-99999,-99999,-99999,-99999,0.063246895,0.06356411,0.064054158,0.06475321,0.065681825,0.069522002,0.077006345,0.097378252,0.125608668,0.228337106,0.163322714,0.223299087,0.122403042,0.039160798,-99999,-99999,-99999,-99999,-99999,-99999,-99999,-99999,0.053692,0.063231,0.03024,0.033502
53209,1989-05-31T05:54:48.402999Z,A89940A1,6.39,0.08,Interface,O,1,139,67,47,special,-45.27,166.88,-45.0322,168.6629,5530793.17,2030120.65,5566104,2168345,19.54,19.54,142.29,144.72,138.11,139.83,-124.55,64.03,0,24,17.1,nu,QTPS,D,350,Q3,0.95,Q1,90,Q3,0,-99999,-99999,1,0.55,10,0.935,10,Robinson_etal_2003&Dowrick_Rhoades1998&HarvardCMT,0.024581279,0.02471519,0.024944976,0.025258641,0.025700183,0.027473695,0.03049002,0.051043844,0.090265284,0.091239198,0.060906667,0.051205105,0.035550117,0.026589509,0.020334486,-99999,-99999,-99999,-99999,-99999,-99999,-99999,0.034483149,0.034678534,0.034984368,0.035429904,0.036037531,0.038536785,0.042006743,0.060937577,0.117140348,0.104405487,0.068553949,0.069858566,0.040651425,0.02810175,0.026979648,-99999,-99999,-99999,-99999,-99999,-99999,-99999,0.024587,0.034329,0.013138,0.014399
