CuspID,Origin_time,Record,Mw,MwUncert,TectClass,Mech,PreferredFaultPlane,Strike,Dip,Rake,Location,HypLat,HypLon,StationLat,StationLon,HypN,HypE,StationN,StationE,LENGTH_km,WIDTH_km,Repi_km,Rhyp_km,Rjb_km,Rrup_km,Rx_km,Ry_km,Rvol_km,HypDepth_km,ZTOR_km,HWFW,SiteCode,SiteClass1170,Vs30,Vs30Uncert,Tsite,TsiteUncert,Z1,Z1Uncertainty,Directivity,Pulse_or,Pulse_T,S_Trigger_Flag,fcButterHP,f_iniLP,fmin,fmax,References,f100.0000SA_RotD50,f50.0000SA_RotD50,f33.3333SA_RotD50,f25.0000SA_RotD50,f20.0000SA_RotD50,f13.3333SA_RotD50,f10.0000SA_RotD50,f6.6667SA_RotD50,f5.0000SA_RotD50,f4.0000SA_RotD50,f3.3333SA_RotD50,f2.5000SA_RotD50,f2.0000SA_RotD50,f1.3333SA_RotD50,f1.0000SA_RotD50,f0.6667SA_RotD50,f0.5000SA_RotD50,f0.3333SA_RotD50,f0.2500SA_RotD50,f0.2000SA_RotD50,f0.1333SA_RotD50,f0.1000SA_RotD50,f100.0000SA_RotD100,f50.0000SA_RotD100,f33.3333SA_RotD100,f25.0000SA_RotD100,f20.0000SA_RotD100,f13.3333SA_RotD100,f10.0000SA_RotD100,f6.6667SA_RotD100,f5.0000SA_RotD100,f4.0000SA_RotD100,f3.3333SA_RotD100,f2.5000SA_RotD100,f2.0000SA_RotD100,f1.3333SA_RotD100,f1.0000SA_RotD100,f0.6667SA_RotD100,f0.5000SA_RotD100,f0.3333SA_RotD100,f0.2500SA_RotD100,f0.2000SA_RotD100,f0.1333SA_RotD100,f0.1000SA_RotD100,PGA_RotD50,PGA_RotD100,PGV_RotD50,PGV_RotD100
241414,1991-07-12T04:42:23.301999Z,D91302A4,5.3,0.15,Slab,S,1,135,57,25,geonet,-39.3052,175.9748,-39.9338,175.053,6206777.74,2766544.08,6139282,2685450,4.1,4.1,105.45,126.78,104.32,126.64,106.19,-9.62,0,70.28,68.56,nu,302A,D,250,Q2,0.8,Q3,80,Q3,0,-99999,-99999,1,0.3,12,0.51,12,HarvardCMT,0.01761083,0.01766624,0.017800535,0.017909645,0.018124982,0.019142645,0.031889746,0.039458363,0.044343814,0.055683402,0.064416585,0.058528352,0.043409808,0.043721371,0.019935837,0.008807038,-99999,-99999,-99999,-99999,-99999,-99999,0.01983212,0.019917452,0.020077672,0.020230102,0.020516947,0.021985456,0.036635641,0.048234955,0.052845234,0.066251052,0.067734341,0.07552341,0.04935316,0.060339181,0.028113891,0.01110463,-99999,-99999,-99999,-99999,-99999,-99999,0.01761,0.019802,0.015326,0.018936
255338,1991-09-08T13:50:30.989999Z,A92087A4,5.61,0.15,Slab,R,1,95,70,108,geonet,-40.2442,175.1672,-39.7163,175.1455,6104594.2,2694363.31,6163232,2693941,5.9,5.9,58.73,104.69,57.7,101.84,-57.37,-5.53,0,86.69,83.93,nu,087A,B,1000,Q3,<0.1,Q3,0,Q2,0,-99999,-99999,1,0.6,27,1.02,27,HarvardCMT,0.142826716,0.146230259,0.153468599,0.20477721,0.270016105,0.486421048,0.556065375,0.884824007,0.574247151,0.534060232,0.319885468,0.525089236,0.193411585,0.090972306,-99999,-99999,-99999,-99999,-99999,-99999,-99999,-99999,0.16592091,0.168685489,0.17496688,0.244825207,0.289058871,0.55685096,0.687938805,0.976063934,0.617993987,0.595610843,0.377868266,0.713736061,0.229499517,0.114347301,-99999,-99999,-99999,-99999,-99999,-99999,-99999,-99999,0.138426,0.165445,0.052495,0.059593
255338,1991-09-08T13:50:30.989999Z,D91302A5,5.61,0.15,Slab,R,1,95,70,108,geonet,-40.2442,175.1672,-39.9338,175.053,6104594.2,2694363.31,6139282,2685450,5.9,5.9,35.86,93.81,34.54,90.88,-32.78,-11.9,0,86.69,83.93,nu,302A,D,250,Q2,0.8,Q3,80,Q3,0,-99999,-99999,0,0.35,20,0.595,20,HarvardCMT,0.099133611,0.100153936,0.10179903,0.106449743,0.142490262,0.219712713,0.304077855,0.273118362,0.39510035,0.459960961,0.335804034,0.264740161,0.259798549,0.099399388,0.063141287,0.0154998,-99999,-99999,-99999,-99999,-99999,-99999,0.102986346,0.10441306,0.107727044,0.115273976,0.150459156,0.278908987,0.323010907,0.309304628,0.558691454,0.598057049,0.420441198,0.342437507,0.341737643,0.114701204,0.0778054,0.021681485,-99999,-99999,-99999,-99999,-99999,-99999,0.098958,0.102989,0.049331,0.058808
255338,1991-09-08T13:50:30.989999Z,D91467A2,5.61,0.15,Slab,R,1,95,70,108,geonet,-40.2442,175.1672,-41.2425,174.9024,6104594.2,2694363.31,5994293,2669430,5.9,5.9,113.22,142.49,112.16,141.58,113.06,-15.23,0,86.69,83.93,nu,467A,D,218,Q3,1.5,Q3,200,Q3,0,-99999,-99999,1,0.25,15,0.425,15,HarvardCMT,0.02537738,0.02557832,0.025888953,0.026306725,0.027115512,0.039790552,0.061975921,0.06158565,0.102960671,0.06307439,0.081943298,0.127480915,0.114532985,0.046866111,0.025278019,0.012724192,0.002790869,-99999,-99999,-99999,-99999,-99999,0.028920355,0.029147494,0.029565937,0.030247392,0.031425757,0.051965671,0.079403192,0.069018395,0.132622599,0.072394028,0.108114632,0.166795106,0.134962482,0.062250015,0.027248564,0.01590659,0.003237743,-99999,-99999,-99999,-99999,-99999,0.025376,0.028816,0.019351,0.021977
255338,1991-09-08T13:50:30.989999Z,D91468A2,5.61,0.15,Slab,R,1,95,70,108,geonet,-40.2442,175.1672,-41.2011,174.9547,6104594.2,2694363.31,5998793,2673916,5.9,5.9,107.9,138.3,106.86,137.35,108.18,-11.15,0,86.69,83.93,nu,468A,D,190,Q1,0.9,Q3,50,Q3,0,-99999,-99999,0,0.45,13,0.765,13,HarvardCMT,0.041201926,0.041583895,0.042368202,0.043440661,0.044864118,0.065418361,0.121935592,0.181349263,0.237786928,0.196470391,0.184919538,0.290500577,0.120775215,0.076612248,0.046299616,-99999,-99999,-99999,-99999,-99999,-99999,-99999,0.056408623,0.056939853,0.057762825,0.059032476,0.060876531,0.073114793,0.149783057,0.216797805,0.287497999,0.241815898,0.200312697,0.407836959,0.170492802,0.100120491,0.059358799,-99999,-99999,-99999,-99999,-99999,-99999,-99999,0.041167,0.056406,0.028165,0.036325
255338,1991-09-08T13:50:30.989999Z,D91606B1,5.61,0.15,Slab,R,1,95,70,108,geonet,-40.2442,175.1672,-41.2333,174.9199,6104594.2,2694363.31,5995282,2670919,5.9,5.9,111.94,141.47,110.88,140.55,111.94,-13.83,0,86.69,83.93,nu,606B,B,800,Q3,<0.1,Q3,0,Q3,0,-99999,-99999,0,0.45,26,0.765,26,HarvardCMT,0.018276824,0.018563059,0.019171126,0.02663244,0.025780354,0.038694043,0.052601341,0.035257987,0.046165951,0.079598011,0.07023462,0.042114329,0.017657386,0.009884396,0.004838802,-99999,-99999,-99999,-99999,-99999,-99999,-99999,0.022059146,0.022404777,0.023241868,0.033832662,0.033991495,0.042498231,0.065434813,0.040385611,0.052573618,0.10516286,0.086224809,0.048781854,0.022421117,0.012840504,0.006606823,-99999,-99999,-99999,-99999,-99999,-99999,-99999,0.018079,0.022062,0.00858,0.011222
255338,1991-09-08T13:50:30.989999Z,D91642E7,5.61,0.15,Slab,R,1,95,70,108,geonet,-40.2442,175.1672,-41.2341,174.918,6104594.2,2694363.31,5995197,2670758,5.9,5.9,112.06,141.57,111,140.65,112.04,-13.98,0,86.69,83.93,nu,642E,C,350,Q1,0.35,Q2,50,Q3,0,-99999,-99999,0,0.5,12,0.85,12,HarvardCMT,0.049752724,0.049879179,0.050064427,0.050399263,0.050841894,0.052387649,0.06296999,0.082322481,0.135770441,0.167450341,0.274036626,0.231984141,0.060996736,0.025818855,0.011801609,-99999,-99999,-99999,-99999,-99999,-99999,-99999,0.06026798,0.060477948,0.060800605,0.061273373,0.061896784,0.063376692,0.066905621,0.099607865,0.166398535,0.221558405,0.35832509,0.281354373,0.0718257,0.029988292,0.01370305,-99999,-99999,-99999,-99999,-99999,-99999,-99999,0.049631,0.060112,0.028527,0.031818
255338,1991-09-08T13:50:30.989999Z,D91644C3,5.61,0.15,Slab,R,1,95,70,108,geonet,-40.2442,175.1672,-41.2187,174.8826,6104594.2,2694363.31,5996970,2667828,5.9,5.9,110.98,140.72,109.9,139.76,110.53,-17.05,0,86.69,83.93,nu,644C,D,189,Q3,2,Q3,250,Q3,0,-99999,-99999,0,0.35,15,0.595,15,HarvardCMT,0.022114883,0.022275659,0.022531847,0.022961336,0.023543313,0.035286016,0.049722622,0.072366786,0.085761959,0.07624566,0.084549285,0.14500888,0.079894959,0.030035746,0.015818377,0.0076606,-99999,-99999,-99999,-99999,-99999,-99999,0.025363351,0.02551819,0.025763328,0.026241821,0.026758107,0.039828333,0.052644016,0.078243429,0.101130354,0.090126211,0.10564055,0.193043673,0.108498153,0.038786746,0.021358008,0.009346132,-99999,-99999,-99999,-99999,-99999,-99999,0.022024,0.025364,0.012054,0.01511
255338,1991-09-08T13:50:30.989999Z,D91646A2,5.61,0.15,Slab,R,1,95,70,108,geonet,-40.2442,175.1672,-41.2574,174.9485,6104594.2,2694363.31,5992552,2673256,5.9,5.9,114.16,143.28,113.12,142.4,114.46,-11.26,0,86.69,83.93,nu,WDAS,E,120,Q1,1.6,Q2,62,Q2,0,-99999,-99999,0,0.35,18,0.595,18,HarvardCMT,0.051353756,0.05162813,0.052147546,0.053029014,0.054056699,0.06867059,0.119290548,0.113346745,0.116148991,0.219621965,0.29686006,0.180353015,0.106636224,0.048111285,0.041833887,0.01426361,-99999,-99999,-99999,-99999,-99999,-99999,0.055386811,0.055682732,0.056163075,0.056799682,0.058222576,0.075459202,0.133560637,0.13766505,0.142987885,0.305268874,0.378440671,0.248260448,0.123668529,0.059711866,0.045502171,0.016519867,-99999,-99999,-99999,-99999,-99999,-99999,0.051233,0.055137,0.027295,0.029666
255338,1991-09-08T13:50:30.989999Z,D91705B3,5.61,0.15,Slab,R,1,95,70,108,geonet,-40.2442,175.1672,-41.1391,174.8502,6104594.2,2694363.31,6005867,2665298,5.9,5.9,103.03,134.58,101.9,133.49,101.89,-20.35,0,86.69,83.93,nu,707A,C,570,Q3,0.15,Q3,10,Q3,0,-99999,-99999,0,0.5,15,0.85,15,HarvardCMT,0.033752026,0.034041636,0.034542232,0.035367613,0.036676848,0.046602592,0.0890828,0.069786657,0.146288835,0.194269923,0.110515941,0.08473581,0.033491771,0.013621833,0.009231839,-99999,-99999,-99999,-99999,-99999,-99999,-99999,0.039241537,0.039462965,0.039788243,0.040490069,0.041741697,0.057243684,0.107733951,0.083402432,0.179003487,0.244957507,0.148396894,0.11167037,0.045025762,0.015524237,0.01109276,-99999,-99999,-99999,-99999,-99999,-99999,-99999,0.033595,0.039242,0.013553,0.018716
255338,1991-09-08T13:50:30.989999Z,D91706A2,5.61,0.15,Slab,R,1,95,70,108,geonet,-40.2442,175.1672,-41.1288,174.8382,6104594.2,2694363.31,6007032,2664315,5.9,5.9,102.2,133.93,101.05,132.82,100.81,-21.43,0,86.69,83.93,nu,706A,C,210,Q3,0.5,Q2,30,Q3,0,-99999,-99999,0,0.35,12,0.595,12,HarvardCMT,0.074968512,0.075377836,0.076010091,0.076927709,0.078339701,0.08698655,0.111056848,0.178026802,0.340267494,0.328911435,0.294919795,0.395990236,0.176673735,0.058820273,0.029581809,0.009183677,-99999,-99999,-99999,-99999,-99999,-99999,0.089338614,0.089754709,0.09046304,0.091393095,0.092700317,0.099121132,0.118247483,0.228480842,0.385329857,0.386799305,0.329922864,0.558347976,0.240842422,0.078497581,0.03241213,0.00996076,-99999,-99999,-99999,-99999,-99999,-99999,0.074799,0.089337,0.037786,0.048001
255338,1991-09-08T13:50:30.989999Z,D91900B7,5.61,0.15,Slab,R,1,95,70,108,geonet,-40.2442,175.1672,-41.2921,174.779,6104594.2,2694363.31,5989003,2658976,5.9,5.9,121.02,148.76,119.87,147.84,119.24,-25.18,0,86.69,83.93,nu,941A,D,272,Q2,0.85,Q2,9.85E+01,Q2,0,-99999,-99999,0,0.45,12,0.765,12,HarvardCMT,0.036025878,0.036150336,0.036366885,0.036695227,0.037127934,0.039836003,0.077071329,0.127969226,0.10807851,0.166318335,0.155554422,0.205749261,0.077177281,0.066162234,0.027395058,-99999,-99999,-99999,-99999,-99999,-99999,-99999,0.050798595,0.050951166,0.051285135,0.051758024,0.052465126,0.056145206,0.104804563,0.164957805,0.143181145,0.210421115,0.218196904,0.2893528,0.109044992,0.090388201,0.031862846,-99999,-99999,-99999,-99999,-99999,-99999,-99999,0.035998,0.05075,0.022835,0.030844
255338,1991-09-08T13:50:30.989999Z,D91918B7,5.61,0.15,Slab,R,1,95,70,108,geonet,-40.2442,175.1672,-41.284,174.7682,6104594.2,2694363.31,5989908,2658140,5.9,5.9,120.4,148.34,119.25,147.39,118.41,-26.09,0,86.69,83.93,nu,WEL,B,1000,Q3,0.3,Q1,0,Q2,0,-99999,-99999,0,0.5,18,0.85,18,HarvardCMT,0.041814834,0.042044832,0.042400176,0.04295339,0.0439569,0.054282654,0.06809467,0.105276013,0.152726772,0.276508988,0.129685286,0.088467443,0.025542872,0.010997164,0.006929224,-99999,-99999,-99999,-99999,-99999,-99999,-99999,0.057609471,0.057990446,0.058607972,0.059609179,0.061417047,0.076766682,0.090841991,0.116832329,0.213558658,0.359689383,0.176786013,0.113520362,0.03156402,0.015531035,0.009595404,-99999,-99999,-99999,-99999,-99999,-99999,-99999,0.041816,0.05761,0.016822,0.023348
255338,1991-09-08T13:50:30.989999Z,D91935B3,5.61,0.15,Slab,R,1,95,70,108,geonet,-40.2442,175.1672,-41.2108,174.9047,6104594.2,2694363.31,5997808,2669699,5.9,5.9,109.73,139.74,108.66,138.78,109.53,-15.26,0,86.69,83.93,nu,935A,D,240,Q3,1.2,Q3,275,Q3,0,-99999,-99999,1,0.45,15,0.765,15,HarvardCMT,0.035515508,0.035609719,0.035766451,0.036005702,0.036429372,0.061884591,0.099235133,0.067472049,0.116788905,0.194456408,0.202287244,0.209233154,0.064700892,0.027700291,0.020367685,-99999,-99999,-99999,-99999,-99999,-99999,-99999,0.050141417,0.050274343,0.050461274,0.050702958,0.051086586,0.06985477,0.133461278,0.080216622,0.132271616,0.228823934,0.23176398,0.271394138,0.084374633,0.033002381,0.026848146,-99999,-99999,-99999,-99999,-99999,-99999,-99999,0.035455,0.050141,0.022492,0.028499
255338,1991-09-08T13:50:30.989999Z,K91102A3,5.61,0.15,Slab,R,1,95,70,108,geonet,-40.2442,175.1672,-39.4637,175.5669,6104594.2,2694363.31,6190285,2730871,5.9,5.9,93.25,127.72,91.95,125.06,-87.54,28.9,0,86.69,83.93,nu,102A,C,555,Q3,0.15,Q3,12,Q3,0,-99999,-99999,1,0.5,18,0.85,18,HarvardCMT,0.045300362,0.045986722,0.046903123,0.048533518,0.050826203,0.100744978,0.152296669,0.332755795,0.312703094,0.163195501,0.111211526,0.082277579,0.05737713,0.042010741,0.023681751,-99999,-99999,-99999,-99999,-99999,-99999,-99999,0.051854486,0.052819645,0.054445619,0.056948256,0.060950749,0.139624949,0.200581142,0.416685784,0.428205794,0.227620339,0.13974399,0.107722087,0.067905869,0.052000972,0.026168192,-99999,-99999,-99999,-99999,-99999,-99999,-99999,0.044941,0.051243,0.015324,0.0173
314805,1992-03-30T07:02:51.226999Z,D92505A1,5.5,0.15,Crustal,R,1,205,76,77,nlloc,-43.0605,171.212,-42.9489,171.5677,5792540.97,2364375.65,5805487,2393135,5.17,5.17,31.47,32.08,29.52,30.01,-19.97,-23.89,0,5.12,2.61,nu,APPS,C,300,Q2,0.4,Q1,30,Q2,0,-99999,-99999,0,0.6,20,1.02,20,HarvardCMT,0.026705195,0.027055721,0.027784877,0.029567172,0.052584985,0.072393394,0.090402753,0.133784512,0.126133159,0.114069402,0.111770434,0.108997949,0.047908757,0.023796697,-99999,-99999,-99999,-99999,-99999,-99999,-99999,-99999,0.031056244,0.031185406,0.031490752,0.032072769,0.060492974,0.084544439,0.104406436,0.174158332,0.166693526,0.141237919,0.135595269,0.128859954,0.059902564,0.027699651,-99999,-99999,-99999,-99999,-99999,-99999,-99999,-99999,0.026526,0.031057,0.016402,0.018266
339342,1992-05-27T22:30:35.064000Z,D92129A2,5.9,0.08,Slab,S,1,117,85,21,special,-41.63,173.62,-41.7999,172.328,5952812.98,2561652.09,5933893,2454147,8.2,8.2,108.89,128.17,105.65,124.79,66.02,-87.2,0,67,62.92,nu,MCAS,D,501,Q3,1.6,Q3,200,Q3,0,-99999,-99999,0,0.23,19,0.391,19,Webb_Anderson_1998&Dowrick_Rhoades1998&HarvardCMT,0.028699851,0.029120469,0.029852311,0.03093974,0.033388998,0.069823086,0.09955726,0.135680904,0.114420014,0.09204188,0.11461279,0.086899654,0.114956947,0.082353991,0.024689308,0.023066218,0.015816196,-99999,-99999,-99999,-99999,-99999,0.032356079,0.032624663,0.033108283,0.033718634,0.037238266,0.091357865,0.106793413,0.158472898,0.130021881,0.106272771,0.137748391,0.108083871,0.135125622,0.098410294,0.027688777,0.030064482,0.017679246,-99999,-99999,-99999,-99999,-99999,0.028644,0.032355,0.016475,0.019402
339342,1992-05-27T22:30:35.064000Z,D92467A3,5.9,0.08,Slab,S,1,117,85,21,special,-41.63,173.62,-41.2425,174.9024,5952812.98,2561652.09,5994293,2669430,8.2,8.2,115.26,133.52,112.56,130.25,-85.53,77.2,0,67,62.92,nu,467A,D,218,Q3,1.5,Q3,200,Q3,0,-99999,-99999,0,0.35,14,0.595,14,Webb_Anderson_1998&Dowrick_Rhoades1998&HarvardCMT,0.031670994,0.031821134,0.032022613,0.032356654,0.032974043,0.070782114,0.060392589,0.058123272,0.109964306,0.124334295,0.048512951,0.121272296,0.10662787,0.033457395,0.022024185,0.018240748,-99999,-99999,-99999,-99999,-99999,-99999,0.034837027,0.035014858,0.035337413,0.035830806,0.036613516,0.079572303,0.07724959,0.073364998,0.14091897,0.135553111,0.056107352,0.157275367,0.11857061,0.043329712,0.023665024,0.021547558,-99999,-99999,-99999,-99999,-99999,-99999,0.031627,0.034838,0.01937,0.02218
339342,1992-05-27T22:30:35.064000Z,D92468A6,5.9,0.08,Slab,S,1,117,85,21,special,-41.63,173.62,-41.2011,174.9547,5952812.98,2561652.09,5998793,2673916,8.2,8.2,121.08,138.59,118.45,135.4,-91.58,79.15,0,67,62.92,nu,468A,D,190,Q1,0.9,Q3,50,Q3,0,-99999,-99999,0,0.4,19,0.68,19,Webb_Anderson_1998&Dowrick_Rhoades1998&HarvardCMT,0.030546028,0.030764452,0.031110677,0.031394427,0.031485767,0.056375708,0.048678144,0.104287624,0.103203686,0.161800821,0.114742358,0.192441191,0.081089214,0.062845747,0.045252794,-99999,-99999,-99999,-99999,-99999,-99999,-99999,0.03565986,0.035905645,0.036303735,0.036838107,0.037663236,0.070970427,0.062152768,0.141571172,0.137603773,0.183318922,0.136089211,0.208770913,0.099095862,0.07401759,0.059358738,-99999,-99999,-99999,-99999,-99999,-99999,-99999,0.030491,0.035661,0.016906,0.020622
339342,1992-05-27T22:30:35.064000Z,D92644C3,5.9,0.08,Slab,S,1,117,85,21,special,-41.63,173.62,-41.2187,174.8826,5952812.98,2561652.09,5996970,2667828,8.2,8.2,114.77,133.09,112.16,129.87,-87.19,74.56,0,67,62.92,nu,644C,D,189,Q3,2,Q3,250,Q3,0,-99999,-99999,0,0.25,12,0.425,12,Webb_Anderson_1998&Dowrick_Rhoades1998&HarvardCMT,0.021868693,0.021981581,0.022191149,0.022421729,0.02277678,0.025431254,0.067191641,0.065140021,0.063755626,0.110385082,0.056973685,0.121068855,0.122226685,0.033565232,0.019099778,0.011691617,0.007511026,-99999,-99999,-99999,-99999,-99999,0.02555076,0.025709743,0.02594207,0.026330097,0.026853076,0.030431447,0.090296053,0.083160626,0.081042628,0.149493047,0.080326926,0.155834174,0.15712897,0.044777576,0.02335032,0.012810268,0.010237069,-99999,-99999,-99999,-99999,-99999,0.021789,0.025551,0.015829,0.019203
339342,1992-05-27T22:30:35.064000Z,D92646A5,5.9,0.08,Slab,S,1,117,85,21,special,-41.63,173.62,-41.2574,174.9485,5952812.98,2561652.09,5992552,2673256,8.2,8.2,118.23,136.15,115.45,132.85,-85.72,81.4,0,67,62.92,nu,WDAS,E,120,Q1,1.6,Q2,62,Q2,0,-99999,-99999,0,0.5,16,0.85,16,Webb_Anderson_1998&Dowrick_Rhoades1998&HarvardCMT,0.027542693,0.027752494,0.028099699,0.028698594,0.029520173,0.050089766,0.047349777,0.056366101,0.059267648,0.086778848,0.231870747,0.097315182,0.123277203,0.059748587,0.108420588,-99999,-99999,-99999,-99999,-99999,-99999,-99999,0.031842828,0.032032913,0.032285685,0.032751285,0.033657662,0.057593666,0.057485651,0.059479843,0.076439314,0.096673396,0.287426125,0.127574031,0.148978238,0.071702999,0.131952934,-99999,-99999,-99999,-99999,-99999,-99999,-99999,0.027296,0.031602,0.020955,0.023387
339342,1992-05-27T22:30:35.064000Z,D92647A1,5.9,0.08,Slab,S,1,117,85,21,special,-41.63,173.62,-41.2871,174.778,5952812.98,2561652.09,5989560,2658904,8.2,8.2,103.76,123.68,101.04,120.35,-76.54,69.97,0,67,62.92,nu,647A,C,474,Q2,0.12,Q2,5.70E+00,Q2,0,-99999,-99999,0,0.4,19,0.68,19,Webb_Anderson_1998&Dowrick_Rhoades1998&HarvardCMT,0.019867748,0.020116066,0.020617306,0.021412068,0.02307843,0.039582821,0.055014473,0.070372812,0.069052174,0.073733608,0.071168741,0.093409527,0.038398336,0.010037719,0.015384731,-99999,-99999,-99999,-99999,-99999,-99999,-99999,0.024823815,0.02502534,0.025367696,0.025906709,0.026489082,0.053411172,0.076999436,0.099518716,0.081542079,0.096669072,0.08111836,0.114018815,0.053823243,0.014123975,0.020922106,-99999,-99999,-99999,-99999,-99999,-99999,-99999,0.01987,0.024677,0.010584,0.014771
339342,1992-05-27T22:30:35.064000Z,D92706A2,5.9,0.08,Slab,S,1,117,85,21,special,-41.63,173.62,-41.1288,174.8382,5952812.98,2561652.09,6007032,2664315,8.2,8.2,115.91,134.05,113.6,131,-94.56,66.86,0,67,62.92,nu,706A,C,210,Q3,0.5,Q2,30,Q3,0,-99999,-99999,0,0.45,12,0.765,12,Webb_Anderson_1998&Dowrick_Rhoades1998&HarvardCMT,0.030393451,0.030614646,0.031004466,0.031407915,0.032108985,0.034207016,0.051126487,0.082256953,0.096957349,0.215369243,0.125539151,0.110111085,0.072169068,0.04309575,0.03371764,-99999,-99999,-99999,-99999,-99999,-99999,-99999,0.033412907,0.033684956,0.034095978,0.03477079,0.035719203,0.040466472,0.053156353,0.092048652,0.106625559,0.298456145,0.164156564,0.139914532,0.089268782,0.054236023,0.047616462,-99999,-99999,-99999,-99999,-99999,-99999,-99999,0.030306,0.033412,0.017727,0.019672
