CuspID,Origin_time,Record,Mw,MwUncert,TectClass,Mech,PreferredFaultPlane,Strike,Dip,Rake,Location,HypLat,HypLon,StationLat,StationLon,HypN,HypE,StationN,StationE,LENGTH_km,WIDTH_km,Repi_km,Rhyp_km,Rjb_km,Rrup_km,Rx_km,Ry_km,Rvol_km,HypDepth_km,ZTOR_km,HWFW,SiteCode,SiteClass1170,Vs30,Vs30Uncert,Tsite,TsiteUncert,Z1,Z1Uncertainty,Directivity,Pulse_or,Pulse_T,S_Trigger_Flag,fcButterHP,f_iniLP,fmin,fmax,References,f100.0000SA_RotD50,f50.0000SA_RotD50,f33.3333SA_RotD50,f25.0000SA_RotD50,f20.0000SA_RotD50,f13.3333SA_RotD50,f10.0000SA_RotD50,f6.6667SA_RotD50,f5.0000SA_RotD50,f4.0000SA_RotD50,f3.3333SA_RotD50,f2.5000SA_RotD50,f2.0000SA_RotD50,f1.3333SA_RotD50,f1.0000SA_RotD50,f0.6667SA_RotD50,f0.5000SA_RotD50,f0.3333SA_RotD50,f0.2500SA_RotD50,f0.2000SA_RotD50,f0.1333SA_RotD50,f0.1000SA_RotD50,f100.0000SA_RotD100,f50.0000SA_RotD100,f33.3333SA_RotD100,f25.0000SA_RotD100,f20.0000SA_RotD100,f13.3333SA_RotD100,f10.0000SA_RotD100,f6.6667SA_RotD100,f5.0000SA_RotD100,f4.0000SA_RotD100,f3.3333SA_RotD100,f2.5000SA_RotD100,f2.0000SA_RotD100,f1.3333SA_RotD100,f1.0000SA_RotD100,f0.6667SA_RotD100,f0.5000SA_RotD100,f0.3333SA_RotD100,f0.2500SA_RotD100,f0.2000SA_RotD100,f0.1333SA_RotD100,f0.1000SA_RotD100,PGA_RotD50,PGA_RotD100,PGV_RotD50,PGV_RotD100
608810,1994-06-18T03:25:13.819000Z,D94042A1,6.72,0.08,Crustal,R,1,221,47,112,geonet,-43.0078,171.4762,-42.5232,172.8305,5798820.69,2385786.14,5853765,2496076,21.06,21.06,122.98,123.31,115.46,115.74,-43.1,-113.82,0,4.27,1,nu,HSES,D,280,Q3,0.9,Q1,85,Q3,0,-99999,-99999,1,0.25,10,0.425,10,Abercrombie_etal_2000&HarvardCMT,0.015481575,0.015486959,0.015499638,0.01551816,0.015537886,0.015605313,0.01571688,0.015998893,0.016417771,0.017076745,0.017705887,0.018636138,0.019473904,0.017102337,0.011584089,0.006436282,0.003944761,-99999,-99999,-99999,-99999,-99999,0.017200285,0.017206708,0.017217215,0.01723279,0.017252228,0.017328157,0.01746813,0.017837115,0.018263009,0.019003071,0.019884864,0.021077757,0.021819727,0.020586042,0.014976765,0.00719095,0.004500723,-99999,-99999,-99999,-99999,-99999,0.015473,0.017197,0.019453,0.022497
608810,1994-06-18T03:25:13.819000Z,D94044A1b,6.72,0.08,Crustal,R,1,221,47,112,geonet,-43.0078,171.4762,-45.8986,170.5097,5798820.69,2385786.14,5475848,2316608,21.06,21.06,330.46,330.33,323.2,323.05,-155.59,289.14,0,4.27,1,nu,SKFS,D,140,Q2,0.8,Q3,25,Q3,0,-99999,-99999,1,0.2,10,0.34,10,Abercrombie_etal_2000&HarvardCMT,0.013960974,0.013976694,0.013993744,0.014014097,0.014043858,0.014168339,0.014341805,0.01465198,0.015014732,0.015474136,0.016056262,0.016999364,0.01776853,0.015921096,0.012462021,0.006346582,0.003569556,-99999,-99999,-99999,-99999,-99999,0.015708377,0.015714976,0.015723461,0.015738241,0.015755858,0.015814742,0.015887161,0.016026573,0.016364079,0.016892982,0.01747862,0.018966882,0.020608215,0.019633195,0.01353647,0.006854566,0.003907307,-99999,-99999,-99999,-99999,-99999,0.013958,0.015708,0.018737,0.02038
608810,1994-06-18T03:25:13.819000Z,D94051D1,6.72,0.08,Crustal,R,1,221,47,112,geonet,-43.0078,171.4762,-41.7557,171.5998,5798820.69,2385786.14,5938069,2393545,21.06,21.06,139.6,139.53,132.84,132.84,89.59,-110.18,0,4.27,1,nu,WBCS,D,300,Q3,1.2,Q2,105,Q3,0,-99999,-99999,0,0.25,20,0.425,20,Abercrombie_etal_2000&HarvardCMT,0.045868921,0.045988166,0.046333437,0.046793222,0.04727596,0.048048929,0.047761861,0.049367461,0.04867488,0.048707066,0.047939821,0.047011591,0.046217325,0.036889458,0.028209917,0.016590045,0.010314365,-99999,-99999,-99999,-99999,-99999,0.058023505,0.058378212,0.058775308,0.059097275,0.059490033,0.058949949,0.0576407,0.054985933,0.055120924,0.057918224,0.061234736,0.062822706,0.06192837,0.045748586,0.034050443,0.020303091,0.012623171,-99999,-99999,-99999,-99999,-99999,0.045551,0.058169,0.050876,0.058746
608810,1994-06-18T03:25:13.819000Z,D94054A3,6.72,0.08,Crustal,R,1,221,47,112,geonet,-43.0078,171.4762,-43.883,169.0441,5798820.69,2385786.14,5695156,2192230,21.06,21.06,219.12,219.61,211.53,212.02,82.16,205.22,0,4.27,1,nu,HDWS,D,210,Q3,0.87,Q1,100,Q3,0,-99999,-99999,1,0.3,11,0.51,11,Abercrombie_etal_2000&HarvardCMT,0.014423339,0.014477819,0.014589602,0.01472305,0.014899,0.015578021,0.016297953,0.016732436,0.016249006,0.016111,0.015295388,0.013438761,0.012217985,0.009860049,0.006751504,0.003830888,-99999,-99999,-99999,-99999,-99999,-99999,0.019492683,0.019589967,0.019737856,0.019931567,0.020164798,0.021133326,0.022197689,0.022670702,0.021967276,0.021126189,0.020201057,0.017434394,0.014327512,0.011037228,0.00743901,0.004459245,-99999,-99999,-99999,-99999,-99999,-99999,0.014384,0.01943,0.01289,0.014801
608810,1994-06-18T03:25:13.819000Z,D94129A2,6.72,0.08,Crustal,R,1,221,47,112,geonet,-43.0078,171.4762,-41.7999,172.328,5798820.69,2385786.14,5933893,2454147,21.06,21.06,151.43,151.45,143.62,143.66,41.11,-146.79,0,4.27,1,nu,MCAS,D,501,Q3,1.6,Q3,200,Q3,0,-99999,-99999,0,0.1,13,0.17,13,Abercrombie_etal_2000&HarvardCMT,0.027213998,0.027334069,0.027472197,0.027666201,0.027841315,0.028412497,0.029281521,0.029856094,0.028949627,0.027208847,0.027508597,0.027116191,0.023981145,0.020304702,0.017597116,0.010176215,0.007314121,0.003749011,0.002182522,0.001484195,-99999,-99999,0.02945759,0.029508207,0.029697959,0.029930529,0.030263034,0.031229084,0.032132868,0.032204257,0.03280409,0.034442001,0.034597274,0.029084733,0.027608596,0.021568172,0.018342955,0.010569492,0.008457195,0.00398988,0.002612397,0.001955677,-99999,-99999,0.027166,0.029349,0.027983,0.029524
608810,1994-06-18T03:25:13.819000Z,K94112A1,6.72,0.08,Crustal,R,1,221,47,112,geonet,-43.0078,171.4762,-43.1325,171.7693,5798820.69,2385786.14,5785358,2409884,21.06,21.06,27.55,28.04,23.3,23.35,-22.93,-5.65,0,4.27,1,fw,112B,C,667,Q3,0.36,Q3,60,Q3,0,-99999,-99999,1,0.35,18,0.595,18,Abercrombie_etal_2000&HarvardCMT,0.134003617,0.134728102,0.135851641,0.137182485,0.138764616,0.143415909,0.150505006,0.160665276,0.165642543,0.154262403,0.131083078,0.095745367,0.077619819,0.050702758,0.033355986,0.018923486,-99999,-99999,-99999,-99999,-99999,-99999,0.147838319,0.148291862,0.149262883,0.15112188,0.154370752,0.166718779,0.178708192,0.199223902,0.202992844,0.193772105,0.175598472,0.135190217,0.102028223,0.068895018,0.046940547,0.020305481,-99999,-99999,-99999,-99999,-99999,-99999,0.133497,0.147884,0.080934,0.108476
697172,1994-12-15T11:20:17.858000Z,K5113A01,6.31,0.15,Crustal,S,0,194,77,-1.61E+02,geonet,-37.1987,177.528,-37.8735,177.5847,6434683.68,2912134.85,6359624,2913365,13.1,13.1,75.2,76.03,70.88,72.17,-99999,-99999,10,12,5.68,nu,113A,C,522,Q3,0.15,Q3,10,Q3,0,-99999,-99999,1,0.5,11,0.85,11,HarvardCMT,0.080077699,0.080414157,0.08092707,0.081562355,0.082491878,0.085827668,0.090336671,0.099256835,0.09426331,0.083108057,0.073808101,0.050512475,0.036131754,0.015987187,0.008598289,-99999,-99999,-99999,-99999,-99999,-99999,-99999,0.087872504,0.088157604,0.088533396,0.089094714,0.090014579,0.093228724,0.098168753,0.109339365,0.117987142,0.109855554,0.091852797,0.059957532,0.045552754,0.020984458,0.010675085,-99999,-99999,-99999,-99999,-99999,-99999,-99999,0.079917,0.087819,0.035922,0.044695
731516,1995-02-05T22:51:04.665000Z,D5016A02,7.09,0.15,Crustal,N,0,215,58,-9.00E+01,geonet,-37.6496,179.4886,-38.6774,178.031,6374193.93,3082358.22,6268431,2947608,32.2,32.2,171.17,171.73,155.42,156.01,-99999,-99999,0,12,1.73,nu,016A,C,480,Q3,0.15,Q3,10,Q3,0,-99999,-99999,0,0.35,14,0.595,14,HarvardCMT,0.019700488,0.019745279,0.019839338,0.019976646,0.020127704,0.020611037,0.02150379,0.022886756,0.022002358,0.020228297,0.019168298,0.018073968,0.015832048,0.011556825,0.008334114,0.004021869,-99999,-99999,-99999,-99999,-99999,-99999,0.02211355,0.022176908,0.022262717,0.022373482,0.0225433,0.023048736,0.023989553,0.025317491,0.025383709,0.024789266,0.023754415,0.021409084,0.018485906,0.012377204,0.008948378,0.004400207,-99999,-99999,-99999,-99999,-99999,-99999,0.019614,0.022096,0.013599,0.015489
731516,1995-02-05T22:51:04.665000Z,D5017A02,7.09,0.15,Crustal,N,0,215,58,-9.00E+01,geonet,-37.6496,179.4886,-38.6665,178.0227,6374193.93,3082358.22,6269685,2946952,32.2,32.2,170.91,171.47,155.18,155.77,-99999,-99999,0,12,1.73,nu,GISS,D,138,Q2,1,Q1,40,Q3,0,-99999,-99999,0,0.18,12,0.306,12,HarvardCMT,0.022688547,0.022737497,0.02280454,0.022905421,0.02307245,0.02368203,0.024807779,0.025679108,0.025112979,0.025866098,0.025505037,0.023950292,0.02374916,0.020602489,0.014306846,0.006730127,0.003829562,0.001867334,-99999,-99999,-99999,-99999,0.026674431,0.026709258,0.026761853,0.026864814,0.026975857,0.027318459,0.02743453,0.028071684,0.028877363,0.030300927,0.031025181,0.031367851,0.030671532,0.025691202,0.017675998,0.007621811,0.004564323,0.001968976,-99999,-99999,-99999,-99999,0.022668,0.026673,0.023536,0.028064
731516,1995-02-05T22:51:04.665000Z,D5709A03,7.09,0.15,Crustal,N,0,215,58,-9.00E+01,geonet,-37.6496,179.4886,-38.6257,177.9216,6374193.93,3082358.22,6274694,2938413,32.2,32.2,174.82,175.4,159.22,159.85,-99999,-99999,0,12,1.73,nu,GWTS,D,245,Q3,1.5,Q3,125,Q3,0,-99999,-99999,0,0.15,10,0.255,10,HarvardCMT,0.021734398,0.021756232,0.021784296,0.021819288,0.021834916,0.021894253,0.022057524,0.022510658,0.023188108,0.023557503,0.023964707,0.023659924,0.023259824,0.021175049,0.020924163,0.017561383,0.013660865,0.007727104,-99999,-99999,-99999,-99999,0.023710799,0.023747721,0.023784566,0.02382103,0.023891845,0.02404883,0.024134253,0.024590646,0.025772703,0.026014904,0.026255074,0.026031637,0.026743011,0.025327665,0.02466469,0.02228085,0.01525854,0.00844785,-99999,-99999,-99999,-99999,0.021733,0.023696,0.047036,0.051666
731516,1995-02-05T22:51:04.665000Z,D5712A03,7.09,0.15,Crustal,N,0,215,58,-9.00E+01,geonet,-37.6496,179.4886,-37.9615,176.9855,6374193.93,3082358.22,6352382,2860270,32.2,32.2,222.62,223.48,209.17,210.15,-99999,-99999,0,12,1.73,nu,WKHS,D,210,Q3,0.71,Q2,100,Q3,0,-99999,-99999,0,0.25,12,0.425,12,HarvardCMT,0.017427604,0.017465029,0.017505969,0.017564967,0.017672202,0.018045934,0.018239314,0.018485312,0.018865614,0.01987377,0.020440781,0.019358864,0.017547333,0.011921411,0.008213646,0.00398234,0.002228128,-99999,-99999,-99999,-99999,-99999,0.018977469,0.019019773,0.019071768,0.019138605,0.019231338,0.019614164,0.019919285,0.019313453,0.020782,0.021720446,0.022065855,0.021483302,0.018852906,0.012877167,0.009723678,0.004264242,0.002463013,-99999,-99999,-99999,-99999,-99999,0.017383,0.01896,0.01429,0.016299
731516,1995-02-05T22:51:04.665000Z,K5113A02,7.09,0.15,Crustal,N,0,215,58,-9.00E+01,geonet,-37.6496,179.4886,-37.8735,177.5847,6374193.93,3082358.22,6359624,2913365,32.2,32.2,169.2,170.05,155.84,156.86,-99999,-99999,0,12,1.73,nu,113A,C,522,Q3,0.15,Q3,10,Q3,0,-99999,-99999,1,0.4,11,0.68,11,HarvardCMT,0.038579207,0.038739659,0.038994386,0.039354731,0.039870596,0.041543922,0.043796224,0.049199712,0.049858521,0.04291165,0.036553897,0.025765873,0.018082329,0.008359906,0.005502583,-99999,-99999,-99999,-99999,-99999,-99999,-99999,0.041623317,0.041751914,0.042043427,0.042398441,0.04280125,0.044477639,0.046804527,0.052087661,0.05370663,0.049443959,0.044287333,0.028181793,0.019642479,0.009629996,0.006611044,-99999,-99999,-99999,-99999,-99999,-99999,-99999,0.038456,0.041675,0.017797,0.020876
721911,1995-02-10T01:44:56.764000Z,D5016A04,6.49,0.15,Crustal,N,0,220,41,-7.80E+01,irisdmc,-38.1086,178.6757,-38.6774,178.031,6344659.25,3005555.26,6268431,2947608,16.2,16.2,84.6,96.52,87.77,88.47,-99999,-99999,0,12,6.26,nu,016A,C,480,Q3,0.15,Q3,10,Q3,0,-99999,-99999,1,0.3,10,0.51,10,HarvardCMT,0.013074284,0.013100447,0.01313538,0.013191755,0.013264274,0.013493889,0.013792729,0.014247972,0.013814695,0.014204744,0.014489971,0.013433473,0.012276098,0.008382335,0.005975365,0.003898423,-99999,-99999,-99999,-99999,-99999,-99999,0.015128583,0.015161841,0.015202666,0.015289152,0.015397585,0.015752045,0.016329436,0.017754413,0.018526797,0.01782563,0.016478521,0.015676474,0.015848348,0.011732192,0.006789481,0.004521851,-99999,-99999,-99999,-99999,-99999,-99999,0.01307,0.015125,0.011199,0.012434
721911,1995-02-10T01:44:56.764000Z,D5017A03,6.49,0.15,Crustal,N,0,220,41,-7.80E+01,irisdmc,-38.1086,178.6757,-38.6665,178.0227,6344659.25,3005555.26,6269685,2946952,16.2,16.2,84.19,95.91,87.18,87.87,-99999,-99999,0,12,6.26,nu,GISS,D,138,Q2,1,Q1,40,Q3,0,-99999,-99999,1,0.2,10,0.34,10,HarvardCMT,0.015884595,0.015909012,0.015949187,0.01601695,0.0160846,0.016308396,0.016478657,0.017082495,0.017192139,0.016746151,0.016873289,0.01682968,0.016119835,0.013456965,0.010244654,0.005363079,0.003412614,-99999,-99999,-99999,-99999,-99999,0.02042055,0.020432991,0.020471069,0.020511654,0.020552462,0.020685995,0.020846261,0.02156817,0.022521336,0.023228936,0.023466219,0.023266179,0.021794598,0.017940309,0.01410818,0.007093146,0.003982466,-99999,-99999,-99999,-99999,-99999,0.015846,0.020389,0.017052,0.020424
722185,1995-03-22T19:43:30.268000Z,D5040A01,5.83,0.15,Slab,S,0,27,64,30,nlloc,-41.0514,174.216,-41.5763,175.2269,6016538.56,2612205.51,5956588,2695679,7.6,7.6,102.64,133.7,100.01,131.33,-99999,-99999,0,85.51,82.13,nu,040A,B,770,Q3,0.08,Q3,7,Q3,0,-99999,-99999,1,0.25,22,0.425,22,HarvardCMT,0.022387975,0.022944714,0.023685126,0.024385677,0.025005721,0.025420676,0.02579503,0.023773117,0.019449777,0.01565631,0.012419753,0.007659685,0.005800028,0.003158178,0.002147064,0.001493263,0.000966944,-99999,-99999,-99999,-99999,-99999,0.027281577,0.027877839,0.028795072,0.030799898,0.032147351,0.031756491,0.029045676,0.026286839,0.020857495,0.017713719,0.013921471,0.009255211,0.007376329,0.003316748,0.002569075,0.001646896,0.0010975,-99999,-99999,-99999,-99999,-99999,0.022443,0.026833,0.006984,0.007547
722185,1995-03-22T19:43:30.268000Z,D5050A02,5.83,0.15,Slab,S,0,27,64,30,nlloc,-41.0514,174.216,-41.1247,173.0095,6016538.56,2612205.51,6009109,2510784,7.6,7.6,101.44,132.87,98.42,129.2,-99999,-99999,0,85.51,82.13,nu,MOTS,D,300,Q3,1.27,Q3,300,Q3,0,-99999,-99999,0,0.3,25,0.51,25,HarvardCMT,0.074989702,0.075615172,0.076234863,0.078352712,0.079989441,0.084671054,0.090289064,0.090851259,0.087366999,0.080848746,0.071745291,0.048880672,0.036169701,0.017562102,0.009571302,0.005719368,-99999,-99999,-99999,-99999,-99999,-99999,0.081404606,0.081579069,0.081853355,0.081893432,0.085148709,0.095138061,0.094782764,0.097085735,0.094282065,0.094864182,0.08719327,0.067339326,0.046306467,0.020680126,0.012568816,0.006769743,-99999,-99999,-99999,-99999,-99999,-99999,0.074658,0.081151,0.031704,0.038098
722185,1995-03-22T19:43:30.268000Z,D5056A02,5.83,0.15,Slab,S,0,27,64,30,nlloc,-41.0514,174.216,-41.2758,173.2851,6016538.56,2612205.51,5992292,2533876,7.6,7.6,81.82,118.48,78.7,114.72,-99999,-99999,0,85.51,82.13,nu,056A,B,450,Q3,0.07,Q3,5,Q3,0,-99999,-99999,0,0.3,15,0.51,15,HarvardCMT,0.204131732,0.205192454,0.207111237,0.209503673,0.212758864,0.223764548,0.234674433,0.253847305,0.249164373,0.220399997,0.179496906,0.110176633,0.07954506,0.039832208,0.019980483,0.009242287,-99999,-99999,-99999,-99999,-99999,-99999,0.257480458,0.258968824,0.261075337,0.264205805,0.269601941,0.285848593,0.300974064,0.320469919,0.310987863,0.273798127,0.230030177,0.151345839,0.112491117,0.056269256,0.02547753,0.013052858,-99999,-99999,-99999,-99999,-99999,-99999,0.203401,0.256838,0.086241,0.109037
722185,1995-03-22T19:43:30.268000Z,D5129A01,5.83,0.15,Slab,S,0,27,64,30,nlloc,-41.0514,174.216,-41.7999,172.328,6016538.56,2612205.51,5933893,2454147,7.6,7.6,178.06,197.87,174.9,194.27,-99999,-99999,0,85.51,82.13,nu,MCAS,D,501,Q3,1.6,Q3,200,Q3,0,-99999,-99999,0,0.3,17,0.51,17,HarvardCMT,0.032878558,0.033095418,0.033547358,0.034083103,0.034671277,0.036342974,0.037730193,0.036455725,0.03305571,0.029413906,0.027190861,0.025080313,0.021737914,0.01181974,0.008334145,0.005403143,-99999,-99999,-99999,-99999,-99999,-99999,0.041472284,0.041692412,0.04205096,0.04281936,0.043712468,0.046278478,0.048214563,0.049244409,0.046602967,0.041598268,0.035713333,0.02944306,0.024315074,0.014903764,0.010288926,0.005835926,-99999,-99999,-99999,-99999,-99999,-99999,0.032924,0.041474,0.019706,0.021382
722185,1995-03-22T19:43:30.268000Z,D5130B01,5.83,0.15,Slab,S,0,27,64,30,nlloc,-41.0514,174.216,-41.6696,173.2029,6016538.56,2612205.51,5948576,2526890,7.6,7.6,108.97,138.82,105.86,135.11,-99999,-99999,0,85.51,82.13,nu,130B,D,367,Q3,0.85,Q3,100,Q3,0,-99999,-99999,1,0.4,24,0.68,24,HarvardCMT,0.020802867,0.021247231,0.021952556,0.023175073,0.024332473,0.024947459,0.02191436,0.016249286,0.014307677,0.01287893,0.011007751,0.008184716,0.006286031,0.003607402,0.002319676,-99999,-99999,-99999,-99999,-99999,-99999,-99999,0.023208546,0.023802033,0.024315987,0.025338318,0.025266665,0.025725497,0.027068662,0.021480535,0.015593824,0.013810044,0.012486785,0.010423899,0.007721277,0.004902827,0.003067869,-99999,-99999,-99999,-99999,-99999,-99999,-99999,0.020729,0.023068,0.007133,0.008654
722185,1995-03-22T19:43:30.268000Z,D5131A06,5.83,0.15,Slab,S,0,27,64,30,nlloc,-41.0514,174.216,-40.9143,175.005,6016538.56,2612205.51,6030534,2678862,7.6,7.6,67.96,109.33,64.87,106.63,-99999,-99999,0,85.51,82.13,nu,PAPS,D,200,Q3,1.4,Q1,100,Q3,0,-99999,-99999,0,0.45,18,0.765,18,HarvardCMT,0.062611331,0.063553661,0.065202476,0.067275636,0.070033908,0.076545078,0.077776462,0.067233546,0.054870906,0.047447354,0.036191071,0.028822437,0.020495234,0.011784185,0.008019547,-99999,-99999,-99999,-99999,-99999,-99999,-99999,0.082552203,0.083169641,0.084943415,0.08684898,0.088729201,0.09430427,0.09974818,0.088720779,0.068748659,0.05369014,0.044550455,0.0320679,0.0240676,0.012697924,0.010721075,-99999,-99999,-99999,-99999,-99999,-99999,-99999,0.062974,0.080919,0.023458,0.025778
722185,1995-03-22T19:43:30.268000Z,D5132A05,5.83,0.15,Slab,S,0,27,64,30,nlloc,-41.0514,174.216,-41.2975,174.781,6016538.56,2612205.51,5988401,2659132,7.6,7.6,54.63,101.53,52,98.73,-99999,-99999,0,85.51,82.13,nu,132A,C,245,Q2,0.47,Q2,27,Q2,0,-99999,-99999,0,0.3,15,0.51,15,HarvardCMT,0.053502915,0.054009569,0.054817652,0.055738717,0.057070234,0.060897514,0.063128125,0.061995486,0.046053354,0.041712847,0.039001163,0.034563758,0.027651428,0.015247112,0.008962628,0.003917804,-99999,-99999,-99999,-99999,-99999,-99999,0.064427231,0.065208719,0.066222467,0.067678313,0.070188253,0.077284895,0.080299161,0.074090615,0.061405762,0.047308729,0.042942066,0.04009062,0.03027128,0.017284348,0.009906349,0.005363951,-99999,-99999,-99999,-99999,-99999,-99999,0.053645,0.064267,0.022839,0.02753
722185,1995-03-22T19:43:30.268000Z,D5302A03,5.83,0.15,Slab,S,0,27,64,30,nlloc,-41.0514,174.216,-39.9338,175.053,6016538.56,2612205.51,6139282,2685450,7.6,7.6,143.02,166.57,140.12,164.23,-99999,-99999,0,85.51,82.13,nu,302A,D,250,Q2,0.8,Q3,80,Q3,0,-99999,-99999,0,0.4,18,0.68,18,HarvardCMT,0.030207496,0.030427093,0.030892039,0.031602161,0.032385253,0.0332243,0.033284462,0.031874563,0.032972858,0.031988206,0.029929326,0.027201228,0.020851853,0.010295723,0.006636923,-99999,-99999,-99999,-99999,-99999,-99999,-99999,0.034747983,0.034890541,0.035459459,0.036074087,0.036722129,0.037599069,0.036176687,0.035354772,0.036436046,0.033875527,0.032752941,0.029224402,0.02331531,0.011864629,0.007831496,-99999,-99999,-99999,-99999,-99999,-99999,-99999,0.030144,0.034818,0.01655,0.019803
722185,1995-03-22T19:43:30.268000Z,D5643B07,5.83,0.15,Slab,S,0,27,64,30,nlloc,-41.0514,174.216,-41.1513,174.9794,6016538.56,2612205.51,6004275,2676112,7.6,7.6,64.92,107.53,62.09,104.88,-99999,-99999,0,85.51,82.13,nu,643B,B,1000,Q3,<0.1,Q3,1.50E+00,Q3,0,-99999,-99999,0,0.3,30,0.51,30,HarvardCMT,0.043590025,0.044019442,0.044935932,0.04457237,0.046296967,0.049555312,0.052145585,0.050339251,0.039236222,0.028410492,0.02202898,0.013672893,0.009734931,0.00494248,0.003048892,0.001631768,-99999,-99999,-99999,-99999,-99999,-99999,0.052808191,0.053468318,0.054744542,0.05596542,0.057222254,0.062238511,0.065883689,0.058368893,0.04648844,0.035601249,0.026708646,0.01744793,0.011668373,0.006263059,0.003910799,0.002083655,-99999,-99999,-99999,-99999,-99999,-99999,0.043803,0.051789,0.013908,0.016355
