CuspID,Origin_time,Record,Mw,MwUncert,TectClass,Mech,PreferredFaultPlane,Strike,Dip,Rake,Location,HypLat,HypLon,StationLat,StationLon,HypN,HypE,StationN,StationE,LENGTH_km,WIDTH_km,Repi_km,Rhyp_km,Rjb_km,Rrup_km,Rx_km,Ry_km,Rvol_km,HypDepth_km,ZTOR_km,HWFW,SiteCode,SiteClass1170,Vs30,Vs30Uncert,Tsite,TsiteUncert,Z1,Z1Uncertainty,Directivity,Pulse_or,Pulse_T,S_Trigger_Flag,fcButterHP,f_iniLP,fmin,fmax,References,f100.0000SA_RotD50,f50.0000SA_RotD50,f33.3333SA_RotD50,f25.0000SA_RotD50,f20.0000SA_RotD50,f13.3333SA_RotD50,f10.0000SA_RotD50,f6.6667SA_RotD50,f5.0000SA_RotD50,f4.0000SA_RotD50,f3.3333SA_RotD50,f2.5000SA_RotD50,f2.0000SA_RotD50,f1.3333SA_RotD50,f1.0000SA_RotD50,f0.6667SA_RotD50,f0.5000SA_RotD50,f0.3333SA_RotD50,f0.2500SA_RotD50,f0.2000SA_RotD50,f0.1333SA_RotD50,f0.1000SA_RotD50,f100.0000SA_RotD100,f50.0000SA_RotD100,f33.3333SA_RotD100,f25.0000SA_RotD100,f20.0000SA_RotD100,f13.3333SA_RotD100,f10.0000SA_RotD100,f6.6667SA_RotD100,f5.0000SA_RotD100,f4.0000SA_RotD100,f3.3333SA_RotD100,f2.5000SA_RotD100,f2.0000SA_RotD100,f1.3333SA_RotD100,f1.0000SA_RotD100,f0.6667SA_RotD100,f0.5000SA_RotD100,f0.3333SA_RotD100,f0.2500SA_RotD100,f0.2000SA_RotD100,f0.1333SA_RotD100,f0.1000SA_RotD100,PGA_RotD50,PGA_RotD100,PGV_RotD50,PGV_RotD100
771645,1995-11-24T06:18:56.622999Z,D5505A37,6.19,0.08,Crustal,O,1,176,46,44,geonet,-42.953,171.8188,-42.9489,171.5677,5805359.34,2413627.76,5805487,2393135,11.44,11.44,20.44,22,18.34,21,22.52,-1.56,0,7.26,5.1,hw,APPS,C,300,Q2,0.4,Q1,30,Q2,0,-99999,-99999,0,0.29,20,0.493,20,Gledhill_etal_2000,0.133678975,0.135182679,0.137605741,0.142121578,0.253700325,0.358582143,0.458499705,0.619820206,1.032306576,0.457426337,0.382895689,0.587769544,0.433330645,0.141671693,0.064989505,0.022318975,0.014096732,-99999,-99999,-99999,-99999,-99999,0.150180505,0.152548618,0.157069416,0.163976848,0.31038503,0.405746297,0.616406253,0.678116952,1.450106906,0.483527152,0.520072568,0.826757009,0.499447355,0.177263428,0.086236361,0.027053505,0.018696535,-99999,-99999,-99999,-99999,-99999,0.132025,0.149811,0.066529,0.086571
771645,1995-11-24T06:18:56.622999Z,D6051D01,6.19,0.08,Crustal,O,1,176,46,44,geonet,-42.953,171.8188,-41.7557,171.5998,5805359.34,2413627.76,5938069,2393545,11.44,11.44,134.35,134.42,128.36,128.45,12.86,-133.79,0,7.26,5.1,nu,WBCS,D,300,Q3,1.2,Q2,105,Q3,0,-99999,-99999,0,0.2,20,0.34,20,Gledhill_etal_2000,0.018577082,0.018700308,0.018863514,0.019262606,0.027100113,0.055354618,0.041144479,0.086279389,0.08259223,0.067149215,0.108083231,0.062613314,0.096552563,0.057392808,0.074512111,0.029701903,0.012459053,-99999,-99999,-99999,-99999,-99999,0.02342856,0.023617391,0.023949006,0.024418717,0.030006304,0.069881096,0.045857343,0.105070296,0.102654702,0.085970669,0.120153921,0.078009587,0.133235593,0.072984343,0.105331578,0.039922903,0.016744374,-99999,-99999,-99999,-99999,-99999,0.018493,0.023427,0.015306,0.017548
771645,1995-11-24T06:18:56.622999Z,D6129A01,6.19,0.08,Crustal,O,1,176,46,44,geonet,-42.953,171.8188,-41.7999,172.328,5805359.34,2413627.76,5933893,2454147,11.44,11.44,134.87,134.97,129.24,129.34,-47.3,-125.39,0,7.26,5.1,nu,MCAS,D,501,Q3,1.6,Q3,200,Q3,0,-99999,-99999,1,0.2,10,0.34,10,Gledhill_etal_2000,0.018071971,0.018097205,0.018185821,0.018249758,0.01834283,0.018677799,0.024641102,0.037011382,0.062702814,0.058595039,0.091452031,0.118499358,0.092859513,0.061134965,0.074159087,0.053759503,0.023849982,-99999,-99999,-99999,-99999,-99999,0.022487549,0.022544642,0.022615199,0.022640978,0.022750905,0.023177953,0.029051434,0.042925513,0.068252438,0.068660939,0.101233351,0.161478873,0.103797227,0.073197796,0.078847006,0.06129728,0.030550544,-99999,-99999,-99999,-99999,-99999,0.018047,0.022471,0.028369,0.03326
771645,1995-11-24T06:18:56.622999Z,K5112B01,6.19,0.08,Crustal,O,1,176,46,44,geonet,-42.953,171.8188,-43.1325,171.7693,5805359.34,2413627.76,5785358,2409884,11.44,11.44,20.36,21.83,14.58,16.61,7.21,19.69,0,7.26,5.1,nu,112B,C,667,Q3,0.36,Q3,60,Q3,0,-99999,-99999,1,0.25,20,0.425,20,Gledhill_etal_2000,0.137294134,0.139661147,0.144596449,0.153689327,0.20018579,0.466701245,0.730651264,0.5749711,0.490507703,0.899395003,0.396941393,0.2014902,0.225483196,0.073032772,0.044502753,0.060366719,0.023263444,-99999,-99999,-99999,-99999,-99999,0.155583781,0.158116685,0.162648007,0.170405715,0.2420134,0.548635837,0.869549543,0.779571304,0.67681229,1.20222292,0.456154731,0.223794491,0.298825601,0.102342892,0.050363593,0.084063338,0.030926437,-99999,-99999,-99999,-99999,-99999,0.136134,0.153001,0.051684,0.068418
1037562,1996-08-29T04:47:00.878000Z,D6042A01,5.25,0.15,Crustal,S,0,317,67,-2.00E+01,geonet,-42.4891,172.7921,-42.5232,172.8305,5857551.8,2492912.82,5853765,2496076,3.9,3.9,4.93,10.98,3.66,9.43,-99999,-99999,0,9.43,7.61,nu,HSES,D,280,Q3,0.9,Q1,85,Q3,0,-99999,-99999,0,0.2,18,0.34,18,HarvardCMT,0.237043178,0.237584518,0.239020678,0.240813521,0.243883812,0.30632525,0.539360489,0.557493248,0.477615615,0.497754032,0.581692613,0.708318989,0.454096087,0.610114597,0.554736371,0.161229714,0.076597712,-99999,-99999,-99999,-99999,-99999,0.274834883,0.276417608,0.279251457,0.284105495,0.294174092,0.379898867,0.73765402,0.68903478,0.549770911,0.575914947,0.688098893,0.92029438,0.495801922,0.720248152,0.662116053,0.21712856,0.095450098,-99999,-99999,-99999,-99999,-99999,0.236709,0.274839,0.238508,0.283921
1348340,1999-01-03T07:00:20.568000Z,D9131A03,5.22,0.15,Slab,N,1,211,80,-8.30E+01,nlloc,-41.0938,174.519,-40.9143,175.005,6011432.3,2637591.18,6030534,2678862,3.7,3.7,45.4,72.68,43.85,70.85,-25.21,-37.63,0,56.68,54.84,nu,PAPS,D,200,Q3,1.4,Q1,100,Q3,0,-99999,-99999,0,0.4,15,0.68,15,HarvardCMT,0.0256637,0.026024326,0.026703366,0.027678051,0.029157989,0.049709866,0.086667068,0.161607342,0.122350245,0.063435732,0.050741829,0.03767604,0.047656308,0.032762758,0.029912009,-99999,-99999,-99999,-99999,-99999,-99999,-99999,0.027304522,0.027647148,0.02820946,0.029057251,0.030391725,0.059499643,0.095298983,0.213730812,0.165440831,0.076899901,0.062781549,0.051243745,0.059488634,0.040485587,0.036791423,-99999,-99999,-99999,-99999,-99999,-99999,-99999,0.025641,0.027261,0.012535,0.014003
1348340,1999-01-03T07:00:20.568000Z,D9469A01,5.22,0.15,Slab,N,1,211,80,-8.30E+01,nlloc,-41.0938,174.519,-41.2117,174.9033,6011432.3,2637591.18,5997711,2669586,3.7,3.7,34.75,66.53,34.35,64.79,-34.17,-4.72,0,56.68,54.84,nu,LHES,D,240,Q3,1.16,Q3,280,Q3,0,-99999,-99999,0,0.35,12.5,0.595,12.5,HarvardCMT,0.01848073,0.018538239,0.018644566,0.018833955,0.019117799,0.022474612,0.038803069,0.039449038,0.068131673,0.053486081,0.062319388,0.047956971,0.047052934,0.038067948,0.023222497,0.007577821,-99999,-99999,-99999,-99999,-99999,-99999,0.026135041,0.026216678,0.026368459,0.02661665,0.027037992,0.031770035,0.048596228,0.054490946,0.073246393,0.06297521,0.067938832,0.060665531,0.059450837,0.04589336,0.026103223,0.009401602,-99999,-99999,-99999,-99999,-99999,-99999,0.018481,0.026135,0.01573,0.02148
1348340,1999-01-03T07:00:20.568000Z,D9643B07,5.22,0.15,Slab,N,1,211,80,-8.30E+01,nlloc,-41.0938,174.519,-41.1513,174.9794,6011432.3,2637591.18,6004275,2676112,3.7,3.7,39.09,68.98,38.4,67.25,-36.38,-13.7,0,56.68,54.84,nu,643B,B,1000,Q3,<0.1,Q3,1.50E+00,Q3,0,-99999,-99999,0,0.45,18,0.765,18,HarvardCMT,0.027616093,0.028230818,0.029341371,0.031225519,0.034462357,0.074486286,0.088248018,0.153914388,0.176631609,0.05252254,0.030815235,0.021227282,0.015960125,0.012637191,0.007953363,-99999,-99999,-99999,-99999,-99999,-99999,-99999,0.036236576,0.036646208,0.03739483,0.038544401,0.040779527,0.082345581,0.097650596,0.193338358,0.22639989,0.065068686,0.034032551,0.024902012,0.022053212,0.016103022,0.010138094,-99999,-99999,-99999,-99999,-99999,-99999,-99999,0.027619,0.036236,0.008702,0.010464
1348340,1999-01-03T07:00:20.568000Z,D9644C05,5.22,0.15,Slab,N,1,211,80,-8.30E+01,nlloc,-41.0938,174.519,-41.2187,174.8826,6011432.3,2637591.18,5996970,2667828,3.7,3.7,33.46,65.85,33.1,64.1,-33.04,-3.18,0,56.68,54.84,nu,644C,D,189,Q3,2,Q3,250,Q3,0,-99999,-99999,0,0.3,18,0.51,18,HarvardCMT,0.019755958,0.019875467,0.020046259,0.020456823,0.021455567,0.045312337,0.050849336,0.042547588,0.066855786,0.028338192,0.036921317,0.083026023,0.060176969,0.025875311,0.01446314,0.006019151,-99999,-99999,-99999,-99999,-99999,-99999,0.027198751,0.027276091,0.027406942,0.027631076,0.028657209,0.060121934,0.058937351,0.058108018,0.090314404,0.040057199,0.047322427,0.099292215,0.077388351,0.031351174,0.018849829,0.007318772,-99999,-99999,-99999,-99999,-99999,-99999,0.019756,0.027164,0.011757,0.016601
1348340,1999-01-03T07:00:20.568000Z,D9900C01,5.22,0.15,Slab,N,1,211,80,-8.30E+01,nlloc,-41.0938,174.519,-41.2891,174.7799,6011432.3,2637591.18,5989335,2659058,3.7,3.7,30.79,64.52,30.25,62.73,-29.46,7.88,0,56.68,54.84,nu,900C,D,250,Q3,0.8,Q3,60,Q3,0,-99999,-99999,0,0.52,10,0.884,10,HarvardCMT,0.017130392,0.017243006,0.017397841,0.017646156,0.01800008,0.019470757,0.03482075,0.072321204,0.078609249,0.058948441,0.055322351,0.042964,0.045635974,0.021364626,0.00856695,-99999,-99999,-99999,-99999,-99999,-99999,-99999,0.020910099,0.021090829,0.021362293,0.021851105,0.022555865,0.026029114,0.04380848,0.099258158,0.097144883,0.067723069,0.063766925,0.056390829,0.063218521,0.028897616,0.011797313,-99999,-99999,-99999,-99999,-99999,-99999,-99999,0.017089,0.02082,0.011181,0.013802
1348340,1999-01-03T07:00:20.568000Z,G9713A02,5.22,0.15,Slab,N,1,211,80,-8.30E+01,nlloc,-41.0938,174.519,-41.1257,174.8392,6011432.3,2637591.18,6007373,2664412,3.7,3.7,27.06,62.84,26.34,61.02,-24.76,-10.33,0,56.68,54.84,nu,713A,D,210,Q3,0.6,Q3,40,Q3,0,-99999,-99999,0,0.6,12.5,1.02,12.5,HarvardCMT,0.020880163,0.021099545,0.021498062,0.022223665,0.023067534,0.02839284,0.057567858,0.088282249,0.080243678,0.056250445,0.064326109,0.043632207,0.087771344,0.063238261,-99999,-99999,-99999,-99999,-99999,-99999,-99999,-99999,0.028209909,0.028406024,0.028736338,0.029238757,0.029901529,0.034137881,0.062969415,0.116648516,0.108596715,0.065818896,0.089095234,0.055870921,0.103601018,0.076452495,-99999,-99999,-99999,-99999,-99999,-99999,-99999,-99999,0.020826,0.028155,0.012396,0.013872
1348340,1999-01-03T07:00:20.568000Z,I9467A03,5.22,0.15,Slab,N,1,211,80,-8.30E+01,nlloc,-41.0938,174.519,-41.2425,174.9024,6011432.3,2637591.18,5994293,2669430,3.7,3.7,36.1,67.24,35.77,65.51,-35.79,-1.71,0,56.68,54.84,nu,467A,D,218,Q3,1.5,Q3,200,Q3,0,-99999,-99999,0,0.35,18,0.595,18,HarvardCMT,0.015965095,0.016019428,0.01624468,0.016540252,0.017379594,0.038449291,0.027695944,0.038912589,0.075670927,0.029488645,0.032538854,0.053332628,0.060461817,0.038962404,0.027144943,0.00929794,-99999,-99999,-99999,-99999,-99999,-99999,0.022046717,0.022127504,0.02224917,0.022434426,0.023105504,0.044075951,0.035062568,0.042505508,0.087884066,0.039774622,0.042968602,0.066949755,0.076601396,0.054372181,0.036436714,0.01109454,-99999,-99999,-99999,-99999,-99999,-99999,0.015965,0.021979,0.016572,0.021891
1348340,1999-01-03T07:00:20.568000Z,I9468A01,5.22,0.15,Slab,N,1,211,80,-8.30E+01,nlloc,-41.0938,174.519,-41.2011,174.9547,6011432.3,2637591.18,5998793,2673916,3.7,3.7,38.38,68.5,37.91,66.79,-37.32,-7.87,0,56.68,54.84,nu,468A,D,190,Q1,0.9,Q3,50,Q3,0,-99999,-99999,0,0.3,20,0.51,20,HarvardCMT,0.034260624,0.03500555,0.036368971,0.038717799,0.045414759,0.096027246,0.158580214,0.113705037,0.201864356,0.08926451,0.097858938,0.095871322,0.047406715,0.058865494,0.07001446,0.011917464,-99999,-99999,-99999,-99999,-99999,-99999,0.037348782,0.038140539,0.039623574,0.042226496,0.052568943,0.100517246,0.223567511,0.155171568,0.251626678,0.101586837,0.10892905,0.11230278,0.054495759,0.070614294,0.075935393,0.015478092,-99999,-99999,-99999,-99999,-99999,-99999,0.033923,0.037196,0.017852,0.019378
1348340,1999-01-03T07:00:20.568000Z,I9602C01,5.22,0.15,Slab,N,1,211,80,-8.30E+01,nlloc,-41.0938,174.519,-41.1903,174.928,6011432.3,2637591.18,6000041,2671703,3.7,3.7,35.89,67.15,35.4,65.41,-34.78,-7.8,0,56.68,54.84,nu,602C,B,1000,Q3,<0.1,Q3,0,Q3,0,-99999,-99999,0,0.3,40,0.51,40,HarvardCMT,0.012076709,0.012318029,0.017982529,0.019975478,0.01666158,0.039992358,0.057300177,0.027843735,0.034784489,0.02787627,0.023376671,0.021996739,0.023690759,0.008709078,0.008491791,0.003098802,-99999,-99999,-99999,-99999,-99999,-99999,0.016506152,0.016692829,0.022416716,0.023622914,0.021126748,0.05469636,0.074641304,0.034360445,0.042656302,0.036815811,0.025387076,0.029150811,0.029071723,0.011530761,0.010960257,0.003993532,-99999,-99999,-99999,-99999,-99999,-99999,0.012032,0.01644,0.005437,0.007595
1348340,1999-01-03T07:00:20.568000Z,I9603B02,5.22,0.15,Slab,N,1,211,80,-8.30E+01,nlloc,-41.0938,174.519,-41.2237,174.86,6011432.3,2637591.18,5996453,2665923,3.7,3.7,31.99,65.12,31.66,63.36,-31.67,-1.75,0,56.68,54.84,nu,603B,B,1000,Q3,<0.1,Q3,0,Q3,0,-99999,-99999,0,0.19,55,0.323,55,HarvardCMT,0.007812178,0.00899334,0.008519959,0.013290214,0.011799965,0.019834614,0.02311698,0.035206274,0.032012841,0.019106381,0.012749479,0.013599533,0.01135905,0.012335223,0.006697596,0.002754061,0.001166644,0.000383975,-99999,-99999,-99999,-99999,0.00980529,0.009916733,0.010160271,0.015844208,0.01262887,0.021985499,0.03243915,0.048296767,0.041887706,0.021341362,0.014074783,0.015773516,0.01483692,0.01632906,0.009308523,0.003814054,0.001609848,0.000489622,-99999,-99999,-99999,-99999,0.00778,0.00974,0.004733,0.0053
1348340,1999-01-03T07:00:20.568000Z,I9605B22,5.22,0.15,Slab,N,1,211,80,-8.30E+01,nlloc,-41.0938,174.519,-41.2074,174.9401,6011432.3,2637591.18,5998119,2672679,3.7,3.7,37.45,68.03,37.01,66.31,-36.61,-6.66,0,56.68,54.84,nu,FAIS,B,760,Q3,0.27,Q1,0,Q2,0,-99999,-99999,0,0.3,45,0.51,45,HarvardCMT,0.011413331,0.011835126,0.012311861,0.014120387,0.019097165,0.021406947,0.045483829,0.046653071,0.036654846,0.025131199,0.022980137,0.027538249,0.019966944,0.009840051,0.005634919,0.002286283,-99999,-99999,-99999,-99999,-99999,-99999,0.013865086,0.014201144,0.014482261,0.017284483,0.022456534,0.024507294,0.054426632,0.058414859,0.042357051,0.034125184,0.032363964,0.037251302,0.025236984,0.012319819,0.007817801,0.002539815,-99999,-99999,-99999,-99999,-99999,-99999,0.011282,0.013748,0.005969,0.008408
1348340,1999-01-03T07:00:20.568000Z,I9606B03,5.22,0.15,Slab,N,1,211,80,-8.30E+01,nlloc,-41.0938,174.519,-41.2333,174.9199,6011432.3,2637591.18,5995282,2670919,3.7,3.7,36.97,67.71,36.61,65.99,-36.56,-3.32,0,56.68,54.84,nu,606B,B,800,Q3,<0.1,Q3,0,Q3,0,-99999,-99999,0,0.18,52,0.306,52,HarvardCMT,0.012886401,0.013679431,0.016331095,0.028954498,0.024391188,0.054217379,0.045847353,0.043112746,0.031024788,0.020667894,0.022091095,0.015541474,0.010924523,0.006271722,0.00350456,0.001027501,0.000559383,0.000263187,-99999,-99999,-99999,-99999,0.01723532,0.018750508,0.017597892,0.033527133,0.030592408,0.06469755,0.055286888,0.057125639,0.03392291,0.029105028,0.028376977,0.020250705,0.014818173,0.008390605,0.004172259,0.001251689,0.000636538,0.000339615,-99999,-99999,-99999,-99999,0.012759,0.017084,0.004154,0.004607
1348340,1999-01-03T07:00:20.568000Z,I9640A06,5.22,0.15,Slab,N,1,211,80,-8.30E+01,nlloc,-41.0938,174.519,-41.235,174.9147,6011432.3,2637591.18,5995103,2670479,3.7,3.7,36.65,67.54,36.31,65.82,-36.28,-2.94,0,56.68,54.84,nu,640A,E,230,Q3,0.5,Q3,60,Q3,0,-99999,-99999,0,0.3,20,0.51,20,HarvardCMT,0.021832039,0.022175609,0.022735448,0.023365189,0.027666755,0.063255826,0.058601116,0.04493367,0.057000976,0.059176806,0.062233844,0.056041718,0.03918002,0.01504178,0.007672167,0.002470812,-99999,-99999,-99999,-99999,-99999,-99999,0.02903741,0.029416877,0.030060145,0.031147804,0.033079842,0.070373695,0.064541447,0.047946587,0.076363722,0.063556382,0.079101898,0.070165902,0.049038805,0.020578595,0.010268629,0.003326107,-99999,-99999,-99999,-99999,-99999,-99999,0.021522,0.029039,0.010105,0.014102
1348340,1999-01-03T07:00:20.568000Z,I9646B03,5.22,0.15,Slab,N,1,211,80,-8.30E+01,nlloc,-41.0938,174.519,-41.2574,174.9485,6011432.3,2637591.18,5992552,2673256,3.7,3.7,40.29,69.65,39.95,67.96,-39.97,-2.19,0,56.68,54.84,nu,WDAS,E,120,Q1,1.6,Q2,62,Q2,0,-99999,-99999,0,0.4,35,0.68,35,HarvardCMT,0.019625939,0.020075756,0.02277691,0.027051124,0.026170967,0.059001569,0.046878253,0.106908985,0.091760569,0.072208934,0.061581124,0.056202752,0.071687787,0.08216296,0.057938184,-99999,-99999,-99999,-99999,-99999,-99999,-99999,0.020568466,0.020886645,0.024505645,0.02892073,0.027378215,0.064356586,0.054147164,0.136236144,0.121790105,0.085771018,0.071455026,0.075442857,0.095171907,0.087399221,0.081264576,-99999,-99999,-99999,-99999,-99999,-99999,-99999,0.019566,0.020568,0.016838,0.020664
1348340,1999-01-03T07:00:20.568000Z,I9708A04,5.22,0.15,Slab,N,1,211,80,-8.30E+01,nlloc,-41.0938,174.519,-41.1314,174.8391,6011432.3,2637591.18,6006740,2664387,3.7,3.7,27.14,62.88,26.45,61.06,-25.06,-9.78,0,56.68,54.84,nu,POLS,C,250,Q2,0.4,Q1,25,Q2,0,-99999,-99999,0,0.25,20,0.425,20,HarvardCMT,0.015932216,0.016213364,0.016721215,0.017905376,0.022861653,0.056325987,0.040052561,0.082300524,0.04773693,0.059823016,0.061640688,0.030815301,0.030620636,0.019036319,0.00808858,0.001995113,0.00098698,-99999,-99999,-99999,-99999,-99999,0.020210043,0.020474401,0.020930026,0.022048362,0.023660317,0.073641118,0.04527888,0.10257261,0.05681906,0.07670413,0.077819815,0.033617074,0.038619109,0.025433782,0.010009194,0.002714534,0.001340445,-99999,-99999,-99999,-99999,-99999,0.015729,0.019999,0.007194,0.008358
1348340,1999-01-03T07:00:20.568000Z,I9918C01,5.22,0.15,Slab,N,1,211,80,-8.30E+01,nlloc,-41.0938,174.519,-41.284,174.7682,6011432.3,2637591.18,5989908,2658140,3.7,3.7,29.7,64.14,29.14,62.35,-28.37,7.87,0,56.68,54.84,nu,WEL,B,1000,Q3,0.3,Q1,0,Q2,0,-99999,-99999,0,0.35,35,0.595,35,HarvardCMT,0.018669795,0.019672328,0.024097229,0.036025439,0.052237589,0.075637372,0.082104776,0.102818603,0.064487363,0.033536684,0.026985683,0.026090008,0.020817484,0.007117795,0.006019098,0.002982972,-99999,-99999,-99999,-99999,-99999,-99999,0.022724564,0.023248587,0.026595423,0.042092192,0.06632143,0.095204108,0.114834489,0.135473002,0.078073783,0.045218035,0.036044856,0.03627924,0.028752572,0.007919551,0.007599851,0.003632212,-99999,-99999,-99999,-99999,-99999,-99999,0.018532,0.022602,0.006648,0.009403
1444773,1999-10-25T20:31:43.627000Z,D9014A02,6.02,0.15,Slab,O,0,158,54,35,nlloc,-38.5427,175.885,-39.4984,176.8761,6291620.32,2761553.77,6182359,2843283,9.4,9.4,136.47,204.75,133.03,201.69,-99999,-99999,0,152.66,148.68,nu,NCDS,E,162,Q3,1.25,Q2,110,Q3,0,-99999,-99999,1,0.25,14,0.425,14,HarvardCMT,0.037372224,0.037549131,0.037689184,0.037983569,0.038540916,0.051741907,0.074900175,0.156676539,0.295402304,0.250983102,0.097935043,0.078383728,0.051039648,0.224644709,0.052479949,0.021052391,0.016765419,-99999,-99999,-99999,-99999,-99999,0.048767185,0.049043657,0.049480261,0.050068014,0.050870391,0.068391072,0.098538153,0.198715537,0.395013676,0.344227981,0.123456167,0.088811839,0.06576032,0.276025643,0.067969504,0.028655822,0.02059524,-99999,-99999,-99999,-99999,-99999,0.037263,0.048479,0.027826,0.03757
1444773,1999-10-25T20:31:43.627000Z,D9027G06,6.02,0.15,Slab,O,0,158,54,35,nlloc,-38.5427,175.885,-39.4884,176.9189,6291620.32,2761553.77,6183307,2847012,9.4,9.4,137.97,205.77,134.56,202.73,-99999,-99999,0,152.66,148.68,nu,NAMS,C,268,Q3,0.4,Q3,20,Q3,0,-99999,-99999,1,0.25,12,0.425,12,HarvardCMT,0.017808186,0.017900101,0.018076976,0.018339996,0.018660817,0.020727297,0.041718596,0.069746447,0.13131233,0.080496672,0.052656982,0.050078908,0.033608616,0.031820401,0.013405415,0.015315371,0.010060223,-99999,-99999,-99999,-99999,-99999,0.020258089,0.020348131,0.020508032,0.020705392,0.021008266,0.02262641,0.05564294,0.097717514,0.157898403,0.093183331,0.061338484,0.061657608,0.04367561,0.044137826,0.015432888,0.020023343,0.012050903,-99999,-99999,-99999,-99999,-99999,0.017732,0.020169,0.011055,0.013032
