CuspID,Origin_time,Record,Mw,MwUncert,TectClass,Mech,PreferredFaultPlane,Strike,Dip,Rake,Location,HypLat,HypLon,StationLat,StationLon,HypN,HypE,StationN,StationE,LENGTH_km,WIDTH_km,Repi_km,Rhyp_km,Rjb_km,Rrup_km,Rx_km,Ry_km,Rvol_km,HypDepth_km,ZTOR_km,HWFW,SiteCode,SiteClass1170,Vs30,Vs30Uncert,Tsite,TsiteUncert,Z1,Z1Uncertainty,Directivity,Pulse_or,Pulse_T,S_Trigger_Flag,fcButterHP,f_iniLP,fmin,fmax,References,f100.0000SA_RotD50,f50.0000SA_RotD50,f33.3333SA_RotD50,f25.0000SA_RotD50,f20.0000SA_RotD50,f13.3333SA_RotD50,f10.0000SA_RotD50,f6.6667SA_RotD50,f5.0000SA_RotD50,f4.0000SA_RotD50,f3.3333SA_RotD50,f2.5000SA_RotD50,f2.0000SA_RotD50,f1.3333SA_RotD50,f1.0000SA_RotD50,f0.6667SA_RotD50,f0.5000SA_RotD50,f0.3333SA_RotD50,f0.2500SA_RotD50,f0.2000SA_RotD50,f0.1333SA_RotD50,f0.1000SA_RotD50,f100.0000SA_RotD100,f50.0000SA_RotD100,f33.3333SA_RotD100,f25.0000SA_RotD100,f20.0000SA_RotD100,f13.3333SA_RotD100,f10.0000SA_RotD100,f6.6667SA_RotD100,f5.0000SA_RotD100,f4.0000SA_RotD100,f3.3333SA_RotD100,f2.5000SA_RotD100,f2.0000SA_RotD100,f1.3333SA_RotD100,f1.0000SA_RotD100,f0.6667SA_RotD100,f0.5000SA_RotD100,f0.3333SA_RotD100,f0.2500SA_RotD100,f0.2000SA_RotD100,f0.1333SA_RotD100,f0.1000SA_RotD100,PGA_RotD50,PGA_RotD100,PGV_RotD50,PGV_RotD100
339342,1992-05-27T22:30:35.064000Z,D92707A1,5.9,0.08,Slab,S,1,117,85,21,special,-41.63,173.62,-41.1391,174.8502,5952812.98,2561652.09,6005867,2665298,8.2,8.2,116.24,134.35,113.89,131.28,-93.97,68.26,0,67,62.92,nu,707A,C,570,Q3,0.15,Q3,10,Q3,0,-99999,-99999,0,0.5,21,0.85,21,Webb_Anderson_1998&Dowrick_Rhoades1998&HarvardCMT,0.022452426,0.022611314,0.022934311,0.023248234,0.023690349,0.027001659,0.029695342,0.028516859,0.024367866,0.02055783,0.017645789,0.014632681,0.010773346,0.004235444,0.002212172,-99999,-99999,-99999,-99999,-99999,-99999,-99999,0.027044919,0.027352724,0.027824933,0.028371694,0.028947755,0.032033304,0.03492706,0.033063834,0.028278405,0.024635561,0.023551481,0.019822633,0.013518207,0.005831985,0.00279327,-99999,-99999,-99999,-99999,-99999,-99999,-99999,0.022265,0.027107,0.007825,0.010582
339342,1992-05-27T22:30:35.064000Z,D92918B5,5.9,0.08,Slab,S,1,117,85,21,special,-41.63,173.62,-41.284,174.7682,5952812.98,2561652.09,5989908,2658140,8.2,8.2,103.13,123.26,100.44,119.93,-76.5,69.13,0,67,62.92,nu,WEL,B,1000,Q3,0.3,Q1,0,Q2,0,-99999,-99999,0,0.4,18,0.68,18,Webb_Anderson_1998&Dowrick_Rhoades1998&HarvardCMT,0.020398254,0.020472095,0.020610517,0.020835802,0.021162988,0.022286395,0.02361322,0.028183025,0.029534266,0.029120227,0.026933202,0.021170171,0.013289865,0.006577058,0.004409588,-99999,-99999,-99999,-99999,-99999,-99999,-99999,0.025831706,0.026016699,0.026252482,0.026478806,0.026799632,0.027197071,0.030793848,0.035695433,0.036299003,0.036940338,0.033562105,0.026988796,0.016298909,0.008157489,0.005585525,-99999,-99999,-99999,-99999,-99999,-99999,-99999,0.020406,0.02579,0.01161,0.014177
339342,1992-05-27T22:30:35.064000Z,D92935B2,5.9,0.08,Slab,S,1,117,85,21,special,-41.63,173.62,-41.2108,174.9047,5952812.98,2561652.09,5997808,2669699,8.2,8.2,116.82,134.86,114.21,131.66,-88.79,75.84,0,67,62.92,nu,935A,D,240,Q3,1.2,Q3,275,Q3,0,-99999,-99999,0,0.35,16,0.595,16,Webb_Anderson_1998&Dowrick_Rhoades1998&HarvardCMT,0.018489076,0.01857873,0.018788933,0.019394792,0.020043166,0.021930606,0.02430572,0.026287587,0.026529446,0.026875898,0.024959491,0.018385325,0.013409325,0.007431011,0.005113139,0.003131462,-99999,-99999,-99999,-99999,-99999,-99999,0.022412645,0.022675338,0.023062761,0.023575165,0.02428126,0.026112671,0.02943956,0.030640735,0.031422781,0.032186326,0.028315603,0.023864108,0.016590692,0.008920232,0.007230061,0.003616309,-99999,-99999,-99999,-99999,-99999,-99999,0.018451,0.022359,0.01207,0.013051
339342,1992-05-27T22:30:35.064000Z,K92934B1,5.9,0.08,Slab,S,1,117,85,21,special,-41.63,173.62,-41.2436,174.908,5952812.98,2561652.09,5994160,2669897,8.2,8.2,115.64,133.85,112.94,130.58,-85.63,77.68,0,67,62.92,nu,934B,D,180,Q1,1.1,Q3,100,Q3,0,-99999,-99999,1,0.4,16,0.68,16,Webb_Anderson_1998&Dowrick_Rhoades1998&HarvardCMT,0.025406549,0.025479852,0.025617588,0.025917346,0.026268391,0.02728172,0.028875472,0.032270671,0.032309388,0.0316726,0.030477432,0.03140458,0.029283554,0.015343157,0.009106968,-99999,-99999,-99999,-99999,-99999,-99999,-99999,0.035615755,0.035745753,0.035938409,0.036325932,0.036767687,0.038042093,0.039409526,0.044619512,0.042944729,0.040241244,0.041053514,0.040975342,0.03728212,0.018710362,0.012093786,-99999,-99999,-99999,-99999,-99999,-99999,-99999,0.025401,0.035412,0.017923,0.022841
338849,1992-06-21T17:43:09.086000Z,K92028A1,6.25,0.08,Crustal,N,1,32,41,246,special,-37.67,176.86,-38.0079,177.284,6385179.66,2850645.07,6346024,2886230,12.26,12.26,52.9,53.06,48.15,48.79,55.55,-14.35,25,4,0.01,nu,028A,D,210,Q3,1,Q3,75,Q3,0,-99999,-99999,1,0.2,15,0.34,15,Webb_Anderson_1998&Dowrick_Rhoades1998&HarvardCMT,0.031138714,0.031346257,0.03175161,0.032419899,0.033097914,0.037124107,0.039508146,0.03912119,0.039142842,0.036929665,0.036046582,0.033699039,0.03363727,0.028394462,0.024244329,0.018612202,0.015440502,-99999,-99999,-99999,-99999,-99999,0.033787624,0.034030721,0.034490491,0.035201762,0.03625636,0.040450173,0.042496348,0.042074103,0.045124684,0.041957312,0.038096446,0.037983751,0.039890995,0.03037838,0.026721829,0.020071911,0.018757271,-99999,-99999,-99999,-99999,-99999,0.031059,0.033848,0.042707,0.059619
338849,1992-06-21T17:43:09.086000Z,A92930A1,6.25,0.08,Crustal,N,1,32,41,246,special,-37.67,176.86,-37.9885,176.8294,6385179.66,2850645.07,6349976,2846440,12.26,12.26,35.52,35.68,29.64,30.05,19.71,-32.08,30,4,0.01,nu,930A,E,150,Q3,>2,Q3,300,Q3,0,-99999,-99999,1,0.15,12,0.255,12,Webb_Anderson_1998&Dowrick_Rhoades1998&HarvardCMT,0.041395345,0.041452836,0.041578841,0.041744822,0.041947645,0.042675716,0.044238116,0.043774181,0.044612085,0.045202461,0.045018763,0.049306108,0.052761765,0.049318301,0.045972668,0.033805864,0.023044143,0.017752064,-99999,-99999,-99999,-99999,0.052080483,0.052152677,0.052318844,0.052553508,0.052807211,0.053626409,0.054195796,0.05575233,0.054659654,0.056655836,0.059210441,0.063053133,0.063272871,0.051800554,0.051674137,0.038784827,0.025255605,0.020707711,-99999,-99999,-99999,-99999,0.041386,0.051907,0.084975,0.103354
435226,1993-04-11T06:59:48.228000Z,A93032A1,5.68,0.08,Interface,O,1,198,15,52,special,-39.74,176.52,-39.9425,176.5874,6156829.5,2811622.89,6134136,2816486,8.63,8.63,23.24,34.95,18.95,31.74,-7.47,20.08,0,26,24.88,nu,032A,C,495,Q3,0.13,Q3,10,Q3,0,-99999,-99999,1,0.4,10,0.68,10,Webb_Anderson_1998&Dowrick_Rhoades1998&HarvardCMT,0.158463736,0.158806395,0.159332967,0.160073177,0.16108334,0.164921178,0.171469835,0.197738051,0.21397428,0.21576498,0.215539803,0.202113093,0.180586624,0.124373363,0.086431234,-99999,-99999,-99999,-99999,-99999,-99999,-99999,0.185019023,0.185295659,0.185859594,0.186707744,0.187603961,0.190210941,0.192734077,0.216424263,0.245497844,0.25422723,0.251755654,0.235984556,0.211830397,0.141251055,0.092814533,-99999,-99999,-99999,-99999,-99999,-99999,-99999,0.158186,0.185064,0.131958,0.175139
435226,1993-04-11T06:59:48.228000Z,D93014A2,5.68,0.08,Interface,O,1,198,15,52,special,-39.74,176.52,-39.4984,176.8761,6156829.5,2811622.89,6182359,2843283,8.63,8.63,40.64,48.27,36.38,44.35,-18.05,-34.06,0,26,24.88,nu,NCDS,E,162,Q3,1.25,Q2,110,Q3,0,-99999,-99999,0,0.24,12,0.408,12,Webb_Anderson_1998&Dowrick_Rhoades1998&HarvardCMT,0.032470832,0.032718034,0.033230765,0.033893054,0.034788005,0.037868395,0.040392581,0.039865026,0.040305472,0.036872322,0.033228845,0.032429454,0.026568601,0.019343948,0.013213368,0.006028463,0.003284242,-99999,-99999,-99999,-99999,-99999,0.039491202,0.039662118,0.040007896,0.04042936,0.040910262,0.042721058,0.043903115,0.04705016,0.048479651,0.046360677,0.043751131,0.039010009,0.032110905,0.023467956,0.015822003,0.007175143,0.004403675,-99999,-99999,-99999,-99999,-99999,0.032393,0.039539,0.021884,0.02309
435226,1993-04-11T06:59:48.228000Z,D93015A1,5.68,0.08,Interface,O,1,198,15,52,special,-39.74,176.52,-39.4891,176.8982,6156829.5,2811622.89,6183313,2845228,8.63,8.63,42.76,50.1,38.49,46.14,-19.61,-35.57,0,26,24.88,nu,015A,B,1000,Q3,<0.1,Q3,0,Q3,0,-99999,-99999,0,0.5,12,0.85,12,Webb_Anderson_1998&Dowrick_Rhoades1998&HarvardCMT,0.016459269,0.016539125,0.016661281,0.01685513,0.017170863,0.018009019,0.01906429,0.018845028,0.019942052,0.020650187,0.021575594,0.018175249,0.013831627,0.006237191,0.004381334,-99999,-99999,-99999,-99999,-99999,-99999,-99999,0.017756466,0.017841819,0.018042563,0.018327933,0.01862537,0.019430651,0.020121442,0.022413776,0.023899553,0.02521122,0.025350745,0.022173793,0.015245675,0.007125679,0.005261766,-99999,-99999,-99999,-99999,-99999,-99999,-99999,0.016392,0.017773,0.009443,0.011342
435226,1993-04-11T06:59:48.228000Z,D93029A2,5.68,0.08,Interface,O,1,198,15,52,special,-39.74,176.52,-39.6458,176.8429,6156829.5,2811622.89,6166127,2839726,8.63,8.63,29.55,39.41,25.33,35.69,-19.69,-17.53,0,26,24.88,nu,HCDS,D,182,Q2,>2,Q3,1000,Q3,0,-99999,-99999,0,0.2,15,0.34,15,Webb_Anderson_1998&Dowrick_Rhoades1998&HarvardCMT,0.029064298,0.029312897,0.029682667,0.030262579,0.030962384,0.033181569,0.034211302,0.03686707,0.036371161,0.039315341,0.03753477,0.031961501,0.022400832,0.018610021,0.013630497,0.006428109,0.005163286,-99999,-99999,-99999,-99999,-99999,0.034619655,0.034704639,0.034834087,0.035033912,0.03533708,0.036688638,0.037715942,0.045915889,0.043665071,0.04473649,0.050678866,0.043311296,0.031525479,0.024438036,0.016162025,0.007639617,0.006209683,-99999,-99999,-99999,-99999,-99999,0.02904,0.034619,0.026152,0.030611
471730,1993-08-10T00:51:55.033000Z,A93070A1,6.89,0.08,Interface,R,1,41,41,107,nlloc,-45.3625,166.649,-45.4167,167.7191,5519161.25,2012843.95,5519112,2096857,34.75,34.75,83.78,85.7,74.67,77.26,68.91,55.08,0,16.72,11.96,nu,TAFS,D,298,Q3,1.4,Q3,200,Q3,0,-99999,-99999,1,0.2,19,0.34,19,Robinson_etal_2003&Dowrick_Rhoades1998&HarvardCMT,0.06384804,0.064368462,0.065349759,0.066534015,0.067855082,0.073756658,0.079795973,0.084583973,0.077929311,0.068717604,0.056412367,0.052094097,0.045516855,0.040371269,0.033859981,0.028366806,0.020492517,-99999,-99999,-99999,-99999,-99999,0.085584952,0.086384547,0.087593497,0.089273435,0.09214275,0.100262372,0.105741713,0.112472898,0.103242052,0.092645526,0.077333942,0.059857213,0.054829681,0.04677741,0.047484202,0.032813533,0.026395004,-99999,-99999,-99999,-99999,-99999,0.063904,0.085534,0.06115,0.07679
471730,1993-08-10T00:51:55.033000Z,A93940A1,6.89,0.08,Interface,R,1,41,41,107,nlloc,-45.3625,166.649,-45.0322,168.6629,5519161.25,2012843.95,5566104,2168345,34.75,34.75,162.01,163.32,150.75,152.25,92.03,137.45,0,16.72,11.96,nu,QTPS,D,350,Q3,0.95,Q1,90,Q3,0,-99999,-99999,1,0.5,10,0.85,10,Robinson_etal_2003&Dowrick_Rhoades1998&HarvardCMT,0.035837585,0.035970366,0.036163655,0.036453943,0.036857529,0.038351062,0.040540005,0.04663496,0.052385948,0.051046736,0.048001939,0.038494519,0.029819387,0.022754621,0.013216983,-99999,-99999,-99999,-99999,-99999,-99999,-99999,0.040279998,0.040500911,0.040809477,0.041204673,0.041747076,0.043772396,0.046472514,0.050523732,0.054744692,0.055431266,0.051248667,0.042837005,0.032605845,0.02804308,0.015943486,-99999,-99999,-99999,-99999,-99999,-99999,-99999,0.035774,0.040236,0.023354,0.02647
471730,1993-08-10T00:51:55.033000Z,D93044A2s,6.89,0.08,Interface,R,1,41,41,107,nlloc,-45.3625,166.649,-45.8986,170.5097,5519161.25,2012843.95,5475848,2316608,34.75,34.75,306.03,307.29,297.73,299.13,263.14,166.6,0,16.72,11.96,nu,SKFS,D,140,Q2,0.8,Q3,25,Q3,0,-99999,-99999,1,0.25,10,0.425,10,Robinson_etal_2003&Dowrick_Rhoades1998&HarvardCMT,0.014960341,0.014979211,0.015008125,0.015066912,0.01516027,0.015587021,0.016105168,0.01665217,0.017592992,0.017275712,0.017887929,0.019468367,0.02058169,0.019289224,0.01200277,0.00596262,0.003410136,-99999,-99999,-99999,-99999,-99999,0.016288244,0.016307825,0.016328972,0.016350648,0.016380654,0.016488351,0.016769432,0.019199759,0.019586586,0.02060131,0.021304094,0.021715069,0.022148242,0.022070617,0.015998479,0.007495862,0.003988274,-99999,-99999,-99999,-99999,-99999,0.014949,0.016283,0.018465,0.019737
471730,1993-08-10T00:51:55.033000Z,D93054A6,6.89,0.08,Interface,R,1,41,41,107,nlloc,-45.3625,166.649,-43.883,169.0441,5519161.25,2012843.95,5695156,2192230,34.75,34.75,250.97,251.86,238.02,238.93,25.39,250.51,0,16.72,11.96,nu,HDWS,D,210,Q3,0.87,Q1,100,Q3,0,-99999,-99999,0,0.35,14,0.595,14,Robinson_etal_2003&Dowrick_Rhoades1998&HarvardCMT,0.030145714,0.030496091,0.030972848,0.031820464,0.032911861,0.037023281,0.04070426,0.043760137,0.035728961,0.032665468,0.03156322,0.026778696,0.022778123,0.021450797,0.014737346,0.005967496,-99999,-99999,-99999,-99999,-99999,-99999,0.03544263,0.035576313,0.035779261,0.036075332,0.036518785,0.040009327,0.045020898,0.050313741,0.045790316,0.044147404,0.040455442,0.030357256,0.028118631,0.025845797,0.016080038,0.00796029,-99999,-99999,-99999,-99999,-99999,-99999,0.029905,0.035416,0.021456,0.023931
471755,1993-08-10T09:46:38.453000Z,A93028A1,6.3,0.08,Slab,S,1,354,64,168,special,-38.55,177.92,-38.0079,177.284,6283090.62,2938734.07,6346024,2886230,30,15,81.95,90.77,69.76,78.95,-42.35,68.08,0,39,32.26,nu,028A,D,210,Q3,1,Q3,75,Q3,0,-99999,-99999,1,0.35,15,0.595,15,Reyners_et_al2010&Webb_Anderson_1998&Dowrick_Rhoades1998&HarvardCMT,0.061390847,0.061572087,0.061831279,0.062174934,0.062708706,0.064914329,0.068074443,0.070935515,0.082200721,0.0853539,0.083427004,0.080353492,0.068253225,0.043369588,0.0323139,0.022057302,-99999,-99999,-99999,-99999,-99999,-99999,0.069001295,0.069142712,0.069357806,0.06971343,0.070228596,0.07217442,0.079937167,0.089556482,0.106256556,0.101066233,0.095312125,0.097835939,0.080389566,0.04862174,0.039848608,0.027130567,-99999,-99999,-99999,-99999,-99999,-99999,0.061272,0.068831,0.052639,0.065922
471755,1993-08-10T09:46:38.453000Z,A93096A1,6.3,0.08,Slab,S,1,354,64,168,special,-38.55,177.92,-39.0342,177.4249,6283090.62,2938734.07,6231637,2892985,30,15,68.85,79.13,59.27,69.25,-47.59,-46.39,0,39,32.26,nu,WFSS,D,155,Q3,1.5,Q3,100,Q3,0,-99999,-99999,1,0.35,13,0.595,13,Reyners_et_al2010&Webb_Anderson_1998&Dowrick_Rhoades1998&HarvardCMT,0.043890208,0.044003655,0.044156799,0.044337051,0.044559234,0.04604941,0.049047234,0.054616753,0.057971246,0.061174957,0.061948439,0.054902127,0.050335192,0.038840485,0.03768643,0.022336703,-99999,-99999,-99999,-99999,-99999,-99999,0.056443366,0.056563426,0.056731266,0.056964801,0.057262079,0.058519395,0.060031763,0.062107987,0.066972598,0.070908705,0.073225713,0.068108333,0.057539918,0.04830097,0.04192698,0.024792755,-99999,-99999,-99999,-99999,-99999,-99999,0.043862,0.056459,0.046615,0.050072
471755,1993-08-10T09:46:38.453000Z,A93113A1,6.3,0.08,Slab,S,1,354,64,168,special,-38.55,177.92,-37.8735,177.5847,6283090.62,2938734.07,6359624,2913365,30,15,80.72,89.57,66.1,76.08,-13.94,78.77,0,39,32.26,nu,113A,C,522,Q3,0.15,Q3,10,Q3,0,-99999,-99999,1,0.42,13,0.714,13,Reyners_et_al2010&Webb_Anderson_1998&Dowrick_Rhoades1998&HarvardCMT,0.089814256,0.090253603,0.09089882,0.091874566,0.093149377,0.097632696,0.102650356,0.115344967,0.131683215,0.119702476,0.106258466,0.069307617,0.048409389,0.023278736,0.016282306,-99999,-99999,-99999,-99999,-99999,-99999,-99999,0.111020315,0.111266882,0.111920647,0.112750326,0.113740156,0.117396901,0.125272622,0.143288118,0.163137757,0.164330644,0.148176013,0.096748623,0.062935227,0.027886286,0.020314293,-99999,-99999,-99999,-99999,-99999,-99999,-99999,0.089493,0.110538,0.041559,0.054997
471755,1993-08-10T09:46:38.453000Z,D93014A4,6.3,0.08,Slab,S,1,354,64,168,special,-38.55,177.92,-39.4984,176.8761,6283090.62,2938734.07,6182359,2843283,30,15,138.75,144.15,129.07,134.18,-102.17,-90.2,0,39,32.26,nu,NCDS,E,162,Q3,1.25,Q2,110,Q3,0,-99999,-99999,0,0.25,10,0.425,10,Reyners_et_al2010&Webb_Anderson_1998&Dowrick_Rhoades1998&HarvardCMT,0.015071739,0.015155812,0.015282741,0.015445336,0.015662603,0.016433301,0.01698868,0.018461066,0.019138613,0.017885891,0.016863379,0.014773241,0.015107726,0.014416974,0.011139463,0.00600606,0.003173618,-99999,-99999,-99999,-99999,-99999,0.01677244,0.016843776,0.016944119,0.017072519,0.017252285,0.017941435,0.018672576,0.020225672,0.021387662,0.019267305,0.019040147,0.016215459,0.017521616,0.018819197,0.013165981,0.006318097,0.003944816,-99999,-99999,-99999,-99999,-99999,0.015065,0.016758,0.013876,0.016776
471755,1993-08-10T09:46:38.453000Z,D93016A1,6.3,0.08,Slab,S,1,354,64,168,special,-38.55,177.92,-38.6774,178.031,6283090.62,2938734.07,6268431,2947608,30,15,17.14,42.71,6.16,35.7,10.58,-15.51,0,39,32.26,nu,016A,C,480,Q3,0.15,Q3,10,Q3,0,-99999,-99999,0,0.3,21,0.51,21,Reyners_et_al2010&Webb_Anderson_1998&Dowrick_Rhoades1998&HarvardCMT,0.155791041,0.156475754,0.157738789,0.159900358,0.162138007,0.1698149,0.181762316,0.217786739,0.204896439,0.172956469,0.166514002,0.154005644,0.163302321,0.10949824,0.056290369,0.027467382,-99999,-99999,-99999,-99999,-99999,-99999,0.193048498,0.194034271,0.195492361,0.198324391,0.202164387,0.21208538,0.22185773,0.247215139,0.235205873,0.200310717,0.184241673,0.21025494,0.216703803,0.130607007,0.074786246,0.033117003,-99999,-99999,-99999,-99999,-99999,-99999,0.154414,0.193073,0.103709,0.140525
471755,1993-08-10T09:46:38.453000Z,D93017A1,6.3,0.08,Slab,S,1,354,64,168,special,-38.55,177.92,-38.6665,178.0227,6283090.62,2938734.07,6269685,2946952,30,15,15.73,42.06,5.22,35.18,10.06,-14.19,0,39,32.26,nu,GISS,D,138,Q2,1,Q1,40,Q3,0,-99999,-99999,0,0.25,30,0.425,30,Reyners_et_al2010&Webb_Anderson_1998&Dowrick_Rhoades1998&HarvardCMT,0.187001763,0.188151989,0.190203941,0.190979674,0.191853375,0.206091625,0.221040449,0.224447093,0.241769075,0.26324904,0.268571726,0.224184988,0.164933099,0.116380911,0.073554446,0.038882094,0.021133182,-99999,-99999,-99999,-99999,-99999,0.217118011,0.217952962,0.218501379,0.22023436,0.223532857,0.245328321,0.25924168,0.281101384,0.296443494,0.315793461,0.31065661,0.24275837,0.191845952,0.127521073,0.086041495,0.042240255,0.023622766,-99999,-99999,-99999,-99999,-99999,0.186203,0.217059,0.121691,0.144066
471755,1993-08-10T09:46:38.453000Z,D93021A3,6.3,0.08,Slab,S,1,354,64,168,special,-38.55,177.92,-38.4249,176.3157,6283090.62,2938734.07,6303375,2799556,30,15,140.32,146.04,135.79,140.25,-133.01,34.72,10,39,32.26,nu,021A,D,210,Q3,2,Q3,200,Q3,0,-99999,-99999,1,0.18,10,0.306,10,Reyners_et_al2010&Webb_Anderson_1998&Dowrick_Rhoades1998&HarvardCMT,0.026354158,0.026362826,0.02638841,0.026422591,0.026474715,0.026614389,0.026765744,0.027045801,0.02718762,0.027289024,0.028011021,0.030738245,0.032378114,0.03524841,0.038021167,0.033100951,0.017331978,0.00634633,-99999,-99999,-99999,-99999,0.028011661,0.028019256,0.028032509,0.028050164,0.028072114,0.02811776,0.028102463,0.029029492,0.030573982,0.031582654,0.032556222,0.033104877,0.035045057,0.03955809,0.04305051,0.036206665,0.021429346,0.008198727,-99999,-99999,-99999,-99999,0.026355,0.028006,0.056127,0.064898
608810,1994-06-18T03:25:13.819000Z,D4505A01,6.72,0.08,Crustal,R,1,221,47,112,geonet,-43.0078,171.4762,-42.9489,171.5677,5798820.69,2385786.14,5805487,2393135,21.06,21.06,9.91,11.12,2.02,4.12,2.92,-9.85,0,4.27,1,hw,APPS,C,300,Q2,0.4,Q1,30,Q2,0,-99999,-99999,0,0.11,40,0.187,40,Abercrombie_etal_2000&HarvardCMT,0.433240464,0.437489008,0.448448122,0.441947981,0.437565614,0.437738797,0.428557946,0.511713521,0.56793232,0.54608563,0.493302563,0.430019196,0.382328985,0.226455191,0.140716285,0.069704864,0.049727831,0.028413325,0.018845934,0.011740078,-99999,-99999,0.508749234,0.515000194,0.52543344,0.520382375,0.5034471,0.532355766,0.5688906,0.683215009,0.711874162,0.647143012,0.621958466,0.557096802,0.492183514,0.278587416,0.182583576,0.082620016,0.060075724,0.032652494,0.02121399,0.0138713,-99999,-99999,0.423633,0.509184,0.28269,0.316738
