CuspID,Origin_time,Record,Mw,MwUncert,TectClass,Mech,PreferredFaultPlane,Strike,Dip,Rake,Location,HypLat,HypLon,StationLat,StationLon,HypN,HypE,StationN,StationE,LENGTH_km,WIDTH_km,Repi_km,Rhyp_km,Rjb_km,Rrup_km,Rx_km,Ry_km,Rvol_km,HypDepth_km,ZTOR_km,HWFW,SiteCode,SiteClass1170,Vs30,Vs30Uncert,Tsite,TsiteUncert,Z1,Z1Uncertainty,Directivity,Pulse_or,Pulse_T,S_Trigger_Flag,fcButterHP,f_iniLP,fmin,fmax,References,f100.0000SA_RotD50,f50.0000SA_RotD50,f33.3333SA_RotD50,f25.0000SA_RotD50,f20.0000SA_RotD50,f13.3333SA_RotD50,f10.0000SA_RotD50,f6.6667SA_RotD50,f5.0000SA_RotD50,f4.0000SA_RotD50,f3.3333SA_RotD50,f2.5000SA_RotD50,f2.0000SA_RotD50,f1.3333SA_RotD50,f1.0000SA_RotD50,f0.6667SA_RotD50,f0.5000SA_RotD50,f0.3333SA_RotD50,f0.2500SA_RotD50,f0.2000SA_RotD50,f0.1333SA_RotD50,f0.1000SA_RotD50,f100.0000SA_RotD100,f50.0000SA_RotD100,f33.3333SA_RotD100,f25.0000SA_RotD100,f20.0000SA_RotD100,f13.3333SA_RotD100,f10.0000SA_RotD100,f6.6667SA_RotD100,f5.0000SA_RotD100,f4.0000SA_RotD100,f3.3333SA_RotD100,f2.5000SA_RotD100,f2.0000SA_RotD100,f1.3333SA_RotD100,f1.0000SA_RotD100,f0.6667SA_RotD100,f0.5000SA_RotD100,f0.3333SA_RotD100,f0.2500SA_RotD100,f0.2000SA_RotD100,f0.1333SA_RotD100,f0.1000SA_RotD100,PGA_RotD50,PGA_RotD100,PGV_RotD50,PGV_RotD100
241414,1991-07-12T04:42:23.301999Z,D91302A4,5.3,0.15,Slab,S,1,135,57,25,geonet,-39.3052,175.9748,-39.9338,175.053,6206777.74,2766544.08,6139282,2685450,4.1,4.1,105.45,126.78,104.32,126.64,106.19,-9.62,0,70.28,68.56,nu,302A,D,250,Q2,0.8,Q3,80,Q3,0,-99999,-99999,1,0.3,12,0.51,12,HarvardCMT,0.017611452,0.017672091,0.017786868,0.017910121,0.018110035,0.019060914,0.026240772,0.031870318,0.034103083,0.046171921,0.049450858,0.048972998,0.037176072,0.033415776,0.018338929,0.007226567,-99999,-99999,-99999,-99999,-99999,-99999,0.019830822,0.019907335,0.02005127,0.020230004,0.020523051,0.021922456,0.029555822,0.038681414,0.037276104,0.055613283,0.053053783,0.06192424,0.044549429,0.046474715,0.025891312,0.009168228,-99999,-99999,-99999,-99999,-99999,-99999,0.01761,0.019802,0.015326,0.018936
255338,1991-09-08T13:50:30.989999Z,A92087A4,5.61,0.15,Slab,R,1,95,70,108,geonet,-40.2442,175.1672,-39.7163,175.1455,6104594.2,2694363.31,6163232,2693941,5.9,5.9,58.73,104.69,57.7,101.84,-57.37,-5.53,0,86.69,83.93,nu,087A,B,1000,Q3,<0.1,Q3,0,Q2,0,-99999,-99999,1,0.6,27,1.02,27,HarvardCMT,0.142832796,0.146260652,0.153674856,0.181621005,0.209043888,0.33978342,0.415195638,0.630750076,0.410919424,0.345662006,0.24717785,0.309359976,0.143423307,0.064940143,-99999,-99999,-99999,-99999,-99999,-99999,-99999,-99999,0.165881175,0.16862333,0.17497056,0.21437717,0.222586241,0.368306036,0.48906248,0.788910995,0.458128967,0.448083486,0.294728947,0.408965457,0.18928767,0.083329868,-99999,-99999,-99999,-99999,-99999,-99999,-99999,-99999,0.138426,0.165445,0.052495,0.059593
255338,1991-09-08T13:50:30.989999Z,D91302A5,5.61,0.15,Slab,R,1,95,70,108,geonet,-40.2442,175.1672,-39.9338,175.053,6104594.2,2694363.31,6139282,2685450,5.9,5.9,35.86,93.81,34.54,90.88,-32.78,-11.9,0,86.69,83.93,nu,302A,D,250,Q2,0.8,Q3,80,Q3,0,-99999,-99999,0,0.35,20,0.595,20,HarvardCMT,0.099132908,0.100148307,0.10180698,0.106410898,0.129555668,0.170414436,0.239650879,0.24439456,0.317725244,0.364265253,0.273124996,0.204984151,0.205537786,0.085980363,0.056772458,0.014585104,-99999,-99999,-99999,-99999,-99999,-99999,0.102979993,0.104387393,0.10772708,0.115586223,0.137602121,0.219915099,0.301706774,0.27017756,0.449139727,0.477574697,0.335790236,0.275989386,0.278477443,0.102430101,0.070254897,0.020370521,-99999,-99999,-99999,-99999,-99999,-99999,0.098958,0.102989,0.049331,0.058808
255338,1991-09-08T13:50:30.989999Z,D91467A2,5.61,0.15,Slab,R,1,95,70,108,geonet,-40.2442,175.1672,-41.2425,174.9024,6104594.2,2694363.31,5994293,2669430,5.9,5.9,113.22,142.49,112.16,141.58,113.06,-15.23,0,86.69,83.93,nu,467A,D,218,Q3,1.5,Q3,200,Q3,0,-99999,-99999,1,0.25,15,0.425,15,HarvardCMT,0.025380406,0.025572307,0.025886212,0.026337984,0.02712973,0.031921401,0.050747647,0.053092525,0.087896405,0.055957962,0.06604988,0.099547096,0.092253043,0.041085569,0.01797725,0.009384849,0.002735503,-99999,-99999,-99999,-99999,-99999,0.028923207,0.029156313,0.029584764,0.030263434,0.03142997,0.044360036,0.069141086,0.057545503,0.107606309,0.062780186,0.081772752,0.121592363,0.109535496,0.053168891,0.020553615,0.011247319,0.003146456,-99999,-99999,-99999,-99999,-99999,0.025376,0.028816,0.019351,0.021977
255338,1991-09-08T13:50:30.989999Z,D91468A2,5.61,0.15,Slab,R,1,95,70,108,geonet,-40.2442,175.1672,-41.2011,174.9547,6104594.2,2694363.31,5998793,2673916,5.9,5.9,107.9,138.3,106.86,137.35,108.18,-11.15,0,86.69,83.93,nu,468A,D,190,Q1,0.9,Q3,50,Q3,0,-99999,-99999,0,0.45,13,0.765,13,HarvardCMT,0.041194058,0.041607074,0.042372745,0.043454667,0.044841912,0.055279761,0.098717493,0.124626876,0.171035164,0.145999789,0.135912414,0.189279747,0.099060904,0.059581173,0.03392487,-99999,-99999,-99999,-99999,-99999,-99999,-99999,0.056412939,0.056940135,0.057794298,0.059091306,0.060965967,0.074896398,0.132537838,0.159791478,0.198072615,0.16755607,0.154031105,0.267562627,0.133138168,0.078402184,0.037529841,-99999,-99999,-99999,-99999,-99999,-99999,-99999,0.041167,0.056406,0.028165,0.036325
255338,1991-09-08T13:50:30.989999Z,D91606B1,5.61,0.15,Slab,R,1,95,70,108,geonet,-40.2442,175.1672,-41.2333,174.9199,6104594.2,2694363.31,5995282,2670919,5.9,5.9,111.94,141.47,110.88,140.55,111.94,-13.83,0,86.69,83.93,nu,606B,B,800,Q3,<0.1,Q3,0,Q3,0,-99999,-99999,0,0.45,26,0.765,26,HarvardCMT,0.018278574,0.018557731,0.019149853,0.022670196,0.021937584,0.029355945,0.043906214,0.02697742,0.040159168,0.059569586,0.059651003,0.037347717,0.01786998,0.008920559,0.004658759,-99999,-99999,-99999,-99999,-99999,-99999,-99999,0.022053743,0.022381253,0.023247715,0.025617824,0.025277639,0.035247864,0.061832084,0.029548465,0.053358013,0.075565269,0.073993917,0.045101033,0.02026573,0.011597706,0.006326728,-99999,-99999,-99999,-99999,-99999,-99999,-99999,0.018079,0.022062,0.00858,0.011222
255338,1991-09-08T13:50:30.989999Z,D91642E7,5.61,0.15,Slab,R,1,95,70,108,geonet,-40.2442,175.1672,-41.2341,174.918,6104594.2,2694363.31,5995197,2670758,5.9,5.9,112.06,141.57,111,140.65,112.04,-13.98,0,86.69,83.93,nu,642E,C,350,Q1,0.35,Q2,50,Q3,0,-99999,-99999,0,0.5,12,0.85,12,HarvardCMT,0.049751564,0.049878764,0.050078004,0.050387787,0.050819855,0.052340366,0.057572861,0.079152399,0.123695639,0.149963381,0.198242368,0.181550214,0.054829451,0.024145327,0.011561247,-99999,-99999,-99999,-99999,-99999,-99999,-99999,0.060265569,0.060464003,0.060798341,0.061257611,0.061866449,0.0635554,0.060850708,0.095879061,0.163891813,0.194654719,0.271261853,0.208749933,0.064571541,0.029139742,0.013053485,-99999,-99999,-99999,-99999,-99999,-99999,-99999,0.049631,0.060112,0.028527,0.031818
255338,1991-09-08T13:50:30.989999Z,D91644C3,5.61,0.15,Slab,R,1,95,70,108,geonet,-40.2442,175.1672,-41.2187,174.8826,6104594.2,2694363.31,5996970,2667828,5.9,5.9,110.98,140.72,109.9,139.76,110.53,-17.05,0,86.69,83.93,nu,644C,D,189,Q3,2,Q3,250,Q3,0,-99999,-99999,0,0.35,15,0.595,15,HarvardCMT,0.02211385,0.022270962,0.022546998,0.02297661,0.023542173,0.031715768,0.043067759,0.051831039,0.070624453,0.056185654,0.072085013,0.102384596,0.055979047,0.025251601,0.012248393,0.00687534,-99999,-99999,-99999,-99999,-99999,-99999,0.025361339,0.025513804,0.025765072,0.026225022,0.026656503,0.034315209,0.04813592,0.062684581,0.079729934,0.061960173,0.079002485,0.132731673,0.077338027,0.031400111,0.015647627,0.008154535,-99999,-99999,-99999,-99999,-99999,-99999,0.022024,0.025364,0.012054,0.01511
255338,1991-09-08T13:50:30.989999Z,D91646A2,5.61,0.15,Slab,R,1,95,70,108,geonet,-40.2442,175.1672,-41.2574,174.9485,6104594.2,2694363.31,5992552,2673256,5.9,5.9,114.16,143.28,113.12,142.4,114.46,-11.26,0,86.69,83.93,nu,WDAS,E,120,Q1,1.6,Q2,62,Q2,0,-99999,-99999,0,0.35,18,0.595,18,HarvardCMT,0.051351584,0.051620979,0.052131215,0.053030127,0.054202454,0.062558476,0.089325517,0.099724265,0.093870282,0.165478458,0.201682549,0.137318823,0.077044362,0.040288815,0.031193509,0.013436387,-99999,-99999,-99999,-99999,-99999,-99999,0.055384467,0.055675019,0.056165627,0.056826528,0.058385558,0.07410257,0.099538293,0.113719773,0.1040118,0.228268273,0.278491993,0.153401703,0.091961281,0.052066949,0.04077628,0.016175595,-99999,-99999,-99999,-99999,-99999,-99999,0.051233,0.055137,0.027295,0.029666
255338,1991-09-08T13:50:30.989999Z,D91705B3,5.61,0.15,Slab,R,1,95,70,108,geonet,-40.2442,175.1672,-41.1391,174.8502,6104594.2,2694363.31,6005867,2665298,5.9,5.9,103.03,134.58,101.9,133.49,101.89,-20.35,0,86.69,83.93,nu,707A,C,570,Q3,0.15,Q3,10,Q3,0,-99999,-99999,0,0.5,15,0.85,15,HarvardCMT,0.03375275,0.034051666,0.034547256,0.035351788,0.036625656,0.04029269,0.071046072,0.067369039,0.130556046,0.157061022,0.096389899,0.074175059,0.028083721,0.012383137,0.008510571,-99999,-99999,-99999,-99999,-99999,-99999,-99999,0.039240168,0.039458753,0.039773947,0.040476047,0.04161887,0.052257021,0.089015163,0.073064162,0.152867212,0.17363862,0.120871453,0.095166098,0.039539454,0.015465857,0.008979733,-99999,-99999,-99999,-99999,-99999,-99999,-99999,0.033595,0.039242,0.013553,0.018716
255338,1991-09-08T13:50:30.989999Z,D91706A2,5.61,0.15,Slab,R,1,95,70,108,geonet,-40.2442,175.1672,-41.1288,174.8382,6104594.2,2694363.31,6007032,2664315,5.9,5.9,102.2,133.93,101.05,132.82,100.81,-21.43,0,86.69,83.93,nu,706A,C,210,Q3,0.5,Q2,30,Q3,0,-99999,-99999,0,0.35,12,0.595,12,HarvardCMT,0.074969566,0.075371761,0.07599418,0.076917217,0.078322583,0.086490848,0.105601062,0.156525954,0.234974073,0.224401018,0.236243137,0.309599443,0.152008076,0.049725497,0.026155459,0.008672717,-99999,-99999,-99999,-99999,-99999,-99999,0.089340658,0.0897627,0.090439688,0.091394961,0.092723222,0.099320577,0.113107867,0.199215642,0.323226565,0.307501405,0.276447003,0.43783865,0.196200844,0.068647639,0.028782206,0.009671204,-99999,-99999,-99999,-99999,-99999,-99999,0.074799,0.089337,0.037786,0.048001
255338,1991-09-08T13:50:30.989999Z,D91900B7,5.61,0.15,Slab,R,1,95,70,108,geonet,-40.2442,175.1672,-41.2921,174.779,6104594.2,2694363.31,5989003,2658976,5.9,5.9,121.02,148.76,119.87,147.84,119.24,-25.18,0,86.69,83.93,nu,941A,D,272,Q2,0.85,Q2,9.85E+01,Q2,0,-99999,-99999,0,0.45,12,0.765,12,HarvardCMT,0.036026492,0.036155552,0.036369465,0.036683023,0.037093506,0.039850366,0.059449105,0.0904111,0.095715769,0.135924447,0.134322634,0.152922614,0.072341898,0.056787573,0.02251719,-99999,-99999,-99999,-99999,-99999,-99999,-99999,0.050795304,0.050960662,0.051294859,0.051771554,0.0524416,0.056178267,0.081097575,0.116049611,0.126247843,0.170394244,0.188780112,0.216209948,0.102245692,0.077893582,0.029004435,-99999,-99999,-99999,-99999,-99999,-99999,-99999,0.035998,0.05075,0.022835,0.030844
255338,1991-09-08T13:50:30.989999Z,D91918B7,5.61,0.15,Slab,R,1,95,70,108,geonet,-40.2442,175.1672,-41.284,174.7682,6104594.2,2694363.31,5989908,2658140,5.9,5.9,120.4,148.34,119.25,147.39,118.41,-26.09,0,86.69,83.93,nu,WEL,B,1000,Q3,0.3,Q1,0,Q2,0,-99999,-99999,0,0.5,18,0.85,18,HarvardCMT,0.041816265,0.042046953,0.042414297,0.042973,0.044054628,0.049633575,0.060449185,0.081993639,0.127986127,0.219329977,0.118837573,0.073141908,0.024445344,0.010539016,0.006039755,-99999,-99999,-99999,-99999,-99999,-99999,-99999,0.057607331,0.05798409,0.058613068,0.05963847,0.061444574,0.070052085,0.081465405,0.106801674,0.17981515,0.29197063,0.163661424,0.093208146,0.026263913,0.01488833,0.008457216,-99999,-99999,-99999,-99999,-99999,-99999,-99999,0.041816,0.05761,0.016822,0.023348
255338,1991-09-08T13:50:30.989999Z,D91935B3,5.61,0.15,Slab,R,1,95,70,108,geonet,-40.2442,175.1672,-41.2108,174.9047,6104594.2,2694363.31,5997808,2669699,5.9,5.9,109.73,139.74,108.66,138.78,109.53,-15.26,0,86.69,83.93,nu,935A,D,240,Q3,1.2,Q3,275,Q3,0,-99999,-99999,1,0.45,15,0.765,15,HarvardCMT,0.035515116,0.035609434,0.035765721,0.035994421,0.036380078,0.048949028,0.068034235,0.058827161,0.088922362,0.150249995,0.159036872,0.143280973,0.062335898,0.022230483,0.015341446,-99999,-99999,-99999,-99999,-99999,-99999,-99999,0.050142238,0.050274574,0.050455117,0.050685224,0.051023581,0.061242572,0.094468034,0.073296539,0.125769799,0.180970184,0.213041145,0.19854819,0.075827555,0.026335178,0.020002739,-99999,-99999,-99999,-99999,-99999,-99999,-99999,0.035455,0.050141,0.022492,0.028499
255338,1991-09-08T13:50:30.989999Z,K91102A3,5.61,0.15,Slab,R,1,95,70,108,geonet,-40.2442,175.1672,-39.4637,175.5669,6104594.2,2694363.31,6190285,2730871,5.9,5.9,93.25,127.72,91.95,125.06,-87.54,28.9,0,86.69,83.93,nu,102A,C,555,Q3,0.15,Q3,12,Q3,0,-99999,-99999,1,0.5,18,0.85,18,HarvardCMT,0.045295789,0.045961226,0.046893985,0.048556471,0.050907134,0.075462509,0.123343359,0.216991981,0.188994006,0.131699873,0.090658657,0.059246788,0.036159602,0.028078984,0.016644432,-99999,-99999,-99999,-99999,-99999,-99999,-99999,0.051842244,0.052789156,0.054382117,0.056856716,0.060955565,0.104042458,0.167020153,0.240433916,0.234548176,0.176985913,0.112705088,0.08378229,0.040293365,0.032880822,0.02055545,-99999,-99999,-99999,-99999,-99999,-99999,-99999,0.044941,0.051243,0.015324,0.0173
314805,1992-03-30T07:02:51.226999Z,D92505A1,5.5,0.15,Crustal,R,1,205,76,77,nlloc,-43.0605,171.212,-42.9489,171.5677,5792540.97,2364375.65,5805487,2393135,5.17,5.17,31.47,32.08,29.52,30.01,-19.97,-23.89,0,5.12,2.61,nu,APPS,C,300,Q2,0.4,Q1,30,Q2,0,-99999,-99999,0,0.6,20,1.02,20,HarvardCMT,0.026708354,0.027061949,0.027807754,0.029561482,0.04204181,0.056405006,0.06444896,0.113949496,0.09187643,0.081583086,0.089593419,0.086068051,0.042054259,0.021086556,-99999,-99999,-99999,-99999,-99999,-99999,-99999,-99999,0.031055087,0.031195274,0.031475087,0.032035388,0.046191765,0.06265926,0.070191781,0.146456053,0.115610206,0.089909591,0.108564039,0.110224863,0.053285898,0.022603764,-99999,-99999,-99999,-99999,-99999,-99999,-99999,-99999,0.026526,0.031057,0.016402,0.018266
339342,1992-05-27T22:30:35.064000Z,D92129A2,5.9,0.08,Slab,S,1,117,85,21,special,-41.63,173.62,-41.7999,172.328,5952812.98,2561652.09,5933893,2454147,8.2,8.2,108.89,128.17,105.65,124.79,66.02,-87.2,0,67,62.92,nu,MCAS,D,501,Q3,1.6,Q3,200,Q3,0,-99999,-99999,0,0.23,19,0.391,19,Webb_Anderson_1998&Dowrick_Rhoades1998&HarvardCMT,0.028693202,0.02911856,0.029862912,0.030915322,0.033094587,0.055685996,0.071898798,0.080720413,0.082954175,0.066906754,0.087890758,0.067422288,0.066879858,0.054450727,0.02245302,0.015784567,0.010062265,-99999,-99999,-99999,-99999,-99999,0.032358223,0.032635595,0.033108344,0.033753298,0.03708013,0.060916173,0.077701097,0.0912918,0.097149557,0.077218969,0.09723493,0.080175941,0.081633417,0.064661406,0.026320142,0.020383662,0.012358382,-99999,-99999,-99999,-99999,-99999,0.028644,0.032355,0.016475,0.019402
339342,1992-05-27T22:30:35.064000Z,D92467A3,5.9,0.08,Slab,S,1,117,85,21,special,-41.63,173.62,-41.2425,174.9024,5952812.98,2561652.09,5994293,2669430,8.2,8.2,115.26,133.52,112.56,130.25,-85.53,77.2,0,67,62.92,nu,467A,D,218,Q3,1.5,Q3,200,Q3,0,-99999,-99999,0,0.35,14,0.595,14,Webb_Anderson_1998&Dowrick_Rhoades1998&HarvardCMT,0.031670947,0.031821524,0.032016464,0.032345994,0.032975438,0.056138485,0.049577905,0.047345644,0.067568049,0.098855877,0.047273244,0.104188006,0.090566897,0.026314733,0.017344285,0.013817919,-99999,-99999,-99999,-99999,-99999,-99999,0.034835337,0.035017673,0.035332469,0.035834946,0.036621044,0.065192213,0.059865777,0.060365962,0.083678343,0.106579406,0.055845004,0.121278606,0.098968034,0.029618648,0.019718581,0.014927179,-99999,-99999,-99999,-99999,-99999,-99999,0.031627,0.034838,0.01937,0.02218
339342,1992-05-27T22:30:35.064000Z,D92468A6,5.9,0.08,Slab,S,1,117,85,21,special,-41.63,173.62,-41.2011,174.9547,5952812.98,2561652.09,5998793,2673916,8.2,8.2,121.08,138.59,118.45,135.4,-91.58,79.15,0,67,62.92,nu,468A,D,190,Q1,0.9,Q3,50,Q3,0,-99999,-99999,0,0.4,19,0.68,19,Webb_Anderson_1998&Dowrick_Rhoades1998&HarvardCMT,0.030547909,0.030767176,0.031093951,0.031398991,0.03165592,0.04133836,0.047122609,0.081682197,0.082146115,0.102145817,0.084069114,0.129817263,0.057735456,0.035001247,0.030021499,-99999,-99999,-99999,-99999,-99999,-99999,-99999,0.035658005,0.035899126,0.036282357,0.036804684,0.037159156,0.049572684,0.052777297,0.10093089,0.094747737,0.122163458,0.096812087,0.147432771,0.072075637,0.041158534,0.03793396,-99999,-99999,-99999,-99999,-99999,-99999,-99999,0.030491,0.035661,0.016906,0.020622
339342,1992-05-27T22:30:35.064000Z,D92644C3,5.9,0.08,Slab,S,1,117,85,21,special,-41.63,173.62,-41.2187,174.8826,5952812.98,2561652.09,5996970,2667828,8.2,8.2,114.77,133.09,112.16,129.87,-87.19,74.56,0,67,62.92,nu,644C,D,189,Q3,2,Q3,250,Q3,0,-99999,-99999,0,0.25,12,0.425,12,Webb_Anderson_1998&Dowrick_Rhoades1998&HarvardCMT,0.021867821,0.021977536,0.022188615,0.022410705,0.0227422,0.025526364,0.050079093,0.05410897,0.049483597,0.083265522,0.051351538,0.090504498,0.089761406,0.024074663,0.012761383,0.008096214,0.005896937,-99999,-99999,-99999,-99999,-99999,0.025550212,0.02570248,0.025944211,0.026337051,0.026878649,0.030935137,0.067909426,0.067638047,0.052187962,0.109112223,0.072159412,0.100792617,0.112439704,0.031937397,0.016165739,0.008645474,0.007624519,-99999,-99999,-99999,-99999,-99999,0.021789,0.025551,0.015829,0.019203
339342,1992-05-27T22:30:35.064000Z,D92646A5,5.9,0.08,Slab,S,1,117,85,21,special,-41.63,173.62,-41.2574,174.9485,5952812.98,2561652.09,5992552,2673256,8.2,8.2,118.23,136.15,115.45,132.85,-85.72,81.4,0,67,62.92,nu,WDAS,E,120,Q1,1.6,Q2,62,Q2,0,-99999,-99999,0,0.5,16,0.85,16,Webb_Anderson_1998&Dowrick_Rhoades1998&HarvardCMT,0.027543804,0.02776056,0.028095859,0.028698403,0.029460605,0.043389605,0.040020507,0.045522399,0.049850808,0.072312382,0.150259245,0.061104135,0.09117309,0.044955185,0.064878754,-99999,-99999,-99999,-99999,-99999,-99999,-99999,0.031842623,0.03202032,0.032286395,0.032767572,0.033653809,0.047078206,0.047416992,0.052640579,0.05599419,0.081584118,0.172088661,0.074112653,0.107355433,0.054673128,0.088146515,-99999,-99999,-99999,-99999,-99999,-99999,-99999,0.027296,0.031602,0.020955,0.023387
339342,1992-05-27T22:30:35.064000Z,D92647A1,5.9,0.08,Slab,S,1,117,85,21,special,-41.63,173.62,-41.2871,174.778,5952812.98,2561652.09,5989560,2658904,8.2,8.2,103.76,123.68,101.04,120.35,-76.54,69.97,0,67,62.92,nu,647A,C,474,Q2,0.12,Q2,5.70E+00,Q2,0,-99999,-99999,0,0.4,19,0.68,19,Webb_Anderson_1998&Dowrick_Rhoades1998&HarvardCMT,0.019863539,0.020107108,0.02058783,0.02141951,0.022979182,0.029457574,0.046594371,0.054508652,0.05399499,0.057395033,0.060012308,0.070860656,0.031262563,0.009718752,0.010933839,-99999,-99999,-99999,-99999,-99999,-99999,-99999,0.024825267,0.025026531,0.025360497,0.025892106,0.026436028,0.036929096,0.061493588,0.077091753,0.060295467,0.078968793,0.064389852,0.087350928,0.042951019,0.013600483,0.014254672,-99999,-99999,-99999,-99999,-99999,-99999,-99999,0.01987,0.024677,0.010584,0.014771
339342,1992-05-27T22:30:35.064000Z,D92706A2,5.9,0.08,Slab,S,1,117,85,21,special,-41.63,173.62,-41.1288,174.8382,5952812.98,2561652.09,6007032,2664315,8.2,8.2,115.91,134.05,113.6,131,-94.56,66.86,0,67,62.92,nu,706A,C,210,Q3,0.5,Q2,30,Q3,0,-99999,-99999,0,0.45,12,0.765,12,Webb_Anderson_1998&Dowrick_Rhoades1998&HarvardCMT,0.030394313,0.030618861,0.03099635,0.031395333,0.032082476,0.033949196,0.044172422,0.066158748,0.080570643,0.154223003,0.089679632,0.087730062,0.052634959,0.033432021,0.02255164,-99999,-99999,-99999,-99999,-99999,-99999,-99999,0.033414126,0.033678364,0.034102345,0.034759344,0.03569398,0.040376698,0.05193052,0.074360119,0.095162743,0.204477155,0.121648028,0.107719268,0.055006218,0.042683392,0.031878697,-99999,-99999,-99999,-99999,-99999,-99999,-99999,0.030306,0.033412,0.017727,0.019672
