CuspID,Origin_time,Record,Mw,MwUncert,TectClass,Mech,PreferredFaultPlane,Strike,Dip,Rake,Location,HypLat,HypLon,StationLat,StationLon,HypN,HypE,StationN,StationE,LENGTH_km,WIDTH_km,Repi_km,Rhyp_km,Rjb_km,Rrup_km,Rx_km,Ry_km,Rvol_km,HypDepth_km,ZTOR_km,HWFW,SiteCode,SiteClass1170,Vs30,Vs30Uncert,Tsite,TsiteUncert,Z1,Z1Uncertainty,Directivity,Pulse_or,Pulse_T,S_Trigger_Flag,fcButterHP,f_iniLP,fmin,fmax,References,f100.0000SA_RotD50,f50.0000SA_RotD50,f33.3333SA_RotD50,f25.0000SA_RotD50,f20.0000SA_RotD50,f13.3333SA_RotD50,f10.0000SA_RotD50,f6.6667SA_RotD50,f5.0000SA_RotD50,f4.0000SA_RotD50,f3.3333SA_RotD50,f2.5000SA_RotD50,f2.0000SA_RotD50,f1.3333SA_RotD50,f1.0000SA_RotD50,f0.6667SA_RotD50,f0.5000SA_RotD50,f0.3333SA_RotD50,f0.2500SA_RotD50,f0.2000SA_RotD50,f0.1333SA_RotD50,f0.1000SA_RotD50,f100.0000SA_RotD100,f50.0000SA_RotD100,f33.3333SA_RotD100,f25.0000SA_RotD100,f20.0000SA_RotD100,f13.3333SA_RotD100,f10.0000SA_RotD100,f6.6667SA_RotD100,f5.0000SA_RotD100,f4.0000SA_RotD100,f3.3333SA_RotD100,f2.5000SA_RotD100,f2.0000SA_RotD100,f1.3333SA_RotD100,f1.0000SA_RotD100,f0.6667SA_RotD100,f0.5000SA_RotD100,f0.3333SA_RotD100,f0.2500SA_RotD100,f0.2000SA_RotD100,f0.1333SA_RotD100,f0.1000SA_RotD100,PGA_RotD50,PGA_RotD100,PGV_RotD50,PGV_RotD100
339342,1992-05-27T22:30:35.064000Z,D92707A1,5.9,0.08,Slab,S,1,117,85,21,special,-41.63,173.62,-41.1391,174.8502,5952812.98,2561652.09,6005867,2665298,8.2,8.2,116.24,134.35,113.89,131.28,-93.97,68.26,0,67,62.92,nu,707A,C,570,Q3,0.15,Q3,10,Q3,0,-99999,-99999,0,0.5,21,0.85,21,Webb_Anderson_1998&Dowrick_Rhoades1998&HarvardCMT,0.022499419,0.022733134,0.023044637,0.023591521,0.034005967,0.049338897,0.087764528,0.116577882,0.043409978,0.063154122,0.058884925,0.042073238,0.023503614,0.007070104,0.005801756,-99999,-99999,-99999,-99999,-99999,-99999,-99999,0.027105646,0.0274455,0.028040909,0.029151838,0.04179471,0.05444646,0.10985155,0.134215467,0.050837276,0.080590274,0.069323611,0.057813515,0.033142769,0.00957508,0.006505918,-99999,-99999,-99999,-99999,-99999,-99999,-99999,0.022265,0.027107,0.007825,0.010582
339342,1992-05-27T22:30:35.064000Z,D92918B5,5.9,0.08,Slab,S,1,117,85,21,special,-41.63,173.62,-41.284,174.7682,5952812.98,2561652.09,5989908,2658140,8.2,8.2,103.13,123.26,100.44,119.93,-76.5,69.13,0,67,62.92,nu,WEL,B,1000,Q3,0.3,Q1,0,Q2,0,-99999,-99999,0,0.4,18,0.68,18,Webb_Anderson_1998&Dowrick_Rhoades1998&HarvardCMT,0.020406376,0.020498809,0.020657684,0.020944942,0.021290043,0.034458763,0.039350312,0.076463337,0.054516325,0.121058787,0.092672623,0.128070931,0.031668316,0.012461644,0.0128012,-99999,-99999,-99999,-99999,-99999,-99999,-99999,0.025818836,0.02600077,0.026361214,0.027006254,0.028281434,0.040608459,0.048412809,0.092116758,0.072107124,0.165476968,0.131060689,0.17334161,0.039106252,0.01629944,0.017455654,-99999,-99999,-99999,-99999,-99999,-99999,-99999,0.020406,0.02579,0.01161,0.014177
339342,1992-05-27T22:30:35.064000Z,D92935B2,5.9,0.08,Slab,S,1,117,85,21,special,-41.63,173.62,-41.2108,174.9047,5952812.98,2561652.09,5997808,2669699,8.2,8.2,116.82,134.86,114.21,131.66,-88.79,75.84,0,67,62.92,nu,935A,D,240,Q3,1.2,Q3,275,Q3,0,-99999,-99999,0,0.35,16,0.595,16,Webb_Anderson_1998&Dowrick_Rhoades1998&HarvardCMT,0.018492653,0.018600859,0.019105291,0.019973002,0.021391415,0.042424148,0.1001146,0.057390963,0.05125676,0.098786817,0.113897033,0.064477091,0.051754208,0.023275795,0.018570853,0.010848947,-99999,-99999,-99999,-99999,-99999,-99999,0.022371226,0.022642931,0.023127494,0.02393978,0.025384358,0.046619055,0.133367607,0.067552407,0.055872063,0.125338076,0.132176873,0.080023999,0.066434055,0.024566854,0.020553226,0.014780696,-99999,-99999,-99999,-99999,-99999,-99999,0.018451,0.022359,0.01207,0.013051
339342,1992-05-27T22:30:35.064000Z,K92934B1,5.9,0.08,Slab,S,1,117,85,21,special,-41.63,173.62,-41.2436,174.908,5952812.98,2561652.09,5994160,2669897,8.2,8.2,115.64,133.85,112.94,130.58,-85.63,77.68,0,67,62.92,nu,934B,D,180,Q1,1.1,Q3,100,Q3,0,-99999,-99999,1,0.4,16,0.68,16,Webb_Anderson_1998&Dowrick_Rhoades1998&HarvardCMT,0.025401694,0.025500876,0.025764651,0.026159814,0.02667639,0.033962423,0.05271178,0.074971764,0.050739922,0.089636316,0.0878782,0.130412019,0.15004971,0.035445686,0.023246781,-99999,-99999,-99999,-99999,-99999,-99999,-99999,0.035622184,0.035818443,0.036155239,0.036631238,0.037248128,0.046724417,0.057140833,0.095834058,0.060847653,0.104399255,0.109716281,0.158601969,0.206754058,0.045108069,0.02853921,-99999,-99999,-99999,-99999,-99999,-99999,-99999,0.025401,0.035412,0.017923,0.022841
338849,1992-06-21T17:43:09.086000Z,K92028A1,6.25,0.08,Crustal,N,1,32,41,246,special,-37.67,176.86,-38.0079,177.284,6385179.66,2850645.07,6346024,2886230,12.26,12.26,52.9,53.06,48.15,48.79,55.55,-14.35,25,4,0.01,nu,028A,D,210,Q3,1,Q3,75,Q3,0,-99999,-99999,1,0.2,15,0.34,15,Webb_Anderson_1998&Dowrick_Rhoades1998&HarvardCMT,0.031127265,0.031400324,0.031945904,0.032742965,0.034036966,0.069160469,0.08515683,0.131573571,0.104345206,0.123135671,0.08288114,0.132078858,0.184658948,0.06594471,0.094800384,0.059398724,0.071457178,-99999,-99999,-99999,-99999,-99999,0.033846639,0.034134114,0.034613996,0.035408275,0.036679366,0.084058622,0.096281778,0.15594725,0.126471207,0.168527824,0.10480055,0.150398145,0.230673919,0.082922416,0.105384611,0.076516254,0.084722089,-99999,-99999,-99999,-99999,-99999,0.031059,0.033848,0.042707,0.059619
338849,1992-06-21T17:43:09.086000Z,A92930A1,6.25,0.08,Crustal,N,1,32,41,246,special,-37.67,176.86,-37.9885,176.8294,6385179.66,2850645.07,6349976,2846440,12.26,12.26,35.52,35.68,29.64,30.05,19.71,-32.08,30,4,0.01,nu,930A,E,150,Q3,>2,Q3,300,Q3,0,-99999,-99999,1,0.15,12,0.255,12,Webb_Anderson_1998&Dowrick_Rhoades1998&HarvardCMT,0.041411727,0.041500564,0.041645619,0.041821195,0.042106163,0.044047212,0.066068861,0.100716563,0.108437616,0.136471735,0.148645854,0.109734277,0.152812918,0.150713033,0.141929174,0.084710712,0.085526751,0.069900409,-99999,-99999,-99999,-99999,0.052093796,0.052198952,0.052394783,0.052747924,0.053206953,0.056053567,0.081255249,0.118263823,0.139767962,0.173951788,0.154134839,0.135318072,0.168694814,0.181589412,0.169136883,0.099273043,0.106190496,0.085671744,-99999,-99999,-99999,-99999,0.041386,0.051907,0.084975,0.103354
435226,1993-04-11T06:59:48.228000Z,A93032A1,5.68,0.08,Interface,O,1,198,15,52,special,-39.74,176.52,-39.9425,176.5874,6156829.5,2811622.89,6134136,2816486,8.63,8.63,23.24,34.95,18.95,31.74,-7.47,20.08,0,26,24.88,nu,032A,C,495,Q3,0.13,Q3,10,Q3,0,-99999,-99999,1,0.4,10,0.68,10,Webb_Anderson_1998&Dowrick_Rhoades1998&HarvardCMT,0.158442338,0.158807479,0.159469104,0.160318858,0.161506661,0.165571491,0.179551349,0.349020668,0.503324055,0.394523544,0.493296378,0.515888138,0.531747396,0.438064313,0.238459899,-99999,-99999,-99999,-99999,-99999,-99999,-99999,0.185063932,0.185519854,0.186340629,0.187346612,0.188665463,0.193989889,0.19562893,0.403024415,0.608354197,0.456392825,0.555425268,0.617640937,0.639578631,0.513009494,0.295048559,-99999,-99999,-99999,-99999,-99999,-99999,-99999,0.158186,0.185064,0.131958,0.175139
435226,1993-04-11T06:59:48.228000Z,D93014A2,5.68,0.08,Interface,O,1,198,15,52,special,-39.74,176.52,-39.4984,176.8761,6156829.5,2811622.89,6182359,2843283,8.63,8.63,40.64,48.27,36.38,44.35,-18.05,-34.06,0,26,24.88,nu,NCDS,E,162,Q3,1.25,Q2,110,Q3,0,-99999,-99999,0,0.24,12,0.408,12,Webb_Anderson_1998&Dowrick_Rhoades1998&HarvardCMT,0.032498306,0.032798035,0.033438176,0.034253901,0.035481899,0.041523049,0.065644457,0.159130842,0.162258518,0.140979651,0.130593935,0.123833286,0.116619122,0.107200799,0.068132062,0.019042315,0.007802134,-99999,-99999,-99999,-99999,-99999,0.039538175,0.039760913,0.040149478,0.040691646,0.041484709,0.045762506,0.083786153,0.204896028,0.213774138,0.184432704,0.141607942,0.166557843,0.126657506,0.149307682,0.083658258,0.020904876,0.010282549,-99999,-99999,-99999,-99999,-99999,0.032393,0.039539,0.021884,0.02309
435226,1993-04-11T06:59:48.228000Z,D93015A1,5.68,0.08,Interface,O,1,198,15,52,special,-39.74,176.52,-39.4891,176.8982,6156829.5,2811622.89,6183313,2845228,8.63,8.63,42.76,50.1,38.49,46.14,-19.61,-35.57,0,26,24.88,nu,015A,B,1000,Q3,<0.1,Q3,0,Q3,0,-99999,-99999,0,0.5,12,0.85,12,Webb_Anderson_1998&Dowrick_Rhoades1998&HarvardCMT,0.016441742,0.016551412,0.016730155,0.017043214,0.017467913,0.020199453,0.042602362,0.042785849,0.060119827,0.08878578,0.127744686,0.055919931,0.089608205,0.0210341,0.015186597,-99999,-99999,-99999,-99999,-99999,-99999,-99999,0.017773164,0.017951786,0.018188088,0.018576847,0.019162236,0.023048185,0.055522258,0.051683993,0.071758684,0.106742252,0.154440152,0.076997899,0.114576713,0.026435871,0.016162616,-99999,-99999,-99999,-99999,-99999,-99999,-99999,0.016392,0.017773,0.009443,0.011342
435226,1993-04-11T06:59:48.228000Z,D93029A2,5.68,0.08,Interface,O,1,198,15,52,special,-39.74,176.52,-39.6458,176.8429,6156829.5,2811622.89,6166127,2839726,8.63,8.63,29.55,39.41,25.33,35.69,-19.69,-17.53,0,26,24.88,nu,HCDS,D,182,Q2,>2,Q3,1000,Q3,0,-99999,-99999,0,0.2,15,0.34,15,Webb_Anderson_1998&Dowrick_Rhoades1998&HarvardCMT,0.029051638,0.029349955,0.029849398,0.030751975,0.031928172,0.053264354,0.06202598,0.098443376,0.197411461,0.131337996,0.195327498,0.096480308,0.050365608,0.100398684,0.052146395,0.026486202,0.029041438,-99999,-99999,-99999,-99999,-99999,0.034618702,0.0347164,0.034844007,0.035064021,0.035336808,0.060875387,0.070880275,0.111260805,0.263608324,0.147445226,0.237398185,0.114340385,0.058153239,0.14091395,0.062244874,0.03007643,0.036970629,-99999,-99999,-99999,-99999,-99999,0.02904,0.034619,0.026152,0.030611
471730,1993-08-10T00:51:55.033000Z,A93070A1,6.89,0.08,Interface,R,1,41,41,107,nlloc,-45.3625,166.649,-45.4167,167.7191,5519161.25,2012843.95,5519112,2096857,34.75,34.75,83.78,85.7,74.67,77.26,68.91,55.08,0,16.72,11.96,nu,TAFS,D,298,Q3,1.4,Q3,200,Q3,0,-99999,-99999,1,0.2,19,0.34,19,Robinson_etal_2003&Dowrick_Rhoades1998&HarvardCMT,0.063904789,0.06462125,0.065863186,0.068007496,0.074679661,0.184119262,0.221663386,0.313908185,0.320605948,0.308052882,0.271806243,0.281163268,0.13118799,0.145884354,0.131047824,0.145422581,0.080715641,-99999,-99999,-99999,-99999,-99999,0.085538682,0.086476691,0.088122254,0.090717387,0.094256321,0.210122909,0.291057459,0.376670944,0.357973968,0.351372237,0.305653418,0.395422079,0.142535909,0.159683784,0.175144202,0.189933745,0.106042991,-99999,-99999,-99999,-99999,-99999,0.063904,0.085534,0.06115,0.07679
471730,1993-08-10T00:51:55.033000Z,A93940A1,6.89,0.08,Interface,R,1,41,41,107,nlloc,-45.3625,166.649,-45.0322,168.6629,5519161.25,2012843.95,5566104,2168345,34.75,34.75,162.01,163.32,150.75,152.25,92.03,137.45,0,16.72,11.96,nu,QTPS,D,350,Q3,0.95,Q1,90,Q3,0,-99999,-99999,1,0.5,10,0.85,10,Robinson_etal_2003&Dowrick_Rhoades1998&HarvardCMT,0.035830526,0.035988924,0.036238409,0.036590153,0.037065235,0.038991803,0.053757068,0.110829277,0.130462204,0.198556219,0.162400687,0.144033142,0.153892419,0.104299892,0.049337244,-99999,-99999,-99999,-99999,-99999,-99999,-99999,0.040238452,0.040474156,0.040881735,0.04144931,0.04224882,0.045267829,0.062589137,0.126569278,0.159227036,0.243367296,0.191403765,0.161387764,0.201230547,0.11525643,0.067892083,-99999,-99999,-99999,-99999,-99999,-99999,-99999,0.035774,0.040236,0.023354,0.02647
471730,1993-08-10T00:51:55.033000Z,D93044A2s,6.89,0.08,Interface,R,1,41,41,107,nlloc,-45.3625,166.649,-45.8986,170.5097,5519161.25,2012843.95,5475848,2316608,34.75,34.75,306.03,307.29,297.73,299.13,263.14,166.6,0,16.72,11.96,nu,SKFS,D,140,Q2,0.8,Q3,25,Q3,0,-99999,-99999,1,0.25,10,0.425,10,Robinson_etal_2003&Dowrick_Rhoades1998&HarvardCMT,0.014965069,0.014981834,0.015028737,0.015110675,0.015195564,0.015719318,0.020994969,0.036241451,0.041783729,0.060455972,0.069977167,0.053514087,0.088450957,0.093303103,0.049792349,0.02948529,0.010867732,-99999,-99999,-99999,-99999,-99999,0.01629199,0.016328563,0.016361294,0.016374621,0.016406256,0.016605269,0.022332153,0.046294971,0.054008173,0.073333553,0.09083699,0.071449534,0.105597892,0.12043058,0.065881012,0.039549928,0.012036315,-99999,-99999,-99999,-99999,-99999,0.014949,0.016283,0.018465,0.019737
471730,1993-08-10T00:51:55.033000Z,D93054A6,6.89,0.08,Interface,R,1,41,41,107,nlloc,-45.3625,166.649,-43.883,169.0441,5519161.25,2012843.95,5695156,2192230,34.75,34.75,250.97,251.86,238.02,238.93,25.39,250.51,0,16.72,11.96,nu,HDWS,D,210,Q3,0.87,Q1,100,Q3,0,-99999,-99999,0,0.35,14,0.595,14,Robinson_etal_2003&Dowrick_Rhoades1998&HarvardCMT,0.030162534,0.030542312,0.031212286,0.032198038,0.033590395,0.059884253,0.086518834,0.20638941,0.126060105,0.108690666,0.171728163,0.060880659,0.050121078,0.116428331,0.03436937,0.022561835,-99999,-99999,-99999,-99999,-99999,-99999,0.035459748,0.035600905,0.035814341,0.036100636,0.037545342,0.071369528,0.09940899,0.239528712,0.1374201,0.11596312,0.21268241,0.0762913,0.05309571,0.138138631,0.047110407,0.031698072,-99999,-99999,-99999,-99999,-99999,-99999,0.029905,0.035416,0.021456,0.023931
471755,1993-08-10T09:46:38.453000Z,A93028A1,6.3,0.08,Slab,S,1,354,64,168,special,-38.55,177.92,-38.0079,177.284,6283090.62,2938734.07,6346024,2886230,30,15,81.95,90.77,69.76,78.95,-42.35,68.08,0,39,32.26,nu,028A,D,210,Q3,1,Q3,75,Q3,0,-99999,-99999,1,0.35,15,0.595,15,Reyners_et_al2010&Webb_Anderson_1998&Dowrick_Rhoades1998&HarvardCMT,0.061373161,0.061614989,0.061916484,0.062443877,0.063160566,0.079375977,0.126359594,0.169690611,0.33053563,0.27449802,0.224646934,0.240325824,0.476307471,0.155284092,0.129112508,0.10602596,-99999,-99999,-99999,-99999,-99999,-99999,0.069004481,0.069193428,0.069485672,0.069918906,0.070441496,0.086471113,0.145735241,0.233349561,0.467456875,0.35023255,0.245147788,0.328773575,0.665822938,0.190399132,0.145777452,0.137895953,-99999,-99999,-99999,-99999,-99999,-99999,0.061272,0.068831,0.052639,0.065922
471755,1993-08-10T09:46:38.453000Z,A93096A1,6.3,0.08,Slab,S,1,354,64,168,special,-38.55,177.92,-39.0342,177.4249,6283090.62,2938734.07,6231637,2892985,30,15,68.85,79.13,59.27,69.25,-47.59,-46.39,0,39,32.26,nu,WFSS,D,155,Q3,1.5,Q3,100,Q3,0,-99999,-99999,1,0.35,13,0.595,13,Reyners_et_al2010&Webb_Anderson_1998&Dowrick_Rhoades1998&HarvardCMT,0.043895946,0.044018316,0.044225012,0.044467388,0.04489334,0.055127436,0.059388617,0.092665716,0.171345244,0.150415489,0.20146837,0.218929984,0.21060053,0.187152988,0.213582518,0.103606885,-99999,-99999,-99999,-99999,-99999,-99999,0.056458327,0.056595671,0.056794123,0.057025295,0.057427174,0.060016101,0.062007822,0.11046621,0.211599303,0.175267652,0.228149187,0.243502399,0.297030427,0.240626429,0.281710517,0.124546109,-99999,-99999,-99999,-99999,-99999,-99999,0.043862,0.056459,0.046615,0.050072
471755,1993-08-10T09:46:38.453000Z,A93113A1,6.3,0.08,Slab,S,1,354,64,168,special,-38.55,177.92,-37.8735,177.5847,6283090.62,2938734.07,6359624,2913365,30,15,80.72,89.57,66.1,76.08,-13.94,78.77,0,39,32.26,nu,113A,C,522,Q3,0.15,Q3,10,Q3,0,-99999,-99999,1,0.42,13,0.714,13,Reyners_et_al2010&Webb_Anderson_1998&Dowrick_Rhoades1998&HarvardCMT,0.089790566,0.090298135,0.091146723,0.092396729,0.094274839,0.101520691,0.172708344,0.250632983,0.569933002,0.603146064,0.504441391,0.215519948,0.175966346,0.066994191,0.040116223,-99999,-99999,-99999,-99999,-99999,-99999,-99999,0.111092909,0.111502763,0.112191244,0.113149875,0.114314496,0.118288047,0.19062402,0.349241537,0.720138609,0.810504853,0.674074198,0.270486998,0.196847553,0.080786124,0.053296858,-99999,-99999,-99999,-99999,-99999,-99999,-99999,0.089493,0.110538,0.041559,0.054997
471755,1993-08-10T09:46:38.453000Z,D93014A4,6.3,0.08,Slab,S,1,354,64,168,special,-38.55,177.92,-39.4984,176.8761,6283090.62,2938734.07,6182359,2843283,30,15,138.75,144.15,129.07,134.18,-102.17,-90.2,0,39,32.26,nu,NCDS,E,162,Q3,1.25,Q2,110,Q3,0,-99999,-99999,0,0.25,10,0.425,10,Reyners_et_al2010&Webb_Anderson_1998&Dowrick_Rhoades1998&HarvardCMT,0.015076467,0.015163585,0.015322046,0.015544181,0.015874443,0.017429649,0.034331922,0.080620656,0.122106735,0.064190727,0.081939191,0.054440236,0.056217536,0.077642456,0.061190575,0.030553654,0.010826961,-99999,-99999,-99999,-99999,-99999,0.016759177,0.016830867,0.016945426,0.017137644,0.017420593,0.018462875,0.042726213,0.088630971,0.161365761,0.086869798,0.094903887,0.058736264,0.069378917,0.098797429,0.065665909,0.038499844,0.013602929,-99999,-99999,-99999,-99999,-99999,0.015065,0.016758,0.013876,0.016776
471755,1993-08-10T09:46:38.453000Z,D93016A1,6.3,0.08,Slab,S,1,354,64,168,special,-38.55,177.92,-38.6774,178.031,6283090.62,2938734.07,6268431,2947608,30,15,17.14,42.71,6.16,35.7,10.58,-15.51,0,39,32.26,nu,016A,C,480,Q3,0.15,Q3,10,Q3,0,-99999,-99999,0,0.3,21,0.51,21,Reyners_et_al2010&Webb_Anderson_1998&Dowrick_Rhoades1998&HarvardCMT,0.155875638,0.156924506,0.158698273,0.161419624,0.172071288,0.241900244,0.435951104,0.732915712,0.878380153,0.798319848,0.710620361,0.514749064,0.707982246,0.37369036,0.203161767,0.066329418,-99999,-99999,-99999,-99999,-99999,-99999,0.193076901,0.194474927,0.196753715,0.200031553,0.208543859,0.258571664,0.586730672,0.907624038,1.193153126,0.994959974,0.890438326,0.645791227,0.875416663,0.421520037,0.239942865,0.083094678,-99999,-99999,-99999,-99999,-99999,-99999,0.154414,0.193073,0.103709,0.140525
471755,1993-08-10T09:46:38.453000Z,D93017A1,6.3,0.08,Slab,S,1,354,64,168,special,-38.55,177.92,-38.6665,178.0227,6283090.62,2938734.07,6269685,2946952,30,15,15.73,42.06,5.22,35.18,10.06,-14.19,0,39,32.26,nu,GISS,D,138,Q2,1,Q1,40,Q3,0,-99999,-99999,0,0.25,30,0.425,30,Reyners_et_al2010&Webb_Anderson_1998&Dowrick_Rhoades1998&HarvardCMT,0.187004251,0.189090688,0.195816818,0.251795134,0.235434902,0.294383914,0.408724199,0.677089405,0.539733592,0.741635444,0.944686015,0.864082343,0.553882807,0.447043961,0.398261737,0.090452735,0.040647351,-99999,-99999,-99999,-99999,-99999,0.217051765,0.218074606,0.221564071,0.261686757,0.275401543,0.332958908,0.541896645,0.864529379,0.631902774,0.89703983,1.156243071,1.09767446,0.716491659,0.560785601,0.502887922,0.100247353,0.049147495,-99999,-99999,-99999,-99999,-99999,0.186203,0.217059,0.121691,0.144066
471755,1993-08-10T09:46:38.453000Z,D93021A3,6.3,0.08,Slab,S,1,354,64,168,special,-38.55,177.92,-38.4249,176.3157,6283090.62,2938734.07,6303375,2799556,30,15,140.32,146.04,135.79,140.25,-133.01,34.72,10,39,32.26,nu,021A,D,210,Q3,2,Q3,200,Q3,0,-99999,-99999,1,0.18,10,0.306,10,Reyners_et_al2010&Webb_Anderson_1998&Dowrick_Rhoades1998&HarvardCMT,0.02635482,0.026373046,0.026423154,0.026463074,0.026506394,0.026721164,0.029481475,0.044197718,0.069377733,0.075509885,0.056446766,0.069436885,0.10143475,0.099808278,0.139997044,0.21958953,0.054454803,0.014348657,-99999,-99999,-99999,-99999,0.02801162,0.0280367,0.028074017,0.028028728,0.028113331,0.028236395,0.030550913,0.055360877,0.085167635,0.097666832,0.064368847,0.076320786,0.131188127,0.118649171,0.186306701,0.269526427,0.076625579,0.0179159,-99999,-99999,-99999,-99999,0.026355,0.028006,0.056127,0.064898
608810,1994-06-18T03:25:13.819000Z,D4505A01,6.72,0.08,Crustal,R,1,221,47,112,geonet,-43.0078,171.4762,-42.9489,171.5677,5798820.69,2385786.14,5805487,2393135,21.06,21.06,9.91,11.12,2.02,4.12,2.92,-9.85,0,4.27,1,hw,APPS,C,300,Q2,0.4,Q1,30,Q2,0,-99999,-99999,0,0.11,40,0.187,40,Abercrombie_etal_2000&HarvardCMT,0.434947985,0.449947726,0.52997111,0.5438486,0.615526357,0.841106019,1.126545883,1.771630819,2.478693526,2.242738386,1.246033474,1.64470064,2.232271151,0.449374937,0.346195781,0.194709301,0.120093696,0.070054263,0.049065365,0.022181525,-99999,-99999,0.509206171,0.524860658,0.577817343,0.604555113,0.738631354,0.944370802,1.350042271,2.162694333,3.308983207,3.123244886,1.348211932,1.837780564,3.076841644,0.62781899,0.404713992,0.260580173,0.138593526,0.085503098,0.06598534,0.02869171,-99999,-99999,0.423633,0.509184,0.28269,0.316738
