CuspID,Origin_time,Record,Mw,MwUncert,TectClass,Mech,PreferredFaultPlane,Strike,Dip,Rake,Location,HypLat,HypLon,StationLat,StationLon,HypN,HypE,StationN,StationE,LENGTH_km,WIDTH_km,Repi_km,Rhyp_km,Rjb_km,Rrup_km,Rx_km,Ry_km,Rvol_km,HypDepth_km,ZTOR_km,HWFW,SiteCode,SiteClass1170,Vs30,Vs30Uncert,Tsite,TsiteUncert,Z1,Z1Uncertainty,Directivity,Pulse_or,Pulse_T,S_Trigger_Flag,fcButterHP,f_iniLP,fmin,fmax,References,f100.0000SA_RotD50,f50.0000SA_RotD50,f33.3333SA_RotD50,f25.0000SA_RotD50,f20.0000SA_RotD50,f13.3333SA_RotD50,f10.0000SA_RotD50,f6.6667SA_RotD50,f5.0000SA_RotD50,f4.0000SA_RotD50,f3.3333SA_RotD50,f2.5000SA_RotD50,f2.0000SA_RotD50,f1.3333SA_RotD50,f1.0000SA_RotD50,f0.6667SA_RotD50,f0.5000SA_RotD50,f0.3333SA_RotD50,f0.2500SA_RotD50,f0.2000SA_RotD50,f0.1333SA_RotD50,f0.1000SA_RotD50,f100.0000SA_RotD100,f50.0000SA_RotD100,f33.3333SA_RotD100,f25.0000SA_RotD100,f20.0000SA_RotD100,f13.3333SA_RotD100,f10.0000SA_RotD100,f6.6667SA_RotD100,f5.0000SA_RotD100,f4.0000SA_RotD100,f3.3333SA_RotD100,f2.5000SA_RotD100,f2.0000SA_RotD100,f1.3333SA_RotD100,f1.0000SA_RotD100,f0.6667SA_RotD100,f0.5000SA_RotD100,f0.3333SA_RotD100,f0.2500SA_RotD100,f0.2000SA_RotD100,f0.1333SA_RotD100,f0.1000SA_RotD100,PGA_RotD50,PGA_RotD100,PGV_RotD50,PGV_RotD100
771645,1995-11-24T06:18:56.622999Z,D5505A37,6.19,0.08,Crustal,O,1,176,46,44,geonet,-42.953,171.8188,-42.9489,171.5677,5805359.34,2413627.76,5805487,2393135,11.44,11.44,20.44,22,18.34,21,22.52,-1.56,0,7.26,5.1,hw,APPS,C,300,Q2,0.4,Q1,30,Q2,0,-99999,-99999,0,0.29,20,0.493,20,Gledhill_etal_2000,0.13354527,0.134576948,0.136561857,0.139532334,0.143726596,0.147670347,0.160048331,0.186689209,0.184389486,0.138853265,0.128872717,0.08994936,0.083071286,0.055432582,0.029737652,0.012266408,0.005960868,-99999,-99999,-99999,-99999,-99999,0.150348896,0.15273266,0.155818624,0.159396561,0.165731685,0.181542627,0.19166889,0.227189436,0.199004901,0.172983149,0.138442134,0.125785457,0.095875704,0.061971004,0.034381866,0.015895426,0.007884674,-99999,-99999,-99999,-99999,-99999,0.132025,0.149811,0.066529,0.086571
771645,1995-11-24T06:18:56.622999Z,D6051D01,6.19,0.08,Crustal,O,1,176,46,44,geonet,-42.953,171.8188,-41.7557,171.5998,5805359.34,2413627.76,5938069,2393545,11.44,11.44,134.35,134.42,128.36,128.45,12.86,-133.79,0,7.26,5.1,nu,WBCS,D,300,Q3,1.2,Q2,105,Q3,0,-99999,-99999,0,0.2,20,0.34,20,Gledhill_etal_2000,0.01858735,0.01865956,0.018774959,0.0190117,0.019258653,0.020337915,0.021720426,0.020614703,0.020450187,0.021384804,0.02250514,0.020866534,0.019715366,0.014750951,0.01122575,0.0061713,0.003936788,-99999,-99999,-99999,-99999,-99999,0.023445319,0.023594875,0.02379445,0.024028002,0.024479787,0.026828284,0.02913561,0.026396495,0.027522934,0.027373962,0.026064012,0.022421972,0.021751843,0.017936717,0.014847574,0.007716807,0.004717764,-99999,-99999,-99999,-99999,-99999,0.018493,0.023427,0.015306,0.017548
771645,1995-11-24T06:18:56.622999Z,D6129A01,6.19,0.08,Crustal,O,1,176,46,44,geonet,-42.953,171.8188,-41.7999,172.328,5805359.34,2413627.76,5933893,2454147,11.44,11.44,134.87,134.97,129.24,129.34,-47.3,-125.39,0,7.26,5.1,nu,MCAS,D,501,Q3,1.6,Q3,200,Q3,0,-99999,-99999,1,0.2,10,0.34,10,Gledhill_etal_2000,0.018074051,0.01810333,0.018151977,0.01821864,0.018308348,0.018658813,0.019413061,0.021474318,0.022178031,0.023085585,0.022755665,0.021782392,0.021472917,0.021139792,0.020085035,0.01407462,0.00858221,-99999,-99999,-99999,-99999,-99999,0.02248029,0.022516323,0.022563141,0.02261868,0.022687419,0.022951578,0.023075771,0.024709797,0.026142339,0.025980913,0.024784846,0.023254505,0.023201285,0.026313796,0.026586053,0.016684455,0.009569621,-99999,-99999,-99999,-99999,-99999,0.018047,0.022471,0.028369,0.03326
771645,1995-11-24T06:18:56.622999Z,K5112B01,6.19,0.08,Crustal,O,1,176,46,44,geonet,-42.953,171.8188,-43.1325,171.7693,5805359.34,2413627.76,5785358,2409884,11.44,11.44,20.36,21.83,14.58,16.61,7.21,19.69,0,7.26,5.1,nu,112B,C,667,Q3,0.36,Q3,60,Q3,0,-99999,-99999,1,0.25,20,0.425,20,Gledhill_etal_2000,0.137252592,0.139302002,0.142701744,0.147792204,0.153931288,0.16819826,0.177162424,0.188242945,0.174920321,0.138258684,0.107606231,0.072844229,0.04798818,0.026445947,0.018958893,0.012359739,0.008128577,-99999,-99999,-99999,-99999,-99999,0.155393149,0.156971215,0.160008835,0.164306334,0.166885731,0.176415574,0.196754751,0.206050024,0.202821076,0.160284122,0.120342056,0.094643478,0.067134012,0.032970053,0.022165764,0.017074829,0.009156769,-99999,-99999,-99999,-99999,-99999,0.136134,0.153001,0.051684,0.068418
1037562,1996-08-29T04:47:00.878000Z,D6042A01,5.25,0.15,Crustal,S,0,317,67,-2.00E+01,geonet,-42.4891,172.7921,-42.5232,172.8305,5857551.8,2492912.82,5853765,2496076,3.9,3.9,4.93,10.98,3.66,9.43,-99999,-99999,0,9.43,7.61,nu,HSES,D,280,Q3,0.9,Q1,85,Q3,0,-99999,-99999,0,0.2,18,0.34,18,HarvardCMT,0.2370761,0.237395164,0.237908943,0.239313296,0.240321042,0.240737058,0.255453418,0.271702175,0.269649965,0.259640834,0.284707205,0.274138911,0.253351621,0.213580014,0.180489408,0.092312407,0.051801059,-99999,-99999,-99999,-99999,-99999,0.274563727,0.275448076,0.277857227,0.280440572,0.282829998,0.283625181,0.287396046,0.307231535,0.29807207,0.30631296,0.302777859,0.297830441,0.259352426,0.227341999,0.200351345,0.107416855,0.061787965,-99999,-99999,-99999,-99999,-99999,0.236709,0.274839,0.238508,0.283921
1348340,1999-01-03T07:00:20.568000Z,D9131A03,5.22,0.15,Slab,N,1,211,80,-8.30E+01,nlloc,-41.0938,174.519,-40.9143,175.005,6011432.3,2637591.18,6030534,2678862,3.7,3.7,45.4,72.68,43.85,70.85,-25.21,-37.63,0,56.68,54.84,nu,PAPS,D,200,Q3,1.4,Q1,100,Q3,0,-99999,-99999,0,0.4,15,0.68,15,HarvardCMT,0.025616458,0.025931923,0.026516027,0.027297465,0.028322047,0.031653327,0.035040939,0.036408937,0.029604429,0.023340025,0.017541711,0.01208452,0.010472699,0.009206308,0.006913268,-99999,-99999,-99999,-99999,-99999,-99999,-99999,0.027333098,0.027655263,0.028086578,0.028617687,0.02938895,0.033800357,0.038803021,0.039981434,0.034052975,0.025796111,0.020361204,0.015946912,0.011953437,0.009969723,0.008418851,-99999,-99999,-99999,-99999,-99999,-99999,-99999,0.025641,0.027261,0.012535,0.014003
1348340,1999-01-03T07:00:20.568000Z,D9469A01,5.22,0.15,Slab,N,1,211,80,-8.30E+01,nlloc,-41.0938,174.519,-41.2117,174.9033,6011432.3,2637591.18,5997711,2669586,3.7,3.7,34.75,66.53,34.35,64.79,-34.17,-4.72,0,56.68,54.84,nu,LHES,D,240,Q3,1.16,Q3,280,Q3,0,-99999,-99999,0,0.35,12.5,0.595,12.5,HarvardCMT,0.018472798,0.018508581,0.018580069,0.018650539,0.01872817,0.018711442,0.019174389,0.021119112,0.021928575,0.022514695,0.023563409,0.022644092,0.019536808,0.012980867,0.008357867,0.003567976,-99999,-99999,-99999,-99999,-99999,-99999,0.026123623,0.026159273,0.026276631,0.026376474,0.026471689,0.026191398,0.026453174,0.029244327,0.03065352,0.031837287,0.031894075,0.030356972,0.027301813,0.018358955,0.011816417,0.005018308,-99999,-99999,-99999,-99999,-99999,-99999,0.018481,0.026135,0.01573,0.02148
1348340,1999-01-03T07:00:20.568000Z,D9643B07,5.22,0.15,Slab,N,1,211,80,-8.30E+01,nlloc,-41.0938,174.519,-41.1513,174.9794,6011432.3,2637591.18,6004275,2676112,3.7,3.7,39.09,68.98,38.4,67.25,-36.38,-13.7,0,56.68,54.84,nu,643B,B,1000,Q3,<0.1,Q3,1.50E+00,Q3,0,-99999,-99999,0,0.45,18,0.765,18,HarvardCMT,0.02746459,0.028039419,0.029043855,0.030627049,0.032711204,0.037632706,0.039946862,0.037407766,0.033508828,0.023637332,0.016394856,0.009922589,0.007236413,0.004787319,0.002931149,-99999,-99999,-99999,-99999,-99999,-99999,-99999,0.036197881,0.036448143,0.036977282,0.037763263,0.03840483,0.04099942,0.04481671,0.052905382,0.045443424,0.033399477,0.02312849,0.013516007,0.008590276,0.006589631,0.003909065,-99999,-99999,-99999,-99999,-99999,-99999,-99999,0.027619,0.036236,0.008702,0.010464
1348340,1999-01-03T07:00:20.568000Z,D9644C05,5.22,0.15,Slab,N,1,211,80,-8.30E+01,nlloc,-41.0938,174.519,-41.2187,174.8826,6011432.3,2637591.18,5996970,2667828,3.7,3.7,33.46,65.85,33.1,64.1,-33.04,-3.18,0,56.68,54.84,nu,644C,D,189,Q3,2,Q3,250,Q3,0,-99999,-99999,0,0.3,18,0.51,18,HarvardCMT,0.019734211,0.019805089,0.019949469,0.02003905,0.020069926,0.021723655,0.023725737,0.027432141,0.025497812,0.022011276,0.021192005,0.02054568,0.018200284,0.010626942,0.006433536,0.00304983,-99999,-99999,-99999,-99999,-99999,-99999,0.027183914,0.027251157,0.027294304,0.027268533,0.0271446,0.030689315,0.033466649,0.038319748,0.035883337,0.031125587,0.029824879,0.028558962,0.024377327,0.013442312,0.008723131,0.004185313,-99999,-99999,-99999,-99999,-99999,-99999,0.019756,0.027164,0.011757,0.016601
1348340,1999-01-03T07:00:20.568000Z,D9900C01,5.22,0.15,Slab,N,1,211,80,-8.30E+01,nlloc,-41.0938,174.519,-41.2891,174.7799,6011432.3,2637591.18,5989335,2659058,3.7,3.7,30.79,64.52,30.25,62.73,-29.46,7.88,0,56.68,54.84,nu,900C,D,250,Q3,0.8,Q3,60,Q3,0,-99999,-99999,0,0.52,10,0.884,10,HarvardCMT,0.017114764,0.017169882,0.017316951,0.017511247,0.017745164,0.018696712,0.020613976,0.019347256,0.020831691,0.022572306,0.023335363,0.019639653,0.014288597,0.007094342,0.004156385,-99999,-99999,-99999,-99999,-99999,-99999,-99999,0.020871025,0.021055576,0.021289938,0.021569366,0.021955501,0.023211964,0.023343755,0.02424016,0.02519955,0.026832393,0.025634729,0.023579477,0.017591728,0.009110696,0.005808903,-99999,-99999,-99999,-99999,-99999,-99999,-99999,0.017089,0.02082,0.011181,0.013802
1348340,1999-01-03T07:00:20.568000Z,G9713A02,5.22,0.15,Slab,N,1,211,80,-8.30E+01,nlloc,-41.0938,174.519,-41.1257,174.8392,6011432.3,2637591.18,6007373,2664412,3.7,3.7,27.06,62.84,26.34,61.02,-24.76,-10.33,0,56.68,54.84,nu,713A,D,210,Q3,0.6,Q3,40,Q3,0,-99999,-99999,0,0.6,12.5,1.02,12.5,HarvardCMT,0.020867239,0.021053492,0.021351118,0.021875083,0.022551474,0.024886104,0.027921433,0.028917461,0.026740684,0.021428363,0.018540026,0.017956807,0.018094743,0.012706221,-99999,-99999,-99999,-99999,-99999,-99999,-99999,-99999,0.028179917,0.028362259,0.02863499,0.029040731,0.029610403,0.032271082,0.035958219,0.034174933,0.030128803,0.026362384,0.023997248,0.0223303,0.02106985,0.013825917,-99999,-99999,-99999,-99999,-99999,-99999,-99999,-99999,0.020826,0.028155,0.012396,0.013872
1348340,1999-01-03T07:00:20.568000Z,I9467A03,5.22,0.15,Slab,N,1,211,80,-8.30E+01,nlloc,-41.0938,174.519,-41.2425,174.9024,6011432.3,2637591.18,5994293,2669430,3.7,3.7,36.1,67.24,35.77,65.51,-35.79,-1.71,0,56.68,54.84,nu,467A,D,218,Q3,1.5,Q3,200,Q3,0,-99999,-99999,0,0.35,18,0.595,18,HarvardCMT,0.015968101,0.016021054,0.016161578,0.016385345,0.016840309,0.018181063,0.018662475,0.021985245,0.023163959,0.021190426,0.021343836,0.023066732,0.021835203,0.01456793,0.00914084,0.004040481,-99999,-99999,-99999,-99999,-99999,-99999,0.022033771,0.022095947,0.022233092,0.022488508,0.022922002,0.024825993,0.026040811,0.028523554,0.029215911,0.027901692,0.029101968,0.031963885,0.030600917,0.019896906,0.012823157,0.005682882,-99999,-99999,-99999,-99999,-99999,-99999,0.015965,0.021979,0.016572,0.021891
1348340,1999-01-03T07:00:20.568000Z,I9468A01,5.22,0.15,Slab,N,1,211,80,-8.30E+01,nlloc,-41.0938,174.519,-41.2011,174.9547,6011432.3,2637591.18,5998793,2673916,3.7,3.7,38.38,68.5,37.91,66.79,-37.32,-7.87,0,56.68,54.84,nu,468A,D,190,Q1,0.9,Q3,50,Q3,0,-99999,-99999,0,0.3,20,0.51,20,HarvardCMT,0.034327593,0.03494667,0.036018817,0.03741382,0.039165402,0.04110144,0.044301655,0.043827346,0.037126306,0.030186335,0.028220094,0.022835826,0.022948477,0.017457754,0.013162971,0.005538923,-99999,-99999,-99999,-99999,-99999,-99999,0.037454364,0.038149551,0.039115589,0.04035511,0.042113354,0.048031048,0.051069769,0.050759601,0.042280838,0.033845774,0.032470535,0.032288912,0.027566366,0.020893257,0.015227029,0.006889816,-99999,-99999,-99999,-99999,-99999,-99999,0.033923,0.037196,0.017852,0.019378
1348340,1999-01-03T07:00:20.568000Z,I9602C01,5.22,0.15,Slab,N,1,211,80,-8.30E+01,nlloc,-41.0938,174.519,-41.1903,174.928,6011432.3,2637591.18,6000041,2671703,3.7,3.7,35.89,67.15,35.4,65.41,-34.78,-7.8,0,56.68,54.84,nu,602C,B,1000,Q3,<0.1,Q3,0,Q3,0,-99999,-99999,0,0.3,40,0.51,40,HarvardCMT,0.012077825,0.012264813,0.012665131,0.013317498,0.013980272,0.014735566,0.014539771,0.013607971,0.011426461,0.010048965,0.009178649,0.008332511,0.00754964,0.004930349,0.00288219,0.001323057,-99999,-99999,-99999,-99999,-99999,-99999,0.016486898,0.016659191,0.017010541,0.017846503,0.018899489,0.020364326,0.019521497,0.017829327,0.015825299,0.012738982,0.011504648,0.010972548,0.01045066,0.006959908,0.004057005,0.001778398,-99999,-99999,-99999,-99999,-99999,-99999,0.012032,0.01644,0.005437,0.007595
1348340,1999-01-03T07:00:20.568000Z,I9603B02,5.22,0.15,Slab,N,1,211,80,-8.30E+01,nlloc,-41.0938,174.519,-41.2237,174.86,6011432.3,2637591.18,5996453,2665923,3.7,3.7,31.99,65.12,31.66,63.36,-31.67,-1.75,0,56.68,54.84,nu,603B,B,1000,Q3,<0.1,Q3,0,Q3,0,-99999,-99999,0,0.19,55,0.323,55,HarvardCMT,0.007814089,0.007955353,0.008091621,0.008219297,0.008663931,0.00956834,0.010240872,0.010928052,0.008734489,0.006804504,0.005809623,0.005960091,0.005678957,0.004032948,0.002909647,0.001402964,0.000806064,0.000323787,-99999,-99999,-99999,-99999,0.009781331,0.009872659,0.009872955,0.009965917,0.009965257,0.010549868,0.011318605,0.012369713,0.010377484,0.007918728,0.007743854,0.007968955,0.007310426,0.005567956,0.003848426,0.001980267,0.001013995,0.000436209,-99999,-99999,-99999,-99999,0.00778,0.00974,0.004733,0.0053
1348340,1999-01-03T07:00:20.568000Z,I9605B22,5.22,0.15,Slab,N,1,211,80,-8.30E+01,nlloc,-41.0938,174.519,-41.2074,174.9401,6011432.3,2637591.18,5998119,2672679,3.7,3.7,37.45,68.03,37.01,66.31,-36.61,-6.66,0,56.68,54.84,nu,FAIS,B,760,Q3,0.27,Q1,0,Q2,0,-99999,-99999,0,0.3,45,0.51,45,HarvardCMT,0.011389108,0.011684097,0.011988412,0.012268438,0.012590003,0.01425827,0.014430025,0.013115272,0.010936443,0.010541832,0.01030001,0.010154858,0.008620457,0.005139366,0.00292611,0.001241499,-99999,-99999,-99999,-99999,-99999,-99999,0.013863216,0.01406541,0.014434452,0.015377919,0.016500966,0.016671127,0.015851014,0.015787675,0.014135481,0.013264535,0.013591221,0.01436032,0.012179365,0.007232782,0.004138051,0.001704482,-99999,-99999,-99999,-99999,-99999,-99999,0.011282,0.013748,0.005969,0.008408
1348340,1999-01-03T07:00:20.568000Z,I9606B03,5.22,0.15,Slab,N,1,211,80,-8.30E+01,nlloc,-41.0938,174.519,-41.2333,174.9199,6011432.3,2637591.18,5995282,2670919,3.7,3.7,36.97,67.71,36.61,65.99,-36.56,-3.32,0,56.68,54.84,nu,606B,B,800,Q3,<0.1,Q3,0,Q3,0,-99999,-99999,0,0.18,52,0.306,52,HarvardCMT,0.012819593,0.013202486,0.013639566,0.014717117,0.015710989,0.015425457,0.013874507,0.011668058,0.009902509,0.008780041,0.007455084,0.006314777,0.004511253,0.003133699,0.001946364,0.000777206,0.000430291,0.000216906,-99999,-99999,-99999,-99999,0.017223906,0.017660792,0.018242351,0.019480483,0.020988576,0.021376827,0.017994761,0.014634316,0.012684996,0.010727969,0.009968484,0.008540568,0.006055249,0.004403003,0.002718413,0.001000444,0.000585614,0.000305318,-99999,-99999,-99999,-99999,0.012759,0.017084,0.004154,0.004607
1348340,1999-01-03T07:00:20.568000Z,I9640A06,5.22,0.15,Slab,N,1,211,80,-8.30E+01,nlloc,-41.0938,174.519,-41.235,174.9147,6011432.3,2637591.18,5995103,2670479,3.7,3.7,36.65,67.54,36.31,65.82,-36.28,-2.94,0,56.68,54.84,nu,640A,E,230,Q3,0.5,Q3,60,Q3,0,-99999,-99999,0,0.3,20,0.51,20,HarvardCMT,0.021776091,0.022045281,0.022508741,0.023151374,0.024311757,0.027254791,0.02708377,0.025494975,0.023271337,0.022444616,0.02303287,0.022016823,0.017131261,0.007565486,0.004890875,0.002088788,-99999,-99999,-99999,-99999,-99999,-99999,0.028942882,0.029321456,0.029896033,0.030719162,0.031880115,0.0346048,0.035039064,0.030157614,0.02643418,0.024680802,0.028207992,0.028070922,0.022441097,0.010279888,0.006565974,0.002747024,-99999,-99999,-99999,-99999,-99999,-99999,0.021522,0.029039,0.010105,0.014102
1348340,1999-01-03T07:00:20.568000Z,I9646B03,5.22,0.15,Slab,N,1,211,80,-8.30E+01,nlloc,-41.0938,174.519,-41.2574,174.9485,6011432.3,2637591.18,5992552,2673256,3.7,3.7,40.29,69.65,39.95,67.96,-39.97,-2.19,0,56.68,54.84,nu,WDAS,E,120,Q1,1.6,Q2,62,Q2,0,-99999,-99999,0,0.4,35,0.68,35,HarvardCMT,0.019632582,0.020006768,0.020489597,0.021446481,0.022239769,0.024190183,0.025279537,0.024656373,0.023751541,0.02159567,0.020715564,0.016893835,0.016837851,0.017015838,0.015247545,-99999,-99999,-99999,-99999,-99999,-99999,-99999,0.020553435,0.020792017,0.021294595,0.02247747,0.024037834,0.027000999,0.027324654,0.027583297,0.025964102,0.025393089,0.023941857,0.02345276,0.021118596,0.019265204,0.017959555,-99999,-99999,-99999,-99999,-99999,-99999,-99999,0.019566,0.020568,0.016838,0.020664
1348340,1999-01-03T07:00:20.568000Z,I9708A04,5.22,0.15,Slab,N,1,211,80,-8.30E+01,nlloc,-41.0938,174.519,-41.1314,174.8391,6011432.3,2637591.18,6006740,2664387,3.7,3.7,27.14,62.88,26.45,61.06,-25.06,-9.78,0,56.68,54.84,nu,POLS,C,250,Q2,0.4,Q1,25,Q2,0,-99999,-99999,0,0.25,20,0.425,20,HarvardCMT,0.015896093,0.016119394,0.016589625,0.017262305,0.018082432,0.019268715,0.019932016,0.019080568,0.018298903,0.015930346,0.014008006,0.010024825,0.008767599,0.005618371,0.003468372,0.001464,0.000804501,-99999,-99999,-99999,-99999,-99999,0.020208417,0.020446437,0.020899342,0.021669753,0.022900144,0.025253634,0.026696173,0.025048609,0.023300485,0.02176519,0.019731343,0.012008948,0.010263163,0.007925356,0.004412278,0.002070547,0.001137541,-99999,-99999,-99999,-99999,-99999,0.015729,0.019999,0.007194,0.008358
1348340,1999-01-03T07:00:20.568000Z,I9918C01,5.22,0.15,Slab,N,1,211,80,-8.30E+01,nlloc,-41.0938,174.519,-41.284,174.7682,6011432.3,2637591.18,5989908,2658140,3.7,3.7,29.7,64.14,29.14,62.35,-28.37,7.87,0,56.68,54.84,nu,WEL,B,1000,Q3,0.3,Q1,0,Q2,0,-99999,-99999,0,0.35,35,0.595,35,HarvardCMT,0.018655129,0.019049221,0.020343986,0.021625592,0.023714431,0.025409377,0.02251459,0.023607037,0.019095582,0.013697062,0.010453273,0.007468373,0.005596869,0.003326913,0.002307278,0.001146548,-99999,-99999,-99999,-99999,-99999,-99999,0.022716988,0.023069151,0.023696586,0.024210776,0.025215042,0.028757444,0.029139623,0.033381363,0.026076371,0.01810058,0.014736165,0.010560872,0.007875717,0.004578907,0.003190043,0.001377867,-99999,-99999,-99999,-99999,-99999,-99999,0.018532,0.022602,0.006648,0.009403
1444773,1999-10-25T20:31:43.627000Z,D9014A02,6.02,0.15,Slab,O,0,158,54,35,nlloc,-38.5427,175.885,-39.4984,176.8761,6291620.32,2761553.77,6182359,2843283,9.4,9.4,136.47,204.75,133.03,201.69,-99999,-99999,0,152.66,148.68,nu,NCDS,E,162,Q3,1.25,Q2,110,Q3,0,-99999,-99999,1,0.25,14,0.425,14,HarvardCMT,0.037342127,0.037479866,0.03761961,0.037839543,0.038239208,0.040505977,0.044034116,0.0472253,0.049062852,0.046881151,0.043054701,0.033570064,0.030227799,0.027244135,0.018315343,0.009503097,0.005327438,-99999,-99999,-99999,-99999,-99999,0.048715324,0.048891857,0.049296696,0.049811313,0.050457467,0.053387637,0.055249105,0.059759297,0.060841318,0.055945196,0.050219088,0.036606379,0.034957627,0.035191613,0.023837869,0.011931513,0.006827448,-99999,-99999,-99999,-99999,-99999,0.037263,0.048479,0.027826,0.03757
1444773,1999-10-25T20:31:43.627000Z,D9027G06,6.02,0.15,Slab,O,0,158,54,35,nlloc,-38.5427,175.885,-39.4884,176.9189,6291620.32,2761553.77,6183307,2847012,9.4,9.4,137.97,205.77,134.56,202.73,-99999,-99999,0,152.66,148.68,nu,NAMS,C,268,Q3,0.4,Q3,20,Q3,0,-99999,-99999,1,0.25,12,0.425,12,HarvardCMT,0.017788607,0.01786983,0.018023881,0.018183765,0.01841911,0.019217959,0.020408722,0.024955168,0.025292958,0.021580324,0.018040319,0.017061794,0.01561202,0.008623442,0.006037475,0.003802157,0.002598149,-99999,-99999,-99999,-99999,-99999,0.020244957,0.020311308,0.020439829,0.020641183,0.020920255,0.022159452,0.023960796,0.027885388,0.028912307,0.024936075,0.021687244,0.019651643,0.017030849,0.011456393,0.007701777,0.005281893,0.003081731,-99999,-99999,-99999,-99999,-99999,0.017732,0.020169,0.011055,0.013032
