CuspID,Origin_time,Record,Mw,MwUncert,TectClass,Mech,PreferredFaultPlane,Strike,Dip,Rake,Location,HypLat,HypLon,StationLat,StationLon,HypN,HypE,StationN,StationE,LENGTH_km,WIDTH_km,Repi_km,Rhyp_km,Rjb_km,Rrup_km,Rx_km,Ry_km,Rvol_km,HypDepth_km,ZTOR_km,HWFW,SiteCode,SiteClass1170,Vs30,Vs30Uncert,Tsite,TsiteUncert,Z1,Z1Uncertainty,Directivity,Pulse_or,Pulse_T,S_Trigger_Flag,fcButterHP,f_iniLP,fmin,fmax,References,f100.0000SA_RotD50,f50.0000SA_RotD50,f33.3333SA_RotD50,f25.0000SA_RotD50,f20.0000SA_RotD50,f13.3333SA_RotD50,f10.0000SA_RotD50,f6.6667SA_RotD50,f5.0000SA_RotD50,f4.0000SA_RotD50,f3.3333SA_RotD50,f2.5000SA_RotD50,f2.0000SA_RotD50,f1.3333SA_RotD50,f1.0000SA_RotD50,f0.6667SA_RotD50,f0.5000SA_RotD50,f0.3333SA_RotD50,f0.2500SA_RotD50,f0.2000SA_RotD50,f0.1333SA_RotD50,f0.1000SA_RotD50,f100.0000SA_RotD100,f50.0000SA_RotD100,f33.3333SA_RotD100,f25.0000SA_RotD100,f20.0000SA_RotD100,f13.3333SA_RotD100,f10.0000SA_RotD100,f6.6667SA_RotD100,f5.0000SA_RotD100,f4.0000SA_RotD100,f3.3333SA_RotD100,f2.5000SA_RotD100,f2.0000SA_RotD100,f1.3333SA_RotD100,f1.0000SA_RotD100,f0.6667SA_RotD100,f0.5000SA_RotD100,f0.3333SA_RotD100,f0.2500SA_RotD100,f0.2000SA_RotD100,f0.1333SA_RotD100,f0.1000SA_RotD100,PGA_RotD50,PGA_RotD100,PGV_RotD50,PGV_RotD100
339342,1992-05-27T22:30:35.064000Z,D92707A1,5.9,0.08,Slab,S,1,117,85,21,special,-41.63,173.62,-41.1391,174.8502,5952812.98,2561652.09,6005867,2665298,8.2,8.2,116.24,134.35,113.89,131.28,-93.97,68.26,0,67,62.92,nu,707A,C,570,Q3,0.15,Q3,10,Q3,0,-99999,-99999,0,0.5,21,0.85,21,Webb_Anderson_1998&Dowrick_Rhoades1998&HarvardCMT,0.022497577,0.022717129,0.02304119,0.023544989,0.027133026,0.037014293,0.05997555,0.094110639,0.040169875,0.047874917,0.045633524,0.036903511,0.022376935,0.006571988,0.004138176,-99999,-99999,-99999,-99999,-99999,-99999,-99999,0.02710252,0.027430869,0.028014407,0.02910222,0.031067253,0.044445718,0.071995474,0.102622959,0.04716952,0.061387517,0.057601916,0.051909511,0.031539205,0.008959857,0.004991462,-99999,-99999,-99999,-99999,-99999,-99999,-99999,0.022265,0.027107,0.007825,0.010582
339342,1992-05-27T22:30:35.064000Z,D92918B5,5.9,0.08,Slab,S,1,117,85,21,special,-41.63,173.62,-41.284,174.7682,5952812.98,2561652.09,5989908,2658140,8.2,8.2,103.13,123.26,100.44,119.93,-76.5,69.13,0,67,62.92,nu,WEL,B,1000,Q3,0.3,Q1,0,Q2,0,-99999,-99999,0,0.4,18,0.68,18,Webb_Anderson_1998&Dowrick_Rhoades1998&HarvardCMT,0.020406459,0.020507562,0.020666468,0.020937156,0.021253237,0.025548016,0.032417746,0.051702458,0.051627267,0.093304145,0.07521674,0.093249466,0.026422438,0.010222043,0.009488708,-99999,-99999,-99999,-99999,-99999,-99999,-99999,0.025815324,0.026006577,0.026376685,0.026987262,0.028183013,0.029392532,0.045028128,0.060501402,0.06941332,0.125308321,0.106347248,0.125760859,0.035285663,0.010887734,0.011375326,-99999,-99999,-99999,-99999,-99999,-99999,-99999,0.020406,0.02579,0.01161,0.014177
339342,1992-05-27T22:30:35.064000Z,D92935B2,5.9,0.08,Slab,S,1,117,85,21,special,-41.63,173.62,-41.2108,174.9047,5952812.98,2561652.09,5997808,2669699,8.2,8.2,116.82,134.86,114.21,131.66,-88.79,75.84,0,67,62.92,nu,935A,D,240,Q3,1.2,Q3,275,Q3,0,-99999,-99999,0,0.35,16,0.595,16,Webb_Anderson_1998&Dowrick_Rhoades1998&HarvardCMT,0.018493044,0.018603686,0.01909571,0.019933647,0.021334651,0.032061036,0.072059346,0.042570113,0.044020904,0.082416541,0.076878783,0.048071008,0.038018991,0.017521633,0.012012972,0.007259288,-99999,-99999,-99999,-99999,-99999,-99999,0.022366421,0.022638843,0.023112246,0.023917958,0.025391716,0.036299778,0.096070359,0.055368064,0.05301996,0.098506157,0.0954909,0.065151671,0.049869204,0.019050221,0.013453183,0.00932396,-99999,-99999,-99999,-99999,-99999,-99999,0.018451,0.022359,0.01207,0.013051
339342,1992-05-27T22:30:35.064000Z,K92934B1,5.9,0.08,Slab,S,1,117,85,21,special,-41.63,173.62,-41.2436,174.908,5952812.98,2561652.09,5994160,2669897,8.2,8.2,115.64,133.85,112.94,130.58,-85.63,77.68,0,67,62.92,nu,934B,D,180,Q1,1.1,Q3,100,Q3,0,-99999,-99999,1,0.4,16,0.68,16,Webb_Anderson_1998&Dowrick_Rhoades1998&HarvardCMT,0.025402641,0.025504939,0.025755623,0.026141847,0.026658898,0.029833499,0.040932911,0.062527584,0.043142613,0.069391573,0.066671794,0.098681745,0.114801457,0.026200532,0.017218742,-99999,-99999,-99999,-99999,-99999,-99999,-99999,0.035622942,0.035814219,0.036141059,0.036608135,0.037221182,0.04214047,0.044656007,0.075878652,0.051082079,0.075489733,0.080154574,0.113778004,0.151754199,0.032072651,0.024331865,-99999,-99999,-99999,-99999,-99999,-99999,-99999,0.025401,0.035412,0.017923,0.022841
338849,1992-06-21T17:43:09.086000Z,K92028A1,6.25,0.08,Crustal,N,1,32,41,246,special,-37.67,176.86,-38.0079,177.284,6385179.66,2850645.07,6346024,2886230,12.26,12.26,52.9,53.06,48.15,48.79,55.55,-14.35,25,4,0.01,nu,028A,D,210,Q3,1,Q3,75,Q3,0,-99999,-99999,1,0.2,15,0.34,15,Webb_Anderson_1998&Dowrick_Rhoades1998&HarvardCMT,0.03112619,0.03138883,0.03194985,0.032712509,0.034018151,0.053985395,0.061476333,0.092782694,0.084545009,0.083190336,0.06265224,0.09264773,0.114020755,0.051653978,0.076399829,0.046736427,0.053834899,-99999,-99999,-99999,-99999,-99999,0.033844412,0.034134365,0.03461694,0.035426799,0.036709198,0.061666171,0.080729093,0.112496246,0.097389804,0.117012061,0.07969618,0.11294921,0.138943084,0.069349568,0.082751065,0.061207998,0.062707479,-99999,-99999,-99999,-99999,-99999,0.031059,0.033848,0.042707,0.059619
338849,1992-06-21T17:43:09.086000Z,A92930A1,6.25,0.08,Crustal,N,1,32,41,246,special,-37.67,176.86,-37.9885,176.8294,6385179.66,2850645.07,6349976,2846440,12.26,12.26,35.52,35.68,29.64,30.05,19.71,-32.08,30,4,0.01,nu,930A,E,150,Q3,>2,Q3,300,Q3,0,-99999,-99999,1,0.15,12,0.255,12,Webb_Anderson_1998&Dowrick_Rhoades1998&HarvardCMT,0.041411111,0.041489917,0.04163512,0.041823535,0.042106548,0.043873147,0.058513074,0.073621486,0.087501131,0.091041913,0.095577801,0.08527491,0.116106922,0.113129968,0.107596027,0.075682769,0.063775077,0.055238973,-99999,-99999,-99999,-99999,0.052093665,0.052208332,0.052416854,0.052731789,0.053181897,0.056037649,0.073346988,0.08278221,0.116268514,0.104224192,0.107112773,0.094890794,0.124121401,0.136514067,0.142105212,0.096403683,0.078117478,0.067760279,-99999,-99999,-99999,-99999,0.041386,0.051907,0.084975,0.103354
435226,1993-04-11T06:59:48.228000Z,A93032A1,5.68,0.08,Interface,O,1,198,15,52,special,-39.74,176.52,-39.9425,176.5874,6156829.5,2811622.89,6134136,2816486,8.63,8.63,23.24,34.95,18.95,31.74,-7.47,20.08,0,26,24.88,nu,032A,C,495,Q3,0.13,Q3,10,Q3,0,-99999,-99999,1,0.4,10,0.68,10,Webb_Anderson_1998&Dowrick_Rhoades1998&HarvardCMT,0.158442873,0.158828057,0.15947962,0.160353734,0.161551153,0.165507813,0.168250464,0.260883026,0.408704706,0.355519889,0.415121144,0.43639474,0.456557399,0.275963664,0.175570669,-99999,-99999,-99999,-99999,-99999,-99999,-99999,0.185063769,0.185520013,0.186295851,0.187302011,0.18860058,0.193708936,0.193409237,0.287123092,0.447741948,0.43111643,0.456032069,0.535563738,0.513490962,0.343943286,0.235065243,-99999,-99999,-99999,-99999,-99999,-99999,-99999,0.158186,0.185064,0.131958,0.175139
435226,1993-04-11T06:59:48.228000Z,D93014A2,5.68,0.08,Interface,O,1,198,15,52,special,-39.74,176.52,-39.4984,176.8761,6156829.5,2811622.89,6182359,2843283,8.63,8.63,40.64,48.27,36.38,44.35,-18.05,-34.06,0,26,24.88,nu,NCDS,E,162,Q3,1.25,Q2,110,Q3,0,-99999,-99999,0,0.24,12,0.408,12,Webb_Anderson_1998&Dowrick_Rhoades1998&HarvardCMT,0.032498869,0.032792556,0.033440269,0.034269385,0.03547425,0.041351798,0.051768654,0.102853559,0.104802351,0.11092627,0.087366725,0.08693507,0.078715918,0.064075032,0.049235203,0.013135881,0.005657806,-99999,-99999,-99999,-99999,-99999,0.039536183,0.039760578,0.040147509,0.040675849,0.041435085,0.045599197,0.067835559,0.138157688,0.121391819,0.122908668,0.100821013,0.111291909,0.085037139,0.086085159,0.058666698,0.018417416,0.006428929,-99999,-99999,-99999,-99999,-99999,0.032393,0.039539,0.021884,0.02309
435226,1993-04-11T06:59:48.228000Z,D93015A1,5.68,0.08,Interface,O,1,198,15,52,special,-39.74,176.52,-39.4891,176.8982,6156829.5,2811622.89,6183313,2845228,8.63,8.63,42.76,50.1,38.49,46.14,-19.61,-35.57,0,26,24.88,nu,015A,B,1000,Q3,<0.1,Q3,0,Q3,0,-99999,-99999,0,0.5,12,0.85,12,Webb_Anderson_1998&Dowrick_Rhoades1998&HarvardCMT,0.016441739,0.016556016,0.016711035,0.01703585,0.017458817,0.020256992,0.02981574,0.032782311,0.042448841,0.063409955,0.08389707,0.048726722,0.061915804,0.015559927,0.010709112,-99999,-99999,-99999,-99999,-99999,-99999,-99999,0.01777298,0.017940866,0.018175017,0.018559938,0.019126693,0.02268509,0.037641439,0.037568558,0.049848301,0.078878631,0.097335389,0.067656077,0.080632571,0.020303058,0.011909636,-99999,-99999,-99999,-99999,-99999,-99999,-99999,0.016392,0.017773,0.009443,0.011342
435226,1993-04-11T06:59:48.228000Z,D93029A2,5.68,0.08,Interface,O,1,198,15,52,special,-39.74,176.52,-39.6458,176.8429,6156829.5,2811622.89,6166127,2839726,8.63,8.63,29.55,39.41,25.33,35.69,-19.69,-17.53,0,26,24.88,nu,HCDS,D,182,Q2,>2,Q3,1000,Q3,0,-99999,-99999,0,0.2,15,0.34,15,Webb_Anderson_1998&Dowrick_Rhoades1998&HarvardCMT,0.029052154,0.029349996,0.029838598,0.030739279,0.031935973,0.04587761,0.049605987,0.073638845,0.120717183,0.102124972,0.123731827,0.081602017,0.041457233,0.076115536,0.034999243,0.017010332,0.019239286,-99999,-99999,-99999,-99999,-99999,0.034617236,0.034705841,0.034842682,0.035057515,0.035356339,0.048639852,0.056766503,0.086605685,0.164602608,0.122808197,0.131534223,0.102566584,0.048627715,0.106577278,0.045563821,0.019430364,0.023745201,-99999,-99999,-99999,-99999,-99999,0.02904,0.034619,0.026152,0.030611
471730,1993-08-10T00:51:55.033000Z,A93070A1,6.89,0.08,Interface,R,1,41,41,107,nlloc,-45.3625,166.649,-45.4167,167.7191,5519161.25,2012843.95,5519112,2096857,34.75,34.75,83.78,85.7,74.67,77.26,68.91,55.08,0,16.72,11.96,nu,TAFS,D,298,Q3,1.4,Q3,200,Q3,0,-99999,-99999,1,0.2,19,0.34,19,Robinson_etal_2003&Dowrick_Rhoades1998&HarvardCMT,0.063905311,0.064617884,0.065850795,0.06792215,0.072471008,0.137572294,0.170620988,0.222173007,0.201309918,0.188322997,0.175304005,0.179302193,0.088631828,0.09642176,0.091082287,0.101354698,0.062028788,-99999,-99999,-99999,-99999,-99999,0.085547819,0.086497326,0.08814823,0.090754636,0.093282366,0.158044636,0.204030682,0.25407745,0.212148385,0.20838991,0.232119883,0.25318508,0.100719075,0.100989549,0.125615192,0.138770723,0.076787736,-99999,-99999,-99999,-99999,-99999,0.063904,0.085534,0.06115,0.07679
471730,1993-08-10T00:51:55.033000Z,A93940A1,6.89,0.08,Interface,R,1,41,41,107,nlloc,-45.3625,166.649,-45.0322,168.6629,5519161.25,2012843.95,5566104,2168345,34.75,34.75,162.01,163.32,150.75,152.25,92.03,137.45,0,16.72,11.96,nu,QTPS,D,350,Q3,0.95,Q1,90,Q3,0,-99999,-99999,1,0.5,10,0.85,10,Robinson_etal_2003&Dowrick_Rhoades1998&HarvardCMT,0.035832252,0.03598624,0.036246827,0.036598511,0.037067462,0.038968753,0.045223015,0.076176094,0.114436758,0.140206159,0.132211135,0.101831267,0.113752018,0.068126478,0.033880534,-99999,-99999,-99999,-99999,-99999,-99999,-99999,0.040242854,0.040485185,0.040894225,0.04146096,0.042248365,0.045239177,0.054234268,0.091104927,0.127376499,0.174907052,0.151807527,0.117736465,0.128495379,0.077375323,0.045959716,-99999,-99999,-99999,-99999,-99999,-99999,-99999,0.035774,0.040236,0.023354,0.02647
471730,1993-08-10T00:51:55.033000Z,D93044A2s,6.89,0.08,Interface,R,1,41,41,107,nlloc,-45.3625,166.649,-45.8986,170.5097,5519161.25,2012843.95,5475848,2316608,34.75,34.75,306.03,307.29,297.73,299.13,263.14,166.6,0,16.72,11.96,nu,SKFS,D,140,Q2,0.8,Q3,25,Q3,0,-99999,-99999,1,0.25,10,0.425,10,Robinson_etal_2003&Dowrick_Rhoades1998&HarvardCMT,0.014964824,0.014982117,0.015013085,0.015098156,0.015195431,0.015721083,0.017338557,0.027530685,0.030446512,0.041092822,0.043940014,0.039216568,0.055756828,0.068456996,0.035985758,0.019567143,0.007570619,-99999,-99999,-99999,-99999,-99999,0.016291718,0.016315833,0.016345461,0.016371112,0.016410356,0.016606712,0.019124735,0.032603729,0.03339863,0.054785286,0.060454682,0.04771005,0.06545594,0.080880392,0.044685445,0.026288847,0.009161709,-99999,-99999,-99999,-99999,-99999,0.014949,0.016283,0.018465,0.019737
471730,1993-08-10T00:51:55.033000Z,D93054A6,6.89,0.08,Interface,R,1,41,41,107,nlloc,-45.3625,166.649,-43.883,169.0441,5519161.25,2012843.95,5695156,2192230,34.75,34.75,250.97,251.86,238.02,238.93,25.39,250.51,0,16.72,11.96,nu,HDWS,D,210,Q3,0.87,Q1,100,Q3,0,-99999,-99999,0,0.35,14,0.595,14,Robinson_etal_2003&Dowrick_Rhoades1998&HarvardCMT,0.030159628,0.030544408,0.031186888,0.032203274,0.033608567,0.047886705,0.066027584,0.129855699,0.081420459,0.081598121,0.11150561,0.047142442,0.038695059,0.081388232,0.029829584,0.0180991,-99999,-99999,-99999,-99999,-99999,-99999,0.035457829,0.035592552,0.035808028,0.036105905,0.03752903,0.051282669,0.076263643,0.143721145,0.085808318,0.092196514,0.144289816,0.063556713,0.041253244,0.100782748,0.041446794,0.025464948,-99999,-99999,-99999,-99999,-99999,-99999,0.029905,0.035416,0.021456,0.023931
471755,1993-08-10T09:46:38.453000Z,A93028A1,6.3,0.08,Slab,S,1,354,64,168,special,-38.55,177.92,-38.0079,177.284,6283090.62,2938734.07,6346024,2886230,30,15,81.95,90.77,69.76,78.95,-42.35,68.08,0,39,32.26,nu,028A,D,210,Q3,1,Q3,75,Q3,0,-99999,-99999,1,0.35,15,0.595,15,Reyners_et_al2010&Webb_Anderson_1998&Dowrick_Rhoades1998&HarvardCMT,0.061375766,0.061610391,0.061930794,0.062461259,0.063153089,0.067197137,0.091590283,0.135313768,0.248178091,0.186382702,0.156959887,0.195147341,0.320069453,0.109270731,0.096422662,0.081951017,-99999,-99999,-99999,-99999,-99999,-99999,0.069005477,0.069196272,0.069487713,0.069929248,0.070455602,0.078362823,0.12588723,0.19138322,0.350683887,0.205586267,0.181921169,0.237253906,0.441726605,0.14617385,0.133971043,0.102230617,-99999,-99999,-99999,-99999,-99999,-99999,0.061272,0.068831,0.052639,0.065922
471755,1993-08-10T09:46:38.453000Z,A93096A1,6.3,0.08,Slab,S,1,354,64,168,special,-38.55,177.92,-39.0342,177.4249,6283090.62,2938734.07,6231637,2892985,30,15,68.85,79.13,59.27,69.25,-47.59,-46.39,0,39,32.26,nu,WFSS,D,155,Q3,1.5,Q3,100,Q3,0,-99999,-99999,1,0.35,13,0.595,13,Reyners_et_al2010&Webb_Anderson_1998&Dowrick_Rhoades1998&HarvardCMT,0.043894011,0.044009944,0.044214691,0.04447561,0.044879958,0.050762844,0.054556447,0.079197207,0.108365109,0.105783177,0.170850574,0.170494695,0.155593251,0.120589626,0.129700128,0.075765137,-99999,-99999,-99999,-99999,-99999,-99999,0.056456674,0.0565777,0.056780646,0.057039632,0.057423718,0.059433845,0.068951376,0.09240745,0.131068013,0.119916593,0.188793039,0.200516322,0.191852494,0.145753324,0.163327577,0.086621372,-99999,-99999,-99999,-99999,-99999,-99999,0.043862,0.056459,0.046615,0.050072
471755,1993-08-10T09:46:38.453000Z,A93113A1,6.3,0.08,Slab,S,1,354,64,168,special,-38.55,177.92,-37.8735,177.5847,6283090.62,2938734.07,6359624,2913365,30,15,80.72,89.57,66.1,76.08,-13.94,78.77,0,39,32.26,nu,113A,C,522,Q3,0.15,Q3,10,Q3,0,-99999,-99999,1,0.42,13,0.714,13,Reyners_et_al2010&Webb_Anderson_1998&Dowrick_Rhoades1998&HarvardCMT,0.089785606,0.090283673,0.091145538,0.092399374,0.09431673,0.102520401,0.123936197,0.194973042,0.378731876,0.429904899,0.34508133,0.184720208,0.130312777,0.053877628,0.029980318,-99999,-99999,-99999,-99999,-99999,-99999,-99999,0.11109069,0.111499639,0.112189402,0.113132538,0.114291338,0.116870866,0.157212589,0.229374677,0.497870241,0.591284124,0.452087418,0.213776168,0.164397367,0.064320676,0.037167205,-99999,-99999,-99999,-99999,-99999,-99999,-99999,0.089493,0.110538,0.041559,0.054997
471755,1993-08-10T09:46:38.453000Z,D93014A4,6.3,0.08,Slab,S,1,354,64,168,special,-38.55,177.92,-39.4984,176.8761,6283090.62,2938734.07,6182359,2843283,30,15,138.75,144.15,129.07,134.18,-102.17,-90.2,0,39,32.26,nu,NCDS,E,162,Q3,1.25,Q2,110,Q3,0,-99999,-99999,0,0.25,10,0.425,10,Reyners_et_al2010&Webb_Anderson_1998&Dowrick_Rhoades1998&HarvardCMT,0.015076742,0.015166874,0.015324983,0.015551551,0.015866261,0.017396775,0.02720105,0.052758022,0.068715463,0.044259193,0.048426894,0.038710124,0.039428545,0.055765676,0.035782226,0.019392174,0.008230604,-99999,-99999,-99999,-99999,-99999,0.016760586,0.016831904,0.016962819,0.017148218,0.017414371,0.018477381,0.030272032,0.063487429,0.087631048,0.058231511,0.056132886,0.045913946,0.04350446,0.066595461,0.045255681,0.024198817,0.009179159,-99999,-99999,-99999,-99999,-99999,0.015065,0.016758,0.013876,0.016776
471755,1993-08-10T09:46:38.453000Z,D93016A1,6.3,0.08,Slab,S,1,354,64,168,special,-38.55,177.92,-38.6774,178.031,6283090.62,2938734.07,6268431,2947608,30,15,17.14,42.71,6.16,35.7,10.58,-15.51,0,39,32.26,nu,016A,C,480,Q3,0.15,Q3,10,Q3,0,-99999,-99999,0,0.3,21,0.51,21,Reyners_et_al2010&Webb_Anderson_1998&Dowrick_Rhoades1998&HarvardCMT,0.155876533,0.156935725,0.158688885,0.161397795,0.168812062,0.19980204,0.284900123,0.553581653,0.58002694,0.49651335,0.463559947,0.424994607,0.531538569,0.297972288,0.161003912,0.051696201,-99999,-99999,-99999,-99999,-99999,-99999,0.193083754,0.194480545,0.19675216,0.200014856,0.205587948,0.225379831,0.362871187,0.703394386,0.795457529,0.604617641,0.626814316,0.464976894,0.609310671,0.326018363,0.167257567,0.062020966,-99999,-99999,-99999,-99999,-99999,-99999,0.154414,0.193073,0.103709,0.140525
471755,1993-08-10T09:46:38.453000Z,D93017A1,6.3,0.08,Slab,S,1,354,64,168,special,-38.55,177.92,-38.6665,178.0227,6283090.62,2938734.07,6269685,2946952,30,15,15.73,42.06,5.22,35.18,10.06,-14.19,0,39,32.26,nu,GISS,D,138,Q2,1,Q1,40,Q3,0,-99999,-99999,0,0.25,30,0.425,30,Reyners_et_al2010&Webb_Anderson_1998&Dowrick_Rhoades1998&HarvardCMT,0.187015916,0.189096219,0.195570898,0.233268039,0.219440288,0.275555571,0.299625149,0.48370121,0.479962516,0.55702038,0.774982669,0.652736927,0.40826515,0.337867629,0.257083791,0.076322662,0.033524588,-99999,-99999,-99999,-99999,-99999,0.217036819,0.218079582,0.221309581,0.244510734,0.238982286,0.299896696,0.335737652,0.575554663,0.531838116,0.70713408,0.978846246,0.791591055,0.475009041,0.435927738,0.314984309,0.084884222,0.040115995,-99999,-99999,-99999,-99999,-99999,0.186203,0.217059,0.121691,0.144066
471755,1993-08-10T09:46:38.453000Z,D93021A3,6.3,0.08,Slab,S,1,354,64,168,special,-38.55,177.92,-38.4249,176.3157,6283090.62,2938734.07,6303375,2799556,30,15,140.32,146.04,135.79,140.25,-133.01,34.72,10,39,32.26,nu,021A,D,210,Q3,2,Q3,200,Q3,0,-99999,-99999,1,0.18,10,0.306,10,Reyners_et_al2010&Webb_Anderson_1998&Dowrick_Rhoades1998&HarvardCMT,0.026354839,0.026363372,0.026406906,0.026463043,0.026513669,0.026721266,0.027374185,0.032417234,0.047979248,0.049539195,0.040961456,0.054258389,0.070928573,0.069225782,0.107885468,0.130316926,0.037987517,0.012092027,-99999,-99999,-99999,-99999,0.028011705,0.028029225,0.028055124,0.028049607,0.028106799,0.02822712,0.029301908,0.041497987,0.051705245,0.061544443,0.046752145,0.064981897,0.082566548,0.090114881,0.136138162,0.157052566,0.049108163,0.012983336,-99999,-99999,-99999,-99999,0.026355,0.028006,0.056127,0.064898
608810,1994-06-18T03:25:13.819000Z,D4505A01,6.72,0.08,Crustal,R,1,221,47,112,geonet,-43.0078,171.4762,-42.9489,171.5677,5798820.69,2385786.14,5805487,2393135,21.06,21.06,9.91,11.12,2.02,4.12,2.92,-9.85,0,4.27,1,hw,APPS,C,300,Q2,0.4,Q1,30,Q2,0,-99999,-99999,0,0.11,40,0.187,40,Abercrombie_etal_2000&HarvardCMT,0.434913218,0.449542369,0.501588212,0.496603226,0.510192796,0.720204078,0.839678537,1.188437687,1.511939217,1.551006451,0.942015315,1.078709824,1.524637786,0.426454562,0.266827172,0.16402107,0.103080353,0.056833446,0.04031652,0.020302197,-99999,-99999,0.509242217,0.525258726,0.562613157,0.619667752,0.590966675,0.804297222,0.993076279,1.292081707,2.033954966,2.031441134,1.105897084,1.348650956,1.857007588,0.570791206,0.360235665,0.220622496,0.110920312,0.075872215,0.055999624,0.025477936,-99999,-99999,0.423633,0.509184,0.28269,0.316738
