CuspID,Origin_time,Record,Mw,MwUncert,TectClass,Mech,PreferredFaultPlane,Strike,Dip,Rake,Location,HypLat,HypLon,StationLat,StationLon,HypN,HypE,StationN,StationE,LENGTH_km,WIDTH_km,Repi_km,Rhyp_km,Rjb_km,Rrup_km,Rx_km,Ry_km,Rvol_km,HypDepth_km,ZTOR_km,HWFW,SiteCode,SiteClass1170,Vs30,Vs30Uncert,Tsite,TsiteUncert,Z1,Z1Uncertainty,Directivity,Pulse_or,Pulse_T,S_Trigger_Flag,fcButterHP,f_iniLP,fmin,fmax,References,f100.0000SA_RotD50,f50.0000SA_RotD50,f33.3333SA_RotD50,f25.0000SA_RotD50,f20.0000SA_RotD50,f13.3333SA_RotD50,f10.0000SA_RotD50,f6.6667SA_RotD50,f5.0000SA_RotD50,f4.0000SA_RotD50,f3.3333SA_RotD50,f2.5000SA_RotD50,f2.0000SA_RotD50,f1.3333SA_RotD50,f1.0000SA_RotD50,f0.6667SA_RotD50,f0.5000SA_RotD50,f0.3333SA_RotD50,f0.2500SA_RotD50,f0.2000SA_RotD50,f0.1333SA_RotD50,f0.1000SA_RotD50,f100.0000SA_RotD100,f50.0000SA_RotD100,f33.3333SA_RotD100,f25.0000SA_RotD100,f20.0000SA_RotD100,f13.3333SA_RotD100,f10.0000SA_RotD100,f6.6667SA_RotD100,f5.0000SA_RotD100,f4.0000SA_RotD100,f3.3333SA_RotD100,f2.5000SA_RotD100,f2.0000SA_RotD100,f1.3333SA_RotD100,f1.0000SA_RotD100,f0.6667SA_RotD100,f0.5000SA_RotD100,f0.3333SA_RotD100,f0.2500SA_RotD100,f0.2000SA_RotD100,f0.1333SA_RotD100,f0.1000SA_RotD100,PGA_RotD50,PGA_RotD100,PGV_RotD50,PGV_RotD100
608810,1994-06-18T03:25:13.819000Z,D94054A3,6.72,0.08,Crustal,R,1,221,47,112,geonet,-43.0078,171.4762,-43.883,169.0441,5798820.69,2385786.14,5695156,2192230,21.06,21.06,219.12,219.61,211.53,212.02,82.16,205.22,0,4.27,1,nu,HDWS,D,210,Q3,0.87,Q1,100,Q3,0,-99999,-99999,1,0.3,11,0.51,11,Abercrombie_etal_2000&HarvardCMT,0.014427815,0.014518307,0.014666084,0.014926025,0.015289712,0.01712065,0.024270454,0.03329891,0.031227631,0.04611948,0.04329929,0.037276887,0.036280236,0.029621617,0.017202193,0.009903573,-99999,-99999,-99999,-99999,-99999,-99999,0.019525773,0.01963097,0.019833189,0.020139391,0.020540516,0.022525373,0.030151747,0.037723122,0.038037597,0.0566787,0.057510563,0.047023465,0.042644378,0.031034096,0.022129581,0.012379443,-99999,-99999,-99999,-99999,-99999,-99999,0.014384,0.01943,0.01289,0.014801
608810,1994-06-18T03:25:13.819000Z,D94129A2,6.72,0.08,Crustal,R,1,221,47,112,geonet,-43.0078,171.4762,-41.7999,172.328,5798820.69,2385786.14,5933893,2454147,21.06,21.06,151.43,151.45,143.62,143.66,41.11,-146.79,0,4.27,1,nu,MCAS,D,501,Q3,1.6,Q3,200,Q3,0,-99999,-99999,0,0.1,13,0.17,13,Abercrombie_etal_2000&HarvardCMT,0.027194848,0.027347383,0.027611391,0.027934531,0.028405569,0.032683368,0.036956891,0.064403615,0.061207217,0.069105055,0.066037111,0.075073736,0.06934652,0.046458623,0.056826496,0.026264181,0.02720094,0.008811918,0.004515127,0.004153237,-99999,-99999,0.029467774,0.0295909,0.029835542,0.030253478,0.030907618,0.03723362,0.039487714,0.077273619,0.079337539,0.072122775,0.092268439,0.095197804,0.087019121,0.055257125,0.064235047,0.033731974,0.03306374,0.011777895,0.004852002,0.005209362,-99999,-99999,0.027166,0.029349,0.027983,0.029524
608810,1994-06-18T03:25:13.819000Z,K94112A1,6.72,0.08,Crustal,R,1,221,47,112,geonet,-43.0078,171.4762,-43.1325,171.7693,5798820.69,2385786.14,5785358,2409884,21.06,21.06,27.55,28.04,23.3,23.35,-22.93,-5.65,0,4.27,1,fw,112B,C,667,Q3,0.36,Q3,60,Q3,0,-99999,-99999,1,0.35,18,0.595,18,Abercrombie_etal_2000&HarvardCMT,0.134134586,0.135026643,0.136587769,0.139240159,0.14499002,0.173244939,0.2472191,0.292630866,0.352083807,0.399857496,0.345431454,0.223924732,0.207321073,0.130244302,0.082252751,0.041388093,-99999,-99999,-99999,-99999,-99999,-99999,0.147890011,0.148436761,0.149289654,0.151240067,0.157230612,0.214253819,0.343819243,0.350716029,0.380041812,0.562274613,0.475503247,0.2692371,0.270647866,0.165908936,0.106688815,0.047479384,-99999,-99999,-99999,-99999,-99999,-99999,0.133497,0.147884,0.080934,0.108476
697172,1994-12-15T11:20:17.858000Z,K5113A01,6.31,0.15,Crustal,S,0,194,77,-1.61E+02,geonet,-37.1987,177.528,-37.8735,177.5847,6434683.68,2912134.85,6359624,2913365,13.1,13.1,75.2,76.03,70.88,72.17,-99999,-99999,10,12,5.68,nu,113A,C,522,Q3,0.15,Q3,10,Q3,0,-99999,-99999,1,0.5,11,0.85,11,HarvardCMT,0.080155645,0.080643752,0.08132846,0.082380263,0.083738343,0.088946612,0.107468939,0.152043726,0.295271502,0.338050884,0.183804179,0.160568237,0.077529471,0.025762818,0.018014049,-99999,-99999,-99999,-99999,-99999,-99999,-99999,0.087829645,0.088221839,0.088838877,0.089715301,0.090835003,0.096791182,0.11674118,0.178750626,0.361910717,0.447936236,0.220403295,0.173069814,0.088826232,0.036353036,0.02412396,-99999,-99999,-99999,-99999,-99999,-99999,-99999,0.079917,0.087819,0.035922,0.044695
731516,1995-02-05T22:51:04.665000Z,D5016A02,7.09,0.15,Crustal,N,0,215,58,-9.00E+01,geonet,-37.6496,179.4886,-38.6774,178.031,6374193.93,3082358.22,6268431,2947608,32.2,32.2,171.17,171.73,155.42,156.01,-99999,-99999,0,12,1.73,nu,016A,C,480,Q3,0.15,Q3,10,Q3,0,-99999,-99999,0,0.35,14,0.595,14,HarvardCMT,0.019710503,0.019796448,0.019910985,0.020118293,0.020459967,0.022609654,0.026014727,0.038692268,0.038938186,0.036470306,0.047943221,0.048099531,0.054715667,0.044921503,0.024715193,0.010549639,-99999,-99999,-99999,-99999,-99999,-99999,0.02211345,0.022186461,0.022326537,0.022518687,0.022789228,0.023999321,0.029102913,0.042605234,0.043459308,0.040194001,0.054858096,0.065182857,0.07319444,0.050821177,0.028128785,0.013147574,-99999,-99999,-99999,-99999,-99999,-99999,0.019614,0.022096,0.013599,0.015489
731516,1995-02-05T22:51:04.665000Z,D5017A02,7.09,0.15,Crustal,N,0,215,58,-9.00E+01,geonet,-37.6496,179.4886,-38.6665,178.0227,6374193.93,3082358.22,6269685,2946952,32.2,32.2,170.91,171.47,155.18,155.77,-99999,-99999,0,12,1.73,nu,GISS,D,138,Q2,1,Q1,40,Q3,0,-99999,-99999,0,0.18,12,0.306,12,HarvardCMT,0.022679893,0.022755236,0.022837864,0.022992082,0.023182208,0.024536382,0.0312225,0.037075707,0.050869052,0.050716571,0.056963256,0.052671687,0.052034717,0.070922205,0.044846735,0.015490246,0.008412728,0.003744943,-99999,-99999,-99999,-99999,0.026674627,0.02674025,0.026844885,0.026982489,0.027181651,0.028104676,0.033056133,0.043901021,0.056372243,0.052109138,0.064963091,0.058477948,0.066500095,0.095134581,0.05293165,0.018141588,0.009702746,0.004137539,-99999,-99999,-99999,-99999,0.022668,0.026673,0.023536,0.028064
731516,1995-02-05T22:51:04.665000Z,D5709A03,7.09,0.15,Crustal,N,0,215,58,-9.00E+01,geonet,-37.6496,179.4886,-38.6257,177.9216,6374193.93,3082358.22,6274694,2938413,32.2,32.2,174.82,175.4,159.22,159.85,-99999,-99999,0,12,1.73,nu,GWTS,D,245,Q3,1.5,Q3,125,Q3,0,-99999,-99999,0,0.15,10,0.255,10,HarvardCMT,0.02173175,0.021758942,0.021813781,0.02183611,0.021860436,0.021949254,0.023050075,0.025403896,0.032888983,0.034889554,0.039454639,0.043988564,0.051818537,0.060948676,0.050555269,0.060562823,0.042949433,0.020022473,-99999,-99999,-99999,-99999,0.02371983,0.023761157,0.023814089,0.023907137,0.024041693,0.024534374,0.025064725,0.031308031,0.042092792,0.048692665,0.051192756,0.050310288,0.056536631,0.073516031,0.059821179,0.076749138,0.045434203,0.022913407,-99999,-99999,-99999,-99999,0.021733,0.023696,0.047036,0.051666
731516,1995-02-05T22:51:04.665000Z,D5712A03,7.09,0.15,Crustal,N,0,215,58,-9.00E+01,geonet,-37.6496,179.4886,-37.9615,176.9855,6374193.93,3082358.22,6352382,2860270,32.2,32.2,222.62,223.48,209.17,210.15,-99999,-99999,0,12,1.73,nu,WKHS,D,210,Q3,0.71,Q2,100,Q3,0,-99999,-99999,0,0.25,12,0.425,12,HarvardCMT,0.017438273,0.017470599,0.017525695,0.017690642,0.017961235,0.019474789,0.023041094,0.032232397,0.031622141,0.030140651,0.037801118,0.0428139,0.065417385,0.036139357,0.018022884,0.008937176,0.005505708,-99999,-99999,-99999,-99999,-99999,0.018991363,0.019032499,0.019103417,0.019186985,0.019353535,0.021132356,0.025781931,0.039645775,0.035850915,0.036820713,0.043942099,0.05441139,0.078540693,0.040284861,0.023242578,0.009950676,0.00653075,-99999,-99999,-99999,-99999,-99999,0.017383,0.01896,0.01429,0.016299
731516,1995-02-05T22:51:04.665000Z,K5113A02,7.09,0.15,Crustal,N,0,215,58,-9.00E+01,geonet,-37.6496,179.4886,-37.8735,177.5847,6374193.93,3082358.22,6359624,2913365,32.2,32.2,169.2,170.05,155.84,156.86,-99999,-99999,0,12,1.73,nu,113A,C,522,Q3,0.15,Q3,10,Q3,0,-99999,-99999,1,0.4,11,0.68,11,HarvardCMT,0.038569967,0.038815335,0.039213224,0.039791942,0.040567221,0.04372921,0.049222512,0.083123097,0.182980432,0.207554602,0.123383335,0.068772317,0.045900668,0.026309578,0.015680801,-99999,-99999,-99999,-99999,-99999,-99999,-99999,0.041672863,0.041889653,0.042261102,0.042779982,0.043456962,0.047080858,0.054508852,0.09752416,0.199084465,0.237872594,0.154423751,0.093095209,0.052756948,0.029263461,0.020068275,-99999,-99999,-99999,-99999,-99999,-99999,-99999,0.038456,0.041675,0.017797,0.020876
721911,1995-02-10T01:44:56.764000Z,D5016A04,6.49,0.15,Crustal,N,0,220,41,-7.80E+01,irisdmc,-38.1086,178.6757,-38.6774,178.031,6344659.25,3005555.26,6268431,2947608,16.2,16.2,84.6,96.52,87.77,88.47,-99999,-99999,0,12,6.26,nu,016A,C,480,Q3,0.15,Q3,10,Q3,0,-99999,-99999,1,0.3,10,0.51,10,HarvardCMT,0.013071577,0.013110425,0.013168503,0.013264701,0.013376898,0.013874498,0.016507534,0.024276327,0.031012439,0.029094419,0.039527305,0.037128057,0.047791244,0.034187881,0.020637023,0.011024565,-99999,-99999,-99999,-99999,-99999,-99999,0.015126376,0.015181499,0.015267933,0.015369263,0.015528314,0.0161003,0.018700172,0.025569861,0.03655684,0.031281439,0.042371944,0.042402585,0.051682552,0.037127856,0.023054531,0.011406519,-99999,-99999,-99999,-99999,-99999,-99999,0.01307,0.015125,0.011199,0.012434
721911,1995-02-10T01:44:56.764000Z,D5017A03,6.49,0.15,Crustal,N,0,220,41,-7.80E+01,irisdmc,-38.1086,178.6757,-38.6665,178.0227,6344659.25,3005555.26,6269685,2946952,16.2,16.2,84.19,95.91,87.18,87.87,-99999,-99999,0,12,6.26,nu,GISS,D,138,Q2,1,Q1,40,Q3,0,-99999,-99999,1,0.2,10,0.34,10,HarvardCMT,0.01588785,0.015940836,0.016007991,0.016104397,0.016250059,0.016882749,0.018641615,0.027736143,0.035084414,0.042453747,0.045693754,0.036952456,0.04817657,0.041230277,0.031937245,0.015022447,0.006538919,-99999,-99999,-99999,-99999,-99999,0.020426332,0.020443509,0.020500632,0.020573544,0.02065222,0.020986352,0.02224552,0.030778919,0.042785029,0.048629199,0.050832758,0.043280759,0.064306365,0.045211816,0.043017032,0.021205171,0.008601297,-99999,-99999,-99999,-99999,-99999,0.015846,0.020389,0.017052,0.020424
722185,1995-03-22T19:43:30.268000Z,D5040A01,5.83,0.15,Slab,S,0,27,64,30,nlloc,-41.0514,174.216,-41.5763,175.2269,6016538.56,2612205.51,5956588,2695679,7.6,7.6,102.64,133.7,100.01,131.33,-99999,-99999,0,85.51,82.13,nu,040A,B,770,Q3,0.08,Q3,7,Q3,0,-99999,-99999,1,0.25,22,0.425,22,HarvardCMT,0.022532289,0.023179497,0.024434946,0.027289722,0.036530289,0.058794742,0.071450339,0.056143106,0.053655143,0.050806722,0.035122419,0.016350491,0.015554601,0.008358539,0.004866295,0.003629778,0.002428803,-99999,-99999,-99999,-99999,-99999,0.027236528,0.028040864,0.029607861,0.033972308,0.051668045,0.072814192,0.101042864,0.068542964,0.058889521,0.069207117,0.046474448,0.021316865,0.019087405,0.00987829,0.005840893,0.004390649,0.003151504,-99999,-99999,-99999,-99999,-99999,0.022443,0.026833,0.006984,0.007547
722185,1995-03-22T19:43:30.268000Z,D5050A02,5.83,0.15,Slab,S,0,27,64,30,nlloc,-41.0514,174.216,-41.1247,173.0095,6016538.56,2612205.51,6009109,2510784,7.6,7.6,101.44,132.87,98.42,129.2,-99999,-99999,0,85.51,82.13,nu,MOTS,D,300,Q3,1.27,Q3,300,Q3,0,-99999,-99999,0,0.3,25,0.51,25,HarvardCMT,0.075001932,0.076052268,0.078177958,0.08356675,0.103886319,0.157678081,0.193405146,0.163195168,0.264901662,0.29129746,0.241918231,0.17204951,0.090844064,0.027583698,0.013260111,0.012672425,-99999,-99999,-99999,-99999,-99999,-99999,0.081439575,0.082086933,0.083132071,0.092580841,0.115900928,0.186666239,0.209391588,0.205633701,0.35629089,0.305106785,0.307685366,0.226945535,0.111984407,0.033414669,0.01808606,0.016393775,-99999,-99999,-99999,-99999,-99999,-99999,0.074658,0.081151,0.031704,0.038098
722185,1995-03-22T19:43:30.268000Z,D5056A02,5.83,0.15,Slab,S,0,27,64,30,nlloc,-41.0514,174.216,-41.2758,173.2851,6016538.56,2612205.51,5992292,2533876,7.6,7.6,81.82,118.48,78.7,114.72,-99999,-99999,0,85.51,82.13,nu,056A,B,450,Q3,0.07,Q3,5,Q3,0,-99999,-99999,0,0.3,15,0.51,15,HarvardCMT,0.204362105,0.205815338,0.208304872,0.2120697,0.217657308,0.256564046,0.296267014,0.475299345,0.463305221,0.636335617,0.583979226,0.257736051,0.152266211,0.081304037,0.025186063,0.014593086,-99999,-99999,-99999,-99999,-99999,-99999,0.257237909,0.259138242,0.262354369,0.267192922,0.275033186,0.333954587,0.365850138,0.617079159,0.654127441,0.887039535,0.805487609,0.359160869,0.215186152,0.098706334,0.030543604,0.020562626,-99999,-99999,-99999,-99999,-99999,-99999,0.203401,0.256838,0.086241,0.109037
722185,1995-03-22T19:43:30.268000Z,D5129A01,5.83,0.15,Slab,S,0,27,64,30,nlloc,-41.0514,174.216,-41.7999,172.328,6016538.56,2612205.51,5933893,2454147,7.6,7.6,178.06,197.87,174.9,194.27,-99999,-99999,0,85.51,82.13,nu,MCAS,D,501,Q3,1.6,Q3,200,Q3,0,-99999,-99999,0,0.3,17,0.51,17,HarvardCMT,0.032923594,0.033275376,0.033899916,0.034772487,0.036314182,0.047347749,0.066816142,0.085228175,0.130486846,0.088579045,0.088098733,0.067196661,0.054189273,0.025790004,0.029183509,0.013317258,-99999,-99999,-99999,-99999,-99999,-99999,0.041481774,0.04186132,0.042489342,0.043483664,0.045146188,0.054261382,0.079648806,0.096096915,0.155033872,0.110889753,0.122745585,0.074388568,0.05986282,0.028544972,0.033084061,0.01538629,-99999,-99999,-99999,-99999,-99999,-99999,0.032924,0.041474,0.019706,0.021382
722185,1995-03-22T19:43:30.268000Z,D5130B01,5.83,0.15,Slab,S,0,27,64,30,nlloc,-41.0514,174.216,-41.6696,173.2029,6016538.56,2612205.51,5948576,2526890,7.6,7.6,108.97,138.82,105.86,135.11,-99999,-99999,0,85.51,82.13,nu,130B,D,367,Q3,0.85,Q3,100,Q3,0,-99999,-99999,1,0.4,24,0.68,24,HarvardCMT,0.02083742,0.021627765,0.023114602,0.028943372,0.046196188,0.066224514,0.07436315,0.055239679,0.034092994,0.044728089,0.039386359,0.026758353,0.013542857,0.010793453,0.005111694,-99999,-99999,-99999,-99999,-99999,-99999,-99999,0.023102271,0.024082463,0.025981891,0.033763118,0.050325527,0.08202485,0.083702445,0.06214917,0.041758943,0.050813114,0.046846908,0.037699721,0.016685956,0.014995819,0.005393727,-99999,-99999,-99999,-99999,-99999,-99999,-99999,0.020729,0.023068,0.007133,0.008654
722185,1995-03-22T19:43:30.268000Z,D5131A06,5.83,0.15,Slab,S,0,27,64,30,nlloc,-41.0514,174.216,-40.9143,175.005,6016538.56,2612205.51,6030534,2678862,7.6,7.6,67.96,109.33,64.87,106.63,-99999,-99999,0,85.51,82.13,nu,PAPS,D,200,Q3,1.4,Q1,100,Q3,0,-99999,-99999,0,0.45,18,0.765,18,HarvardCMT,0.062962928,0.064134997,0.066245018,0.069898636,0.07780915,0.106169192,0.143892807,0.180695223,0.150141451,0.155571072,0.1187732,0.089998119,0.059415363,0.031652107,0.023999459,-99999,-99999,-99999,-99999,-99999,-99999,-99999,0.082808421,0.084178669,0.086524623,0.090160216,0.095048549,0.129354379,0.173512383,0.235683667,0.176020656,0.214712034,0.133265042,0.116684113,0.06515183,0.036064679,0.030936299,-99999,-99999,-99999,-99999,-99999,-99999,-99999,0.062974,0.080919,0.023458,0.025778
722185,1995-03-22T19:43:30.268000Z,D5132A05,5.83,0.15,Slab,S,0,27,64,30,nlloc,-41.0514,174.216,-41.2975,174.781,6016538.56,2612205.51,5988401,2659132,7.6,7.6,54.63,101.53,52,98.73,-99999,-99999,0,85.51,82.13,nu,132A,C,245,Q2,0.47,Q2,27,Q2,0,-99999,-99999,0,0.3,15,0.51,15,HarvardCMT,0.053628438,0.054278344,0.055391411,0.05708198,0.059731675,0.082140177,0.124912059,0.205372878,0.117597383,0.098950754,0.110955358,0.098143683,0.081459088,0.035875621,0.014580781,0.010552558,-99999,-99999,-99999,-99999,-99999,-99999,0.064258885,0.065265801,0.066958168,0.069569154,0.073393034,0.095009562,0.176469767,0.259148943,0.160338525,0.110954686,0.121743022,0.111420248,0.112157401,0.045458267,0.015905802,0.012496174,-99999,-99999,-99999,-99999,-99999,-99999,0.053645,0.064267,0.022839,0.02753
722185,1995-03-22T19:43:30.268000Z,D5302A03,5.83,0.15,Slab,S,0,27,64,30,nlloc,-41.0514,174.216,-39.9338,175.053,6016538.56,2612205.51,6139282,2685450,7.6,7.6,143.02,166.57,140.12,164.23,-99999,-99999,0,85.51,82.13,nu,302A,D,250,Q2,0.8,Q3,80,Q3,0,-99999,-99999,0,0.4,18,0.68,18,HarvardCMT,0.030172422,0.030588595,0.031418045,0.032789235,0.035356702,0.048205189,0.087267032,0.085081282,0.075499346,0.083964893,0.085376982,0.08940021,0.063632528,0.031482677,0.014579155,-99999,-99999,-99999,-99999,-99999,-99999,-99999,0.034817447,0.035224948,0.035940241,0.037072083,0.038862198,0.052989619,0.09475603,0.10697894,0.095795528,0.09810057,0.101271158,0.122461251,0.075484133,0.035404578,0.016823826,-99999,-99999,-99999,-99999,-99999,-99999,-99999,0.030144,0.034818,0.01655,0.019803
722185,1995-03-22T19:43:30.268000Z,D5643B07,5.83,0.15,Slab,S,0,27,64,30,nlloc,-41.0514,174.216,-41.1513,174.9794,6016538.56,2612205.51,6004275,2676112,7.6,7.6,64.92,107.53,62.09,104.88,-99999,-99999,0,85.51,82.13,nu,643B,B,1000,Q3,<0.1,Q3,1.50E+00,Q3,0,-99999,-99999,0,0.3,30,0.51,30,HarvardCMT,0.043799009,0.045040014,0.048439451,0.056387804,0.058114018,0.091929403,0.104665779,0.211250239,0.118101369,0.080025519,0.060877309,0.031411298,0.019227304,0.011376855,0.006185962,0.003552678,-99999,-99999,-99999,-99999,-99999,-99999,0.052864107,0.054326026,0.058084678,0.062600819,0.073112924,0.100888245,0.136520156,0.282975723,0.126992659,0.10571162,0.065825536,0.043785296,0.022528632,0.013968563,0.006618395,0.004983923,-99999,-99999,-99999,-99999,-99999,-99999,0.043803,0.051789,0.013908,0.016355
722185,1995-03-22T19:43:30.268000Z,D5646A05,5.83,0.15,Slab,S,0,27,64,30,nlloc,-41.0514,174.216,-41.2574,174.9485,6016538.56,2612205.51,5992552,2673256,7.6,7.6,65.46,107.84,62.76,105.2,-99999,-99999,0,85.51,82.13,nu,WDAS,E,120,Q1,1.6,Q2,62,Q2,0,-99999,-99999,0,0.25,19,0.425,19,HarvardCMT,0.044255641,0.044769808,0.045741637,0.047277108,0.049674803,0.079645053,0.073518815,0.107728769,0.117519405,0.115102089,0.09842211,0.088973692,0.095322146,0.081449474,0.053985153,0.027763903,0.008662085,-99999,-99999,-99999,-99999,-99999,0.061433898,0.061956635,0.063003303,0.064664016,0.066748403,0.088555176,0.075805213,0.135227696,0.165147095,0.150937868,0.130811802,0.111181478,0.109062168,0.110709301,0.060817083,0.036040058,0.011559015,-99999,-99999,-99999,-99999,-99999,0.044194,0.061457,0.031242,0.043211
722185,1995-03-22T19:43:30.268000Z,D5647D02,5.83,0.15,Slab,S,0,27,64,30,nlloc,-41.0514,174.216,-41.2875,174.7769,6016538.56,2612205.51,5989514,2658817,7.6,7.6,53.8,101.07,51.16,98.26,-99999,-99999,0,85.51,82.13,nu,647D,D,474,Q2,0.12,Q2,5.70E+00,Q2,0,-99999,-99999,0,0.3,18,0.51,18,HarvardCMT,0.044001373,0.044497151,0.045256502,0.046555413,0.048800735,0.068710186,0.080214862,0.122764634,0.185928097,0.105211666,0.112304127,0.101283121,0.044697443,0.021251982,0.011932982,0.007082014,-99999,-99999,-99999,-99999,-99999,-99999,0.053279788,0.053404201,0.053648362,0.05438038,0.05762307,0.081305822,0.086694353,0.132823781,0.230923609,0.134962964,0.118846629,0.127878315,0.050733767,0.025919823,0.013738157,0.008923667,-99999,-99999,-99999,-99999,-99999,-99999,0.044004,0.053275,0.021937,0.024439
722185,1995-03-22T19:43:30.268000Z,D5648A03,5.83,0.15,Slab,S,0,27,64,30,nlloc,-41.0514,174.216,-41.2775,174.7735,6016538.56,2612205.51,5990634,2658549,7.6,7.6,53.01,109.27,50.36,106.39,-99999,-99999,0,85.51,82.13,nu,921A,C,330,Q3,0.5,Q3,38,Q3,0,-99999,-99999,0,0.35,32,0.595,32,HarvardCMT,0.057760817,0.058803003,0.062235874,0.072780469,0.078989713,0.099985917,0.127886121,0.187936921,0.188309733,0.147388009,0.134219931,0.097093658,0.062154727,0.027300874,0.015220076,0.008540525,-99999,-99999,-99999,-99999,-99999,-99999,0.060719992,0.061316426,0.067363634,0.099741771,0.087776256,0.118992793,0.159327062,0.261267939,0.221282043,0.173434663,0.17538358,0.121927609,0.079094932,0.036482974,0.018484578,0.010848548,-99999,-99999,-99999,-99999,-99999,-99999,0.057084,0.060531,0.025057,0.029225
