CuspID,Origin_time,Record,Mw,MwUncert,TectClass,Mech,PreferredFaultPlane,Strike,Dip,Rake,Location,HypLat,HypLon,StationLat,StationLon,HypN,HypE,StationN,StationE,LENGTH_km,WIDTH_km,Repi_km,Rhyp_km,Rjb_km,Rrup_km,Rx_km,Ry_km,Rvol_km,HypDepth_km,ZTOR_km,HWFW,SiteCode,SiteClass1170,Vs30,Vs30Uncert,Tsite,TsiteUncert,Z1,Z1Uncertainty,Directivity,Pulse_or,Pulse_T,S_Trigger_Flag,fcButterHP,f_iniLP,fmin,fmax,References,f100.0000SA_RotD50,f50.0000SA_RotD50,f33.3333SA_RotD50,f25.0000SA_RotD50,f20.0000SA_RotD50,f13.3333SA_RotD50,f10.0000SA_RotD50,f6.6667SA_RotD50,f5.0000SA_RotD50,f4.0000SA_RotD50,f3.3333SA_RotD50,f2.5000SA_RotD50,f2.0000SA_RotD50,f1.3333SA_RotD50,f1.0000SA_RotD50,f0.6667SA_RotD50,f0.5000SA_RotD50,f0.3333SA_RotD50,f0.2500SA_RotD50,f0.2000SA_RotD50,f0.1333SA_RotD50,f0.1000SA_RotD50,f100.0000SA_RotD100,f50.0000SA_RotD100,f33.3333SA_RotD100,f25.0000SA_RotD100,f20.0000SA_RotD100,f13.3333SA_RotD100,f10.0000SA_RotD100,f6.6667SA_RotD100,f5.0000SA_RotD100,f4.0000SA_RotD100,f3.3333SA_RotD100,f2.5000SA_RotD100,f2.0000SA_RotD100,f1.3333SA_RotD100,f1.0000SA_RotD100,f0.6667SA_RotD100,f0.5000SA_RotD100,f0.3333SA_RotD100,f0.2500SA_RotD100,f0.2000SA_RotD100,f0.1333SA_RotD100,f0.1000SA_RotD100,PGA_RotD50,PGA_RotD100,PGV_RotD50,PGV_RotD100
164529,1990-10-04T23:48:26.123000Z,D90606B5,5.57,0.15,Interface,O,1,190,21,58,special,-41.61,175.44,-41.2333,174.9199,5952370.8,2713346.37,5995282,2670919,7.6,7.6,60.3,61.9,58.15,59.96,51.33,-34.89,0,13.8,12.99,nu,606B,B,800,Q3,<0.1,Q3,0,Q3,0,-99999,-99999,0,0.4,12,0.68,12,HarvardCMT&Luo(1992),0.013738409,0.013829326,0.013998638,0.014253542,0.014599591,0.015823522,0.017647106,0.022445525,0.01927034,0.016264158,0.017808501,0.014099091,0.011608928,0.008722903,0.007413288,-99999,-99999,-99999,-99999,-99999,-99999,-99999,0.018023448,0.018166422,0.018390845,0.01877163,0.01934108,0.021469158,0.02299947,0.025871601,0.020882243,0.019440849,0.020095726,0.019102013,0.012501024,0.010437511,0.008195251,-99999,-99999,-99999,-99999,-99999,-99999,-99999,0.013701,0.018028,0.009334,0.010354
164529,1990-10-04T23:48:26.123000Z,D90642E8,5.57,0.15,Interface,O,1,190,21,58,special,-41.61,175.44,-41.2341,174.918,5952370.8,2713346.37,5995197,2670758,7.6,7.6,60.35,61.96,58.2,60.01,51.48,-34.78,0,13.8,12.99,nu,642E,C,350,Q1,0.35,Q2,50,Q3,0,-99999,-99999,0,0.4,13,0.68,13,HarvardCMT&Luo(1992),0.037686972,0.037833671,0.038102747,0.038424129,0.038940256,0.04037758,0.04145994,0.049761391,0.051499406,0.057099803,0.060845959,0.048993127,0.038166209,0.016725102,0.012515684,-99999,-99999,-99999,-99999,-99999,-99999,-99999,0.042364887,0.042531775,0.042797968,0.043196563,0.043823936,0.046299605,0.04915057,0.059679227,0.062294534,0.068207397,0.066619914,0.063949157,0.047897038,0.018350381,0.013804623,-99999,-99999,-99999,-99999,-99999,-99999,-99999,0.037615,0.042374,0.022462,0.02414
164529,1990-10-04T23:48:26.123000Z,D90900B5,5.57,0.15,Interface,O,1,190,21,58,special,-41.61,175.44,-41.2921,174.779,5952370.8,2713346.37,5989003,2658976,7.6,7.6,65.46,67,63.34,65.08,62.01,-26.63,0,13.8,12.99,nu,941A,D,272,Q2,0.85,Q2,9.85E+01,Q2,0,-99999,-99999,0,0.4,11.5,0.68,11.5,HarvardCMT&Luo(1992),0.022651489,0.02270769,0.022810916,0.022961519,0.02316211,0.023843275,0.024684042,0.030219794,0.031265456,0.031284552,0.031574123,0.031469604,0.030053565,0.027402862,0.018143916,-99999,-99999,-99999,-99999,-99999,-99999,-99999,0.02533253,0.025381239,0.025469896,0.025625009,0.025800007,0.026193232,0.026991966,0.033638745,0.033947705,0.033392721,0.034692321,0.03847708,0.036519039,0.028762767,0.020362556,-99999,-99999,-99999,-99999,-99999,-99999,-99999,0.02265,0.025338,0.022889,0.025328
164529,1990-10-04T23:48:26.123000Z,D90935B2,5.57,0.15,Interface,O,1,190,21,58,special,-41.61,175.44,-41.2108,174.9047,5952370.8,2713346.37,5997808,2669699,7.6,7.6,62.96,64.5,60.81,62.54,52.97,-37.17,0,13.8,12.99,nu,935A,D,240,Q3,1.2,Q3,275,Q3,0,-99999,-99999,0,0.4,15,0.68,15,HarvardCMT&Luo(1992),0.032893028,0.033030533,0.033361262,0.033828974,0.034409319,0.036065951,0.037792975,0.042741595,0.048306048,0.051301204,0.052825392,0.041464792,0.033655637,0.026214394,0.025305647,-99999,-99999,-99999,-99999,-99999,-99999,-99999,0.03750128,0.037615971,0.037823552,0.038184335,0.038698564,0.039715642,0.040350927,0.047702021,0.054842898,0.061100618,0.065128298,0.047974082,0.041719763,0.036544401,0.031950451,-99999,-99999,-99999,-99999,-99999,-99999,-99999,0.032746,0.037519,0.034941,0.042109
164529,1990-10-04T23:48:26.123000Z,D90941A5,5.57,0.15,Interface,O,1,190,21,58,special,-41.61,175.44,-41.2921,174.779,5952370.8,2713346.37,5989003,2658976,7.6,7.6,65.46,67,63.34,65.08,62.01,-26.63,0,13.8,12.99,nu,941A,D,272,Q2,0.85,Q2,9.85E+01,Q2,0,-99999,-99999,0,0.41,11,0.697,11,HarvardCMT&Luo(1992),0.022974365,0.023054813,0.023180178,0.023412984,0.023739806,0.024964019,0.026796616,0.031161707,0.030783839,0.029057772,0.02922369,0.029955675,0.026962046,0.022919752,0.014538956,-99999,-99999,-99999,-99999,-99999,-99999,-99999,0.031399712,0.031497944,0.031652872,0.031847253,0.032081463,0.03281364,0.034488431,0.040516948,0.040669646,0.040856261,0.03949899,0.042307357,0.037137416,0.027007013,0.020491923,-99999,-99999,-99999,-99999,-99999,-99999,-99999,0.022982,0.031422,0.021391,0.023599
160610,1990-10-06T02:41:12.583000Z,D90642EB,5.46,0.15,Interface,O,1,250,38,145,special,-41.61,175.43,-41.2341,174.918,5952394.08,2712513.04,5995197,2670758,6.7,6.7,59.75,61.46,58.1,60.11,56.08,24.6,0,14.2,12.97,nu,642E,C,350,Q1,0.35,Q2,50,Q3,0,-99999,-99999,0,0.6,11,1.02,11,HarvardCMT&Luo(1992),0.028062195,0.028175465,0.028301836,0.028472793,0.028749623,0.029722649,0.031525856,0.037114817,0.039751053,0.041495611,0.043132568,0.041479509,0.02986761,0.011733004,-99999,-99999,-99999,-99999,-99999,-99999,-99999,-99999,0.030129652,0.030284708,0.030516581,0.030832315,0.031241086,0.032822043,0.035003582,0.040098581,0.041813765,0.046157905,0.049496923,0.049969526,0.037922289,0.016356285,-99999,-99999,-99999,-99999,-99999,-99999,-99999,-99999,0.027979,0.030104,0.016174,0.019076
160610,1990-10-06T02:41:12.583000Z,D90900B6,5.46,0.15,Interface,O,1,250,38,145,special,-41.61,175.43,-41.2921,174.779,5952394.08,2712513.04,5989003,2658976,6.7,6.7,64.76,66.39,63.03,64.9,54.29,37.79,0,14.2,12.97,nu,941A,D,272,Q2,0.85,Q2,9.85E+01,Q2,0,-99999,-99999,0,0.4,10,0.68,10,HarvardCMT&Luo(1992),0.014072123,0.014100523,0.014144762,0.014209724,0.014288651,0.014526815,0.014960217,0.015878235,0.018180574,0.018929432,0.018261475,0.015418741,0.014718424,0.014408928,0.01052356,-99999,-99999,-99999,-99999,-99999,-99999,-99999,0.019030562,0.019057594,0.019106741,0.019189471,0.019290127,0.019641125,0.020295194,0.021721848,0.025389558,0.026357028,0.0252048,0.020593269,0.017881808,0.020053299,0.014206569,-99999,-99999,-99999,-99999,-99999,-99999,-99999,0.014052,0.019034,0.012221,0.01399
160610,1990-10-06T02:41:12.583000Z,D90935B3,5.46,0.15,Interface,O,1,250,38,145,special,-41.61,175.43,-41.2108,174.9047,5952394.08,2712513.04,5997808,2669699,6.7,6.7,62.37,64.01,60.72,62.65,58.89,24.7,0,14.2,12.97,nu,935A,D,240,Q3,1.2,Q3,275,Q3,0,-99999,-99999,0,0.3,15,0.51,15,HarvardCMT&Luo(1992),0.019828759,0.019921761,0.020026011,0.02016029,0.020352566,0.021106181,0.021539737,0.025426487,0.027771886,0.027328574,0.027972433,0.024757996,0.023310627,0.014506327,0.010972459,0.008103794,-99999,-99999,-99999,-99999,-99999,-99999,0.021461766,0.021540753,0.021663016,0.021838902,0.02209687,0.023019513,0.024235221,0.029991236,0.031744004,0.0317712,0.033045007,0.030802246,0.027051112,0.020167878,0.014583875,0.009161085,-99999,-99999,-99999,-99999,-99999,-99999,0.019813,0.021374,0.01878,0.023053
160610,1990-10-06T02:41:12.583000Z,D90941A6,5.46,0.15,Interface,O,1,250,38,145,special,-41.61,175.43,-41.2921,174.779,5952394.08,2712513.04,5989003,2658976,6.7,6.7,64.76,66.39,63.03,64.9,54.29,37.79,0,14.2,12.97,nu,941A,D,272,Q2,0.85,Q2,9.85E+01,Q2,0,-99999,-99999,0,0.35,12,0.595,12,HarvardCMT&Luo(1992),0.013384758,0.013427301,0.013491494,0.01358731,0.013714115,0.014258372,0.015439389,0.017401519,0.017969712,0.016637607,0.016519828,0.013897877,0.013091961,0.011416189,0.00821069,0.003651637,-99999,-99999,-99999,-99999,-99999,-99999,0.016522254,0.016588222,0.016688075,0.016840716,0.017064955,0.018165633,0.019501206,0.01997523,0.020090608,0.02057261,0.021888244,0.018146301,0.015376929,0.015380994,0.009743067,0.004377831,-99999,-99999,-99999,-99999,-99999,-99999,0.013333,0.016519,0.009242,0.010038
194283,1991-01-28T12:58:46.823000Z,A91051B1,5.76,0.08,Crustal,R,1,42,30,99,special,-41.89,171.58,-41.7557,171.5998,5923123.14,2392149.06,5938069,2393545,6.97,6.97,15.03,18.04,11.7,14.67,-5.94,12.04,0,10,8.26,nu,WBCS,D,300,Q3,1.2,Q2,105,Q3,0,-99999,-99999,1,0.4,27,0.68,27,Anderson_etal_1993&Dowrick_Rhoades1998&HarvardCMT,0.143774801,0.145515525,0.148294141,0.15406917,0.163668945,0.186938542,0.195428569,0.178764603,0.159991294,0.150592211,0.147557532,0.143173614,0.145281166,0.120272895,0.085516987,-99999,-99999,-99999,-99999,-99999,-99999,-99999,0.162484496,0.16482106,0.169340204,0.172170387,0.176257319,0.20672663,0.247088127,0.203436815,0.191219825,0.179650713,0.162859546,0.17871717,0.184860213,0.167564471,0.11635483,-99999,-99999,-99999,-99999,-99999,-99999,-99999,0.142879,0.161382,0.10733,0.128337
194283,1991-01-28T12:58:46.823000Z,A91083A1,5.76,0.08,Crustal,R,1,42,30,99,special,-41.89,171.58,-41.8311,171.6606,5923123.14,2392149.06,5929772,2398735,6.97,6.97,9.35,13.7,5.87,11.28,3.46,9.35,0,10,8.26,nu,083A,B,1200,Q3,<0.1,Q3,0,Q2,0,-99999,-99999,0,0.5,40,0.85,40,Anderson_etal_1993&Dowrick_Rhoades1998&HarvardCMT,0.20185579,0.208039841,0.251219041,0.258168442,0.265328445,0.241118906,0.210208077,0.181314148,0.153326999,0.109094773,0.104112025,0.093731888,0.088407312,0.059344323,0.041973617,-99999,-99999,-99999,-99999,-99999,-99999,-99999,0.257038031,0.293551741,0.355224668,0.365149494,0.356331452,0.267294532,0.252339112,0.220985536,0.178277335,0.134233776,0.119237227,0.105795286,0.110531141,0.083518419,0.058043832,-99999,-99999,-99999,-99999,-99999,-99999,-99999,0.193315,0.234507,0.065445,0.081315
194283,1991-01-28T12:58:46.823000Z,A91090A1,5.76,0.08,Crustal,R,1,42,30,99,special,-41.89,171.58,-41.8553,171.9539,5923123.14,2392149.06,5927428,2423132,6.97,6.97,31.2,32.86,27.91,30.07,23.16,23.93,0,10,8.26,nu,090A,C,270,Q3,0.33,Q3,40,Q3,0,-99999,-99999,1,0.3,22,0.51,22,Anderson_etal_1993&Dowrick_Rhoades1998&HarvardCMT,0.083419655,0.084288849,0.085701019,0.087258237,0.089090669,0.093159701,0.101718382,0.110565463,0.110706006,0.098187423,0.094213113,0.100884142,0.088309421,0.049866325,0.036318835,0.020450041,-99999,-99999,-99999,-99999,-99999,-99999,0.115097497,0.116380541,0.118039912,0.119831654,0.122556397,0.128965782,0.135689201,0.152730525,0.156312815,0.134800714,0.133089906,0.142426847,0.124602767,0.068199087,0.04659695,0.025447869,-99999,-99999,-99999,-99999,-99999,-99999,0.08299,0.115127,0.061288,0.084013
194283,1991-01-28T12:58:46.823000Z,A91122A1,5.76,0.08,Crustal,R,1,42,30,99,special,-41.89,171.58,-41.8025,172.3248,5923123.14,2392149.06,5933606,2453884,6.97,6.97,62.46,63.44,59.16,60.33,41.88,49.1,0,10,8.26,nu,122A,D,500,Q3,1.6,Q3,250,Q3,0,-99999,-99999,1,0.4,40,0.68,40,Anderson_etal_1993&Dowrick_Rhoades1998&HarvardCMT,0.128600339,0.138297986,0.141695351,0.149198997,0.146524022,0.159062023,0.184591763,0.161464391,0.150988975,0.146955708,0.136009792,0.124731907,0.112003467,0.058339855,0.033018472,-99999,-99999,-99999,-99999,-99999,-99999,-99999,0.171522549,0.175920505,0.177909937,0.179772938,0.182828023,0.213572383,0.237245694,0.225423682,0.210352423,0.206655552,0.191006664,0.176394578,0.158171445,0.065726398,0.039394475,-99999,-99999,-99999,-99999,-99999,-99999,-99999,0.128037,0.172541,0.069375,0.08888
194283,1991-01-28T12:58:46.823000Z,D91042A3,5.76,0.08,Crustal,R,1,42,30,99,special,-41.89,171.58,-42.5232,172.8305,5923123.14,2392149.06,5853765,2496076,6.97,6.97,124.76,125.38,121.74,122.51,126.66,18,0,10,8.26,nu,HSES,D,280,Q3,0.9,Q1,85,Q3,0,-99999,-99999,1,0.2,11,0.34,11,Anderson_etal_1993&Dowrick_Rhoades1998&HarvardCMT,0.02358691,0.023646873,0.023744264,0.023898005,0.024105112,0.024819904,0.026181433,0.028517894,0.028056402,0.029444111,0.030376525,0.030083809,0.033708265,0.028242472,0.019371079,0.008422582,0.004967122,-99999,-99999,-99999,-99999,-99999,0.02678548,0.026843826,0.026936849,0.027058962,0.027213289,0.02771683,0.028797165,0.034603991,0.036245127,0.035634606,0.036959513,0.039905906,0.040845662,0.035114983,0.026870497,0.010978863,0.006984412,-99999,-99999,-99999,-99999,-99999,0.023586,0.026774,0.023361,0.029622
201724,1991-01-28T18:00:53.158000Z,A91051B2,5.89,0.08,Crustal,S,1,48,77,11,special,-41.9,171.67,-41.7557,171.5998,5922133.85,2399635.78,5938069,2393545,8.1,8.1,17.07,20.86,15.62,17.84,-15.01,6.14,0,12,8.05,fw,WBCS,D,300,Q3,1.2,Q2,105,Q3,0,-99999,-99999,1,0.3,20,0.51,20,Anderson_etal_1993&Dowrick_Rhoades1998&HarvardCMT,0.147625122,0.149638224,0.153727736,0.160221278,0.170078917,0.202702792,0.208016858,0.168386325,0.170003596,0.151441155,0.121173184,0.099653231,0.103110093,0.093488675,0.057318133,0.027857485,-99999,-99999,-99999,-99999,-99999,-99999,0.163632561,0.164815756,0.166398873,0.169233633,0.179311322,0.253789089,0.274795982,0.202116211,0.203663618,0.17780621,0.154143472,0.127097916,0.141562669,0.12261353,0.077639951,0.033820099,-99999,-99999,-99999,-99999,-99999,-99999,0.146803,0.16229,0.090179,0.110719
201724,1991-01-28T18:00:53.158000Z,A91052A2,5.89,0.08,Crustal,S,1,48,77,11,special,-41.9,171.67,-42.1166,171.8604,5922133.85,2399635.78,5898305,2415760,8.1,8.1,28.77,31.24,27.75,30.62,29.41,-3.96,0,12,8.05,hw,052A,C,333,Q3,0.3,Q3,30,Q3,0,-99999,-99999,1,0.5,35,0.85,35,Anderson_etal_1993&Dowrick_Rhoades1998&HarvardCMT,0.172570106,0.177188582,0.184787546,0.212560724,0.22725086,0.250789203,0.276684131,0.167734836,0.126991455,0.109499186,0.095361656,0.065807721,0.04241536,0.025848241,0.017990908,-99999,-99999,-99999,-99999,-99999,-99999,-99999,0.18255943,0.188594194,0.19527387,0.221800312,0.244211751,0.28637767,0.350809249,0.237178529,0.163586262,0.136906669,0.108867374,0.079619886,0.057537357,0.032953015,0.019441195,-99999,-99999,-99999,-99999,-99999,-99999,-99999,0.172849,0.182562,0.048354,0.054283
201724,1991-01-28T18:00:53.158000Z,A91083A2,5.89,0.08,Crustal,S,1,48,77,11,special,-41.9,171.67,-41.8311,171.6606,5922133.85,2399635.78,5929772,2398735,8.1,8.1,7.7,14.26,5.85,10.38,-5.37,4.44,0,12,8.05,fw,083A,B,1200,Q3,<0.1,Q3,0,Q2,0,-99999,-99999,1,1,35,1.7,35,Anderson_etal_1993&Dowrick_Rhoades1998&HarvardCMT,0.143103739,0.154116021,0.164050531,0.180216508,0.202208917,0.217469794,0.171791588,0.119031776,0.096450589,0.079361366,0.062837269,0.044157532,0.029630429,-99999,-99999,-99999,-99999,-99999,-99999,-99999,-99999,-99999,0.201251237,0.209916343,0.228969639,0.229357835,0.236757279,0.289597071,0.240055638,0.162948435,0.126062319,0.112198209,0.087787131,0.052837361,0.035579624,-99999,-99999,-99999,-99999,-99999,-99999,-99999,-99999,-99999,0.14279,0.201932,0.029918,0.038692
201724,1991-01-28T18:00:53.158000Z,A91090A2,5.89,0.08,Crustal,S,1,48,77,11,special,-41.9,171.67,-41.8553,171.9539,5922133.85,2399635.78,5927428,2423132,8.1,8.1,24.03,26.94,20.56,23.59,12.7,21,0,12,8.05,nu,090A,C,270,Q3,0.33,Q3,40,Q3,0,-99999,-99999,1,0.3,20,0.51,20,Anderson_etal_1993&Dowrick_Rhoades1998&HarvardCMT,0.166881654,0.167361094,0.168061679,0.170019768,0.17311972,0.180554953,0.193920692,0.215104443,0.244317413,0.246973046,0.228005174,0.221190168,0.198505625,0.121053437,0.085638778,0.042594402,-99999,-99999,-99999,-99999,-99999,-99999,0.185646112,0.186134046,0.186952606,0.188505546,0.191630317,0.19789752,0.205848005,0.242794097,0.280709432,0.256191995,0.268847328,0.274862466,0.217035783,0.148869087,0.106196301,0.050960302,-99999,-99999,-99999,-99999,-99999,-99999,0.16676,0.185405,0.123361,0.148819
201724,1991-01-28T18:00:53.158000Z,A91122A2,5.89,0.08,Crustal,S,1,48,77,11,special,-41.9,171.67,-41.8025,172.3248,5922133.85,2399635.78,5933606,2453884,8.1,8.1,55.31,56.76,51.82,53.36,28.68,47.99,0,12,8.05,nu,122A,D,500,Q3,1.6,Q3,250,Q3,0,-99999,-99999,1,0.3,33,0.51,33,Anderson_etal_1993&Dowrick_Rhoades1998&HarvardCMT,0.258139047,0.277189593,0.326021955,0.310287968,0.285766995,0.287990163,0.322992582,0.374296157,0.258683355,0.203018308,0.187469033,0.137200718,0.112523096,0.061631818,0.039277619,0.019858239,-99999,-99999,-99999,-99999,-99999,-99999,0.320792327,0.3345101,0.357694415,0.372106804,0.312001521,0.400311614,0.424738131,0.430342985,0.318860331,0.264052352,0.227824376,0.158972785,0.149014493,0.08671168,0.049387844,0.021441621,-99999,-99999,-99999,-99999,-99999,-99999,0.259538,0.310917,0.0751,0.09991
201724,1991-01-28T18:00:53.158000Z,D91042A4,5.89,0.08,Crustal,S,1,48,77,11,special,-41.9,171.67,-42.5232,172.8305,5922133.85,2399635.78,5853765,2496076,8.1,8.1,118.06,118.86,116.84,117.93,116.25,25.92,0,12,8.05,nu,HSES,D,280,Q3,0.9,Q1,85,Q3,0,-99999,-99999,0,0.3,12,0.51,12,Anderson_etal_1993&Dowrick_Rhoades1998&HarvardCMT,0.027230771,0.027281505,0.027360562,0.027473015,0.027610572,0.028186429,0.028974895,0.029903336,0.031992976,0.035269365,0.038335911,0.037723868,0.036652592,0.037058765,0.02490528,0.01182474,-99999,-99999,-99999,-99999,-99999,-99999,0.030577552,0.030600238,0.030630101,0.030676576,0.030826406,0.031732338,0.032700333,0.038376272,0.041248442,0.042988516,0.04793149,0.049996004,0.046761357,0.047918827,0.035196682,0.016543673,-99999,-99999,-99999,-99999,-99999,-99999,0.027216,0.030578,0.029481,0.035726
201354,1991-02-15T10:48:09.669000Z,A91051B3,5.42,0.15,Crustal,R,0,213,37,90,geonet,-42.0386,171.5897,-41.7557,171.5998,5906631.78,2393229.54,5938069,2393545,4.7,4.7,31.47,32.19,29.3,30.05,-99999,-99999,0,6.92,5.27,nu,WBCS,D,300,Q3,1.2,Q2,105,Q3,0,-99999,-99999,1,0.3,22,0.51,22,HarvardCMT,0.097839835,0.098788223,0.100999211,0.105482612,0.116233988,0.14952757,0.12222452,0.121747495,0.098400771,0.081213032,0.069698691,0.056285549,0.053635694,0.040406856,0.024523635,0.015464043,-99999,-99999,-99999,-99999,-99999,-99999,0.119640709,0.122907279,0.127950489,0.135745554,0.151238538,0.189354214,0.147928031,0.145243367,0.127395869,0.098901843,0.076476775,0.061587292,0.061197621,0.04989219,0.033550509,0.01849539,-99999,-99999,-99999,-99999,-99999,-99999,0.09661,0.119132,0.037472,0.047378
201354,1991-02-15T10:48:09.669000Z,A91052A3,5.42,0.15,Crustal,R,0,213,37,90,geonet,-42.0386,171.5897,-42.1166,171.8604,5906631.78,2393229.54,5898305,2415760,4.7,4.7,23.97,25.04,22.28,23.52,-99999,-99999,0,6.92,5.27,nu,052A,C,333,Q3,0.3,Q3,30,Q3,0,-99999,-99999,0,0.5,32,0.85,32,HarvardCMT,0.158749181,0.162830783,0.170652,0.190008826,0.20552037,0.221167699,0.232259728,0.249173604,0.168420676,0.118498985,0.099181559,0.057411956,0.050463488,0.030162211,0.018446291,-99999,-99999,-99999,-99999,-99999,-99999,-99999,0.191383996,0.194984633,0.203210369,0.220204198,0.247288221,0.2777421,0.318958392,0.293633867,0.226699991,0.157140444,0.107137196,0.066108387,0.060110582,0.041548701,0.024025147,-99999,-99999,-99999,-99999,-99999,-99999,-99999,0.159601,0.19139,0.046705,0.056129
201354,1991-02-15T10:48:09.669000Z,A91090A3,5.42,0.15,Crustal,R,0,213,37,90,geonet,-42.0386,171.5897,-41.8553,171.9539,5906631.78,2393229.54,5927428,2423132,4.7,4.7,36.37,37.09,34.1,34.84,-99999,-99999,0,6.92,5.27,nu,090A,C,270,Q3,0.33,Q3,40,Q3,0,-99999,-99999,1,0.45,13,0.765,13,HarvardCMT,0.080274741,0.080567985,0.081152729,0.081979845,0.083093641,0.086709596,0.092181246,0.111646084,0.121424087,0.122626437,0.107221779,0.078935053,0.061865211,0.036512016,0.019896899,-99999,-99999,-99999,-99999,-99999,-99999,-99999,0.107766814,0.108247932,0.10896715,0.109962542,0.111247233,0.116036824,0.125977453,0.156817543,0.163044998,0.154526323,0.136891546,0.094458173,0.078758646,0.045685235,0.025501631,-99999,-99999,-99999,-99999,-99999,-99999,-99999,0.080027,0.10772,0.042587,0.057742
