CuspID,Origin_time,Record,Mw,MwUncert,TectClass,Mech,PreferredFaultPlane,Strike,Dip,Rake,Location,HypLat,HypLon,StationLat,StationLon,HypN,HypE,StationN,StationE,LENGTH_km,WIDTH_km,Repi_km,Rhyp_km,Rjb_km,Rrup_km,Rx_km,Ry_km,Rvol_km,HypDepth_km,ZTOR_km,HWFW,SiteCode,SiteClass1170,Vs30,Vs30Uncert,Tsite,TsiteUncert,Z1,Z1Uncertainty,Directivity,Pulse_or,Pulse_T,S_Trigger_Flag,fcButterHP,f_iniLP,fmin,fmax,References,f100.0000SA_RotD50,f50.0000SA_RotD50,f33.3333SA_RotD50,f25.0000SA_RotD50,f20.0000SA_RotD50,f13.3333SA_RotD50,f10.0000SA_RotD50,f6.6667SA_RotD50,f5.0000SA_RotD50,f4.0000SA_RotD50,f3.3333SA_RotD50,f2.5000SA_RotD50,f2.0000SA_RotD50,f1.3333SA_RotD50,f1.0000SA_RotD50,f0.6667SA_RotD50,f0.5000SA_RotD50,f0.3333SA_RotD50,f0.2500SA_RotD50,f0.2000SA_RotD50,f0.1333SA_RotD50,f0.1000SA_RotD50,f100.0000SA_RotD100,f50.0000SA_RotD100,f33.3333SA_RotD100,f25.0000SA_RotD100,f20.0000SA_RotD100,f13.3333SA_RotD100,f10.0000SA_RotD100,f6.6667SA_RotD100,f5.0000SA_RotD100,f4.0000SA_RotD100,f3.3333SA_RotD100,f2.5000SA_RotD100,f2.0000SA_RotD100,f1.3333SA_RotD100,f1.0000SA_RotD100,f0.6667SA_RotD100,f0.5000SA_RotD100,f0.3333SA_RotD100,f0.2500SA_RotD100,f0.2000SA_RotD100,f0.1333SA_RotD100,f0.1000SA_RotD100,PGA_RotD50,PGA_RotD100,PGV_RotD50,PGV_RotD100
608810,1994-06-18T03:25:13.819000Z,D94042A1,6.72,0.08,Crustal,R,1,221,47,112,geonet,-43.0078,171.4762,-42.5232,172.8305,5798820.69,2385786.14,5853765,2496076,21.06,21.06,122.98,123.31,115.46,115.74,-43.1,-113.82,0,4.27,1,nu,HSES,D,280,Q3,0.9,Q1,85,Q3,0,-99999,-99999,1,0.25,10,0.425,10,Abercrombie_etal_2000&HarvardCMT,0.015482086,0.015489438,0.015504474,0.015525055,0.015549945,0.015628329,0.015770604,0.016119195,0.016629908,0.017644555,0.01873235,0.019980866,0.022113041,0.021911299,0.014077699,0.007597648,0.004534905,-99999,-99999,-99999,-99999,-99999,0.01720121,0.017208883,0.017218849,0.017238037,0.017262712,0.017347624,0.01752972,0.018013977,0.018502102,0.019948387,0.021390573,0.023482781,0.025897555,0.025817248,0.018282497,0.008238695,0.005613742,-99999,-99999,-99999,-99999,-99999,0.015473,0.017197,0.019453,0.022497
608810,1994-06-18T03:25:13.819000Z,D94044A1b,6.72,0.08,Crustal,R,1,221,47,112,geonet,-43.0078,171.4762,-45.8986,170.5097,5798820.69,2385786.14,5475848,2316608,21.06,21.06,330.46,330.33,323.2,323.05,-155.59,289.14,0,4.27,1,nu,SKFS,D,140,Q2,0.8,Q3,25,Q3,0,-99999,-99999,1,0.2,10,0.34,10,Abercrombie_etal_2000&HarvardCMT,0.01396052,0.013981065,0.014002005,0.014026324,0.014057465,0.014217829,0.014439854,0.014867572,0.015276766,0.016098818,0.016983963,0.018743988,0.020739446,0.020306498,0.015156475,0.007164761,0.003916186,-99999,-99999,-99999,-99999,-99999,0.015708483,0.015716667,0.015729878,0.015742925,0.015765767,0.015843182,0.015953214,0.016147308,0.016510645,0.017306823,0.018359468,0.020227874,0.023455317,0.025310993,0.016594116,0.007880306,0.004254197,-99999,-99999,-99999,-99999,-99999,0.013958,0.015708,0.018737,0.02038
608810,1994-06-18T03:25:13.819000Z,D94051D1,6.72,0.08,Crustal,R,1,221,47,112,geonet,-43.0078,171.4762,-41.7557,171.5998,5798820.69,2385786.14,5938069,2393545,21.06,21.06,139.6,139.53,132.84,132.84,89.59,-110.18,0,4.27,1,nu,WBCS,D,300,Q3,1.2,Q2,105,Q3,0,-99999,-99999,0,0.25,20,0.425,20,Abercrombie_etal_2000&HarvardCMT,0.045887311,0.046083448,0.046391568,0.047053258,0.047940796,0.049208262,0.050316442,0.05188002,0.052932403,0.05375675,0.053013741,0.052654862,0.054005997,0.046316847,0.033722042,0.018974748,0.012047956,-99999,-99999,-99999,-99999,-99999,0.05807308,0.058414553,0.059020005,0.059635196,0.060393174,0.060345287,0.059627223,0.054896473,0.055404479,0.059371784,0.06617533,0.069480503,0.073159526,0.055903391,0.041167047,0.024751675,0.014913159,-99999,-99999,-99999,-99999,-99999,0.045551,0.058169,0.050876,0.058746
608810,1994-06-18T03:25:13.819000Z,D94054A3,6.72,0.08,Crustal,R,1,221,47,112,geonet,-43.0078,171.4762,-43.883,169.0441,5798820.69,2385786.14,5695156,2192230,21.06,21.06,219.12,219.61,211.53,212.02,82.16,205.22,0,4.27,1,nu,HDWS,D,210,Q3,0.87,Q1,100,Q3,0,-99999,-99999,1,0.3,11,0.51,11,Abercrombie_etal_2000&HarvardCMT,0.014427232,0.014495297,0.014622386,0.014809115,0.015062037,0.016052963,0.017281262,0.018888663,0.018511355,0.019337635,0.0190437,0.015446308,0.01507843,0.011977382,0.007927105,0.004553778,-99999,-99999,-99999,-99999,-99999,-99999,0.019505679,0.019593822,0.019774717,0.020027778,0.020362905,0.02169717,0.023553839,0.024813884,0.024368631,0.023867435,0.023645775,0.020902647,0.018261988,0.012838768,0.008622104,0.005528811,-99999,-99999,-99999,-99999,-99999,-99999,0.014384,0.01943,0.01289,0.014801
608810,1994-06-18T03:25:13.819000Z,D94129A2,6.72,0.08,Crustal,R,1,221,47,112,geonet,-43.0078,171.4762,-41.7999,172.328,5798820.69,2385786.14,5933893,2454147,21.06,21.06,151.43,151.45,143.62,143.66,41.11,-146.79,0,4.27,1,nu,MCAS,D,501,Q3,1.6,Q3,200,Q3,0,-99999,-99999,0,0.1,13,0.17,13,Abercrombie_etal_2000&HarvardCMT,0.027210541,0.027358218,0.027558534,0.027785924,0.028025329,0.028872483,0.030204638,0.032013745,0.031565072,0.02943245,0.029895829,0.032349798,0.027176471,0.023580915,0.022067212,0.011733562,0.008832222,0.004204454,0.00246543,0.001724688,-99999,-99999,0.029464068,0.029545584,0.029764462,0.030105389,0.030528877,0.031956214,0.033498767,0.035318137,0.034310487,0.038708082,0.041416351,0.035821784,0.033237202,0.025579879,0.022876889,0.012522226,0.010380338,0.004522059,0.002801874,0.00228749,-99999,-99999,0.027166,0.029349,0.027983,0.029524
608810,1994-06-18T03:25:13.819000Z,K94112A1,6.72,0.08,Crustal,R,1,221,47,112,geonet,-43.0078,171.4762,-43.1325,171.7693,5798820.69,2385786.14,5785358,2409884,21.06,21.06,27.55,28.04,23.3,23.35,-22.93,-5.65,0,4.27,1,fw,112B,C,667,Q3,0.36,Q3,60,Q3,0,-99999,-99999,1,0.35,18,0.595,18,Abercrombie_etal_2000&HarvardCMT,0.134051885,0.134777344,0.136203461,0.138133681,0.140401873,0.145647714,0.157308074,0.173529322,0.194831175,0.188590649,0.161874236,0.114906114,0.094578544,0.060901498,0.038971185,0.022975997,-99999,-99999,-99999,-99999,-99999,-99999,0.147870372,0.148429971,0.149572845,0.151769773,0.155923942,0.17391648,0.189645113,0.227601093,0.238279381,0.232106336,0.211335225,0.162505515,0.123812907,0.080265167,0.054946443,0.02392149,-99999,-99999,-99999,-99999,-99999,-99999,0.133497,0.147884,0.080934,0.108476
697172,1994-12-15T11:20:17.858000Z,K5113A01,6.31,0.15,Crustal,S,0,194,77,-1.61E+02,geonet,-37.1987,177.528,-37.8735,177.5847,6434683.68,2912134.85,6359624,2913365,13.1,13.1,75.2,76.03,70.88,72.17,-99999,-99999,10,12,5.68,nu,113A,C,522,Q3,0.15,Q3,10,Q3,0,-99999,-99999,1,0.5,11,0.85,11,HarvardCMT,0.080114961,0.08049743,0.081140073,0.081884688,0.083128711,0.087314005,0.094584184,0.11114514,0.11640102,0.101960338,0.090382397,0.062233019,0.041794279,0.017385279,0.009415639,-99999,-99999,-99999,-99999,-99999,-99999,-99999,0.087871235,0.088226037,0.088737209,0.08944397,0.090388908,0.09448699,0.1015691,0.120401676,0.143083115,0.138416221,0.112343446,0.071445694,0.05353702,0.022999828,0.011666523,-99999,-99999,-99999,-99999,-99999,-99999,-99999,0.079917,0.087819,0.035922,0.044695
731516,1995-02-05T22:51:04.665000Z,D5016A02,7.09,0.15,Crustal,N,0,215,58,-9.00E+01,geonet,-37.6496,179.4886,-38.6774,178.031,6374193.93,3082358.22,6268431,2947608,32.2,32.2,171.17,171.73,155.42,156.01,-99999,-99999,0,12,1.73,nu,016A,C,480,Q3,0.15,Q3,10,Q3,0,-99999,-99999,0,0.35,14,0.595,14,HarvardCMT,0.019705922,0.019765772,0.019870733,0.020023198,0.020262197,0.02082463,0.022160716,0.025003045,0.024414338,0.021852504,0.021431222,0.021225293,0.019094839,0.0145836,0.009967071,0.004657555,-99999,-99999,-99999,-99999,-99999,-99999,0.02211171,0.022187067,0.022300118,0.022450458,0.022637199,0.023251615,0.024706452,0.027151336,0.027749758,0.027549337,0.026788577,0.024930489,0.023012216,0.015741981,0.01070292,0.005076142,-99999,-99999,-99999,-99999,-99999,-99999,0.019614,0.022096,0.013599,0.015489
731516,1995-02-05T22:51:04.665000Z,D5017A02,7.09,0.15,Crustal,N,0,215,58,-9.00E+01,geonet,-37.6496,179.4886,-38.6665,178.0227,6374193.93,3082358.22,6269685,2946952,32.2,32.2,170.91,171.47,155.18,155.77,-99999,-99999,0,12,1.73,nu,GISS,D,138,Q2,1,Q1,40,Q3,0,-99999,-99999,0,0.18,12,0.306,12,HarvardCMT,0.022688079,0.022748275,0.022835824,0.022963647,0.023140892,0.024068198,0.025943881,0.027051837,0.027778241,0.028731072,0.028850901,0.026382241,0.026810287,0.025113808,0.017858904,0.007528596,0.004089208,0.001967067,-99999,-99999,-99999,-99999,0.026676354,0.026725564,0.026794442,0.026904942,0.027065257,0.027634921,0.027977269,0.029758894,0.030655655,0.032436018,0.033764521,0.035357138,0.035961791,0.033812892,0.022176935,0.008949437,0.005201824,0.00210989,-99999,-99999,-99999,-99999,0.022668,0.026673,0.023536,0.028064
731516,1995-02-05T22:51:04.665000Z,D5709A03,7.09,0.15,Crustal,N,0,215,58,-9.00E+01,geonet,-37.6496,179.4886,-38.6257,177.9216,6374193.93,3082358.22,6274694,2938413,32.2,32.2,174.82,175.4,159.22,159.85,-99999,-99999,0,12,1.73,nu,GWTS,D,245,Q3,1.5,Q3,125,Q3,0,-99999,-99999,0,0.15,10,0.255,10,HarvardCMT,0.021733846,0.02176001,0.021800153,0.021830595,0.021842418,0.02191477,0.022319773,0.022759577,0.024215416,0.025017618,0.025409597,0.025716616,0.02593979,0.025003252,0.024445527,0.021962027,0.016689736,0.009144759,-99999,-99999,-99999,-99999,0.023710442,0.023752528,0.023803805,0.023863849,0.023934584,0.024182883,0.024353091,0.025008421,0.027089611,0.027204102,0.027911379,0.029350822,0.029308854,0.03014978,0.028666306,0.027413418,0.017869275,0.010053282,-99999,-99999,-99999,-99999,0.021733,0.023696,0.047036,0.051666
731516,1995-02-05T22:51:04.665000Z,D5712A03,7.09,0.15,Crustal,N,0,215,58,-9.00E+01,geonet,-37.6496,179.4886,-37.9615,176.9855,6374193.93,3082358.22,6352382,2860270,32.2,32.2,222.62,223.48,209.17,210.15,-99999,-99999,0,12,1.73,nu,WKHS,D,210,Q3,0.71,Q2,100,Q3,0,-99999,-99999,0,0.25,12,0.425,12,HarvardCMT,0.017432548,0.017471622,0.017522321,0.017621732,0.017788163,0.018367765,0.018673075,0.01909512,0.01960585,0.021674045,0.023328209,0.023535575,0.021902965,0.013938291,0.00982509,0.004392178,0.002532323,-99999,-99999,-99999,-99999,-99999,0.01898125,0.019022454,0.01908717,0.019175473,0.019303315,0.019897664,0.020490805,0.020168562,0.022495328,0.024086614,0.024957906,0.025929712,0.023473851,0.016261018,0.011795727,0.004837222,0.002813837,-99999,-99999,-99999,-99999,-99999,0.017383,0.01896,0.01429,0.016299
731516,1995-02-05T22:51:04.665000Z,K5113A02,7.09,0.15,Crustal,N,0,215,58,-9.00E+01,geonet,-37.6496,179.4886,-37.8735,177.5847,6374193.93,3082358.22,6359624,2913365,32.2,32.2,169.2,170.05,155.84,156.86,-99999,-99999,0,12,1.73,nu,113A,C,522,Q3,0.15,Q3,10,Q3,0,-99999,-99999,1,0.4,11,0.68,11,HarvardCMT,0.038584007,0.038789075,0.039105703,0.039556949,0.040153579,0.042304372,0.045876211,0.056134841,0.062280872,0.054875785,0.045331123,0.030300665,0.021455808,0.009315783,0.006556289,-99999,-99999,-99999,-99999,-99999,-99999,-99999,0.041644351,0.041784158,0.042109013,0.042562445,0.043126535,0.045419423,0.048773348,0.058984603,0.068434426,0.061460113,0.056792569,0.034080405,0.023258895,0.011168539,0.007545289,-99999,-99999,-99999,-99999,-99999,-99999,-99999,0.038456,0.041675,0.017797,0.020876
721911,1995-02-10T01:44:56.764000Z,D5016A04,6.49,0.15,Crustal,N,0,220,41,-7.80E+01,irisdmc,-38.1086,178.6757,-38.6774,178.031,6344659.25,3005555.26,6268431,2947608,16.2,16.2,84.6,96.52,87.77,88.47,-99999,-99999,0,12,6.26,nu,016A,C,480,Q3,0.15,Q3,10,Q3,0,-99999,-99999,1,0.3,10,0.51,10,HarvardCMT,0.013074686,0.013105005,0.01315578,0.013225982,0.013311324,0.013653855,0.014192812,0.015186558,0.015853357,0.016035096,0.01646379,0.015884523,0.015379284,0.010436252,0.007262526,0.004646068,-99999,-99999,-99999,-99999,-99999,-99999,0.015129508,0.015173881,0.015233929,0.015315764,0.015446473,0.015900039,0.016667979,0.018916123,0.021120882,0.020510533,0.019113763,0.016992048,0.018500259,0.014407973,0.007874958,0.00522219,-99999,-99999,-99999,-99999,-99999,-99999,0.01307,0.015125,0.011199,0.012434
721911,1995-02-10T01:44:56.764000Z,D5017A03,6.49,0.15,Crustal,N,0,220,41,-7.80E+01,irisdmc,-38.1086,178.6757,-38.6665,178.0227,6344659.25,3005555.26,6269685,2946952,16.2,16.2,84.19,95.91,87.18,87.87,-99999,-99999,0,12,6.26,nu,GISS,D,138,Q2,1,Q1,40,Q3,0,-99999,-99999,1,0.2,10,0.34,10,HarvardCMT,0.015886937,0.01591902,0.015970172,0.016048927,0.016154832,0.016496961,0.016942869,0.018372261,0.019091456,0.018683842,0.018981074,0.01928813,0.01883978,0.015837347,0.012947962,0.006193398,0.003842554,-99999,-99999,-99999,-99999,-99999,0.020422966,0.020440511,0.020478481,0.020535078,0.020594297,0.020762229,0.020905934,0.021903755,0.023458644,0.024826754,0.025443135,0.026237987,0.02486664,0.020895035,0.017825438,0.008342188,0.004298309,-99999,-99999,-99999,-99999,-99999,0.015846,0.020389,0.017052,0.020424
722185,1995-03-22T19:43:30.268000Z,D5040A01,5.83,0.15,Slab,S,0,27,64,30,nlloc,-41.0514,174.216,-41.5763,175.2269,6016538.56,2612205.51,5956588,2695679,7.6,7.6,102.64,133.7,100.01,131.33,-99999,-99999,0,85.51,82.13,nu,040A,B,770,Q3,0.08,Q3,7,Q3,0,-99999,-99999,1,0.25,22,0.425,22,HarvardCMT,0.022417962,0.023023939,0.02404457,0.025141163,0.026345438,0.02766226,0.029231081,0.028446013,0.023991517,0.019211331,0.014572288,0.008552892,0.006780095,0.00364654,0.002456688,0.001783276,0.001142681,-99999,-99999,-99999,-99999,-99999,0.027293266,0.028055711,0.029480035,0.031806666,0.035566506,0.036655679,0.035187594,0.032042113,0.025916731,0.021166133,0.01675977,0.010119453,0.008544226,0.003952556,0.003011567,0.001982218,0.001304185,-99999,-99999,-99999,-99999,-99999,0.022443,0.026833,0.006984,0.007547
722185,1995-03-22T19:43:30.268000Z,D5050A02,5.83,0.15,Slab,S,0,27,64,30,nlloc,-41.0514,174.216,-41.1247,173.0095,6016538.56,2612205.51,6009109,2510784,7.6,7.6,101.44,132.87,98.42,129.2,-99999,-99999,0,85.51,82.13,nu,MOTS,D,300,Q3,1.27,Q3,300,Q3,0,-99999,-99999,0,0.3,25,0.51,25,HarvardCMT,0.074992759,0.075825942,0.076676015,0.079099895,0.081570136,0.091262873,0.098449183,0.101605926,0.105417159,0.097195267,0.085856773,0.060847179,0.044481799,0.019448832,0.010089283,0.006633038,-99999,-99999,-99999,-99999,-99999,-99999,0.08142854,0.081735005,0.082140973,0.082792168,0.089558001,0.10693956,0.106808603,0.107843751,0.109951774,0.112349523,0.101885482,0.081789781,0.05470751,0.022542312,0.013172981,0.007796357,-99999,-99999,-99999,-99999,-99999,-99999,0.074658,0.081151,0.031704,0.038098
722185,1995-03-22T19:43:30.268000Z,D5056A02,5.83,0.15,Slab,S,0,27,64,30,nlloc,-41.0514,174.216,-41.2758,173.2851,6016538.56,2612205.51,5992292,2533876,7.6,7.6,81.82,118.48,78.7,114.72,-99999,-99999,0,85.51,82.13,nu,056A,B,450,Q3,0.07,Q3,5,Q3,0,-99999,-99999,0,0.3,15,0.51,15,HarvardCMT,0.204164514,0.205431494,0.207590221,0.210826808,0.215057792,0.230917296,0.246658129,0.287982954,0.297414763,0.274869008,0.224837291,0.130179098,0.092116444,0.044881255,0.021361041,0.010224352,-99999,-99999,-99999,-99999,-99999,-99999,0.257469052,0.259287145,0.262114747,0.266246457,0.271952004,0.295937969,0.319477072,0.362857904,0.372474403,0.331959574,0.27945652,0.184097473,0.127614936,0.063311433,0.026720603,0.014427945,-99999,-99999,-99999,-99999,-99999,-99999,0.203401,0.256838,0.086241,0.109037
722185,1995-03-22T19:43:30.268000Z,D5129A01,5.83,0.15,Slab,S,0,27,64,30,nlloc,-41.0514,174.216,-41.7999,172.328,6016538.56,2612205.51,5933893,2454147,7.6,7.6,178.06,197.87,174.9,194.27,-99999,-99999,0,85.51,82.13,nu,MCAS,D,501,Q3,1.6,Q3,200,Q3,0,-99999,-99999,0,0.3,17,0.51,17,HarvardCMT,0.032900458,0.033153682,0.03365283,0.034364632,0.035240322,0.037784052,0.040794336,0.041470422,0.039262397,0.035377345,0.031032231,0.029661886,0.026047521,0.0135712,0.010156881,0.00648041,-99999,-99999,-99999,-99999,-99999,-99999,0.041486455,0.041791798,0.042276287,0.043031285,0.044334693,0.048354618,0.051705571,0.055463215,0.054659413,0.05002503,0.043890443,0.035313072,0.029862336,0.017036505,0.012504463,0.006835052,-99999,-99999,-99999,-99999,-99999,-99999,0.032924,0.041474,0.019706,0.021382
722185,1995-03-22T19:43:30.268000Z,D5130B01,5.83,0.15,Slab,S,0,27,64,30,nlloc,-41.0514,174.216,-41.6696,173.2029,6016538.56,2612205.51,5948576,2526890,7.6,7.6,108.97,138.82,105.86,135.11,-99999,-99999,0,85.51,82.13,nu,130B,D,367,Q3,0.85,Q3,100,Q3,0,-99999,-99999,1,0.4,24,0.68,24,HarvardCMT,0.020844228,0.021408681,0.022426981,0.024841504,0.02665156,0.02909117,0.02732725,0.020369208,0.016877422,0.015406574,0.0129647,0.009540616,0.007485468,0.004156856,0.002667237,-99999,-99999,-99999,-99999,-99999,-99999,-99999,0.023204633,0.023985326,0.024990505,0.02649802,0.027871343,0.03135735,0.032508555,0.026411158,0.019413453,0.016823579,0.016171893,0.012719181,0.009264261,0.005684001,0.003564976,-99999,-99999,-99999,-99999,-99999,-99999,-99999,0.020729,0.023068,0.007133,0.008654
722185,1995-03-22T19:43:30.268000Z,D5131A06,5.83,0.15,Slab,S,0,27,64,30,nlloc,-41.0514,174.216,-40.9143,175.005,6016538.56,2612205.51,6030534,2678862,7.6,7.6,67.96,109.33,64.87,106.63,-99999,-99999,0,85.51,82.13,nu,PAPS,D,200,Q3,1.4,Q1,100,Q3,0,-99999,-99999,0,0.45,18,0.765,18,HarvardCMT,0.06274931,0.063592782,0.06558653,0.068611202,0.072569334,0.083684928,0.088626818,0.080472633,0.064716476,0.057864336,0.046202455,0.035168802,0.024144675,0.013617208,0.009552249,-99999,-99999,-99999,-99999,-99999,-99999,-99999,0.082666175,0.083510899,0.085394908,0.088203212,0.091318441,0.099532447,0.111998855,0.105898642,0.080437342,0.067938585,0.05502645,0.039693945,0.028071527,0.015058141,0.01297029,-99999,-99999,-99999,-99999,-99999,-99999,-99999,0.062974,0.080919,0.023458,0.025778
722185,1995-03-22T19:43:30.268000Z,D5132A05,5.83,0.15,Slab,S,0,27,64,30,nlloc,-41.0514,174.216,-41.2975,174.781,6016538.56,2612205.51,5988401,2659132,7.6,7.6,54.63,101.53,52,98.73,-99999,-99999,0,85.51,82.13,nu,132A,C,245,Q2,0.47,Q2,27,Q2,0,-99999,-99999,0,0.3,15,0.51,15,HarvardCMT,0.05352117,0.054072376,0.055079081,0.05643255,0.058113565,0.064473437,0.070794385,0.074941713,0.053074406,0.049687755,0.046912935,0.042438413,0.033697852,0.017815399,0.009801453,0.004457976,-99999,-99999,-99999,-99999,-99999,-99999,0.064408676,0.065356763,0.06675801,0.068717701,0.071477255,0.083758189,0.09244957,0.09037842,0.074510202,0.057370842,0.052295388,0.05002142,0.036655584,0.020151116,0.010651725,0.006115616,-99999,-99999,-99999,-99999,-99999,-99999,0.053645,0.064267,0.022839,0.02753
722185,1995-03-22T19:43:30.268000Z,D5302A03,5.83,0.15,Slab,S,0,27,64,30,nlloc,-41.0514,174.216,-39.9338,175.053,6016538.56,2612205.51,6139282,2685450,7.6,7.6,143.02,166.57,140.12,164.23,-99999,-99999,0,85.51,82.13,nu,302A,D,250,Q2,0.8,Q3,80,Q3,0,-99999,-99999,0,0.4,18,0.68,18,HarvardCMT,0.030210592,0.030513361,0.0311199,0.032029374,0.033525397,0.035513516,0.037271974,0.034966449,0.038048729,0.037859059,0.035543909,0.033658446,0.025029547,0.012097215,0.007574043,-99999,-99999,-99999,-99999,-99999,-99999,-99999,0.034780045,0.035038997,0.035580254,0.036515728,0.037674485,0.039802642,0.041172294,0.037725111,0.042109528,0.04079087,0.039346039,0.036691414,0.028588768,0.013153697,0.008960965,-99999,-99999,-99999,-99999,-99999,-99999,-99999,0.030144,0.034818,0.01655,0.019803
722185,1995-03-22T19:43:30.268000Z,D5643B07,5.83,0.15,Slab,S,0,27,64,30,nlloc,-41.0514,174.216,-41.1513,174.9794,6016538.56,2612205.51,6004275,2676112,7.6,7.6,64.92,107.53,62.09,104.88,-99999,-99999,0,85.51,82.13,nu,643B,B,1000,Q3,<0.1,Q3,1.50E+00,Q3,0,-99999,-99999,0,0.3,30,0.51,30,HarvardCMT,0.04368103,0.044200061,0.045763583,0.045629014,0.048116083,0.053571627,0.058141467,0.063859215,0.048255755,0.033064007,0.026012629,0.015914364,0.011304157,0.005670876,0.003464532,0.001786291,-99999,-99999,-99999,-99999,-99999,-99999,0.052865198,0.053886078,0.055300535,0.056994865,0.060419947,0.06789892,0.076080561,0.074068584,0.056911555,0.043609493,0.031962199,0.019594292,0.012149449,0.006768536,0.004203165,0.002473767,-99999,-99999,-99999,-99999,-99999,-99999,0.043803,0.051789,0.013908,0.016355
