CuspID,Origin_time,Record,Mw,MwUncert,TectClass,Mech,PreferredFaultPlane,Strike,Dip,Rake,Location,HypLat,HypLon,StationLat,StationLon,HypN,HypE,StationN,StationE,LENGTH_km,WIDTH_km,Repi_km,Rhyp_km,Rjb_km,Rrup_km,Rx_km,Ry_km,Rvol_km,HypDepth_km,ZTOR_km,HWFW,SiteCode,SiteClass1170,Vs30,Vs30Uncert,Tsite,TsiteUncert,Z1,Z1Uncertainty,Directivity,Pulse_or,Pulse_T,S_Trigger_Flag,fcButterHP,f_iniLP,fmin,fmax,References,f100.0000SA_RotD50,f50.0000SA_RotD50,f33.3333SA_RotD50,f25.0000SA_RotD50,f20.0000SA_RotD50,f13.3333SA_RotD50,f10.0000SA_RotD50,f6.6667SA_RotD50,f5.0000SA_RotD50,f4.0000SA_RotD50,f3.3333SA_RotD50,f2.5000SA_RotD50,f2.0000SA_RotD50,f1.3333SA_RotD50,f1.0000SA_RotD50,f0.6667SA_RotD50,f0.5000SA_RotD50,f0.3333SA_RotD50,f0.2500SA_RotD50,f0.2000SA_RotD50,f0.1333SA_RotD50,f0.1000SA_RotD50,f100.0000SA_RotD100,f50.0000SA_RotD100,f33.3333SA_RotD100,f25.0000SA_RotD100,f20.0000SA_RotD100,f13.3333SA_RotD100,f10.0000SA_RotD100,f6.6667SA_RotD100,f5.0000SA_RotD100,f4.0000SA_RotD100,f3.3333SA_RotD100,f2.5000SA_RotD100,f2.0000SA_RotD100,f1.3333SA_RotD100,f1.0000SA_RotD100,f0.6667SA_RotD100,f0.5000SA_RotD100,f0.3333SA_RotD100,f0.2500SA_RotD100,f0.2000SA_RotD100,f0.1333SA_RotD100,f0.1000SA_RotD100,PGA_RotD50,PGA_RotD100,PGV_RotD50,PGV_RotD100
164529,1990-10-04T23:48:26.123000Z,D90935B2,5.57,0.15,Interface,O,1,190,21,58,special,-41.61,175.44,-41.2108,174.9047,5952370.8,2713346.37,5997808,2669699,7.6,7.6,62.96,64.5,60.81,62.54,52.97,-37.17,0,13.8,12.99,nu,935A,D,240,Q3,1.2,Q3,275,Q3,0,-99999,-99999,0,0.4,15,0.68,15,HarvardCMT&Luo(1992),0.032911981,0.033092714,0.033447967,0.033979945,0.034791293,0.038492512,0.041449876,0.056878572,0.076296357,0.083315937,0.140784421,0.065698616,0.066766743,0.039414619,0.065121451,-99999,-99999,-99999,-99999,-99999,-99999,-99999,0.037516876,0.037659723,0.037896383,0.038319645,0.039051789,0.04254656,0.044796604,0.068503127,0.086167454,0.098604259,0.175899558,0.076388088,0.078857552,0.054434749,0.073361173,-99999,-99999,-99999,-99999,-99999,-99999,-99999,0.032746,0.037519,0.034941,0.042109
164529,1990-10-04T23:48:26.123000Z,D90941A5,5.57,0.15,Interface,O,1,190,21,58,special,-41.61,175.44,-41.2921,174.779,5952370.8,2713346.37,5989003,2658976,7.6,7.6,65.46,67,63.34,65.08,62.01,-26.63,0,13.8,12.99,nu,941A,D,272,Q2,0.85,Q2,9.85E+01,Q2,0,-99999,-99999,0,0.41,11,0.697,11,HarvardCMT&Luo(1992),0.022981534,0.023073395,0.023246123,0.023498518,0.023850487,0.025428091,0.028880834,0.046533692,0.048109017,0.047965716,0.059466894,0.070405513,0.050401759,0.051454477,0.02905048,-99999,-99999,-99999,-99999,-99999,-99999,-99999,0.031418718,0.031513946,0.031670491,0.031883945,0.032184058,0.033199023,0.03253736,0.061670854,0.05433997,0.059660179,0.071824769,0.086155977,0.066689895,0.055816521,0.036367797,-99999,-99999,-99999,-99999,-99999,-99999,-99999,0.022982,0.031422,0.021391,0.023599
160610,1990-10-06T02:41:12.583000Z,D90642EB,5.46,0.15,Interface,O,1,250,38,145,special,-41.61,175.43,-41.2341,174.918,5952394.08,2712513.04,5995197,2670758,6.7,6.7,59.75,61.46,58.1,60.11,56.08,24.6,0,14.2,12.97,nu,642E,C,350,Q1,0.35,Q2,50,Q3,0,-99999,-99999,0,0.6,11,1.02,11,HarvardCMT&Luo(1992),0.02807038,0.028182882,0.028326608,0.028569258,0.028812657,0.029979671,0.033702098,0.054326997,0.06678255,0.080994183,0.091142637,0.10260602,0.071767667,0.020505508,-99999,-99999,-99999,-99999,-99999,-99999,-99999,-99999,0.030110817,0.030269023,0.030529809,0.030920351,0.031429811,0.033672078,0.036699154,0.063416563,0.073656794,0.084565121,0.099356026,0.133994276,0.097292858,0.028959889,-99999,-99999,-99999,-99999,-99999,-99999,-99999,-99999,0.027979,0.030104,0.016174,0.019076
160610,1990-10-06T02:41:12.583000Z,D90900B6,5.46,0.15,Interface,O,1,250,38,145,special,-41.61,175.43,-41.2921,174.779,5952394.08,2712513.04,5989003,2658976,6.7,6.7,64.76,66.39,63.03,64.9,54.29,37.79,0,14.2,12.97,nu,941A,D,272,Q2,0.85,Q2,9.85E+01,Q2,0,-99999,-99999,0,0.4,10,0.68,10,HarvardCMT&Luo(1992),0.014071192,0.014102821,0.014160279,0.014234389,0.014334409,0.014647712,0.01643451,0.02003519,0.027292625,0.030845256,0.028554501,0.032508787,0.025849348,0.038188248,0.025835824,-99999,-99999,-99999,-99999,-99999,-99999,-99999,0.019033706,0.019069699,0.019135449,0.01922692,0.019328997,0.019672299,0.021246194,0.025452791,0.038368445,0.034714862,0.037575442,0.037397345,0.03640048,0.04581067,0.027825414,-99999,-99999,-99999,-99999,-99999,-99999,-99999,0.014052,0.019034,0.012221,0.01399
160610,1990-10-06T02:41:12.583000Z,D90935B3,5.46,0.15,Interface,O,1,250,38,145,special,-41.61,175.43,-41.2108,174.9047,5952394.08,2712513.04,5997808,2669699,6.7,6.7,62.37,64.01,60.72,62.65,58.89,24.7,0,14.2,12.97,nu,935A,D,240,Q3,1.2,Q3,275,Q3,0,-99999,-99999,0,0.3,15,0.51,15,HarvardCMT&Luo(1992),0.019817827,0.01991525,0.020028112,0.020214101,0.020484507,0.022381744,0.025362476,0.038169526,0.036074868,0.053713876,0.062558544,0.059161663,0.042101291,0.031969627,0.020407617,0.013542774,-99999,-99999,-99999,-99999,-99999,-99999,0.021462439,0.021558461,0.021711868,0.021939122,0.022216731,0.025184992,0.030170075,0.04813295,0.045224108,0.074881747,0.086821561,0.073303945,0.048149079,0.037122909,0.027879826,0.017979831,-99999,-99999,-99999,-99999,-99999,-99999,0.019813,0.021374,0.01878,0.023053
160610,1990-10-06T02:41:12.583000Z,D90941A6,5.46,0.15,Interface,O,1,250,38,145,special,-41.61,175.43,-41.2921,174.779,5952394.08,2712513.04,5989003,2658976,6.7,6.7,64.76,66.39,63.03,64.9,54.29,37.79,0,14.2,12.97,nu,941A,D,272,Q2,0.85,Q2,9.85E+01,Q2,0,-99999,-99999,0,0.35,12,0.595,12,HarvardCMT&Luo(1992),0.013387825,0.013428448,0.013499936,0.013608212,0.013763209,0.014207443,0.018087695,0.024010179,0.03068563,0.035960757,0.034049229,0.035752666,0.019106734,0.034926368,0.017924952,0.006173361,-99999,-99999,-99999,-99999,-99999,-99999,0.016519995,0.016594742,0.016705233,0.016880357,0.01712787,0.018658697,0.022966464,0.028074406,0.037000499,0.042184565,0.03683625,0.040439743,0.021763942,0.039727161,0.01916095,0.007194802,-99999,-99999,-99999,-99999,-99999,-99999,0.013333,0.016519,0.009242,0.010038
194283,1991-01-28T12:58:46.823000Z,A91051B1,5.76,0.08,Crustal,R,1,42,30,99,special,-41.89,171.58,-41.7557,171.5998,5923123.14,2392149.06,5938069,2393545,6.97,6.97,15.03,18.04,11.7,14.67,-5.94,12.04,0,10,8.26,nu,WBCS,D,300,Q3,1.2,Q2,105,Q3,0,-99999,-99999,1,0.4,27,0.68,27,Anderson_etal_1993&Dowrick_Rhoades1998&HarvardCMT,0.143890757,0.14610517,0.149332102,0.175821979,0.196532057,0.3171067,0.36089552,0.305467986,0.297633123,0.258150822,0.226298705,0.271508719,0.234998148,0.310078607,0.179927821,-99999,-99999,-99999,-99999,-99999,-99999,-99999,0.162914656,0.165353022,0.170726447,0.193567776,0.243132188,0.363739773,0.505529493,0.366630456,0.316807704,0.337361987,0.319081397,0.341883339,0.314578291,0.434579622,0.231040193,-99999,-99999,-99999,-99999,-99999,-99999,-99999,0.142879,0.161382,0.10733,0.128337
194283,1991-01-28T12:58:46.823000Z,A91083A1,5.76,0.08,Crustal,R,1,42,30,99,special,-41.89,171.58,-41.8311,171.6606,5923123.14,2392149.06,5929772,2398735,6.97,6.97,9.35,13.7,5.87,11.28,3.46,9.35,0,10,8.26,nu,083A,B,1200,Q3,<0.1,Q3,0,Q2,0,-99999,-99999,0,0.5,40,0.85,40,Anderson_etal_1993&Dowrick_Rhoades1998&HarvardCMT,0.202537106,0.223277339,0.377951163,0.364055555,0.400401533,0.454883241,0.36516618,0.300456261,0.27163611,0.136230235,0.144929322,0.163741263,0.134320657,0.10143461,0.088283726,-99999,-99999,-99999,-99999,-99999,-99999,-99999,0.261978584,0.315723164,0.512391581,0.493037151,0.542466033,0.541041559,0.424594493,0.391524572,0.356890928,0.14223023,0.168916035,0.192027973,0.16562573,0.140646021,0.123815748,-99999,-99999,-99999,-99999,-99999,-99999,-99999,0.193315,0.234507,0.065445,0.081315
194283,1991-01-28T12:58:46.823000Z,A91090A1,5.76,0.08,Crustal,R,1,42,30,99,special,-41.89,171.58,-41.8553,171.9539,5923123.14,2392149.06,5927428,2423132,6.97,6.97,31.2,32.86,27.91,30.07,23.16,23.93,0,10,8.26,nu,090A,C,270,Q3,0.33,Q3,40,Q3,0,-99999,-99999,1,0.3,22,0.51,22,Anderson_etal_1993&Dowrick_Rhoades1998&HarvardCMT,0.083415662,0.084463772,0.08626042,0.088991437,0.094723157,0.118130665,0.134363462,0.175408627,0.229163653,0.190374398,0.139056879,0.171473636,0.199872604,0.088999635,0.054782332,0.029278018,-99999,-99999,-99999,-99999,-99999,-99999,0.115072851,0.116333916,0.118656442,0.121774366,0.13181227,0.167078453,0.170684962,0.205533994,0.305104951,0.261004402,0.164500078,0.241956924,0.24100242,0.112190165,0.077417572,0.039709934,-99999,-99999,-99999,-99999,-99999,-99999,0.08299,0.115127,0.061288,0.084013
194283,1991-01-28T12:58:46.823000Z,A91122A1,5.76,0.08,Crustal,R,1,42,30,99,special,-41.89,171.58,-41.8025,172.3248,5923123.14,2392149.06,5933606,2453884,6.97,6.97,62.46,63.44,59.16,60.33,41.88,49.1,0,10,8.26,nu,122A,D,500,Q3,1.6,Q3,250,Q3,0,-99999,-99999,1,0.4,40,0.68,40,Anderson_etal_1993&Dowrick_Rhoades1998&HarvardCMT,0.12848284,0.1381171,0.158332136,0.225414176,0.18076844,0.261889594,0.333574346,0.293431654,0.204635553,0.24515983,0.240601387,0.205353945,0.206987877,0.093356475,0.051553233,-99999,-99999,-99999,-99999,-99999,-99999,-99999,0.172385891,0.17672786,0.188397342,0.293403494,0.220468833,0.328240402,0.427342584,0.399445454,0.267004233,0.335486113,0.339113384,0.288947908,0.279376632,0.116331062,0.058680071,-99999,-99999,-99999,-99999,-99999,-99999,-99999,0.128037,0.172541,0.069375,0.08888
194283,1991-01-28T12:58:46.823000Z,D91042A3,5.76,0.08,Crustal,R,1,42,30,99,special,-41.89,171.58,-42.5232,172.8305,5923123.14,2392149.06,5853765,2496076,6.97,6.97,124.76,125.38,121.74,122.51,126.66,18,0,10,8.26,nu,HSES,D,280,Q3,0.9,Q1,85,Q3,0,-99999,-99999,1,0.2,11,0.34,11,Anderson_etal_1993&Dowrick_Rhoades1998&HarvardCMT,0.023587292,0.023660721,0.023767787,0.023949589,0.024180432,0.025131815,0.028917271,0.037009406,0.048246706,0.040469489,0.064309019,0.050495684,0.078820397,0.066213844,0.035719953,0.011164761,0.006499341,-99999,-99999,-99999,-99999,-99999,0.026778332,0.026829307,0.026943398,0.027079175,0.027268829,0.027961707,0.030477435,0.044021074,0.052979588,0.045354577,0.075296575,0.069644931,0.106186204,0.082021518,0.050367843,0.013316479,0.009183471,-99999,-99999,-99999,-99999,-99999,0.023586,0.026774,0.023361,0.029622
201724,1991-01-28T18:00:53.158000Z,A91051B2,5.89,0.08,Crustal,S,1,48,77,11,special,-41.9,171.67,-41.7557,171.5998,5922133.85,2399635.78,5938069,2393545,8.1,8.1,17.07,20.86,15.62,17.84,-15.01,6.14,0,12,8.05,fw,WBCS,D,300,Q3,1.2,Q2,105,Q3,0,-99999,-99999,1,0.3,20,0.51,20,Anderson_etal_1993&Dowrick_Rhoades1998&HarvardCMT,0.14750382,0.150166577,0.155093232,0.161950499,0.181712977,0.331647789,0.508933395,0.307528367,0.329628662,0.2816656,0.22544126,0.15766251,0.189821918,0.198755035,0.117940905,0.065523114,-99999,-99999,-99999,-99999,-99999,-99999,0.163623983,0.165193645,0.167774236,0.170758983,0.194143728,0.354200851,0.608170175,0.4239176,0.346380046,0.318064109,0.313426856,0.17436038,0.226209788,0.278764833,0.162273154,0.08685829,-99999,-99999,-99999,-99999,-99999,-99999,0.146803,0.16229,0.090179,0.110719
201724,1991-01-28T18:00:53.158000Z,A91052A2,5.89,0.08,Crustal,S,1,48,77,11,special,-41.9,171.67,-42.1166,171.8604,5922133.85,2399635.78,5898305,2415760,8.1,8.1,28.77,31.24,27.75,30.62,29.41,-3.96,0,12,8.05,hw,052A,C,333,Q3,0.3,Q3,30,Q3,0,-99999,-99999,1,0.5,35,0.85,35,Anderson_etal_1993&Dowrick_Rhoades1998&HarvardCMT,0.173629638,0.17899947,0.20183131,0.304716911,0.344507129,0.421761165,0.644433975,0.354105747,0.287487977,0.237462126,0.207251193,0.099303426,0.062313279,0.051435283,0.037631562,-99999,-99999,-99999,-99999,-99999,-99999,-99999,0.182671182,0.193066989,0.21801698,0.338699354,0.402454073,0.541857032,0.8803422,0.377437838,0.320925247,0.280843849,0.231857656,0.119439293,0.0716803,0.071855843,0.049177535,-99999,-99999,-99999,-99999,-99999,-99999,-99999,0.172849,0.182562,0.048354,0.054283
201724,1991-01-28T18:00:53.158000Z,A91083A2,5.89,0.08,Crustal,S,1,48,77,11,special,-41.9,171.67,-41.8311,171.6606,5922133.85,2399635.78,5929772,2398735,8.1,8.1,7.7,14.26,5.85,10.38,-5.37,4.44,0,12,8.05,fw,083A,B,1200,Q3,<0.1,Q3,0,Q2,0,-99999,-99999,1,1,35,1.7,35,Anderson_etal_1993&Dowrick_Rhoades1998&HarvardCMT,0.14293802,0.153983324,0.202484025,0.257510823,0.324004752,0.476717415,0.316097354,0.28347959,0.221377719,0.146820101,0.134353042,0.068809565,0.049468632,-99999,-99999,-99999,-99999,-99999,-99999,-99999,-99999,-99999,0.20194297,0.216153712,0.26611973,0.314232282,0.377479096,0.667883569,0.427493432,0.326469643,0.236313882,0.184563163,0.184806422,0.094303695,0.055303686,-99999,-99999,-99999,-99999,-99999,-99999,-99999,-99999,-99999,0.14279,0.201932,0.029918,0.038692
201724,1991-01-28T18:00:53.158000Z,A91090A2,5.89,0.08,Crustal,S,1,48,77,11,special,-41.9,171.67,-41.8553,171.9539,5922133.85,2399635.78,5927428,2423132,8.1,8.1,24.03,26.94,20.56,23.59,12.7,21,0,12,8.05,nu,090A,C,270,Q3,0.33,Q3,40,Q3,0,-99999,-99999,1,0.3,20,0.51,20,Anderson_etal_1993&Dowrick_Rhoades1998&HarvardCMT,0.166900467,0.167443223,0.168362595,0.171925041,0.182512755,0.189125802,0.256153392,0.301112482,0.52544725,0.475255496,0.349687293,0.546349797,0.292011032,0.239392053,0.174299644,0.06077103,-99999,-99999,-99999,-99999,-99999,-99999,0.185607263,0.186093636,0.186854708,0.188264405,0.193520938,0.198920782,0.28899643,0.329709034,0.589711949,0.530500912,0.484651428,0.734241287,0.411547175,0.308950453,0.232359306,0.076938934,-99999,-99999,-99999,-99999,-99999,-99999,0.16676,0.185405,0.123361,0.148819
201724,1991-01-28T18:00:53.158000Z,A91122A2,5.89,0.08,Crustal,S,1,48,77,11,special,-41.9,171.67,-41.8025,172.3248,5922133.85,2399635.78,5933606,2453884,8.1,8.1,55.31,56.76,51.82,53.36,28.68,47.99,0,12,8.05,nu,122A,D,500,Q3,1.6,Q3,250,Q3,0,-99999,-99999,1,0.3,33,0.51,33,Anderson_etal_1993&Dowrick_Rhoades1998&HarvardCMT,0.260920665,0.292726079,0.416779264,0.556229187,0.506072379,0.396441327,0.595177364,0.856877454,0.464636745,0.396466938,0.396318797,0.241087137,0.208964516,0.121130446,0.078593266,0.038684806,-99999,-99999,-99999,-99999,-99999,-99999,0.320214171,0.339666792,0.461009403,0.760924698,0.665703762,0.541725422,0.736507956,1.014177511,0.622165925,0.514921473,0.450300347,0.331657586,0.293389357,0.15502652,0.085114719,0.044088432,-99999,-99999,-99999,-99999,-99999,-99999,0.259538,0.310917,0.0751,0.09991
201724,1991-01-28T18:00:53.158000Z,D91042A4,5.89,0.08,Crustal,S,1,48,77,11,special,-41.9,171.67,-42.5232,172.8305,5922133.85,2399635.78,5853765,2496076,8.1,8.1,118.06,118.86,116.84,117.93,116.25,25.92,0,12,8.05,nu,HSES,D,280,Q3,0.9,Q1,85,Q3,0,-99999,-99999,0,0.3,12,0.51,12,Anderson_etal_1993&Dowrick_Rhoades1998&HarvardCMT,0.027225268,0.027272284,0.027357449,0.027483373,0.027671808,0.02850019,0.031576262,0.041356299,0.04969804,0.054717457,0.070446568,0.06178106,0.061501634,0.102631325,0.046234146,0.021316777,-99999,-99999,-99999,-99999,-99999,-99999,0.030576996,0.030610568,0.030630923,0.030667018,0.030923428,0.03257636,0.035149001,0.051115056,0.06273419,0.068413027,0.082255188,0.081472574,0.080337168,0.144519463,0.063614187,0.02803484,-99999,-99999,-99999,-99999,-99999,-99999,0.027216,0.030578,0.029481,0.035726
201354,1991-02-15T10:48:09.669000Z,A91051B3,5.42,0.15,Crustal,R,0,213,37,90,geonet,-42.0386,171.5897,-41.7557,171.5998,5906631.78,2393229.54,5938069,2393545,4.7,4.7,31.47,32.19,29.3,30.05,-99999,-99999,0,6.92,5.27,nu,WBCS,D,300,Q3,1.2,Q2,105,Q3,0,-99999,-99999,1,0.3,22,0.51,22,HarvardCMT,0.097936867,0.099330696,0.101768859,0.110998953,0.148587811,0.337280544,0.203332954,0.272333162,0.182896425,0.111542824,0.133134185,0.106959569,0.106964943,0.101612322,0.046408508,0.039269323,-99999,-99999,-99999,-99999,-99999,-99999,0.119272455,0.122747119,0.128713102,0.136304368,0.197960693,0.430525977,0.2859487,0.353859259,0.258662092,0.135894571,0.165867263,0.122542661,0.13563957,0.107991748,0.059684942,0.050988151,-99999,-99999,-99999,-99999,-99999,-99999,0.09661,0.119132,0.037472,0.047378
201354,1991-02-15T10:48:09.669000Z,A91052A3,5.42,0.15,Crustal,R,0,213,37,90,geonet,-42.0386,171.5897,-42.1166,171.8604,5906631.78,2393229.54,5898305,2415760,4.7,4.7,23.97,25.04,22.28,23.52,-99999,-99999,0,6.92,5.27,nu,052A,C,333,Q3,0.3,Q3,30,Q3,0,-99999,-99999,0,0.5,32,0.85,32,HarvardCMT,0.159467701,0.162967647,0.183037782,0.239357606,0.306913664,0.410729142,0.455689036,0.44458811,0.365414389,0.245942622,0.177717316,0.101664698,0.078837896,0.057270857,0.034811339,-99999,-99999,-99999,-99999,-99999,-99999,-99999,0.191408586,0.194906025,0.204885161,0.264192,0.334699631,0.458693524,0.58989891,0.570337275,0.423959943,0.286497387,0.201729135,0.12422313,0.100350304,0.070326436,0.048970656,-99999,-99999,-99999,-99999,-99999,-99999,-99999,0.159601,0.19139,0.046705,0.056129
201354,1991-02-15T10:48:09.669000Z,A91090A3,5.42,0.15,Crustal,R,0,213,37,90,geonet,-42.0386,171.5897,-41.8553,171.9539,5906631.78,2393229.54,5927428,2423132,4.7,4.7,36.37,37.09,34.1,34.84,-99999,-99999,0,6.92,5.27,nu,090A,C,270,Q3,0.33,Q3,40,Q3,0,-99999,-99999,1,0.45,13,0.765,13,HarvardCMT,0.080306889,0.08070473,0.081365963,0.082329378,0.083697903,0.08932567,0.096179062,0.15784827,0.194146634,0.233043672,0.180366491,0.135497229,0.110576576,0.056290289,0.027651949,-99999,-99999,-99999,-99999,-99999,-99999,-99999,0.107702745,0.108187096,0.108972617,0.110105715,0.111626125,0.117684001,0.131763211,0.223264468,0.252203599,0.316998723,0.247841341,0.165097087,0.136495525,0.07255986,0.033646287,-99999,-99999,-99999,-99999,-99999,-99999,-99999,0.080027,0.10772,0.042587,0.057742
241414,1991-07-12T04:42:23.301999Z,D91302A4,5.3,0.15,Slab,S,1,135,57,25,geonet,-39.3052,175.9748,-39.9338,175.053,6206777.74,2766544.08,6139282,2685450,4.1,4.1,105.45,126.78,104.32,126.64,106.19,-9.62,0,70.28,68.56,nu,302A,D,250,Q2,0.8,Q3,80,Q3,0,-99999,-99999,1,0.3,12,0.51,12,HarvardCMT,0.017612034,0.017674002,0.017788904,0.017906651,0.018101438,0.019007414,0.025040099,0.027571582,0.027665432,0.041556568,0.042629291,0.043806427,0.031578329,0.028524666,0.016924392,0.006623964,-99999,-99999,-99999,-99999,-99999,-99999,0.019829449,0.019903166,0.020051366,0.020236421,0.020524041,0.0218136,0.027054254,0.034188539,0.034563039,0.049624723,0.044839655,0.055220807,0.04135463,0.038323219,0.023910873,0.008846694,-99999,-99999,-99999,-99999,-99999,-99999,0.01761,0.019802,0.015326,0.018936
255338,1991-09-08T13:50:30.989999Z,A92087A4,5.61,0.15,Slab,R,1,95,70,108,geonet,-40.2442,175.1672,-39.7163,175.1455,6104594.2,2694363.31,6163232,2693941,5.9,5.9,58.73,104.69,57.7,101.84,-57.37,-5.53,0,86.69,83.93,nu,087A,B,1000,Q3,<0.1,Q3,0,Q2,0,-99999,-99999,1,0.6,27,1.02,27,HarvardCMT,0.142831079,0.146271363,0.153920661,0.175707397,0.189268415,0.276652741,0.333557267,0.498878029,0.328273753,0.273751699,0.216128277,0.252522453,0.12536008,0.052482217,-99999,-99999,-99999,-99999,-99999,-99999,-99999,-99999,0.165838972,0.168548112,0.174863739,0.200808844,0.216887962,0.301071994,0.402425461,0.664557253,0.375749506,0.365769148,0.245205321,0.298748668,0.166320866,0.063892125,-99999,-99999,-99999,-99999,-99999,-99999,-99999,-99999,0.138426,0.165445,0.052495,0.059593
255338,1991-09-08T13:50:30.989999Z,D91302A5,5.61,0.15,Slab,R,1,95,70,108,geonet,-40.2442,175.1672,-39.9338,175.053,6104594.2,2694363.31,6139282,2685450,5.9,5.9,35.86,93.81,34.54,90.88,-32.78,-11.9,0,86.69,83.93,nu,302A,D,250,Q2,0.8,Q3,80,Q3,0,-99999,-99999,0,0.35,20,0.595,20,HarvardCMT,0.099131353,0.100153332,0.10184418,0.106396843,0.126710711,0.155132515,0.221301928,0.227996619,0.267859614,0.309548711,0.234741749,0.182694937,0.173415965,0.077477389,0.051422947,0.013772452,-99999,-99999,-99999,-99999,-99999,-99999,0.102972361,0.104363697,0.107694574,0.115770668,0.136378536,0.196050188,0.27826531,0.241515229,0.378773106,0.405234298,0.291861886,0.254266453,0.238377856,0.092642297,0.063882726,0.019215477,-99999,-99999,-99999,-99999,-99999,-99999,0.098958,0.102989,0.049331,0.058808
