CuspID,Origin_time,Record,Mw,MwUncert,TectClass,Mech,PreferredFaultPlane,Strike,Dip,Rake,Location,HypLat,HypLon,StationLat,StationLon,HypN,HypE,StationN,StationE,LENGTH_km,WIDTH_km,Repi_km,Rhyp_km,Rjb_km,Rrup_km,Rx_km,Ry_km,Rvol_km,HypDepth_km,ZTOR_km,HWFW,SiteCode,SiteClass1170,Vs30,Vs30Uncert,Tsite,TsiteUncert,Z1,Z1Uncertainty,Directivity,Pulse_or,Pulse_T,S_Trigger_Flag,fcButterHP,f_iniLP,fmin,fmax,References,f100.0000SA_RotD50,f50.0000SA_RotD50,f33.3333SA_RotD50,f25.0000SA_RotD50,f20.0000SA_RotD50,f13.3333SA_RotD50,f10.0000SA_RotD50,f6.6667SA_RotD50,f5.0000SA_RotD50,f4.0000SA_RotD50,f3.3333SA_RotD50,f2.5000SA_RotD50,f2.0000SA_RotD50,f1.3333SA_RotD50,f1.0000SA_RotD50,f0.6667SA_RotD50,f0.5000SA_RotD50,f0.3333SA_RotD50,f0.2500SA_RotD50,f0.2000SA_RotD50,f0.1333SA_RotD50,f0.1000SA_RotD50,f100.0000SA_RotD100,f50.0000SA_RotD100,f33.3333SA_RotD100,f25.0000SA_RotD100,f20.0000SA_RotD100,f13.3333SA_RotD100,f10.0000SA_RotD100,f6.6667SA_RotD100,f5.0000SA_RotD100,f4.0000SA_RotD100,f3.3333SA_RotD100,f2.5000SA_RotD100,f2.0000SA_RotD100,f1.3333SA_RotD100,f1.0000SA_RotD100,f0.6667SA_RotD100,f0.5000SA_RotD100,f0.3333SA_RotD100,f0.2500SA_RotD100,f0.2000SA_RotD100,f0.1333SA_RotD100,f0.1000SA_RotD100,PGA_RotD50,PGA_RotD100,PGV_RotD50,PGV_RotD100
1553782,1971-08-13T14:42:41.636000Z,A71053A1,5.7,0.15,Crustal,S,1,242,83,207,special,-42.13,172.1,-42.3786,172.3329,5897058.69,2435589.3,5869623,2455066,6.51,6.51,33.64,34.99,33.13,33.79,-32.97,-4.32,0,9,5.77,fw,053A,C,391,Q3,0.27,Q3,20,Q3,0,-99999,-99999,1,0.4,18,0.68,18,Anderson_etal_1993&Dowrick_Rhoades_1998,0.056133848,0.056595242,0.057271086,0.058037677,0.058750512,0.057549405,0.05803344,0.063770545,0.062752627,0.061691609,0.059830033,0.051054311,0.041308046,0.026849891,0.019045375,-99999,-99999,-99999,-99999,-99999,-99999,-99999,0.070789271,0.071118969,0.071583834,0.072269089,0.07363791,0.075986072,0.075591583,0.070306217,0.070761746,0.072355413,0.075644338,0.067475973,0.056010373,0.036599491,0.024318081,-99999,-99999,-99999,-99999,-99999,-99999,-99999,0.056127,0.07071,0.042573,0.053299
1556608,1975-06-10T10:11:17.094000Z,K75301A2,5.62,0.15,Slab,N,1,250,56,257,special,-40.34,175.93,-40.3553,175.6152,6092087.55,2758882.27,6091232,2732094,5.9,5.9,26.73,46.53,23.88,44.21,10.02,25.47,0,38,35.54,nu,301A,D,341,Q3,0.7,Q2,60,Q3,0,-99999,-99999,1,0.4,19,0.68,19,Webb_Anderson_1998&Dowrick_Rhoades1998,0.037880133,0.03825769,0.038890992,0.040106559,0.041102471,0.043550097,0.045226703,0.041449307,0.034149502,0.033627396,0.032064284,0.027023633,0.024320002,0.01618026,0.010184149,-99999,-99999,-99999,-99999,-99999,-99999,-99999,0.043907797,0.044107006,0.044584152,0.045172997,0.045795077,0.047588571,0.048693129,0.048732361,0.047933871,0.046996422,0.044677135,0.037683109,0.031854807,0.022451673,0.013771012,-99999,-99999,-99999,-99999,-99999,-99999,-99999,0.037864,0.043987,0.023645,0.030684
1556608,1975-06-10T10:11:17.094000Z,K75340A1,5.62,0.15,Slab,N,1,250,56,257,special,-40.34,175.93,-40.3863,175.6165,6092087.55,2758882.27,6087788,2732102,5.9,5.9,27.06,46.71,24.14,44.26,6.78,26.64,0,38,35.54,nu,340A,D,283,Q3,0.96,Q3,90,Q3,0,-99999,-99999,1,0.65,18,1.105,18,Webb_Anderson_1998&Dowrick_Rhoades1998,0.049326139,0.049475271,0.049955455,0.050385157,0.050777344,0.053031406,0.055372842,0.057675888,0.057800611,0.053225356,0.043831403,0.034035323,0.025032652,0.014556898,-99999,-99999,-99999,-99999,-99999,-99999,-99999,-99999,0.063137675,0.063633414,0.064151916,0.064765705,0.065868914,0.068913062,0.071262341,0.071011584,0.065929045,0.059573805,0.056017538,0.040901288,0.029048622,0.017509611,-99999,-99999,-99999,-99999,-99999,-99999,-99999,-99999,0.049392,0.063153,0.024416,0.028186
1557438,1976-05-04T13:56:29.201000Z,A76080B1,6.51,0.15,Interface,O,1,48,47,130,special,-44.67,167.45,-44.6729,167.9264,5600506.59,2070223.23,5602634,2107939,22.44,22.44,37.67,39.08,27.88,31.04,31.31,29.45,0,10,1.79,nu,080B,C,210,Q3,0.57,Q3,30,Q3,0,-99999,-99999,1,0.2,29,0.34,29,Anderson_etal_1993&Dowrick_Rhoades_1998,0.088130221,0.088605094,0.089186768,0.089150015,0.088537019,0.088188999,0.089872106,0.09377802,0.097960842,0.103292217,0.108136004,0.109373041,0.100754535,0.059939823,0.036657976,0.017896812,0.010748929,-99999,-99999,-99999,-99999,-99999,0.098349323,0.098668785,0.099643069,0.100426143,0.100747897,0.10104235,0.101236028,0.110523709,0.116334907,0.119945519,0.125774892,0.130066622,0.122391239,0.078221359,0.047859397,0.025206684,0.013819674,-99999,-99999,-99999,-99999,-99999,0.087882,0.098438,0.089847,0.115009
1557438,1976-05-04T13:56:29.201000Z,K76070A1,6.51,0.15,Interface,O,1,48,47,130,special,-44.67,167.45,-45.4167,167.7191,5600506.59,2070223.23,5519112,2096857,22.44,22.44,85.68,86.25,77.38,79.21,85.96,-34.67,0,10,1.79,nu,TAFS,D,298,Q3,1.4,Q3,200,Q3,0,-99999,-99999,1,0.28,11,0.476,11,Anderson_etal_1993&Dowrick_Rhoades_1998,0.024396805,0.024458976,0.024549582,0.024702737,0.024896394,0.025923806,0.027101573,0.027109877,0.027769538,0.028718202,0.028404147,0.025422431,0.023382326,0.019838003,0.017081961,0.01267762,0.00833123,-99999,-99999,-99999,-99999,-99999,0.02949344,0.029578317,0.029709574,0.029900772,0.030181886,0.03156868,0.03317054,0.032874678,0.032038071,0.032469462,0.032196539,0.027878137,0.027447345,0.02657514,0.020675438,0.01391811,0.009918063,-99999,-99999,-99999,-99999,-99999,0.024409,0.029457,0.031912,0.037482
1557438,1976-05-04T13:56:29.201000Z,K76089A1,6.51,0.15,Interface,O,1,48,47,130,special,-44.67,167.45,-44.6946,169.143,5600506.59,2070223.23,5605452,2204373,22.44,22.44,133.87,134.63,124.04,125.19,93.74,103,0,10,1.79,nu,WNPS,D,330,Q3,2.1,Q3,300,Q3,0,-99999,-99999,1,0.25,15,0.425,15,Anderson_etal_1993&Dowrick_Rhoades_1998,0.031016478,0.031118857,0.031165611,0.031229396,0.031487852,0.032315268,0.033512651,0.035427761,0.037942013,0.038309504,0.03710046,0.033977941,0.032513577,0.026388281,0.0217531,0.017301161,0.011708202,-99999,-99999,-99999,-99999,-99999,0.039743939,0.039796548,0.039960816,0.040138416,0.04026669,0.040509384,0.04136996,0.044369604,0.04340553,0.041008623,0.039011507,0.036744295,0.036057074,0.032139488,0.0250737,0.01936866,0.013074124,-99999,-99999,-99999,-99999,-99999,0.031017,0.039762,0.04426,0.048661
1558224,1977-01-18T05:41:48.207000Z,A77048C1,6.02,0.15,Slab,R,1,213,68,251,special,-41.73,174.3,-41.5138,173.9572,5941084.19,2618142.66,5965463,2589883,9.4,9.4,37.28,50.49,35.45,48.97,38.74,-5.05,0,34,29.64,nu,048C,D,235,Q3,0.9,Q3,64,Q3,0,-99999,-99999,1,0.4,13,0.68,13,Webb_Anderson_1998&Dowrick_Rhoades1998,0.03699722,0.037073783,0.037193219,0.037433823,0.037756614,0.039052792,0.040479021,0.043168795,0.046547435,0.046627348,0.04233692,0.031143856,0.026389503,0.018785033,0.012697521,-99999,-99999,-99999,-99999,-99999,-99999,-99999,0.041464998,0.041574551,0.041855599,0.042184907,0.042554747,0.043984398,0.04551661,0.047533554,0.049230424,0.050346039,0.047486283,0.03356022,0.029368859,0.020298593,0.01555447,-99999,-99999,-99999,-99999,-99999,-99999,-99999,0.036924,0.041508,0.022251,0.027174
1558224,1977-01-18T05:41:48.207000Z,A77601A1,6.02,0.15,Slab,R,1,213,68,251,special,-41.73,174.3,-41.2263,174.8719,5941084.19,2618142.66,5996147,2666912,9.4,9.4,73.53,81.03,68.88,76.33,-9.15,-72.74,0,34,29.64,nu,601A,D,161,Q3,2.3,Q3,297,Q3,0,-99999,-99999,1,0.4,20,0.68,20,Webb_Anderson_1998&Dowrick_Rhoades1998,0.043720857,0.043950095,0.044307437,0.044577231,0.044913013,0.045918752,0.048211488,0.051341585,0.050816281,0.046050056,0.039291655,0.034383208,0.028204848,0.020737864,0.0131818,-99999,-99999,-99999,-99999,-99999,-99999,-99999,0.055665099,0.056004014,0.056551232,0.057239524,0.058028702,0.061026422,0.064531249,0.067450704,0.066222288,0.059262052,0.050687954,0.037660802,0.034979592,0.02252551,0.0145628,-99999,-99999,-99999,-99999,-99999,-99999,-99999,0.043685,0.055421,0.023094,0.026097
1558224,1977-01-18T05:41:48.207000Z,A77902A1,6.02,0.15,Slab,R,1,213,68,251,special,-41.73,174.3,-41.2776,174.7793,5941084.19,2618142.66,5990617,2659034,9.4,9.4,64.22,72.68,59.54,67.99,-5.56,-63.81,0,34,29.64,nu,902A,D,275,Q2,1.25,Q2,1.32E+02,Q2,0,-99999,-99999,1,0.5,20,0.85,20,Webb_Anderson_1998&Dowrick_Rhoades1998,0.081956879,0.082322106,0.082711838,0.083003683,0.084054143,0.086034136,0.092644083,0.101620301,0.102540888,0.099847926,0.092359575,0.077520116,0.062121816,0.031407454,0.016887119,-99999,-99999,-99999,-99999,-99999,-99999,-99999,0.112070272,0.112465887,0.113143184,0.114169986,0.115765601,0.119893636,0.127083314,0.134367984,0.132904161,0.135186022,0.130395515,0.108594494,0.085975866,0.043967386,0.023242177,-99999,-99999,-99999,-99999,-99999,-99999,-99999,0.081898,0.112007,0.047444,0.060139
1558224,1977-01-18T05:41:48.207000Z,A77907A1,6.02,0.15,Slab,R,1,213,68,251,special,-41.73,174.3,-41.2788,174.7785,5941084.19,2618142.66,5990481,2658964,9.4,9.4,64.07,72.55,59.39,67.86,-5.57,-63.66,0,34,29.64,nu,907A,D,250,Q2,1.2,Q2,116,Q2,0,-99999,-99999,1,0.47,18,0.799,18,Webb_Anderson_1998&Dowrick_Rhoades1998,0.079731909,0.079915291,0.080230272,0.080699994,0.0813569,0.085436579,0.089838456,0.096206899,0.097163919,0.090553903,0.083221472,0.072989501,0.062359928,0.032026732,0.017436129,-99999,-99999,-99999,-99999,-99999,-99999,-99999,0.088795915,0.088936624,0.089309505,0.089822766,0.09044992,0.092786571,0.098912548,0.105601978,0.108894082,0.111132968,0.107113687,0.089949829,0.07181909,0.037876039,0.023129125,-99999,-99999,-99999,-99999,-99999,-99999,-99999,0.079581,0.088573,0.052515,0.058943
1558224,1977-01-18T05:41:48.207000Z,A77911A1,6.02,0.15,Slab,R,1,213,68,251,special,-41.73,174.3,-41.2886,174.7769,5941084.19,2618142.66,5989396,2658808,9.4,9.4,63.13,71.72,58.46,67.03,-6.03,-62.67,0,34,29.64,nu,911A,C,358,Q2,0.29,Q2,1.85E+01,Q2,0,-99999,-99999,1,0.6,19,1.02,19,Webb_Anderson_1998&Dowrick_Rhoades1998,0.060008174,0.06010518,0.060377414,0.060686632,0.061026526,0.062906399,0.064630203,0.067445253,0.068451184,0.069686472,0.068701957,0.05554106,0.040752246,0.018430899,-99999,-99999,-99999,-99999,-99999,-99999,-99999,-99999,0.075221984,0.075306611,0.075634217,0.075938356,0.076132518,0.077412238,0.078864207,0.081452644,0.08615549,0.090904053,0.088642901,0.074343028,0.057562544,0.026068234,-99999,-99999,-99999,-99999,-99999,-99999,-99999,-99999,0.060043,0.074911,0.030987,0.042595
1558224,1977-01-18T05:41:48.207000Z,A77912A1,6.02,0.15,Slab,R,1,213,68,251,special,-41.73,174.3,-41.3264,174.809,5941084.19,2618142.66,5985141,2661416,9.4,9.4,61.72,70.5,57.11,65.8,-10.54,-60.52,0,34,29.64,nu,WNAS,D,239,Q2,0.78,Q2,64,Q2,0,-99999,-99999,0,0.45,24.5,0.765,24.5,Webb_Anderson_1998&Dowrick_Rhoades1998,0.052516003,0.053098985,0.054198819,0.055941211,0.057479165,0.062845559,0.063837984,0.056287435,0.050384865,0.044808237,0.038479361,0.028975511,0.025749252,0.017696517,0.011055396,-99999,-99999,-99999,-99999,-99999,-99999,-99999,0.067810324,0.068809538,0.070601309,0.073816934,0.078800799,0.087677708,0.090068856,0.077087507,0.058934851,0.04839262,0.041461771,0.032347409,0.027151278,0.020735358,0.011947232,-99999,-99999,-99999,-99999,-99999,-99999,-99999,0.052681,0.067417,0.023664,0.029786
1558224,1977-01-18T05:41:48.207000Z,A77913A1,6.02,0.15,Slab,R,1,213,68,251,special,-41.73,174.3,-41.2875,174.7727,5941084.19,2618142.66,5989525,2658459,9.4,9.4,63.01,71.61,58.34,66.93,-5.67,-62.58,0,34,29.64,nu,913A,B,1000,Q3,<0.1,Q3,2,Q2,0,-99999,-99999,1,0.35,21,0.595,21,Webb_Anderson_1998&Dowrick_Rhoades1998,0.052436416,0.053051414,0.053856145,0.05522912,0.056666126,0.058980449,0.059431816,0.064627412,0.057355538,0.051864873,0.04886882,0.037579727,0.030024795,0.015070888,0.008095954,0.004034056,-99999,-99999,-99999,-99999,-99999,-99999,0.070525247,0.0709895,0.071544502,0.072219141,0.073464862,0.078806292,0.08186754,0.079514655,0.076970906,0.070533741,0.058839648,0.044059145,0.033237698,0.018825965,0.010083143,0.004500657,-99999,-99999,-99999,-99999,-99999,-99999,0.052221,0.070372,0.02514,0.032603
1558224,1977-01-18T05:41:48.207000Z,A77914A1,6.02,0.15,Slab,R,1,213,68,251,special,-41.73,174.3,-41.295,174.7735,5941084.19,2618142.66,5988691,2658509,9.4,9.4,62.4,76.37,57.73,71.7,-6.16,-61.91,0,34,29.64,nu,914B,D,282,Q2,0.61,Q2,4.65E+01,Q2,0,-99999,-99999,1,0.7,24.5,1.19,24.5,Webb_Anderson_1998&Dowrick_Rhoades1998,0.069219672,0.069464948,0.070182159,0.071380291,0.073048297,0.07608655,0.080531252,0.084496091,0.085794865,0.079114859,0.071506163,0.055477037,0.046068539,0.024362479,-99999,-99999,-99999,-99999,-99999,-99999,-99999,-99999,0.092073884,0.09232892,0.093017694,0.094466433,0.096347286,0.101652198,0.10919441,0.114299403,0.103227623,0.091902343,0.083250153,0.06511288,0.050833503,0.026049292,-99999,-99999,-99999,-99999,-99999,-99999,-99999,-99999,0.068777,0.092105,0.039386,0.043406
1558224,1977-01-18T05:41:48.207000Z,A77916A1,6.02,0.15,Slab,R,1,213,68,251,special,-41.73,174.3,-41.2941,174.7757,5941084.19,2618142.66,5988787,2658695,9.4,9.4,62.59,71.26,57.93,66.57,-6.27,-62.09,0,34,29.64,nu,916A,D,291,Q2,0.8,Q2,8.54E+01,Q2,0,-99999,-99999,1,0.55,17,0.935,17,Webb_Anderson_1998&Dowrick_Rhoades1998,0.047379041,0.047708349,0.048212217,0.048783261,0.049688873,0.052326344,0.052177337,0.051025543,0.04982422,0.049149878,0.046276505,0.038271097,0.030542424,0.017807834,0.011727807,-99999,-99999,-99999,-99999,-99999,-99999,-99999,0.059239594,0.059753981,0.060433268,0.061330921,0.062525536,0.066854201,0.070358809,0.069940908,0.061823132,0.056888734,0.055565953,0.050147763,0.040197847,0.024005045,0.012722018,-99999,-99999,-99999,-99999,-99999,-99999,-99999,0.047512,0.059028,0.027303,0.035633
1561001,1980-06-23T16:45:19.942000Z,K80087C1,5.49,0.15,Slab,R,1,49,87,101,nlloc,-39.8738,175.576,-39.7171,175.1382,6144762.72,2730330.66,6163158,2693314,5.1,5.1,41.27,96.17,40.35,93.78,-38.03,-15.87,0,86.8,84.25,nu,087C,C,425,Q3,0.33,Q3,30,Q3,0,-99999,-99999,1,0.7,18,1.19,18,HarvardCMT,0.097305736,0.097723216,0.098295755,0.098951434,0.099808632,0.101387425,0.104623685,0.110177521,0.112154988,0.108663323,0.103372088,0.090221499,0.076212156,0.040748471,-99999,-99999,-99999,-99999,-99999,-99999,-99999,-99999,0.109870166,0.110168166,0.110607304,0.111183555,0.11198714,0.114789929,0.118060662,0.121919355,0.123365591,0.117413349,0.111537218,0.099717086,0.084322038,0.046599422,-99999,-99999,-99999,-99999,-99999,-99999,-99999,-99999,0.096925,0.109994,0.059819,0.06454
1561256,1980-10-05T15:32:49.243000Z,S80027C1,5.66,0.15,Slab,N,0,235,45,-5.20E+01,geonet,-39.72,176.87,-39.5046,176.896,6157802.95,2841693.87,6181602,2844964,6.2,6.2,24.06,38.47,21.18,36.39,-99999,-99999,0,30,27.61,nu,027C,E,150,Q3,1.7,Q3,200,Q3,0,-99999,-99999,1,0.43,19,0.731,19,HarvardCMT,0.136696596,0.137320933,0.137965643,0.1384608,0.139826583,0.151389222,0.164884573,0.18260524,0.167435744,0.15033436,0.138082527,0.104813116,0.075673009,0.039641453,0.030857444,-99999,-99999,-99999,-99999,-99999,-99999,-99999,0.156668906,0.156995315,0.157828622,0.159107773,0.160831225,0.169330947,0.179529406,0.202808256,0.204530196,0.185118534,0.157037768,0.115044838,0.098127332,0.055141516,0.036899724,-99999,-99999,-99999,-99999,-99999,-99999,-99999,0.136702,0.155901,0.066808,0.091566
1563250,1982-09-02T15:58:54.183999Z,S82032A1,5.46,0.15,Slab,N,0,76,32,-3.80E+01,nlloc,-39.7432,176.995,-39.9425,176.5874,6154756.79,2852286.05,6134136,2816486,4.9,4.9,41.25,56.9,39.07,55.11,-99999,-99999,0,38.98,37.16,nu,032A,C,495,Q3,0.13,Q3,10,Q3,0,-99999,-99999,1,0.6,16,1.02,16,HarvardCMT,0.077493533,0.078000275,0.07868945,0.079858834,0.0816504,0.086555419,0.091805511,0.092638271,0.079357589,0.069598086,0.061880504,0.04527521,0.037403408,0.017180713,-99999,-99999,-99999,-99999,-99999,-99999,-99999,-99999,0.091402579,0.091778176,0.092436519,0.093353985,0.094675954,0.100557611,0.107675149,0.119196411,0.110332424,0.088932551,0.071892194,0.060155935,0.041700351,0.024288854,-99999,-99999,-99999,-99999,-99999,-99999,-99999,-99999,0.077398,0.091552,0.036493,0.047274
1567345,1985-07-19T14:33:59.829999Z,A86018A1,5.97,0.08,Slab,N,1,213,73,255,special,-38.72,177.3,-38.6665,178.0227,6267008.8,2883855.15,6269685,2946952,11,11,63,70.36,59.68,65.91,-49.85,-36.61,0,31,25.74,nu,GISS,D,138,Q2,1,Q1,40,Q3,0,-99999,-99999,1,0.46,11,0.782,11,Webb_Anderson_1998&Dowrick_Rhoades1998&HarvardCMT,0.077325051,0.077460015,0.077687879,0.078041463,0.078527254,0.080300933,0.082748934,0.0848979,0.085178243,0.085254135,0.083258978,0.081852733,0.073642595,0.055825173,0.042569476,-99999,-99999,-99999,-99999,-99999,-99999,-99999,0.094478311,0.094599683,0.094763307,0.095095217,0.095522067,0.097007874,0.098730488,0.098584365,0.100820937,0.103268579,0.108746833,0.110947662,0.099885188,0.06384327,0.051090404,-99999,-99999,-99999,-99999,-99999,-99999,-99999,0.077059,0.09437,0.067476,0.081824
16899,1988-06-03T23:27:54.351999Z,A88070A1,6.69,0.08,Slab,R,1,310,86,118,special,-45.1,167.17,-45.4167,167.7191,5551299.74,2051472.44,5519112,2096857,25,55,55.56,81.99,43.13,61.55,6.43,-55.46,0,60,32.57,nu,TAFS,D,298,Q3,1.4,Q3,200,Q3,0,-99999,-99999,1,0.2,22,0.34,22,Robinson_etal_2003&Dowrick_Rhoades1998&HarvardCMT&Reyners_etal1991,0.097854668,0.098072966,0.098410395,0.098829427,0.099091465,0.100256017,0.103121662,0.112810501,0.117071494,0.11381684,0.105681238,0.089975537,0.082459162,0.064520141,0.048489069,0.039617264,0.028540514,-99999,-99999,-99999,-99999,-99999,0.110055087,0.11044336,0.110935811,0.1114117,0.112084125,0.115193049,0.118368387,0.12510317,0.126159973,0.122385889,0.119997651,0.103444486,0.094299299,0.07290049,0.057638508,0.044524085,0.037227814,-99999,-99999,-99999,-99999,-99999,0.097738,0.110206,0.094318,0.104734
16899,1988-06-03T23:27:54.351999Z,A88089A1,6.69,0.08,Slab,R,1,310,86,118,special,-45.1,167.17,-44.6946,169.143,5551299.74,2051472.44,5605452,2204373,25,55,161.81,173.05,155.62,164.27,141.68,-82.32,0,60,32.57,nu,WNPS,D,330,Q3,2.1,Q3,300,Q3,0,-99999,-99999,1,0.21,18,0.357,18,Robinson_etal_2003&Dowrick_Rhoades1998&HarvardCMT&Reyners_etal1991,0.033921165,0.034110426,0.034328964,0.034487395,0.034786417,0.035532877,0.036601445,0.039731651,0.040017686,0.037287,0.033875725,0.02928443,0.028856011,0.027375075,0.024639929,0.016822854,0.011744124,-99999,-99999,-99999,-99999,-99999,0.040686224,0.040854237,0.041124471,0.041538761,0.041961259,0.043692795,0.046539071,0.04931338,0.048294302,0.044906382,0.040073617,0.032378778,0.031476249,0.033413004,0.028833215,0.017611635,0.01245324,-99999,-99999,-99999,-99999,-99999,0.033813,0.040656,0.043268,0.047679
16899,1988-06-03T23:27:54.351999Z,A88118B1,6.69,0.08,Slab,R,1,310,86,118,special,-45.1,167.17,-45.0387,169.2193,5551299.74,2051472.44,5567539,2212164,25,55,161.07,172.37,152.52,161.6,117.65,-112.66,0,60,32.57,nu,118B,C,520,Q3,0.3,Q3,40,Q3,0,-99999,-99999,1,0.63,11,1.071,11,Robinson_etal_2003&Dowrick_Rhoades1998&HarvardCMT&Reyners_etal1991,0.053895686,0.054027254,0.054250638,0.054618417,0.054989614,0.056267771,0.056990338,0.056872317,0.062046324,0.062749677,0.061914241,0.05164034,0.037279595,0.019175502,-99999,-99999,-99999,-99999,-99999,-99999,-99999,-99999,0.063272968,0.063495203,0.063736467,0.064102387,0.064595469,0.065752807,0.066326367,0.068342102,0.072491417,0.075595757,0.0723982,0.058476526,0.044167349,0.020926374,-99999,-99999,-99999,-99999,-99999,-99999,-99999,-99999,0.053692,0.063231,0.03024,0.033502
53209,1989-05-31T05:54:48.402999Z,A89940A1,6.39,0.08,Interface,O,1,139,67,47,special,-45.27,166.88,-45.0322,168.6629,5530793.17,2030120.65,5566104,2168345,19.54,19.54,142.29,144.72,138.11,139.83,-124.55,64.03,0,24,17.1,nu,QTPS,D,350,Q3,0.95,Q1,90,Q3,0,-99999,-99999,1,0.55,10,0.935,10,Robinson_etal_2003&Dowrick_Rhoades1998&HarvardCMT,0.024543109,0.024668799,0.024837947,0.025030889,0.025286953,0.026216561,0.027423907,0.029999315,0.030335438,0.028300452,0.025317795,0.019407387,0.015065583,0.009926768,0.006632022,-99999,-99999,-99999,-99999,-99999,-99999,-99999,0.034415198,0.034606251,0.034842562,0.035112503,0.035474658,0.036785537,0.038486625,0.041913662,0.042089329,0.036383661,0.029705725,0.021486716,0.017023276,0.011284874,0.007105595,-99999,-99999,-99999,-99999,-99999,-99999,-99999,0.024587,0.034329,0.013138,0.014399
