CuspID,Origin_time,Record,Mw,MwUncert,TectClass,Mech,PreferredFaultPlane,Strike,Dip,Rake,Location,HypLat,HypLon,StationLat,StationLon,HypN,HypE,StationN,StationE,LENGTH_km,WIDTH_km,Repi_km,Rhyp_km,Rjb_km,Rrup_km,Rx_km,Ry_km,Rvol_km,HypDepth_km,ZTOR_km,HWFW,SiteCode,SiteClass1170,Vs30,Vs30Uncert,Tsite,TsiteUncert,Z1,Z1Uncertainty,Directivity,Pulse_or,Pulse_T,S_Trigger_Flag,fcButterHP,f_iniLP,fmin,fmax,References,f100.0000SA_RotD50,f50.0000SA_RotD50,f33.3333SA_RotD50,f25.0000SA_RotD50,f20.0000SA_RotD50,f13.3333SA_RotD50,f10.0000SA_RotD50,f6.6667SA_RotD50,f5.0000SA_RotD50,f4.0000SA_RotD50,f3.3333SA_RotD50,f2.5000SA_RotD50,f2.0000SA_RotD50,f1.3333SA_RotD50,f1.0000SA_RotD50,f0.6667SA_RotD50,f0.5000SA_RotD50,f0.3333SA_RotD50,f0.2500SA_RotD50,f0.2000SA_RotD50,f0.1333SA_RotD50,f0.1000SA_RotD50,f100.0000SA_RotD100,f50.0000SA_RotD100,f33.3333SA_RotD100,f25.0000SA_RotD100,f20.0000SA_RotD100,f13.3333SA_RotD100,f10.0000SA_RotD100,f6.6667SA_RotD100,f5.0000SA_RotD100,f4.0000SA_RotD100,f3.3333SA_RotD100,f2.5000SA_RotD100,f2.0000SA_RotD100,f1.3333SA_RotD100,f1.0000SA_RotD100,f0.6667SA_RotD100,f0.5000SA_RotD100,f0.3333SA_RotD100,f0.2500SA_RotD100,f0.2000SA_RotD100,f0.1333SA_RotD100,f0.1000SA_RotD100,PGA_RotD50,PGA_RotD100,PGV_RotD50,PGV_RotD100
722185,1995-03-22T19:43:30.268000Z,D5707A02,5.83,0.15,Slab,S,0,27,64,30,nlloc,-41.0514,174.216,-41.1391,174.8502,6016538.56,2612205.51,6005867,2665298,7.6,7.6,54.03,101.23,51.21,98.48,-99999,-99999,0,85.51,82.13,nu,707A,C,570,Q3,0.15,Q3,10,Q3,0,-99999,-99999,0,0.25,20,0.425,20,HarvardCMT,0.03279496,0.033813093,0.035563379,0.038857937,0.049222311,0.070868306,0.098631107,0.094112262,0.039794136,0.048508652,0.031577863,0.034401229,0.019562489,0.014465058,0.007595868,0.006079244,0.003220587,-99999,-99999,-99999,-99999,-99999,0.038047489,0.038868457,0.04037612,0.042606257,0.054344006,0.086302267,0.130518378,0.118918456,0.048682849,0.059058124,0.036707362,0.040005689,0.023878148,0.018339543,0.008925623,0.007471513,0.004286627,-99999,-99999,-99999,-99999,-99999,0.032794,0.037966,0.009417,0.01102
722185,1995-03-22T19:43:30.268000Z,D5900C02,5.83,0.15,Slab,S,0,27,64,30,nlloc,-41.0514,174.216,-41.2891,174.7799,6016538.56,2612205.51,5989335,2659058,7.6,7.6,54.09,101.23,51.45,98.43,-99999,-99999,0,85.51,82.13,nu,900C,D,250,Q3,0.8,Q3,60,Q3,0,-99999,-99999,0,0.3,15,0.51,15,HarvardCMT,0.05489082,0.055172833,0.055632985,0.056329488,0.057372665,0.069200014,0.083035335,0.125241767,0.191130693,0.213340003,0.156255663,0.157359533,0.06528929,0.040607129,0.019128978,0.007809488,-99999,-99999,-99999,-99999,-99999,-99999,0.070229166,0.070591537,0.071191779,0.072207236,0.073609032,0.095404089,0.106717127,0.170700309,0.267585826,0.273152759,0.181276886,0.210616279,0.078868251,0.051654567,0.021383215,0.009480053,-99999,-99999,-99999,-99999,-99999,-99999,0.054898,0.07014,0.030361,0.034038
722185,1995-03-22T19:43:30.268000Z,D5935C03,5.83,0.15,Slab,S,0,27,64,30,nlloc,-41.0514,174.216,-41.2108,174.9047,6016538.56,2612205.51,5997808,2669699,7.6,7.6,60.34,104.73,57.6,102.04,-99999,-99999,0,85.51,82.13,nu,935A,D,240,Q3,1.2,Q3,275,Q3,0,-99999,-99999,0,0.25,24.5,0.425,24.5,HarvardCMT,0.038865734,0.039195314,0.039838199,0.041885161,0.044848497,0.05934301,0.061274164,0.076753122,0.092553055,0.094915048,0.107266058,0.119936695,0.09088813,0.028346717,0.029345816,0.012313051,0.006991136,-99999,-99999,-99999,-99999,-99999,0.042457467,0.042912247,0.043742753,0.047891153,0.046978007,0.067099075,0.073690598,0.090582482,0.126738265,0.113956402,0.142907689,0.149035932,0.099058604,0.031176097,0.038373087,0.016795716,0.008368235,-99999,-99999,-99999,-99999,-99999,0.038712,0.042452,0.023412,0.027531
722185,1995-03-22T19:43:30.268000Z,I5027F03,5.83,0.15,Slab,S,0,27,64,30,nlloc,-41.0514,174.216,-39.4884,176.9189,6016538.56,2612205.51,6183307,2847012,7.6,7.6,287.72,300.43,284.58,297.6,-99999,-99999,0,85.51,82.13,nu,NAMS,C,268,Q3,0.4,Q3,20,Q3,0,-99999,-99999,1,0.5,21,0.85,21,HarvardCMT,0.007504001,0.00753231,0.007586899,0.007704207,0.008011036,0.008930083,0.009699042,0.012941787,0.014234227,0.015969864,0.023355857,0.037871075,0.016815561,0.005787752,0.002596118,-99999,-99999,-99999,-99999,-99999,-99999,-99999,0.010086383,0.010125224,0.01019252,0.010298114,0.010301893,0.01258568,0.012877355,0.01633464,0.016633867,0.02144924,0.029578918,0.048876546,0.022226552,0.007899666,0.003518155,-99999,-99999,-99999,-99999,-99999,-99999,-99999,0.00749,0.010072,0.004646,0.005415
722185,1995-03-22T19:43:30.268000Z,I5467A07,5.83,0.15,Slab,S,0,27,64,30,nlloc,-41.0514,174.216,-41.2425,174.9024,6016538.56,2612205.51,5994293,2669430,7.6,7.6,61.27,105.27,58.57,102.59,-99999,-99999,0,85.51,82.13,nu,467A,D,218,Q3,1.5,Q3,200,Q3,0,-99999,-99999,0,0.19,28,0.323,28,HarvardCMT,0.037774319,0.038153846,0.038953337,0.039534193,0.043646941,0.05484815,0.067999272,0.114295782,0.130578271,0.070981704,0.047012382,0.053390864,0.069178231,0.045236993,0.026485226,0.024978113,0.008086243,0.002178003,-99999,-99999,-99999,-99999,0.043066743,0.04352206,0.044267789,0.045028227,0.050852417,0.061864815,0.075295044,0.144760476,0.170470776,0.081797496,0.050019792,0.067391039,0.090901595,0.059738598,0.029075481,0.033261306,0.008764788,0.002306634,-99999,-99999,-99999,-99999,0.037621,0.042592,0.02036,0.023217
722185,1995-03-22T19:43:30.268000Z,I5468A06,5.83,0.15,Slab,S,0,27,64,30,nlloc,-41.0514,174.216,-41.2011,174.9547,6016538.56,2612205.51,5998793,2673916,7.6,7.6,64.07,106.94,61.31,104.29,-99999,-99999,0,85.51,82.13,nu,468A,D,190,Q1,0.9,Q3,50,Q3,0,-99999,-99999,0,0.25,24,0.425,24,HarvardCMT,0.057134123,0.057752084,0.058857259,0.063587208,0.072939222,0.09951062,0.110608085,0.223582951,0.237182698,0.155021729,0.122260001,0.122740092,0.106098353,0.069384595,0.063189194,0.013125498,0.006562377,-99999,-99999,-99999,-99999,-99999,0.074545749,0.075305317,0.076594491,0.079554677,0.083464644,0.126890546,0.145491571,0.299012278,0.263044221,0.186301862,0.134808464,0.156589383,0.132555087,0.07955915,0.081054249,0.015413235,0.008373586,-99999,-99999,-99999,-99999,-99999,0.057084,0.07455,0.031492,0.037271
722185,1995-03-22T19:43:30.268000Z,I5602C01,5.83,0.15,Slab,S,0,27,64,30,nlloc,-41.0514,174.216,-41.1903,174.928,6016538.56,2612205.51,6000041,2671703,7.6,7.6,61.61,105.49,58.84,102.81,-99999,-99999,0,85.51,82.13,nu,602C,B,1000,Q3,<0.1,Q3,0,Q3,0,-99999,-99999,0,0.2,45,0.34,45,HarvardCMT,0.018191778,0.018664364,0.020909392,0.022111137,0.023891873,0.055020972,0.051648919,0.03721774,0.04703454,0.04161408,0.035981037,0.023370872,0.017846121,0.01049216,0.009122124,0.005237486,0.003643078,-99999,-99999,-99999,-99999,-99999,0.022767785,0.023260709,0.025048594,0.02861003,0.026387612,0.065548165,0.066468683,0.050283376,0.064916887,0.049206692,0.045267393,0.029689831,0.024023374,0.012126923,0.011570047,0.00662419,0.005111645,-99999,-99999,-99999,-99999,-99999,0.017965,0.022615,0.008932,0.011987
722185,1995-03-22T19:43:30.268000Z,I5603B03,5.83,0.15,Slab,S,0,27,64,30,nlloc,-41.0514,174.216,-41.2237,174.86,6016538.56,2612205.51,5996453,2665923,7.6,7.6,57.23,102.97,54.52,100.24,-99999,-99999,0,85.51,82.13,nu,603B,B,1000,Q3,<0.1,Q3,0,Q3,0,-99999,-99999,0,0.25,30,0.425,30,HarvardCMT,0.016765369,0.017024833,0.017582558,0.018989244,0.022196573,0.02981283,0.044367598,0.060588693,0.039747385,0.025194728,0.024213214,0.027611834,0.021275288,0.011304287,0.010620577,0.006731222,0.004430375,-99999,-99999,-99999,-99999,-99999,0.023695998,0.02402406,0.024799781,0.025243527,0.030087453,0.037053708,0.060311337,0.08525344,0.053032545,0.028706946,0.027641834,0.032067636,0.023478867,0.012528952,0.012225909,0.00934969,0.006092544,-99999,-99999,-99999,-99999,-99999,0.016751,0.023688,0.00872,0.011914
722185,1995-03-22T19:43:30.268000Z,I5605B05,5.83,0.15,Slab,S,0,27,64,30,nlloc,-41.0514,174.216,-41.2074,174.9401,6016538.56,2612205.51,5998119,2672679,7.6,7.6,63.08,106.39,60.33,103.72,-99999,-99999,0,85.51,82.13,nu,FAIS,B,760,Q3,0.27,Q1,0,Q2,0,-99999,-99999,0,0.15,32,0.255,32,HarvardCMT,0.031839363,0.032360311,0.033674936,0.034988716,0.038827222,0.047415145,0.060471106,0.098829096,0.078040075,0.073478332,0.054976116,0.042945057,0.034675339,0.0130827,0.007329559,0.003898885,0.002607389,0.001063897,-99999,-99999,-99999,-99999,0.037422896,0.037807531,0.03841311,0.040805195,0.046001051,0.059538485,0.063208815,0.119880633,0.106607367,0.100169451,0.061417509,0.059250904,0.043355091,0.01535133,0.007903406,0.004957123,0.003166664,0.001499628,-99999,-99999,-99999,-99999,0.03163,0.037414,0.013971,0.019442
722185,1995-03-22T19:43:30.268000Z,I5606B07,5.83,0.15,Slab,S,0,27,64,30,nlloc,-41.0514,174.216,-41.2333,174.9199,6016538.56,2612205.51,5995282,2670919,7.6,7.6,62.31,105.88,59.59,103.21,-99999,-99999,0,85.51,82.13,nu,606B,B,800,Q3,<0.1,Q3,0,Q3,0,-99999,-99999,0,0.25,35,0.425,35,HarvardCMT,0.033491317,0.034835363,0.038523864,0.041853313,0.05652651,0.067472834,0.076116804,0.121493581,0.086910602,0.042468625,0.034137471,0.024974701,0.015101177,0.009137278,0.003781824,0.00262494,0.002232146,-99999,-99999,-99999,-99999,-99999,0.037327586,0.039084784,0.040601708,0.04611073,0.061360437,0.07812439,0.092961205,0.131913446,0.096549572,0.048220008,0.043114993,0.029761143,0.021091224,0.012720022,0.005176036,0.003375189,0.002446691,-99999,-99999,-99999,-99999,-99999,0.032391,0.036712,0.008125,0.009724
722185,1995-03-22T19:43:30.268000Z,I5642G18,5.83,0.15,Slab,S,0,27,64,30,nlloc,-41.0514,174.216,-41.235,174.9172,6016538.56,2612205.51,5995098,2670688,7.6,7.6,62.16,105.8,59.44,103.12,-99999,-99999,0,85.51,82.13,nu,642G,C,350,Q1,0.35,Q2,50,Q3,0,-99999,-99999,0,0.25,35,0.425,35,HarvardCMT,0.074227554,0.075824385,0.079870927,0.082384549,0.098933701,0.117223033,0.139881529,0.240371167,0.166027694,0.126141253,0.08577573,0.067954254,0.045718586,0.018042122,0.007152977,0.003528568,0.002630831,-99999,-99999,-99999,-99999,-99999,0.083246961,0.084709285,0.087227041,0.088595297,0.107238085,0.130994469,0.15641527,0.294061676,0.221191327,0.139990423,0.090176587,0.0793155,0.052499334,0.02335683,0.00834918,0.004312455,0.003032735,-99999,-99999,-99999,-99999,-99999,0.073975,0.0828,0.018827,0.023045
722185,1995-03-22T19:43:30.268000Z,I5642H18,5.83,0.15,Slab,S,0,27,64,30,nlloc,-41.0514,174.216,-41.235,174.9172,6016538.56,2612205.51,5995098,2670688,7.6,7.6,62.16,105.8,59.44,103.12,-99999,-99999,0,85.51,82.13,nu,642H,C,350,Q1,0.35,Q2,50,Q3,0,-99999,-99999,0,0.25,35,0.425,35,HarvardCMT,0.053413451,0.054403281,0.057020081,0.059702958,0.064368478,0.082322316,0.102925331,0.162578465,0.160055617,0.16538753,0.106604614,0.075742156,0.052587236,0.018983181,0.007716191,0.003738085,0.002915435,-99999,-99999,-99999,-99999,-99999,0.069744095,0.070915785,0.073294657,0.072963109,0.084592219,0.101238308,0.128907527,0.227604997,0.203411698,0.216634283,0.12469319,0.096373495,0.059200055,0.025231793,0.009068551,0.004667153,0.003144514,-99999,-99999,-99999,-99999,-99999,0.053201,0.069069,0.020039,0.022652
722185,1995-03-22T19:43:30.268000Z,I5708A04,5.83,0.15,Slab,S,0,27,64,30,nlloc,-41.0514,174.216,-41.1314,174.8391,6016538.56,2612205.51,6006740,2664387,7.6,7.6,52.97,100.66,50.14,97.89,-99999,-99999,0,85.51,82.13,nu,POLS,C,250,Q2,0.4,Q1,25,Q2,0,-99999,-99999,0,0.15,30,0.255,30,HarvardCMT,0.039476395,0.039923298,0.041120711,0.042542578,0.046117696,0.06534835,0.081287625,0.1084659,0.076397073,0.086349117,0.117048976,0.106315075,0.045186911,0.022839039,0.01263077,0.007013805,0.003882534,0.001619381,-99999,-99999,-99999,-99999,0.044076419,0.044769529,0.046956682,0.052594417,0.053952381,0.075810968,0.098140949,0.149404507,0.085806634,0.107322698,0.14475055,0.139428137,0.051169241,0.02503756,0.014068006,0.009302589,0.005104352,0.002172361,-99999,-99999,-99999,-99999,0.039215,0.044089,0.018455,0.02399
722185,1995-03-22T19:43:30.268000Z,I5711A01,5.83,0.15,Slab,S,0,27,64,30,nlloc,-41.0514,174.216,-41.2294,174.9042,6016538.56,2612205.51,5995739,2669619,7.6,7.6,60.94,105.08,58.22,102.39,-99999,-99999,0,85.51,82.13,nu,LRSS,D,230,Q3,1.4,Q3,175,Q3,0,-99999,-99999,0,0.25,24.5,0.425,24.5,HarvardCMT,0.043217445,0.043707253,0.044564175,0.045419465,0.048644526,0.080244857,0.10293744,0.116925146,0.074948048,0.108304478,0.107490355,0.104153958,0.087761277,0.032849294,0.019852457,0.016410301,0.008189295,-99999,-99999,-99999,-99999,-99999,0.061126134,0.061817158,0.062950446,0.063943359,0.067996661,0.099750467,0.137901692,0.132302018,0.094682832,0.145313688,0.151026488,0.126309313,0.120276214,0.046293642,0.025799458,0.018618202,0.010741218,-99999,-99999,-99999,-99999,-99999,0.042852,0.06009,0.026957,0.036004
722185,1995-03-22T19:43:30.268000Z,I5918B08,5.83,0.15,Slab,S,0,27,64,30,nlloc,-41.0514,174.216,-41.284,174.7682,6016538.56,2612205.51,5989908,2658140,7.6,7.6,52.97,100.77,50.33,97.95,-99999,-99999,0,85.51,82.13,nu,WEL,B,1000,Q3,0.3,Q1,0,Q2,0,-99999,-99999,0,0.25,24.5,0.425,24.5,HarvardCMT,0.058475361,0.059293969,0.060777051,0.063676489,0.068464633,0.088522551,0.102410029,0.273980345,0.189237068,0.155438523,0.101311924,0.059860429,0.039822159,0.014561321,0.012117053,0.007902028,0.005362372,-99999,-99999,-99999,-99999,-99999,0.079343324,0.080135326,0.081345934,0.082220658,0.088675392,0.100942564,0.114577836,0.353856334,0.243666671,0.20028847,0.136986276,0.079925866,0.055193986,0.019511156,0.014974968,0.010036557,0.007411307,-99999,-99999,-99999,-99999,-99999,0.058394,0.078329,0.02109,0.029719
722185,1995-03-22T19:43:30.268000Z,I5926A03,5.83,0.15,Slab,S,0,27,64,30,nlloc,-41.0514,174.216,-39.4883,176.9169,6016538.56,2612205.51,6183331,2846839,7.6,7.6,287.59,300.32,284.45,297.49,-99999,-99999,0,85.51,82.13,nu,926A,C,651,Q3,0.07,Q3,5,Q3,0,-99999,-99999,1,0.35,15,0.595,15,HarvardCMT,0.004262915,0.004281808,0.004313964,0.004361444,0.004452145,0.005092887,0.007175143,0.008932712,0.011970914,0.010214277,0.013818418,0.021883983,0.00986766,0.003095015,0.002080267,0.000892087,-99999,-99999,-99999,-99999,-99999,-99999,0.005463831,0.005501516,0.005568033,0.005672907,0.005836413,0.006285114,0.008092175,0.011210465,0.014054856,0.011932521,0.018919457,0.03091781,0.013637123,0.004324768,0.002881753,0.001238286,-99999,-99999,-99999,-99999,-99999,-99999,0.004257,0.005447,0.002834,0.003776
722185,1995-03-22T19:43:30.268000Z,K5046A01,5.83,0.15,Slab,S,0,27,64,30,nlloc,-41.0514,174.216,-41.2709,173.2837,6016538.56,2612205.51,5992838,2533754,7.6,7.6,81.77,118.44,78.66,114.68,-99999,-99999,0,85.51,82.13,nu,NCBS,D,210,Q3,0.7,Q2,50,Q3,0,-99999,-99999,1,0.7,14,1.19,14,HarvardCMT,0.039035605,0.039348116,0.039855847,0.040536412,0.041501385,0.047043205,0.052909585,0.094772351,0.084142503,0.113684582,0.11230977,0.075773473,0.059947974,0.033587725,-99999,-99999,-99999,-99999,-99999,-99999,-99999,-99999,0.043799366,0.044019527,0.044391952,0.044960325,0.045773064,0.0487333,0.062134281,0.106739827,0.100204088,0.15182816,0.135507223,0.08396874,0.074305532,0.043901412,-99999,-99999,-99999,-99999,-99999,-99999,-99999,-99999,0.038739,0.043798,0.018358,0.023447
722185,1995-03-22T19:43:30.268000Z,K5087A01,5.83,0.15,Slab,S,0,27,64,30,nlloc,-41.0514,174.216,-39.7163,175.1455,6016538.56,2612205.51,6163232,2693941,7.6,7.6,168.04,188.46,165.17,186.14,-99999,-99999,0,85.51,82.13,nu,087A,B,1000,Q3,<0.1,Q3,0,Q2,0,-99999,-99999,1,0.5,20,0.85,20,HarvardCMT,0.057460696,0.058304868,0.059483697,0.061952079,0.067440746,0.089556807,0.143314283,0.136888205,0.189795286,0.136936354,0.124393223,0.175776832,0.061967472,0.027341108,0.023977164,-99999,-99999,-99999,-99999,-99999,-99999,-99999,0.075249988,0.07633994,0.078185865,0.081177798,0.089979079,0.112787597,0.197734792,0.15394884,0.245230263,0.162678462,0.167500035,0.243668239,0.084919875,0.031168742,0.031347184,-99999,-99999,-99999,-99999,-99999,-99999,-99999,0.057253,0.07431,0.025754,0.03317
722185,1995-03-22T19:43:30.268000Z,K5087C01,5.83,0.15,Slab,S,0,27,64,30,nlloc,-41.0514,174.216,-39.7171,175.1382,6016538.56,2612205.51,6163158,2693314,7.6,7.6,167.67,188.13,164.8,185.82,-99999,-99999,0,85.51,82.13,nu,087C,C,425,Q3,0.33,Q3,30,Q3,0,-99999,-99999,1,0.7,14,1.19,14,HarvardCMT,0.064530941,0.064817525,0.065301507,0.065970994,0.066823502,0.082277394,0.096281477,0.157631332,0.229394382,0.223942331,0.219490312,0.213662858,0.190237548,0.053205072,-99999,-99999,-99999,-99999,-99999,-99999,-99999,-99999,0.071395962,0.071679481,0.07213586,0.072769277,0.073629184,0.088670952,0.118675479,0.206742178,0.278768347,0.274390251,0.240735296,0.232358709,0.229633308,0.073920569,-99999,-99999,-99999,-99999,-99999,-99999,-99999,-99999,0.064436,0.071363,0.034959,0.043902
722185,1995-03-22T19:43:30.268000Z,K5608A01,5.83,0.15,Slab,S,0,27,64,30,nlloc,-41.0514,174.216,-41.2241,174.8794,6016538.56,2612205.51,5996377,2667546,7.6,7.6,58.78,103.83,56.06,101.12,-99999,-99999,0,85.51,82.13,nu,608A,D,200,Q2,2,Q2,250,Q3,0,-99999,-99999,1,0.4,11,0.68,11,HarvardCMT,0.029267761,0.029353158,0.029559229,0.029863832,0.030284179,0.03206974,0.037819086,0.051898399,0.063704115,0.043707615,0.044169585,0.071930558,0.103872572,0.047207846,0.023744287,-99999,-99999,-99999,-99999,-99999,-99999,-99999,0.03601094,0.036187901,0.036474105,0.036891626,0.037485026,0.039952558,0.044954152,0.073384717,0.075503885,0.046022713,0.054379921,0.089946157,0.134810093,0.059900791,0.02605418,-99999,-99999,-99999,-99999,-99999,-99999,-99999,0.029264,0.035812,0.024995,0.030959
771645,1995-11-24T06:18:56.622999Z,D5505A37,6.19,0.08,Crustal,O,1,176,46,44,geonet,-42.953,171.8188,-42.9489,171.5677,5805359.34,2413627.76,5805487,2393135,11.44,11.44,20.44,22,18.34,21,22.52,-1.56,0,7.26,5.1,hw,APPS,C,300,Q2,0.4,Q1,30,Q2,0,-99999,-99999,0,0.29,20,0.493,20,Gledhill_etal_2000,0.133679755,0.135219244,0.137687036,0.142060295,0.166854007,0.237634158,0.288348869,0.395128463,0.513563078,0.299290371,0.237024076,0.278559388,0.228082138,0.117792782,0.053273423,0.019078826,0.011067485,-99999,-99999,-99999,-99999,-99999,0.15008872,0.152680931,0.157217934,0.163721484,0.187656039,0.279681941,0.403505297,0.437645224,0.653364016,0.375293734,0.3166028,0.393051146,0.254708091,0.14319567,0.070007514,0.023547494,0.013231215,-99999,-99999,-99999,-99999,-99999,0.132025,0.149811,0.066529,0.086571
771645,1995-11-24T06:18:56.622999Z,D6051D01,6.19,0.08,Crustal,O,1,176,46,44,geonet,-42.953,171.8188,-41.7557,171.5998,5805359.34,2413627.76,5938069,2393545,11.44,11.44,134.35,134.42,128.36,128.45,12.86,-133.79,0,7.26,5.1,nu,WBCS,D,300,Q3,1.2,Q2,105,Q3,0,-99999,-99999,0,0.2,20,0.34,20,Gledhill_etal_2000,0.018581198,0.018695806,0.018864983,0.019254319,0.021467077,0.03341032,0.030465781,0.045414386,0.043848696,0.039973993,0.049458134,0.039823129,0.047113667,0.034579025,0.039168024,0.016788497,0.007863751,-99999,-99999,-99999,-99999,-99999,0.023433036,0.023613138,0.023936931,0.024333638,0.024624304,0.035540842,0.033472136,0.053152563,0.049329465,0.045085338,0.052542491,0.043030476,0.054248182,0.039833812,0.051589099,0.022648597,0.00977132,-99999,-99999,-99999,-99999,-99999,0.018493,0.023427,0.015306,0.017548
771645,1995-11-24T06:18:56.622999Z,D6129A01,6.19,0.08,Crustal,O,1,176,46,44,geonet,-42.953,171.8188,-41.7999,172.328,5805359.34,2413627.76,5933893,2454147,11.44,11.44,134.87,134.97,129.24,129.34,-47.3,-125.39,0,7.26,5.1,nu,MCAS,D,501,Q3,1.6,Q3,200,Q3,0,-99999,-99999,1,0.2,10,0.34,10,Gledhill_etal_2000,0.018072665,0.018101522,0.018170185,0.018246508,0.018343294,0.018679145,0.020589819,0.02666076,0.035727082,0.038252758,0.044662018,0.051728602,0.047201939,0.042134389,0.052637683,0.037089912,0.016020308,-99999,-99999,-99999,-99999,-99999,0.022486674,0.022532114,0.022584,0.022642321,0.022755458,0.023188417,0.026244926,0.032253995,0.03939201,0.044825197,0.053951559,0.062306816,0.05047354,0.045498614,0.06202771,0.038934489,0.019990828,-99999,-99999,-99999,-99999,-99999,0.018047,0.022471,0.028369,0.03326
