CuspID,Origin_time,Record,Mw,MwUncert,TectClass,Mech,PreferredFaultPlane,Strike,Dip,Rake,Location,HypLat,HypLon,StationLat,StationLon,HypN,HypE,StationN,StationE,LENGTH_km,WIDTH_km,Repi_km,Rhyp_km,Rjb_km,Rrup_km,Rx_km,Ry_km,Rvol_km,HypDepth_km,ZTOR_km,HWFW,SiteCode,SiteClass1170,Vs30,Vs30Uncert,Tsite,TsiteUncert,Z1,Z1Uncertainty,Directivity,Pulse_or,Pulse_T,S_Trigger_Flag,fcButterHP,f_iniLP,fmin,fmax,References,f100.0000SA_Vert,f50.0000SA_Vert,f33.3333SA_Vert,f25.0000SA_Vert,f20.0000SA_Vert,f13.3333SA_Vert,f10.0000SA_Vert,f6.6667SA_Vert,f5.0000SA_Vert,f4.0000SA_Vert,f3.3333SA_Vert,f2.5000SA_Vert,f2.0000SA_Vert,f1.3333SA_Vert,f1.0000SA_Vert,f0.6667SA_Vert,f0.5000SA_Vert,f0.3333SA_Vert,f0.2500SA_Vert,f0.2000SA_Vert,f0.1333SA_Vert,f0.1000SA_Vert,PGA,PGV
2737984,2007-05-13T13:25:10.577000Z,I07465B03,4.53,0.1,Slab,U,0,342,70,142,simulps,-41.2268,173.5185,-41.2058,174.9544,5997640.18,2553459.96,5998271,2673878,1.7,1.7,120.12,149.9,119.51,149.35,-99999,-99999,0,89.25,88.51,nu,DAVS,C,600,Q3,0.1,Q3,5,Q3,0,-99999,-99999,0,0.7,55,1.19,55,Ristau2013,0.001665916,0.001834461,0.00345425,0.002811044,0.003066673,0.002400659,0.003528375,0.005974274,0.005258836,0.004206593,0.002928001,0.002497708,0.001699166,0.000531934,-9999,-9999,-9999,-9999,-9999,-9999,-9999,-9999,0.001658,0.000498
2737984,2007-05-13T13:25:10.577000Z,I07642G04,4.53,0.1,Slab,U,0,342,70,142,simulps,-41.2268,173.5185,-41.235,174.9172,5997640.18,2553459.96,5995098,2670688,1.7,1.7,116.97,147.36,116.35,146.81,-99999,-99999,0,89.25,88.51,nu,642G,C,350,Q1,0.35,Q2,50,Q3,0,-99999,-99999,0,0.8,30,1.36,30,Ristau2013,0.002198273,0.002280433,0.002807447,0.005030113,0.007394812,0.004219219,0.005347806,0.006471305,0.006325386,0.003645095,0.002275036,0.001522975,0.001279904,-9999,-9999,-9999,-9999,-9999,-9999,-9999,-9999,-9999,0.002182,0.000599
2739419,2007-05-16T13:18:29.161000Z,I07465B04,4.3,0.1,Slab,U,0,168,63,110,simulps,-40.3307,174.5725,-41.2058,174.9544,6096073.67,2643607.63,5998271,2673878,1.3,1.3,102.48,138.89,101.85,138.27,-99999,-99999,0,93.84,93.37,nu,DAVS,C,600,Q3,0.1,Q3,5,Q3,0,-99999,-99999,0,0.7,50,1.19,50,Ristau2013,0.003369107,0.003648193,0.004250167,0.007108035,0.008666514,0.005483629,0.005018273,0.004056425,0.004700381,0.00488752,0.002747285,0.001001188,0.000723489,0.00029183,-9999,-9999,-9999,-9999,-9999,-9999,-9999,-9999,0.003297,0.000419
2739419,2007-05-16T13:18:29.161000Z,I07642G05,4.3,0.1,Slab,U,0,168,63,110,simulps,-40.3307,174.5725,-41.235,174.9172,6096073.67,2643607.63,5995098,2670688,1.3,1.3,104.66,140.49,104.03,139.87,-99999,-99999,0,93.84,93.37,nu,642G,C,350,Q1,0.35,Q2,50,Q3,0,-99999,-99999,0,1,40,1.7,40,Ristau2013,0.003503436,0.003664511,0.005995154,0.008846801,0.01159741,0.008642201,0.007028889,0.009367347,0.003903715,0.005948077,0.002646565,0.001307237,0.000643457,-9999,-9999,-9999,-9999,-9999,-9999,-9999,-9999,-9999,0.003426,0.000757
1444773,1999-10-25T20:31:43.627000Z,19991025_203142_GISS,6.02,0.15,Slab,O,0,158,54,35,nlloc,-38.5427,175.885,-38.6665,178.0227,6291620.32,2761553.77,6269685,2946952,9.4,9.4,186.26,241.16,182.91,237.54,-99999,-99999,0,152.66,148.68,nu,GISS,D,138,Q2,1,Q1,40,Q3,0,-99999,-99999,0,0.23,35,0.391,35,HarvardCMT,0.009868046,0.009969763,0.010340811,0.010691777,0.014344782,0.024441817,0.017732227,0.022818778,0.034182474,0.030079403,0.028140302,0.01945922,0.015908967,0.010308958,0.005144398,0.003237075,0.001225738,-9999,-9999,-9999,-9999,-9999,0.009867,0.00454
1444773,1999-10-25T20:31:43.627000Z,19991025_203142_TPPS,6.02,0.15,Slab,O,0,158,54,35,nlloc,-38.5427,175.885,-38.6863,176.0675,6291620.32,2761553.77,6275156,2776899,9.4,9.4,22.5,154.68,19.16,150.83,-99999,-99999,0,152.66,148.68,nu,TPPS,C,454,Q3,0.15,Q3,10,Q3,0,-99999,-99999,0,0.13,18,0.221,18,HarvardCMT,0.004683572,0.004707027,0.00474672,0.004809667,0.004925432,0.005697615,0.006718765,0.00765538,0.015388073,0.006600996,0.005408289,0.007448729,0.009555723,0.009736855,0.010068862,0.005152732,0.008311262,0.002164745,0.001343511,-9999,-9999,-9999,0.004656,0.00637
1502698,2000-03-29T14:30:58.189000Z,20000329_143058_MAVS,5.25,0.15,Slab,N,0,54,14,-7.60E+01,nlloc,-41.0482,175.43,-41.2109,175.4615,6014768.04,2714246.82,5996635,2716383,3.9,3.9,18.28,35.57,16.67,34.31,-99999,-99999,0,30.49,29.31,nu,MAVS,D,390,Q3,1,Q3,450,Q3,0,-99999,-99999,0,0.15,50,0.255,50,HarvardCMT,0.027202996,0.029230394,0.033192525,0.037336583,0.046675657,0.033455992,0.037344338,0.070553014,0.065182486,0.051663018,0.047707014,0.032553904,0.026950536,0.019578558,0.013388125,0.006625917,0.003152734,0.001160916,-9999,-9999,-9999,-9999,0.026901,0.00946
1502698,2000-03-29T14:30:58.189000Z,20000329_143058_MISS,5.25,0.15,Slab,N,0,54,14,-7.60E+01,nlloc,-41.0482,175.43,-41.3149,174.8184,6014768.04,2714246.82,5986404,2662229,3.9,3.9,59.15,66.64,57.28,64.88,-99999,-99999,0,30.49,29.31,nu,MISS,D,200,Q1,1,Q1,60,Q1,0,-99999,-99999,0,0.7,50,1.19,50,HarvardCMT,0.023049722,0.024173791,0.026866052,0.025413295,0.025744101,0.044362984,0.04796764,0.043448671,0.045748595,0.053798032,0.083781795,0.058664996,0.0230101,0.010460947,-9999,-9999,-9999,-9999,-9999,-9999,-9999,-9999,0.023017,0.0116
1502698,2000-03-29T14:30:58.189000Z,20000329_143058_PGMS,5.25,0.15,Slab,N,0,54,14,-7.60E+01,nlloc,-41.0482,175.43,-41.2245,174.8794,6014768.04,2714246.82,5996331,2667551,3.9,3.9,50.1,58.74,48.28,57.05,-99999,-99999,0,30.49,29.31,nu,PGMS,D,200,Q2,2,Q2,250,Q3,0,-99999,-99999,0,0.3,55,0.51,55,HarvardCMT,0.00749449,0.0079216,0.010717749,0.013524987,0.019167781,0.018354076,0.022136941,0.019637469,0.015893935,0.019366849,0.021503931,0.019536716,0.019741081,0.010081525,0.006057101,0.004229197,-9999,-9999,-9999,-9999,-9999,-9999,0.007339,0.00468
1502698,2000-03-29T14:30:58.189000Z,20000329_143058_POTS,5.25,0.15,Slab,N,0,54,14,-7.60E+01,nlloc,-41.0482,175.43,-41.2722,174.7746,6014768.04,2714246.82,5991217,2658659,3.9,3.9,60.25,67.65,58.42,65.92,-99999,-99999,0,30.49,29.31,nu,POTS,B,1000,Q3,-1,Q1,0,Q2,0,-99999,-99999,0,0.28,40,0.476,40,HarvardCMT,0.00569948,0.005978249,0.007592458,0.008107653,0.010687535,0.013981513,0.019598822,0.016569955,0.017553419,0.012983042,0.011520298,0.010546173,0.007902856,0.003283817,0.001813652,0.000981823,0.000751812,-9999,-9999,-9999,-9999,-9999,0.005637,0.002721
1502698,2000-03-29T14:30:58.189000Z,20000329_143058_RQGS,5.25,0.15,Slab,N,0,54,14,-7.60E+01,nlloc,-41.0482,175.43,-41.2965,174.7812,6014768.04,2714246.82,5988507,2659150,3.9,3.9,60.92,68.24,59.08,66.49,-99999,-99999,0,30.49,29.31,nu,RQGS,D,246,Q1,0.6,Q1,46,Q1,0,-99999,-99999,0,0.3,40,0.51,40,HarvardCMT,0.021420306,0.021839588,0.02225483,0.026317217,0.026746507,0.037315956,0.033294864,0.043505265,0.057451709,0.075781183,0.073883126,0.063564288,0.03606421,0.009859004,0.00447857,0.001671017,-9999,-9999,-9999,-9999,-9999,-9999,0.021233,0.01045
1502698,2000-03-29T14:30:58.189000Z,20000329_143058_TFSS,5.25,0.15,Slab,N,0,54,14,-7.60E+01,nlloc,-41.0482,175.43,-41.2754,174.7831,6014768.04,2714246.82,5990846,2659356,3.9,3.9,59.76,67.2,57.93,65.47,-99999,-99999,0,30.49,29.31,nu,TFSS,D,274,Q1,1.3,Q2,110,Q2,0,-99999,-99999,0,0.2,40,0.34,40,HarvardCMT,0.008498992,0.008633258,0.009262001,0.011727449,0.011564491,0.018445437,0.028532152,0.020348028,0.012889878,0.021592386,0.019082175,0.019397343,0.014844099,0.013577022,0.00472867,0.002739793,0.00110853,-9999,-9999,-9999,-9999,-9999,0.00844,0.00447
1502698,2000-03-29T14:30:58.189000Z,20000329_143058_WCDS,5.25,0.15,Slab,N,0,54,14,-7.60E+01,nlloc,-41.0482,175.43,-39.9336,175.048,6014768.04,2714246.82,6139305,2685024,3.9,3.9,128.07,131.5,126.53,129.97,-99999,-99999,0,30.49,29.31,nu,WCDS,D,250,Q3,1,Q1,100,Q3,0,-99999,-99999,0,0.3,43,0.51,43,HarvardCMT,0.003257778,0.003611026,0.006065819,0.007766132,0.00499401,0.005556485,0.006498672,0.006720254,0.01102929,0.007827739,0.007538968,0.006223055,0.00422367,0.002772541,0.002140583,0.000667342,-9999,-9999,-9999,-9999,-9999,-9999,0.003194,0.001462
1502698,2000-03-29T14:30:58.189000Z,20000329_143058_WEMS,5.25,0.15,Slab,N,0,54,14,-7.60E+01,nlloc,-41.0482,175.43,-41.2743,174.7793,6014768.04,2714246.82,5990979,2659042,3.9,3.9,60,67.42,58.16,65.69,-99999,-99999,0,30.49,29.31,nu,WEMS,D,265,Q1,0.8,Q2,80,Q2,0,-99999,-99999,0,0.25,50,0.425,50,HarvardCMT,0.00713769,0.007321442,0.009601209,0.0101739,0.011674957,0.010994224,0.013538844,0.02519938,0.017056185,0.021502094,0.017153794,0.014056804,0.014671273,0.006803821,0.002991862,0.001377275,0.000915036,-9999,-9999,-9999,-9999,-9999,0.007085,0.00468
1597193,2000-08-08T10:31:18.725000Z,20000808_103119_TPPS,5.29,0.15,Slab,U,0,32,25,179,nlloc,-39.1704,176.298,-38.6863,176.0675,6220747.43,2794953.59,6275156,2776899,4.1,4.1,57.4,79.33,55.66,77.49,-99999,-99999,0,54.45,53.01,nu,TPPS,C,454,Q3,0.15,Q3,10,Q3,0,-99999,-99999,0,0.26,45,0.442,45,HarvardCMT,0.007896035,0.008672676,0.010915829,0.012100721,0.013505197,0.033953575,0.036922381,0.023875372,0.015315145,0.01471998,0.009881328,0.012029671,0.021686137,0.006950724,0.003486267,0.002653939,0.001555015,-9999,-9999,-9999,-9999,-9999,0.007768,0.004203
1597193,2000-08-08T10:31:18.725000Z,20000808_103119_WCDS,5.29,0.15,Slab,U,0,32,25,179,nlloc,-39.1704,176.298,-39.9336,175.048,6220747.43,2794953.59,6139305,2685024,4.1,4.1,136.7,147.25,135.36,145.78,-99999,-99999,0,54.45,53.01,nu,WCDS,D,250,Q3,1,Q1,100,Q3,0,-99999,-99999,0,0.18,45,0.306,45,HarvardCMT,0.005256116,0.005577122,0.010139155,0.010441477,0.008305715,0.008389436,0.013636114,0.011548833,0.009088378,0.012649645,0.019089866,0.018035035,0.008743104,0.003954767,0.00230673,0.001354181,0.000886117,0.00022333,-9999,-9999,-9999,-9999,0.005178,0.002668
1635267,2000-11-01T10:35:55.777000Z,20001101_103555_MSZS,6.13,0.08,Interface,O,1,171,57,59,nlloc,-45.1634,166.956,-44.673,167.9255,5543051.41,2035193.19,5602613,2107875,12.5,12.5,93.81,94.49,89.54,89.91,-77.7,-47.46,0,9.92,4.68,nu,MSZS,B,1200,Q3,0.33,Q2,3,Q2,0,-99999,-99999,0,0.06,30,0.102,30,Robinson_etal_2003,0.010776724,0.011413741,0.013130715,0.023307628,0.024532128,0.028319986,0.047734612,0.018438967,0.022997309,0.014122184,0.01181776,0.013735662,0.011699013,0.006995296,0.009498375,0.005199447,0.002046138,0.001500245,0.000930303,0.000699511,0.000404072,-9999,0.010734,0.007551
1638170,2000-11-12T11:49:14.484999Z,20001112_114915_MSZS,5.38,0.15,Interface,R,1,50,21,114,nlloc,-45.1637,167.027,-44.673,167.9255,5543428,2040762.79,5602613,2107875,6.1,6.1,89.34,91.64,86.29,88.65,0.65,89.45,0,19.77,18.67,nu,MSZS,B,1200,Q3,0.33,Q2,3,Q2,0,-99999,-99999,0,0.4,55,0.68,55,HarvardCMT,0.003528102,0.005404976,0.004645855,0.006536388,0.009091381,0.01013135,0.006958255,0.005404319,0.008148336,0.005075957,0.003545261,0.002804579,0.001248956,0.001782575,0.000991501,-9999,-9999,-9999,-9999,-9999,-9999,-9999,0.003298,0.000767
1793707,2001-09-24T04:49:55.561000Z,20010924_044956_PWZ,5.34,0.15,Slab,R,0,33,89,90,simulps,-40.3285,176.6197,-40.0297,176.862,6091194.76,2817495.83,6123470,2839564,4.3,4.3,39.09,47.86,36.94,45.92,-99999,-99999,0,27.54,26.45,nu,PWZ,B,1000,Q3,0.5,Q3,0,Q3,0,-99999,-99999,0,0.1,55,0.17,55,HarvardCMT,0.008142186,0.008254734,0.008424751,0.008140247,0.009831101,0.009833759,0.011764492,0.01786828,0.026544287,0.02373003,0.021056546,0.0196294,0.027953897,0.010922315,0.006694198,0.003002128,0.001596857,0.000590688,0.000313842,0.000152523,-9999,-9999,0.008094,0.00535
1793707,2001-09-24T04:49:55.561000Z,20010924_044956_SNZO,5.34,0.15,Slab,R,0,33,89,90,simulps,-40.3285,176.6197,-41.3087,174.7042,6091194.76,2817495.83,5987272,2652730,4.3,4.3,194.57,196.75,192.52,194.71,-99999,-99999,0,27.54,26.45,nu,SNZO,B,1000,Q3,-1,Q3,0,Q3,0,-99999,-99999,0,0.2,20,0.34,20,HarvardCMT,0.000458618,0.000463365,0.000471556,0.000494404,0.000699283,0.000777293,0.000711721,0.000619835,0.001179881,0.001191308,0.001486261,0.001245532,0.001151316,0.001024299,0.000686882,0.000261006,0.000196135,-9999,-9999,-9999,-9999,-9999,0.000453,0.000419
1793707,2001-09-24T04:49:55.561000Z,20010924_044956_WDPS,5.34,0.15,Slab,R,0,33,89,90,simulps,-40.3285,176.6197,-40.3382,175.8698,6091194.76,2817495.83,6092451,2753774,4.3,4.3,63.57,69.47,61.95,67.81,-99999,-99999,0,27.54,26.45,nu,WDPS,D,270,Q3,1,Q3,100,Q3,0,-99999,-99999,0,0.15,35,0.255,35,HarvardCMT,0.009750741,0.009900752,0.010511338,0.01037937,0.013158509,0.017748441,0.027103901,0.032464099,0.025090243,0.022811323,0.020258748,0.010521645,0.008723775,0.007087989,0.005536539,0.002112502,0.000752878,0.000503621,-9999,-9999,-9999,-9999,0.009704,0.00396
1803016,2001-10-15T03:49:37.441000Z,20011015_034938_PWZ,5.54,0.15,Interface,R,1,201,8,90,simulps,-39.6603,176.6415,-40.0297,176.862,6165248.02,2822390.46,6123470,2839564,7.3,7.3,45.18,53.21,41.52,49.94,-27.37,32.85,0,28.06,27.55,nu,PWZ,B,1000,Q3,0.5,Q3,0,Q3,0,-99999,-99999,0,0.12,35,0.204,35,HarvardCMT,0.007415586,0.007433552,0.007503017,0.007623752,0.00824698,0.009387963,0.011225644,0.012359138,0.016214312,0.017223309,0.019264245,0.027245333,0.031732788,0.020604679,0.010871341,0.006472545,0.00261,0.001341096,0.000612146,-9999,-9999,-9999,0.007411,0.00731
1803016,2001-10-15T03:49:37.441000Z,20011015_034938_TPPS,5.54,0.15,Interface,R,1,201,8,90,simulps,-39.6603,176.6415,-38.6863,176.0675,6165248.02,2822390.46,6275156,2776899,7.3,7.3,119.07,122.3,115.41,118.83,85.49,-86.31,12,28.06,27.55,nu,TPPS,C,454,Q3,0.15,Q3,10,Q3,0,-99999,-99999,0,0.22,22,0.374,22,HarvardCMT,0.001838641,0.001841664,0.001847332,0.001863225,0.001922753,0.004230101,0.003518156,0.003187277,0.003657469,0.003901839,0.00477628,0.005876076,0.008542367,0.005213793,0.004159888,0.003475384,0.002528219,-9999,-9999,-9999,-9999,-9999,0.001837,0.00342
2019057,2003-01-25T21:30:30.911999Z,20030125_213031_CPFS,5.22,0.15,Slab,N,0,252,51,-4.20E+01,simulps,-40.3372,176.1508,-40.8988,176.221,6091756.44,2777645.89,6029214,2781323,3.7,3.7,62.73,71.57,61.2,69.87,-99999,-99999,0,34.6,33.07,nu,CPFS,C,350,Q3,0.33,Q1,10,Q2,0,-99999,-99999,0,0.15,28,0.255,28,HarvardCMT,0.004360812,0.004401135,0.004479218,0.00456628,0.00591281,0.006578752,0.008509639,0.016328555,0.011094873,0.010831319,0.011363938,0.011682315,0.009609037,0.004825998,0.003654217,0.00111744,0.000601956,0.000393283,-9999,-9999,-9999,-9999,0.004353,0.002266
2019057,2003-01-25T21:30:30.911999Z,20030125_213031_DVHS,5.22,0.15,Slab,N,0,252,51,-4.20E+01,simulps,-40.3372,176.1508,-40.2017,176.1014,6091756.44,2777645.89,6106936,2773970,3.7,3.7,15.64,38.17,14.18,36.88,-99999,-99999,0,34.6,33.07,nu,DVHS,C,360,Q3,0.58,Q3,55,Q3,0,-99999,-99999,0,0.14,55,0.238,55,HarvardCMT,0.085245974,0.091794799,0.108233961,0.139537073,0.249644674,0.194881532,0.180291602,0.057207913,0.049132942,0.049647336,0.037101736,0.035592634,0.025929868,0.011620975,0.006778204,0.004917903,0.002557049,0.00057583,0.000491761,-9999,-9999,-9999,0.08314,0.01241
2019057,2003-01-25T21:30:30.911999Z,20030125_213031_EKTS,5.22,0.15,Slab,N,0,252,51,-4.20E+01,simulps,-40.3372,176.1508,-40.6495,175.7088,6091756.44,2777645.89,6058336,2739041,3.7,3.7,51.02,61.82,49.33,59.96,-99999,-99999,0,34.6,33.07,nu,EKTS,C,800,Q3,0.1,Q1,6,Q3,0,-99999,-99999,0,0.4,52,0.68,52,HarvardCMT,0.01027434,0.015207382,0.022680358,0.057197141,0.029927189,0.017656174,0.013069123,0.014381282,0.014264861,0.019438853,0.015132755,0.015234786,0.013468679,0.004870302,0.002541583,-9999,-9999,-9999,-9999,-9999,-9999,-9999,0.009796,0.002573
2019057,2003-01-25T21:30:30.911999Z,20030125_213031_FAHS,5.22,0.15,Slab,N,0,252,51,-4.20E+01,simulps,-40.3372,176.1508,-40.2135,175.573,6091756.44,2777645.89,6107067,2728976,3.7,3.7,50.91,61.69,49.59,60.21,-99999,-99999,0,34.6,33.07,nu,FAHS,D,270,Q3,0.67,Q1,60,Q3,0,-99999,-99999,0,0.17,47,0.289,47,HarvardCMT,0.01916687,0.022160008,0.032167609,0.052274656,0.046936535,0.053116298,0.035698375,0.023214501,0.021773596,0.026050357,0.023614198,0.015892941,0.016731737,0.015722065,0.004487465,0.003835131,0.002475632,0.001332578,-9999,-9999,-9999,-9999,0.018624,0.00504
2019057,2003-01-25T21:30:30.911999Z,20030125_213031_HOCS,5.22,0.15,Slab,N,0,252,51,-4.20E+01,simulps,-40.3372,176.1508,-40.6216,175.2794,6091756.44,2777645.89,6062458,2702819,3.7,3.7,80.2,87.5,78.62,85.75,-99999,-99999,0,34.6,33.07,nu,HOCS,D,600,Q3,1.8,Q3,300,Q3,0,-99999,-99999,0,0.17,45,0.289,45,HarvardCMT,0.005711522,0.005794908,0.005834746,0.006066641,0.005965818,0.00690425,0.007472832,0.012780811,0.015007822,0.01184373,0.015891316,0.013374075,0.01089416,0.008130679,0.003357278,0.003043845,0.001036523,0.000531692,-9999,-9999,-9999,-9999,0.005697,0.003973
2019057,2003-01-25T21:30:30.911999Z,20030125_213031_MNGS,5.22,0.15,Slab,N,0,252,51,-4.20E+01,simulps,-40.3372,176.1508,-39.8079,175.7909,6091756.44,2777645.89,6151518,2748932,3.7,3.7,66.35,74.94,64.95,73.83,-99999,-99999,0,34.6,33.07,nu,MNGS,D,270,Q3,0.8,Q2,80,Q3,0,-99999,-99999,0,0.13,40,0.221,40,HarvardCMT,0.013579412,0.013962645,0.021748145,0.017500371,0.018642489,0.017080336,0.021391303,0.042584085,0.043461483,0.049803466,0.040026933,0.013833387,0.012984322,0.005140716,0.002747385,0.001286559,0.000925288,0.000457023,0.000169824,-9999,-9999,-9999,0.013425,0.005724
2019057,2003-01-25T21:30:30.911999Z,20030125_213031_OTKS,5.22,0.15,Slab,N,0,252,51,-4.20E+01,simulps,-40.3372,176.1508,-40.7549,175.1438,6091756.44,2777645.89,6047957,2690990,3.7,3.7,96.94,103.08,95.31,101.32,-99999,-99999,0,34.6,33.07,nu,OTKS,D,210,Q3,2,Q1,180,Q3,0,-99999,-99999,0,0.3,45,0.51,45,HarvardCMT,0.003546369,0.003955017,0.004495858,0.007446231,0.010477892,0.007934914,0.006800613,0.006220418,0.008488978,0.006558948,0.005634434,0.004933849,0.004527665,0.004367518,0.00194496,0.000591683,-9999,-9999,-9999,-9999,-9999,-9999,0.003445,0.002079
2019057,2003-01-25T21:30:30.911999Z,20030125_213031_PGFS,5.22,0.15,Slab,N,0,252,51,-4.20E+01,simulps,-40.3372,176.1508,-40.3022,176.6118,6091756.44,2777645.89,6094139,2816941,3.7,3.7,39.27,52.42,37.83,51.28,-99999,-99999,0,34.6,33.07,nu,PGFS,D,210,Q3,0.67,Q1,50,Q3,0,-99999,-99999,0,0.1,20,0.17,20,HarvardCMT,0.03517763,0.035320003,0.035560309,0.035870607,0.036325252,0.041409819,0.051875627,0.052268016,0.076064726,0.154026454,0.120990367,0.088618059,0.041524219,0.021579633,0.011946035,0.00493631,0.002713636,0.000878,0.000421362,0.00024401,-9999,-9999,0.035148,0.0166
2019057,2003-01-25T21:30:30.911999Z,20030125_213031_PWZ,5.22,0.15,Slab,N,0,252,51,-4.20E+01,simulps,-40.3372,176.1508,-40.0297,176.862,6091756.44,2777645.89,6123470,2839564,3.7,3.7,69.42,77.73,67.79,76.35,-99999,-99999,0,34.6,33.07,nu,PWZ,B,1000,Q3,0.5,Q3,0,Q3,0,-99999,-99999,0,0.1,50,0.17,50,HarvardCMT,0.001408422,0.001453378,0.001946395,0.002523253,0.002503231,0.002711206,0.002394669,0.003898498,0.00452404,0.00791031,0.004205756,0.003527726,0.002977585,0.002271911,0.001616721,0.000917441,0.000534502,0.000263479,0.00008749,0.000062825,-9999,-9999,0.001395,0.001212
2019057,2003-01-25T21:30:30.911999Z,20030125_213031_THPS,5.22,0.15,Slab,N,0,252,51,-4.20E+01,simulps,-40.3372,176.1508,-39.6768,175.8014,6091756.44,2777645.89,6166038,2750292,3.7,3.7,79.23,86.56,77.81,85.41,-99999,-99999,0,34.6,33.07,nu,THPS,D,270,Q3,1,Q3,80,Q3,0,-99999,-99999,0,0.27,35,0.459,35,HarvardCMT,0.006046844,0.006838548,0.009854069,0.022318802,0.015703099,0.028054084,0.024277905,0.021466458,0.011566537,0.011876538,0.010797994,0.00951471,0.006297608,0.001745051,0.001233991,0.000726522,0.000433326,-9999,-9999,-9999,-9999,-9999,0.005739,0.001848
2019057,2003-01-25T21:30:30.911999Z,20030125_213031_WBFS,5.22,0.15,Slab,N,0,252,51,-4.20E+01,simulps,-40.3372,176.1508,-40.4009,176.3111,6091756.44,2777645.89,6084187,2790992,3.7,3.7,15.32,37.97,14.03,36.55,-99999,-99999,0,34.6,33.07,nu,WBFS,B,800,Q3,<0.1,Q3,3,Q3,0,-99999,-99999,0,0.13,41,0.221,41,HarvardCMT,0.021336941,0.022123289,0.023752062,0.023518729,0.031571861,0.036269641,0.042587924,0.068784667,0.03350087,0.029366896,0.033896789,0.025266603,0.014198544,0.007847528,0.011664352,0.006288306,0.002986081,0.000773086,0.000499685,-9999,-9999,-9999,0.021182,0.00906
