CuspID,Origin_time,Record,Mw,MwUncert,TectClass,Mech,PreferredFaultPlane,Strike,Dip,Rake,Location,HypLat,HypLon,StationLat,StationLon,HypN,HypE,StationN,StationE,LENGTH_km,WIDTH_km,Repi_km,Rhyp_km,Rjb_km,Rrup_km,Rx_km,Ry_km,Rvol_km,HypDepth_km,ZTOR_km,HWFW,SiteCode,SiteClass1170,Vs30,Vs30Uncert,Tsite,TsiteUncert,Z1,Z1Uncertainty,Directivity,Pulse_or,Pulse_T,S_Trigger_Flag,fcButterHP,f_iniLP,fmin,fmax,References,f100.0000SA_RotD50,f50.0000SA_RotD50,f33.3333SA_RotD50,f25.0000SA_RotD50,f20.0000SA_RotD50,f13.3333SA_RotD50,f10.0000SA_RotD50,f6.6667SA_RotD50,f5.0000SA_RotD50,f4.0000SA_RotD50,f3.3333SA_RotD50,f2.5000SA_RotD50,f2.0000SA_RotD50,f1.3333SA_RotD50,f1.0000SA_RotD50,f0.6667SA_RotD50,f0.5000SA_RotD50,f0.3333SA_RotD50,f0.2500SA_RotD50,f0.2000SA_RotD50,f0.1333SA_RotD50,f0.1000SA_RotD50,f100.0000SA_RotD100,f50.0000SA_RotD100,f33.3333SA_RotD100,f25.0000SA_RotD100,f20.0000SA_RotD100,f13.3333SA_RotD100,f10.0000SA_RotD100,f6.6667SA_RotD100,f5.0000SA_RotD100,f4.0000SA_RotD100,f3.3333SA_RotD100,f2.5000SA_RotD100,f2.0000SA_RotD100,f1.3333SA_RotD100,f1.0000SA_RotD100,f0.6667SA_RotD100,f0.5000SA_RotD100,f0.3333SA_RotD100,f0.2500SA_RotD100,f0.2000SA_RotD100,f0.1333SA_RotD100,f0.1000SA_RotD100,PGA_RotD50,PGA_RotD100,PGV_RotD50,PGV_RotD100
608810,1994-06-18T03:25:13.819000Z,D94042A1,6.72,0.08,Crustal,R,1,221,47,112,geonet,-43.0078,171.4762,-42.5232,172.8305,5798820.69,2385786.14,5853765,2496076,21.06,21.06,122.98,123.31,115.46,115.74,-43.1,-113.82,0,4.27,1,nu,HSES,D,280,Q3,0.9,Q1,85,Q3,0,-99999,-99999,1,0.25,10,0.425,10,Abercrombie_etal_2000&HarvardCMT,0.015482311,0.015490792,0.015505092,0.015553082,0.01557238,0.015662952,0.01649555,0.017295266,0.018731468,0.024756638,0.031789494,0.029726254,0.036863625,0.070786289,0.028588839,0.015024445,0.016868003,-99999,-99999,-99999,-99999,-99999,0.017202321,0.017225968,0.017209534,0.017246223,0.017277627,0.017357966,0.01862598,0.020331316,0.022177845,0.029941871,0.035930182,0.038086431,0.051296174,0.07871816,0.035427586,0.021061077,0.021002494,-99999,-99999,-99999,-99999,-99999,0.015473,0.017197,0.019453,0.022497
608810,1994-06-18T03:25:13.819000Z,D94044A1b,6.72,0.08,Crustal,R,1,221,47,112,geonet,-43.0078,171.4762,-45.8986,170.5097,5798820.69,2385786.14,5475848,2316608,21.06,21.06,330.46,330.33,323.2,323.05,-155.59,289.14,0,4.27,1,nu,SKFS,D,140,Q2,0.8,Q3,25,Q3,0,-99999,-99999,1,0.2,10,0.34,10,Abercrombie_etal_2000&HarvardCMT,0.013960558,0.013990734,0.013996061,0.014032167,0.014088122,0.014297991,0.014949672,0.016011932,0.019261366,0.024504769,0.025512224,0.024763441,0.050063804,0.092004249,0.037493646,0.016088734,0.007086756,-99999,-99999,-99999,-99999,-99999,0.015707748,0.015709612,0.015739889,0.015759993,0.015787753,0.015883126,0.016068302,0.018036612,0.021097273,0.027337309,0.029813518,0.027723868,0.065002948,0.105881229,0.04944483,0.018286854,0.008005818,-99999,-99999,-99999,-99999,-99999,0.013958,0.015708,0.018737,0.02038
608810,1994-06-18T03:25:13.819000Z,D94051D1,6.72,0.08,Crustal,R,1,221,47,112,geonet,-43.0078,171.4762,-41.7557,171.5998,5798820.69,2385786.14,5938069,2393545,21.06,21.06,139.6,139.53,132.84,132.84,89.59,-110.18,0,4.27,1,nu,WBCS,D,300,Q3,1.2,Q2,105,Q3,0,-99999,-99999,0,0.25,20,0.425,20,Abercrombie_etal_2000&HarvardCMT,0.045902201,0.046193003,0.046566076,0.047099821,0.053591168,0.083921221,0.100457489,0.114821524,0.118320966,0.115491676,0.127774804,0.112412033,0.131532589,0.169016056,0.098114447,0.042655611,0.041308278,-99999,-99999,-99999,-99999,-99999,0.058162697,0.058545739,0.059290541,0.06077321,0.064448088,0.10338354,0.121535976,0.122164679,0.13714229,0.124078334,0.169045114,0.135900771,0.184217419,0.218386414,0.105667184,0.047514273,0.045603281,-99999,-99999,-99999,-99999,-99999,0.045551,0.058169,0.050876,0.058746
608810,1994-06-18T03:25:13.819000Z,D94054A3,6.72,0.08,Crustal,R,1,221,47,112,geonet,-43.0078,171.4762,-43.883,169.0441,5798820.69,2385786.14,5695156,2192230,21.06,21.06,219.12,219.61,211.53,212.02,82.16,205.22,0,4.27,1,nu,HDWS,D,210,Q3,0.87,Q1,100,Q3,0,-99999,-99999,1,0.3,11,0.51,11,Abercrombie_etal_2000&HarvardCMT,0.014427317,0.014519733,0.014666807,0.014935217,0.015300266,0.017148177,0.027932014,0.038417179,0.03531138,0.053722429,0.053601657,0.047406425,0.040918801,0.03474065,0.022930135,0.011039505,-99999,-99999,-99999,-99999,-99999,-99999,0.019526638,0.019629592,0.019836674,0.020147263,0.020541344,0.022526188,0.031886908,0.043976478,0.043088862,0.067902515,0.073658587,0.060204193,0.048729868,0.041248175,0.031504737,0.013616906,-99999,-99999,-99999,-99999,-99999,-99999,0.014384,0.01943,0.01289,0.014801
608810,1994-06-18T03:25:13.819000Z,D94129A2,6.72,0.08,Crustal,R,1,221,47,112,geonet,-43.0078,171.4762,-41.7999,172.328,5798820.69,2385786.14,5933893,2454147,21.06,21.06,151.43,151.45,143.62,143.66,41.11,-146.79,0,4.27,1,nu,MCAS,D,501,Q3,1.6,Q3,200,Q3,0,-99999,-99999,0,0.1,13,0.17,13,Abercrombie_etal_2000&HarvardCMT,0.027194458,0.027347714,0.027604301,0.02793798,0.02841,0.035944628,0.040323705,0.078435962,0.075596805,0.088482315,0.082720815,0.09497089,0.094090509,0.057158479,0.066720482,0.03182777,0.036334717,0.011399921,0.004979961,0.004823013,-99999,-99999,0.029467301,0.029591448,0.029843998,0.030263614,0.030938046,0.04005343,0.045582853,0.09685612,0.101094632,0.092693612,0.108543801,0.109212639,0.105936885,0.06637923,0.081502102,0.039410158,0.043549015,0.01564758,0.005686636,0.006183434,-99999,-99999,0.027166,0.029349,0.027983,0.029524
608810,1994-06-18T03:25:13.819000Z,K94112A1,6.72,0.08,Crustal,R,1,221,47,112,geonet,-43.0078,171.4762,-43.1325,171.7693,5798820.69,2385786.14,5785358,2409884,21.06,21.06,27.55,28.04,23.3,23.35,-22.93,-5.65,0,4.27,1,fw,112B,C,667,Q3,0.36,Q3,60,Q3,0,-99999,-99999,1,0.35,18,0.595,18,Abercrombie_etal_2000&HarvardCMT,0.134145241,0.135048599,0.136626298,0.139240467,0.145242116,0.190469373,0.293508936,0.339169028,0.397415387,0.445098097,0.395567949,0.240100987,0.245636865,0.159618453,0.092946298,0.044165486,-99999,-99999,-99999,-99999,-99999,-99999,0.147887937,0.148421448,0.14922248,0.151133151,0.157875032,0.223839961,0.398428772,0.374692007,0.418141168,0.6251339,0.559411598,0.274469485,0.327590166,0.180342461,0.120742971,0.05154613,-99999,-99999,-99999,-99999,-99999,-99999,0.133497,0.147884,0.080934,0.108476
697172,1994-12-15T11:20:17.858000Z,K5113A01,6.31,0.15,Crustal,S,0,194,77,-1.61E+02,geonet,-37.1987,177.528,-37.8735,177.5847,6434683.68,2912134.85,6359624,2913365,13.1,13.1,75.2,76.03,70.88,72.17,-99999,-99999,10,12,5.68,nu,113A,C,522,Q3,0.15,Q3,10,Q3,0,-99999,-99999,1,0.5,11,0.85,11,HarvardCMT,0.080155742,0.080644955,0.081331094,0.082385173,0.083757785,0.088839044,0.111115859,0.16721662,0.328968543,0.410358219,0.204280179,0.188891494,0.0860248,0.028281667,0.024187632,-99999,-99999,-99999,-99999,-99999,-99999,-99999,0.087825489,0.088212647,0.088818209,0.089695534,0.090801931,0.096730961,0.122636665,0.193806843,0.446717453,0.55535365,0.252148569,0.208068033,0.099586774,0.03939682,0.027890212,-99999,-99999,-99999,-99999,-99999,-99999,-99999,0.079917,0.087819,0.035922,0.044695
731516,1995-02-05T22:51:04.665000Z,D5016A02,7.09,0.15,Crustal,N,0,215,58,-9.00E+01,geonet,-37.6496,179.4886,-38.6774,178.031,6374193.93,3082358.22,6268431,2947608,32.2,32.2,171.17,171.73,155.42,156.01,-99999,-99999,0,12,1.73,nu,016A,C,480,Q3,0.15,Q3,10,Q3,0,-99999,-99999,0,0.35,14,0.595,14,HarvardCMT,0.019709633,0.01979554,0.019909378,0.020117135,0.020466093,0.023440228,0.027863245,0.0474271,0.046399857,0.043259171,0.058093444,0.058927364,0.068881193,0.056324134,0.030921985,0.012602401,-99999,-99999,-99999,-99999,-99999,-99999,0.022114501,0.022188947,0.022332098,0.02252628,0.022791509,0.025401217,0.031448929,0.052602992,0.050432334,0.047087706,0.072424397,0.072419353,0.086640359,0.064269637,0.034144671,0.016511655,-99999,-99999,-99999,-99999,-99999,-99999,0.019614,0.022096,0.013599,0.015489
731516,1995-02-05T22:51:04.665000Z,D5017A02,7.09,0.15,Crustal,N,0,215,58,-9.00E+01,geonet,-37.6496,179.4886,-38.6665,178.0227,6374193.93,3082358.22,6269685,2946952,32.2,32.2,170.91,171.47,155.18,155.77,-99999,-99999,0,12,1.73,nu,GISS,D,138,Q2,1,Q1,40,Q3,0,-99999,-99999,0,0.18,12,0.306,12,HarvardCMT,0.022678914,0.0227564,0.022832969,0.022994595,0.023183603,0.024409585,0.032606338,0.044439575,0.066538022,0.058312468,0.068905974,0.062746397,0.06362598,0.079147297,0.053178062,0.020044277,0.009611111,0.004308803,-99999,-99999,-99999,-99999,0.026674096,0.026742927,0.026840954,0.026983296,0.027182437,0.028054962,0.034095367,0.048159746,0.076693264,0.06190855,0.079716674,0.073616067,0.078469844,0.106644497,0.064977879,0.023631046,0.01083706,0.005246256,-99999,-99999,-99999,-99999,0.022668,0.026673,0.023536,0.028064
731516,1995-02-05T22:51:04.665000Z,D5709A03,7.09,0.15,Crustal,N,0,215,58,-9.00E+01,geonet,-37.6496,179.4886,-38.6257,177.9216,6374193.93,3082358.22,6274694,2938413,32.2,32.2,174.82,175.4,159.22,159.85,-99999,-99999,0,12,1.73,nu,GWTS,D,245,Q3,1.5,Q3,125,Q3,0,-99999,-99999,0,0.15,10,0.255,10,HarvardCMT,0.021732253,0.021762043,0.021812727,0.021833358,0.021860126,0.021950779,0.023246293,0.028424344,0.038217273,0.042935724,0.044672958,0.051685345,0.063195155,0.072543243,0.061491207,0.073657947,0.051867325,0.024742685,-99999,-99999,-99999,-99999,0.023720407,0.023762652,0.023818102,0.023906503,0.02404683,0.024562672,0.025459215,0.034136842,0.048520735,0.058872862,0.063033803,0.061335624,0.069842598,0.086871192,0.071694847,0.092831975,0.053897759,0.029995992,-99999,-99999,-99999,-99999,0.021733,0.023696,0.047036,0.051666
731516,1995-02-05T22:51:04.665000Z,D5712A03,7.09,0.15,Crustal,N,0,215,58,-9.00E+01,geonet,-37.6496,179.4886,-37.9615,176.9855,6374193.93,3082358.22,6352382,2860270,32.2,32.2,222.62,223.48,209.17,210.15,-99999,-99999,0,12,1.73,nu,WKHS,D,210,Q3,0.71,Q2,100,Q3,0,-99999,-99999,0,0.25,12,0.425,12,HarvardCMT,0.01743833,0.017469365,0.017526849,0.01769465,0.017971932,0.019568359,0.024599747,0.038993626,0.036731618,0.035017407,0.046004175,0.044568412,0.081142786,0.042880537,0.021187283,0.010668256,0.006503611,-99999,-99999,-99999,-99999,-99999,0.018991885,0.019035361,0.019106831,0.019184631,0.01935515,0.021367795,0.02695713,0.047913291,0.041776602,0.039024952,0.049092877,0.055104178,0.097180068,0.053620495,0.024462753,0.013146493,0.008428408,-99999,-99999,-99999,-99999,-99999,0.017383,0.01896,0.01429,0.016299
731516,1995-02-05T22:51:04.665000Z,K5113A02,7.09,0.15,Crustal,N,0,215,58,-9.00E+01,geonet,-37.6496,179.4886,-37.8735,177.5847,6374193.93,3082358.22,6359624,2913365,32.2,32.2,169.2,170.05,155.84,156.86,-99999,-99999,0,12,1.73,nu,113A,C,522,Q3,0.15,Q3,10,Q3,0,-99999,-99999,1,0.4,11,0.68,11,HarvardCMT,0.038571892,0.038811026,0.039205837,0.039785687,0.040561202,0.043721313,0.051860898,0.094333006,0.208818836,0.283459513,0.149845712,0.077807977,0.057231404,0.032123211,0.017694973,-99999,-99999,-99999,-99999,-99999,-99999,-99999,0.041673693,0.041889156,0.042263197,0.042789689,0.04347029,0.04704082,0.060533862,0.106331186,0.257418881,0.331809576,0.185717233,0.107372888,0.068425333,0.036935046,0.024171153,-99999,-99999,-99999,-99999,-99999,-99999,-99999,0.038456,0.041675,0.017797,0.020876
721911,1995-02-10T01:44:56.764000Z,D5016A04,6.49,0.15,Crustal,N,0,220,41,-7.80E+01,irisdmc,-38.1086,178.6757,-38.6774,178.031,6344659.25,3005555.26,6268431,2947608,16.2,16.2,84.6,96.52,87.77,88.47,-99999,-99999,0,12,6.26,nu,016A,C,480,Q3,0.15,Q3,10,Q3,0,-99999,-99999,1,0.3,10,0.51,10,HarvardCMT,0.013071082,0.013108855,0.013165869,0.013266452,0.013374455,0.013871648,0.018118629,0.027283933,0.037700062,0.033896642,0.04764777,0.045075147,0.057857135,0.044201114,0.025046854,0.013977856,-99999,-99999,-99999,-99999,-99999,-99999,0.015125803,0.015180933,0.015270589,0.01536834,0.015526848,0.016108974,0.022862123,0.029169924,0.045400944,0.0364994,0.053061101,0.049232665,0.069155167,0.048015744,0.030641641,0.015005949,-99999,-99999,-99999,-99999,-99999,-99999,0.01307,0.015125,0.011199,0.012434
721911,1995-02-10T01:44:56.764000Z,D5017A03,6.49,0.15,Crustal,N,0,220,41,-7.80E+01,irisdmc,-38.1086,178.6757,-38.6665,178.0227,6344659.25,3005555.26,6269685,2946952,16.2,16.2,84.19,95.91,87.18,87.87,-99999,-99999,0,12,6.26,nu,GISS,D,138,Q2,1,Q1,40,Q3,0,-99999,-99999,1,0.2,10,0.34,10,HarvardCMT,0.015887618,0.015940874,0.016011187,0.01610661,0.016254693,0.016895573,0.019391388,0.031613389,0.04169227,0.051959623,0.059654963,0.046227269,0.058611064,0.05312314,0.038847123,0.01886438,0.007887086,-99999,-99999,-99999,-99999,-99999,0.020426439,0.020442121,0.020494395,0.020575582,0.020658659,0.021003261,0.023472307,0.035384068,0.051087697,0.06117625,0.070611297,0.0503424,0.076718545,0.05707248,0.046677803,0.02642354,0.010128242,-99999,-99999,-99999,-99999,-99999,0.015846,0.020389,0.017052,0.020424
722185,1995-03-22T19:43:30.268000Z,D5040A01,5.83,0.15,Slab,S,0,27,64,30,nlloc,-41.0514,174.216,-41.5763,175.2269,6016538.56,2612205.51,5956588,2695679,7.6,7.6,102.64,133.7,100.01,131.33,-99999,-99999,0,85.51,82.13,nu,040A,B,770,Q3,0.08,Q3,7,Q3,0,-99999,-99999,1,0.25,22,0.425,22,HarvardCMT,0.022535983,0.023190114,0.024507614,0.027302243,0.039380501,0.068248771,0.090685134,0.06299092,0.0623858,0.059244693,0.041394882,0.018844339,0.017467444,0.009885556,0.006213252,0.004105614,0.002770995,-99999,-99999,-99999,-99999,-99999,0.027227061,0.028011462,0.029533072,0.033883817,0.055691875,0.081516578,0.126759122,0.075683247,0.065792888,0.082743684,0.055634187,0.024304585,0.023479064,0.012264079,0.007083997,0.005066391,0.003577786,-99999,-99999,-99999,-99999,-99999,0.022443,0.026833,0.006984,0.007547
722185,1995-03-22T19:43:30.268000Z,D5050A02,5.83,0.15,Slab,S,0,27,64,30,nlloc,-41.0514,174.216,-41.1247,173.0095,6016538.56,2612205.51,6009109,2510784,7.6,7.6,101.44,132.87,98.42,129.2,-99999,-99999,0,85.51,82.13,nu,MOTS,D,300,Q3,1.27,Q3,300,Q3,0,-99999,-99999,0,0.3,25,0.51,25,HarvardCMT,0.075007302,0.076044957,0.078267884,0.085995129,0.115198112,0.183910642,0.22628704,0.207556415,0.327026722,0.358932074,0.309998556,0.201788231,0.098487093,0.030378813,0.014649885,0.013747285,-99999,-99999,-99999,-99999,-99999,-99999,0.081439093,0.082106679,0.083204012,0.09482419,0.124521971,0.213506966,0.248217424,0.266051283,0.435053993,0.385052751,0.389551843,0.266341516,0.123982052,0.037421229,0.019424907,0.018216976,-99999,-99999,-99999,-99999,-99999,-99999,0.074658,0.081151,0.031704,0.038098
722185,1995-03-22T19:43:30.268000Z,D5056A02,5.83,0.15,Slab,S,0,27,64,30,nlloc,-41.0514,174.216,-41.2758,173.2851,6016538.56,2612205.51,5992292,2533876,7.6,7.6,81.82,118.48,78.7,114.72,-99999,-99999,0,85.51,82.13,nu,056A,B,450,Q3,0.07,Q3,5,Q3,0,-99999,-99999,0,0.3,15,0.51,15,HarvardCMT,0.204376134,0.205842177,0.208348406,0.212124948,0.217712364,0.27000243,0.307605246,0.540943776,0.494439908,0.753449775,0.678385737,0.278539432,0.16045747,0.08752725,0.025495334,0.015195458,-99999,-99999,-99999,-99999,-99999,-99999,0.257207537,0.259065288,0.262228935,0.267288651,0.275167274,0.347070737,0.360239841,0.713681522,0.699342365,1.05914021,0.935972779,0.390928236,0.226322894,0.111454713,0.032039273,0.021409728,-99999,-99999,-99999,-99999,-99999,-99999,0.203401,0.256838,0.086241,0.109037
722185,1995-03-22T19:43:30.268000Z,D5129A01,5.83,0.15,Slab,S,0,27,64,30,nlloc,-41.0514,174.216,-41.7999,172.328,6016538.56,2612205.51,5933893,2454147,7.6,7.6,178.06,197.87,174.9,194.27,-99999,-99999,0,85.51,82.13,nu,MCAS,D,501,Q3,1.6,Q3,200,Q3,0,-99999,-99999,0,0.3,17,0.51,17,HarvardCMT,0.03292386,0.03327374,0.033902314,0.034785718,0.036317786,0.049835477,0.080033602,0.102161747,0.172158171,0.109719035,0.102896334,0.075994535,0.058444352,0.03187833,0.038399763,0.014545093,-99999,-99999,-99999,-99999,-99999,-99999,0.041479027,0.041856928,0.04247654,0.043455404,0.045087538,0.05928827,0.08799878,0.116736884,0.208859555,0.14200763,0.143104645,0.092432715,0.070165894,0.035633051,0.044121904,0.017662057,-99999,-99999,-99999,-99999,-99999,-99999,0.032924,0.041474,0.019706,0.021382
722185,1995-03-22T19:43:30.268000Z,D5130B01,5.83,0.15,Slab,S,0,27,64,30,nlloc,-41.0514,174.216,-41.6696,173.2029,6016538.56,2612205.51,5948576,2526890,7.6,7.6,108.97,138.82,105.86,135.11,-99999,-99999,0,85.51,82.13,nu,130B,D,367,Q3,0.85,Q3,100,Q3,0,-99999,-99999,1,0.4,24,0.68,24,HarvardCMT,0.020825709,0.021622327,0.023161516,0.029565911,0.053803853,0.084091837,0.085337561,0.064878347,0.039370791,0.052158085,0.051098862,0.033105789,0.015348651,0.013846555,0.006059953,-99999,-99999,-99999,-99999,-99999,-99999,-99999,0.023091024,0.024066298,0.025979696,0.034166342,0.056484469,0.099647118,0.098401303,0.074777884,0.051246789,0.066977259,0.064076673,0.045770424,0.018613485,0.019025704,0.006997574,-99999,-99999,-99999,-99999,-99999,-99999,-99999,0.020729,0.023068,0.007133,0.008654
722185,1995-03-22T19:43:30.268000Z,D5131A06,5.83,0.15,Slab,S,0,27,64,30,nlloc,-41.0514,174.216,-40.9143,175.005,6016538.56,2612205.51,6030534,2678862,7.6,7.6,67.96,109.33,64.87,106.63,-99999,-99999,0,85.51,82.13,nu,PAPS,D,200,Q3,1.4,Q1,100,Q3,0,-99999,-99999,0,0.45,18,0.765,18,HarvardCMT,0.062968129,0.06414658,0.06625727,0.069859878,0.077593586,0.123995253,0.180745947,0.20522053,0.174522531,0.189943881,0.136116804,0.109432903,0.075460148,0.037192933,0.027807915,-99999,-99999,-99999,-99999,-99999,-99999,-99999,0.082811098,0.084194659,0.086568513,0.090290819,0.095392624,0.139149866,0.194518786,0.266256104,0.208426811,0.268043646,0.164805391,0.145201455,0.080732116,0.043009554,0.035820845,-99999,-99999,-99999,-99999,-99999,-99999,-99999,0.062974,0.080919,0.023458,0.025778
722185,1995-03-22T19:43:30.268000Z,D5132A05,5.83,0.15,Slab,S,0,27,64,30,nlloc,-41.0514,174.216,-41.2975,174.781,6016538.56,2612205.51,5988401,2659132,7.6,7.6,54.63,101.53,52,98.73,-99999,-99999,0,85.51,82.13,nu,132A,C,245,Q2,0.47,Q2,27,Q2,0,-99999,-99999,0,0.3,15,0.51,15,HarvardCMT,0.053635341,0.054293232,0.055423889,0.057137302,0.05970684,0.090132637,0.154272596,0.264537706,0.139314481,0.119588347,0.126352568,0.11814927,0.105262396,0.042069593,0.015483731,0.012006645,-99999,-99999,-99999,-99999,-99999,-99999,0.064240756,0.065230407,0.066900499,0.069480353,0.073370369,0.09988391,0.21817436,0.33527535,0.182687497,0.148055627,0.140397997,0.135448437,0.143774366,0.052635335,0.016474738,0.013766277,-99999,-99999,-99999,-99999,-99999,-99999,0.053645,0.064267,0.022839,0.02753
722185,1995-03-22T19:43:30.268000Z,D5302A03,5.83,0.15,Slab,S,0,27,64,30,nlloc,-41.0514,174.216,-39.9338,175.053,6016538.56,2612205.51,6139282,2685450,7.6,7.6,143.02,166.57,140.12,164.23,-99999,-99999,0,85.51,82.13,nu,302A,D,250,Q2,0.8,Q3,80,Q3,0,-99999,-99999,0,0.4,18,0.68,18,HarvardCMT,0.03016682,0.030590227,0.031404989,0.032743117,0.035403893,0.051839754,0.104769566,0.104687537,0.089634631,0.103206514,0.099564318,0.106109264,0.077790612,0.038996411,0.017990199,-99999,-99999,-99999,-99999,-99999,-99999,-99999,0.034817828,0.035225492,0.035946063,0.037096648,0.03856177,0.056794657,0.116268096,0.137668528,0.11556931,0.12019547,0.11633141,0.148022752,0.094487909,0.048226035,0.020740459,-99999,-99999,-99999,-99999,-99999,-99999,-99999,0.030144,0.034818,0.01655,0.019803
722185,1995-03-22T19:43:30.268000Z,D5643B07,5.83,0.15,Slab,S,0,27,64,30,nlloc,-41.0514,174.216,-41.1513,174.9794,6016538.56,2612205.51,6004275,2676112,7.6,7.6,64.92,107.53,62.09,104.88,-99999,-99999,0,85.51,82.13,nu,643B,B,1000,Q3,<0.1,Q3,1.50E+00,Q3,0,-99999,-99999,0,0.3,30,0.51,30,HarvardCMT,0.043801326,0.045068421,0.048786836,0.057806431,0.061642153,0.106990249,0.127809196,0.289323163,0.146239779,0.09763914,0.070903291,0.035323302,0.020713406,0.013825333,0.006774786,0.003887265,-99999,-99999,-99999,-99999,-99999,-99999,0.052855246,0.054311637,0.057982476,0.067445467,0.075809776,0.122942955,0.161780276,0.38426477,0.156678655,0.121825506,0.083672228,0.048666964,0.027045621,0.016249674,0.007390048,0.005453543,-99999,-99999,-99999,-99999,-99999,-99999,0.043803,0.051789,0.013908,0.016355
