CuspID,Origin_time,Record,Mw,MwUncert,TectClass,Mech,PreferredFaultPlane,Strike,Dip,Rake,Location,HypLat,HypLon,StationLat,StationLon,HypN,HypE,StationN,StationE,LENGTH_km,WIDTH_km,Repi_km,Rhyp_km,Rjb_km,Rrup_km,Rx_km,Ry_km,Rvol_km,HypDepth_km,ZTOR_km,HWFW,SiteCode,SiteClass1170,Vs30,Vs30Uncert,Tsite,TsiteUncert,Z1,Z1Uncertainty,Directivity,Pulse_or,Pulse_T,S_Trigger_Flag,fcButterHP,f_iniLP,fmin,fmax,References,f100.0000SA_RotD50,f50.0000SA_RotD50,f33.3333SA_RotD50,f25.0000SA_RotD50,f20.0000SA_RotD50,f13.3333SA_RotD50,f10.0000SA_RotD50,f6.6667SA_RotD50,f5.0000SA_RotD50,f4.0000SA_RotD50,f3.3333SA_RotD50,f2.5000SA_RotD50,f2.0000SA_RotD50,f1.3333SA_RotD50,f1.0000SA_RotD50,f0.6667SA_RotD50,f0.5000SA_RotD50,f0.3333SA_RotD50,f0.2500SA_RotD50,f0.2000SA_RotD50,f0.1333SA_RotD50,f0.1000SA_RotD50,f100.0000SA_RotD100,f50.0000SA_RotD100,f33.3333SA_RotD100,f25.0000SA_RotD100,f20.0000SA_RotD100,f13.3333SA_RotD100,f10.0000SA_RotD100,f6.6667SA_RotD100,f5.0000SA_RotD100,f4.0000SA_RotD100,f3.3333SA_RotD100,f2.5000SA_RotD100,f2.0000SA_RotD100,f1.3333SA_RotD100,f1.0000SA_RotD100,f0.6667SA_RotD100,f0.5000SA_RotD100,f0.3333SA_RotD100,f0.2500SA_RotD100,f0.2000SA_RotD100,f0.1333SA_RotD100,f0.1000SA_RotD100,PGA_RotD50,PGA_RotD100,PGV_RotD50,PGV_RotD100
164529,1990-10-04T23:48:26.123000Z,D90606B5,5.57,0.15,Interface,O,1,190,21,58,special,-41.61,175.44,-41.2333,174.9199,5952370.8,2713346.37,5995282,2670919,7.6,7.6,60.3,61.9,58.15,59.96,51.33,-34.89,0,13.8,12.99,nu,606B,B,800,Q3,<0.1,Q3,0,Q3,0,-99999,-99999,0,0.4,12,0.68,12,HarvardCMT&Luo(1992),0.013716446,0.013798231,0.013940859,0.014109043,0.014283149,0.014919545,0.016082455,0.016890957,0.01541088,0.013590255,0.01359866,0.011452968,0.008864545,0.006974419,0.005482733,-99999,-99999,-99999,-99999,-99999,-99999,-99999,0.018007897,0.018085384,0.018301847,0.018598365,0.018911273,0.019913423,0.020565202,0.019559234,0.016446579,0.01627181,0.015789052,0.012962688,0.010175844,0.007929297,0.005916012,-99999,-99999,-99999,-99999,-99999,-99999,-99999,0.013701,0.018028,0.009334,0.010354
164529,1990-10-04T23:48:26.123000Z,D90642E8,5.57,0.15,Interface,O,1,190,21,58,special,-41.61,175.44,-41.2341,174.918,5952370.8,2713346.37,5995197,2670758,7.6,7.6,60.35,61.96,58.2,60.01,51.48,-34.78,0,13.8,12.99,nu,642E,C,350,Q1,0.35,Q2,50,Q3,0,-99999,-99999,0,0.4,13,0.68,13,HarvardCMT&Luo(1992),0.037674522,0.037770572,0.037998252,0.038232065,0.038566345,0.039522966,0.04032296,0.042486596,0.044556622,0.045812836,0.043882753,0.034112938,0.026848048,0.013955099,0.00959781,-99999,-99999,-99999,-99999,-99999,-99999,-99999,0.042348714,0.042447311,0.042693205,0.04305445,0.043502592,0.045072765,0.046883533,0.05039856,0.051960624,0.051163788,0.046875762,0.041016992,0.032453681,0.015018109,0.010529539,-99999,-99999,-99999,-99999,-99999,-99999,-99999,0.037615,0.042374,0.022462,0.02414
164529,1990-10-04T23:48:26.123000Z,D90900B5,5.57,0.15,Interface,O,1,190,21,58,special,-41.61,175.44,-41.2921,174.779,5952370.8,2713346.37,5989003,2658976,7.6,7.6,65.46,67,63.34,65.08,62.01,-26.63,0,13.8,12.99,nu,941A,D,272,Q2,0.85,Q2,9.85E+01,Q2,0,-99999,-99999,0,0.4,11.5,0.68,11.5,HarvardCMT&Luo(1992),0.02264771,0.022694022,0.022775021,0.022877369,0.023038448,0.023496747,0.024191824,0.026275139,0.026985932,0.026053915,0.025858748,0.024847871,0.023486039,0.019431653,0.013206539,-99999,-99999,-99999,-99999,-99999,-99999,-99999,0.025324145,0.02534999,0.025442038,0.025532305,0.025611469,0.025800659,0.026227017,0.028707818,0.028343153,0.028772167,0.028316069,0.028458151,0.027254325,0.020912181,0.014694964,-99999,-99999,-99999,-99999,-99999,-99999,-99999,0.02265,0.025338,0.022889,0.025328
164529,1990-10-04T23:48:26.123000Z,D90935B2,5.57,0.15,Interface,O,1,190,21,58,special,-41.61,175.44,-41.2108,174.9047,5952370.8,2713346.37,5997808,2669699,7.6,7.6,62.96,64.5,60.81,62.54,52.97,-37.17,0,13.8,12.99,nu,935A,D,240,Q3,1.2,Q3,275,Q3,0,-99999,-99999,0,0.4,15,0.68,15,HarvardCMT&Luo(1992),0.032867186,0.032985296,0.033248535,0.033560348,0.033964162,0.035131956,0.036185867,0.038205369,0.039702807,0.039035503,0.037948023,0.031280861,0.025072234,0.021077671,0.018854651,-99999,-99999,-99999,-99999,-99999,-99999,-99999,0.037482823,0.037583138,0.037768316,0.037998112,0.038256786,0.038768536,0.038922375,0.042603395,0.04648817,0.048158216,0.046765318,0.036559088,0.034541219,0.02861282,0.022735773,-99999,-99999,-99999,-99999,-99999,-99999,-99999,0.032746,0.037519,0.034941,0.042109
164529,1990-10-04T23:48:26.123000Z,D90941A5,5.57,0.15,Interface,O,1,190,21,58,special,-41.61,175.44,-41.2921,174.779,5952370.8,2713346.37,5989003,2658976,7.6,7.6,65.46,67,63.34,65.08,62.01,-26.63,0,13.8,12.99,nu,941A,D,272,Q2,0.85,Q2,9.85E+01,Q2,0,-99999,-99999,0,0.41,11,0.697,11,HarvardCMT&Luo(1992),0.022963056,0.023009889,0.023144609,0.023321167,0.023535371,0.02438721,0.025389013,0.026832702,0.026001348,0.024503401,0.024002731,0.022814378,0.021313106,0.016697082,0.011091703,-99999,-99999,-99999,-99999,-99999,-99999,-99999,0.031394403,0.031488639,0.031596739,0.031718503,0.031897388,0.03250315,0.033651318,0.035869819,0.035565473,0.034404745,0.032622496,0.030053401,0.026361846,0.020111886,0.015441802,-99999,-99999,-99999,-99999,-99999,-99999,-99999,0.022982,0.031422,0.021391,0.023599
160610,1990-10-06T02:41:12.583000Z,D90642EB,5.46,0.15,Interface,O,1,250,38,145,special,-41.61,175.43,-41.2341,174.918,5952394.08,2712513.04,5995197,2670758,6.7,6.7,59.75,61.46,58.1,60.11,56.08,24.6,0,14.2,12.97,nu,642E,C,350,Q1,0.35,Q2,50,Q3,0,-99999,-99999,0,0.6,11,1.02,11,HarvardCMT&Luo(1992),0.028060104,0.028153426,0.028257453,0.028377427,0.028591856,0.029233551,0.030338702,0.032446986,0.033300904,0.034376591,0.033725079,0.028623176,0.021270711,0.009122066,-99999,-99999,-99999,-99999,-99999,-99999,-99999,-99999,0.030133954,0.030252897,0.030404577,0.030619806,0.030972452,0.031992906,0.033327986,0.035375415,0.035989219,0.036308262,0.035642416,0.033736739,0.02659806,0.012448237,-99999,-99999,-99999,-99999,-99999,-99999,-99999,-99999,0.027979,0.030104,0.016174,0.019076
160610,1990-10-06T02:41:12.583000Z,D90900B6,5.46,0.15,Interface,O,1,250,38,145,special,-41.61,175.43,-41.2921,174.779,5952394.08,2712513.04,5989003,2658976,6.7,6.7,64.76,66.39,63.03,64.9,54.29,37.79,0,14.2,12.97,nu,941A,D,272,Q2,0.85,Q2,9.85E+01,Q2,0,-99999,-99999,0,0.4,10,0.68,10,HarvardCMT&Luo(1992),0.014070812,0.014091291,0.014125349,0.014172605,0.014232528,0.014422808,0.014668901,0.015293907,0.016001036,0.01600431,0.015282931,0.013299566,0.012091484,0.010142024,0.007358678,-99999,-99999,-99999,-99999,-99999,-99999,-99999,0.019025781,0.019042291,0.019094579,0.019155422,0.019223371,0.01949404,0.01987913,0.020858189,0.022077772,0.022049115,0.020972577,0.018081518,0.016466811,0.014330387,0.010245378,-99999,-99999,-99999,-99999,-99999,-99999,-99999,0.014052,0.019034,0.012221,0.01399
160610,1990-10-06T02:41:12.583000Z,D90935B3,5.46,0.15,Interface,O,1,250,38,145,special,-41.61,175.43,-41.2108,174.9047,5952394.08,2712513.04,5997808,2669699,6.7,6.7,62.37,64.01,60.72,62.65,58.89,24.7,0,14.2,12.97,nu,935A,D,240,Q3,1.2,Q3,275,Q3,0,-99999,-99999,0,0.3,15,0.51,15,HarvardCMT&Luo(1992),0.019830907,0.01990009,0.019980709,0.0200859,0.020233584,0.020690373,0.021134527,0.022665823,0.023176384,0.022067089,0.020905498,0.018709086,0.016993949,0.011419114,0.008817742,0.006082354,-99999,-99999,-99999,-99999,-99999,-99999,0.021455247,0.021502713,0.02160487,0.021765301,0.021947146,0.022581178,0.023524733,0.025902501,0.026450036,0.026065001,0.025186985,0.023179326,0.020785075,0.014539113,0.011544722,0.00736738,-99999,-99999,-99999,-99999,-99999,-99999,0.019813,0.021374,0.01878,0.023053
160610,1990-10-06T02:41:12.583000Z,D90941A6,5.46,0.15,Interface,O,1,250,38,145,special,-41.61,175.43,-41.2921,174.779,5952394.08,2712513.04,5989003,2658976,6.7,6.7,64.76,66.39,63.03,64.9,54.29,37.79,0,14.2,12.97,nu,941A,D,272,Q2,0.85,Q2,9.85E+01,Q2,0,-99999,-99999,0,0.35,12,0.595,12,HarvardCMT&Luo(1992),0.013384099,0.013414679,0.01346823,0.013544664,0.013637102,0.014044104,0.014641958,0.015211849,0.014766158,0.013513826,0.013049984,0.011560275,0.011094356,0.007971578,0.005879524,0.002891485,-99999,-99999,-99999,-99999,-99999,-99999,0.016519389,0.016563316,0.016626135,0.016770504,0.016950032,0.017578855,0.018115907,0.018252882,0.018081979,0.017898994,0.01746238,0.014900538,0.012787465,0.010197918,0.00701456,0.003403043,-99999,-99999,-99999,-99999,-99999,-99999,0.013333,0.016519,0.009242,0.010038
194283,1991-01-28T12:58:46.823000Z,A91051B1,5.76,0.08,Crustal,R,1,42,30,99,special,-41.89,171.58,-41.7557,171.5998,5923123.14,2392149.06,5938069,2393545,6.97,6.97,15.03,18.04,11.7,14.67,-5.94,12.04,0,10,8.26,nu,WBCS,D,300,Q3,1.2,Q2,105,Q3,0,-99999,-99999,1,0.4,27,0.68,27,Anderson_etal_1993&Dowrick_Rhoades1998&HarvardCMT,0.143585961,0.144602586,0.146768871,0.149053643,0.152714128,0.158581079,0.15778727,0.145746933,0.130269552,0.131293878,0.126663507,0.121118094,0.113043367,0.08337216,0.059276132,-99999,-99999,-99999,-99999,-99999,-99999,-99999,0.162222996,0.164489895,0.166799826,0.168148978,0.168753932,0.178812399,0.191906975,0.166621782,0.157620565,0.151893417,0.141866555,0.141055742,0.144999524,0.112408514,0.082220549,-99999,-99999,-99999,-99999,-99999,-99999,-99999,0.142879,0.161382,0.10733,0.128337
194283,1991-01-28T12:58:46.823000Z,A91083A1,5.76,0.08,Crustal,R,1,42,30,99,special,-41.89,171.58,-41.8311,171.6606,5923123.14,2392149.06,5929772,2398735,6.97,6.97,9.35,13.7,5.87,11.28,3.46,9.35,0,10,8.26,nu,083A,B,1200,Q3,<0.1,Q3,0,Q2,0,-99999,-99999,0,0.5,40,0.85,40,Anderson_etal_1993&Dowrick_Rhoades1998&HarvardCMT,0.201935757,0.206673923,0.215024235,0.218830838,0.221761062,0.201679988,0.172614032,0.144301802,0.128691971,0.105019078,0.093996951,0.082003708,0.07258873,0.043325323,0.030550629,-99999,-99999,-99999,-99999,-99999,-99999,-99999,0.251077816,0.285775759,0.295215438,0.301200913,0.280993963,0.230752676,0.217131865,0.179419025,0.135693261,0.115025261,0.100721889,0.093116341,0.087281042,0.060963137,0.040639588,-99999,-99999,-99999,-99999,-99999,-99999,-99999,0.193315,0.234507,0.065445,0.081315
194283,1991-01-28T12:58:46.823000Z,A91090A1,5.76,0.08,Crustal,R,1,42,30,99,special,-41.89,171.58,-41.8553,171.9539,5923123.14,2392149.06,5927428,2423132,6.97,6.97,31.2,32.86,27.91,30.07,23.16,23.93,0,10,8.26,nu,090A,C,270,Q3,0.33,Q3,40,Q3,0,-99999,-99999,1,0.3,22,0.51,22,Anderson_etal_1993&Dowrick_Rhoades1998&HarvardCMT,0.083360011,0.084105532,0.08488186,0.085914439,0.086958876,0.089343638,0.092447845,0.092626727,0.08521272,0.081508941,0.080804494,0.076725424,0.064283485,0.040314907,0.030229322,0.017594984,-99999,-99999,-99999,-99999,-99999,-99999,0.115152545,0.116089185,0.117015154,0.118293697,0.119888887,0.123222701,0.126452891,0.128908715,0.11801806,0.115248499,0.114281137,0.108510565,0.090910608,0.051253212,0.036973611,0.020462519,-99999,-99999,-99999,-99999,-99999,-99999,0.08299,0.115127,0.061288,0.084013
194283,1991-01-28T12:58:46.823000Z,A91122A1,5.76,0.08,Crustal,R,1,42,30,99,special,-41.89,171.58,-41.8025,172.3248,5923123.14,2392149.06,5933606,2453884,6.97,6.97,62.46,63.44,59.16,60.33,41.88,49.1,0,10,8.26,nu,122A,D,500,Q3,1.6,Q3,250,Q3,0,-99999,-99999,1,0.4,40,0.68,40,Anderson_etal_1993&Dowrick_Rhoades1998&HarvardCMT,0.129004728,0.134514459,0.135877652,0.137985276,0.135076828,0.1366664,0.14078374,0.133803562,0.125321443,0.111330445,0.103318076,0.097670307,0.083017943,0.047535311,0.026824439,-99999,-99999,-99999,-99999,-99999,-99999,-99999,0.170782707,0.174563033,0.175392266,0.176577782,0.180496945,0.193193778,0.199108014,0.183877846,0.169311268,0.152686929,0.141457655,0.138096075,0.117023546,0.055018752,0.03378365,-99999,-99999,-99999,-99999,-99999,-99999,-99999,0.128037,0.172541,0.069375,0.08888
194283,1991-01-28T12:58:46.823000Z,D91042A3,5.76,0.08,Crustal,R,1,42,30,99,special,-41.89,171.58,-42.5232,172.8305,5923123.14,2392149.06,5853765,2496076,6.97,6.97,124.76,125.38,121.74,122.51,126.66,18,0,10,8.26,nu,HSES,D,280,Q3,0.9,Q1,85,Q3,0,-99999,-99999,1,0.2,11,0.34,11,Anderson_etal_1993&Dowrick_Rhoades1998&HarvardCMT,0.023582122,0.023628006,0.023705043,0.023832272,0.023998321,0.024548359,0.025322701,0.026176163,0.025976934,0.025940909,0.02554932,0.024754469,0.024847458,0.019658285,0.014460249,0.006802135,0.004234361,-99999,-99999,-99999,-99999,-99999,0.02678722,0.02683372,0.026897177,0.026976223,0.027117736,0.027547981,0.028422621,0.030945187,0.03161799,0.03127875,0.030840176,0.030546932,0.02976219,0.023351719,0.01911019,0.009351381,0.005907624,-99999,-99999,-99999,-99999,-99999,0.023586,0.026774,0.023361,0.029622
201724,1991-01-28T18:00:53.158000Z,A91051B2,5.89,0.08,Crustal,S,1,48,77,11,special,-41.9,171.67,-41.7557,171.5998,5922133.85,2399635.78,5938069,2393545,8.1,8.1,17.07,20.86,15.62,17.84,-15.01,6.14,0,12,8.05,fw,WBCS,D,300,Q3,1.2,Q2,105,Q3,0,-99999,-99999,1,0.3,20,0.51,20,Anderson_etal_1993&Dowrick_Rhoades1998&HarvardCMT,0.147472308,0.149233153,0.152403712,0.157222814,0.162168776,0.172462432,0.166138003,0.149834798,0.138148214,0.118007039,0.102193489,0.088401404,0.08671301,0.067931109,0.04121398,0.021908493,-99999,-99999,-99999,-99999,-99999,-99999,0.16354619,0.164186281,0.165594249,0.167591668,0.169384417,0.196314883,0.191403428,0.167124777,0.169809271,0.154659788,0.139282509,0.122968854,0.119524888,0.091490218,0.057440205,0.02673975,-99999,-99999,-99999,-99999,-99999,-99999,0.146803,0.16229,0.090179,0.110719
201724,1991-01-28T18:00:53.158000Z,A91052A2,5.89,0.08,Crustal,S,1,48,77,11,special,-41.9,171.67,-42.1166,171.8604,5922133.85,2399635.78,5898305,2415760,8.1,8.1,28.77,31.24,27.75,30.62,29.41,-3.96,0,12,8.05,hw,052A,C,333,Q3,0.3,Q3,30,Q3,0,-99999,-99999,1,0.5,35,0.85,35,Anderson_etal_1993&Dowrick_Rhoades1998&HarvardCMT,0.17259538,0.175394374,0.180029096,0.189033284,0.19416809,0.206057499,0.197752592,0.134016009,0.099635921,0.080299671,0.07227869,0.051842368,0.036808419,0.021327558,0.013684094,-99999,-99999,-99999,-99999,-99999,-99999,-99999,0.181936243,0.183897853,0.18984924,0.199190148,0.2132176,0.238107549,0.247776972,0.176000686,0.127732498,0.108178611,0.08851846,0.064668801,0.048858051,0.023981722,0.016171061,-99999,-99999,-99999,-99999,-99999,-99999,-99999,0.172849,0.182562,0.048354,0.054283
201724,1991-01-28T18:00:53.158000Z,A91083A2,5.89,0.08,Crustal,S,1,48,77,11,special,-41.9,171.67,-41.8311,171.6606,5922133.85,2399635.78,5929772,2398735,8.1,8.1,7.7,14.26,5.85,10.38,-5.37,4.44,0,12,8.05,fw,083A,B,1200,Q3,<0.1,Q3,0,Q2,0,-99999,-99999,1,1,35,1.7,35,Anderson_etal_1993&Dowrick_Rhoades1998&HarvardCMT,0.143671752,0.150628884,0.152062724,0.15760482,0.160655505,0.158077382,0.12599579,0.089480457,0.071547887,0.058112818,0.048490368,0.034599114,0.024442394,-99999,-99999,-99999,-99999,-99999,-99999,-99999,-99999,-99999,0.199987577,0.204295265,0.215047809,0.211933254,0.212291321,0.210775923,0.174230569,0.12230924,0.099096671,0.082181779,0.061581025,0.041501441,0.030221009,-99999,-99999,-99999,-99999,-99999,-99999,-99999,-99999,-99999,0.14279,0.201932,0.029918,0.038692
201724,1991-01-28T18:00:53.158000Z,A91090A2,5.89,0.08,Crustal,S,1,48,77,11,special,-41.9,171.67,-41.8553,171.9539,5922133.85,2399635.78,5927428,2423132,8.1,8.1,24.03,26.94,20.56,23.59,12.7,21,0,12,8.05,nu,090A,C,270,Q3,0.33,Q3,40,Q3,0,-99999,-99999,1,0.3,20,0.51,20,Anderson_etal_1993&Dowrick_Rhoades1998&HarvardCMT,0.166819266,0.167170906,0.167727605,0.168918526,0.170776385,0.175170009,0.180615064,0.190333003,0.194030102,0.18509901,0.180898984,0.162610006,0.144781768,0.090564961,0.067411261,0.035041929,-99999,-99999,-99999,-99999,-99999,-99999,0.185643015,0.18601671,0.186670529,0.187770149,0.189636183,0.193787321,0.196908214,0.203548946,0.207586291,0.209349001,0.207920561,0.188309165,0.154756986,0.111644142,0.080348731,0.041460974,-99999,-99999,-99999,-99999,-99999,-99999,0.16676,0.185405,0.123361,0.148819
201724,1991-01-28T18:00:53.158000Z,A91122A2,5.89,0.08,Crustal,S,1,48,77,11,special,-41.9,171.67,-41.8025,172.3248,5922133.85,2399635.78,5933606,2453884,8.1,8.1,55.31,56.76,51.82,53.36,28.68,47.99,0,12,8.05,nu,122A,D,500,Q3,1.6,Q3,250,Q3,0,-99999,-99999,1,0.3,33,0.51,33,Anderson_etal_1993&Dowrick_Rhoades1998&HarvardCMT,0.254783175,0.270662002,0.287595449,0.277656908,0.252951064,0.268456693,0.282310113,0.260093957,0.198215164,0.165795708,0.146128316,0.105947181,0.08493113,0.047427955,0.02939639,0.01553976,-99999,-99999,-99999,-99999,-99999,-99999,0.320236193,0.325957751,0.334076728,0.317007146,0.318197841,0.35096788,0.355315487,0.309778171,0.257612661,0.210612043,0.171756927,0.123908598,0.113289604,0.066885597,0.037680444,0.019255993,-99999,-99999,-99999,-99999,-99999,-99999,0.259538,0.310917,0.0751,0.09991
201724,1991-01-28T18:00:53.158000Z,D91042A4,5.89,0.08,Crustal,S,1,48,77,11,special,-41.9,171.67,-42.5232,172.8305,5922133.85,2399635.78,5853765,2496076,8.1,8.1,118.06,118.86,116.84,117.93,116.25,25.92,0,12,8.05,nu,HSES,D,280,Q3,0.9,Q1,85,Q3,0,-99999,-99999,0,0.3,12,0.51,12,Anderson_etal_1993&Dowrick_Rhoades1998&HarvardCMT,0.027231796,0.02727141,0.027325731,0.027405784,0.027537056,0.027932097,0.028343065,0.028727501,0.029919177,0.031392005,0.032268627,0.031751939,0.030353741,0.02591841,0.018252512,0.009080898,-99999,-99999,-99999,-99999,-99999,-99999,0.030577144,0.030594374,0.030623206,0.030668209,0.030737006,0.03111298,0.032088116,0.034935627,0.036816968,0.038253471,0.039794734,0.039815035,0.037644,0.033411001,0.025602077,0.012660879,-99999,-99999,-99999,-99999,-99999,-99999,0.027216,0.030578,0.029481,0.035726
201354,1991-02-15T10:48:09.669000Z,A91051B3,5.42,0.15,Crustal,R,0,213,37,90,geonet,-42.0386,171.5897,-41.7557,171.5998,5906631.78,2393229.54,5938069,2393545,4.7,4.7,31.47,32.19,29.3,30.05,-99999,-99999,0,6.92,5.27,nu,WBCS,D,300,Q3,1.2,Q2,105,Q3,0,-99999,-99999,1,0.3,22,0.51,22,HarvardCMT,0.097685016,0.098260781,0.100614681,0.103859212,0.107496318,0.111198639,0.098575534,0.095130978,0.080405483,0.065849952,0.053766065,0.045879662,0.041394103,0.028808727,0.019279422,0.01179147,-99999,-99999,-99999,-99999,-99999,-99999,0.11970812,0.122150227,0.125156346,0.130521841,0.138235839,0.141711225,0.123345607,0.110320765,0.09641808,0.074933425,0.06299982,0.051253416,0.0471283,0.036221577,0.026670954,0.014552843,-99999,-99999,-99999,-99999,-99999,-99999,0.09661,0.119132,0.037472,0.047378
201354,1991-02-15T10:48:09.669000Z,A91052A3,5.42,0.15,Crustal,R,0,213,37,90,geonet,-42.0386,171.5897,-42.1166,171.8604,5906631.78,2393229.54,5898305,2415760,4.7,4.7,23.97,25.04,22.28,23.52,-99999,-99999,0,6.92,5.27,nu,052A,C,333,Q3,0.3,Q3,30,Q3,0,-99999,-99999,0,0.5,32,0.85,32,HarvardCMT,0.15888445,0.161705682,0.16472696,0.171824398,0.177576443,0.18417914,0.182948811,0.179561127,0.122998709,0.092292904,0.074800112,0.048256364,0.039667799,0.022908859,0.013780434,-99999,-99999,-99999,-99999,-99999,-99999,-99999,0.191137942,0.193919348,0.199611161,0.210322042,0.222582109,0.234069586,0.244910124,0.211275359,0.161754225,0.117857071,0.085270323,0.053916352,0.049227817,0.031598006,0.018539875,-99999,-99999,-99999,-99999,-99999,-99999,-99999,0.159601,0.19139,0.046705,0.056129
201354,1991-02-15T10:48:09.669000Z,A91090A3,5.42,0.15,Crustal,R,0,213,37,90,geonet,-42.0386,171.5897,-41.8553,171.9539,5906631.78,2393229.54,5927428,2423132,4.7,4.7,36.37,37.09,34.1,34.84,-99999,-99999,0,6.92,5.27,nu,090A,C,270,Q3,0.33,Q3,40,Q3,0,-99999,-99999,1,0.45,13,0.765,13,HarvardCMT,0.08022518,0.080458285,0.080946771,0.081543722,0.082243808,0.084351082,0.08695133,0.094232017,0.097075806,0.093489138,0.083043012,0.060511728,0.047030361,0.027917806,0.016906148,-99999,-99999,-99999,-99999,-99999,-99999,-99999,0.107784789,0.108163786,0.10865935,0.109302151,0.110434941,0.113994328,0.120110542,0.131654731,0.129313748,0.116693323,0.101867397,0.079571104,0.064650708,0.037663272,0.021820796,-99999,-99999,-99999,-99999,-99999,-99999,-99999,0.080027,0.10772,0.042587,0.057742
