CuspID,Origin_time,Record,Mw,MwUncert,TectClass,Mech,PreferredFaultPlane,Strike,Dip,Rake,Location,HypLat,HypLon,StationLat,StationLon,HypN,HypE,StationN,StationE,LENGTH_km,WIDTH_km,Repi_km,Rhyp_km,Rjb_km,Rrup_km,Rx_km,Ry_km,Rvol_km,HypDepth_km,ZTOR_km,HWFW,SiteCode,SiteClass1170,Vs30,Vs30Uncert,Tsite,TsiteUncert,Z1,Z1Uncertainty,Directivity,Pulse_or,Pulse_T,S_Trigger_Flag,fcButterHP,f_iniLP,fmin,fmax,References,f100.0000SA_GeoMean,f50.0000SA_GeoMean,f33.3333SA_GeoMean,f25.0000SA_GeoMean,f20.0000SA_GeoMean,f13.3333SA_GeoMean,f10.0000SA_GeoMean,f6.6667SA_GeoMean,f5.0000SA_GeoMean,f4.0000SA_GeoMean,f3.3333SA_GeoMean,f2.5000SA_GeoMean,f2.0000SA_GeoMean,f1.3333SA_GeoMean,f1.0000SA_GeoMean,f0.6667SA_GeoMean,f0.5000SA_GeoMean,f0.3333SA_GeoMean,f0.2500SA_GeoMean,f0.2000SA_GeoMean,f0.1333SA_GeoMean,f0.1000SA_GeoMean,PGA_Geomean,PGV_Geomean
1502698,2000-03-29T14:30:58.189000Z,I00646B04,5.25,0.15,Slab,N,0,54,14,-7.60E+01,nlloc,-41.0482,175.43,-41.2574,174.9485,6014768.04,2714246.82,5992552,2673256,3.9,3.9,46.55,55.76,44.68,54.05,-99999,-99999,0,30.49,29.31,nu,WDAS,E,120,Q1,1.6,Q2,62,Q2,0,-99999,-99999,0,0.35,18,0.595,18,HarvardCMT,0.026706397,0.026981522,0.027422044,0.028367129,0.031020031,0.050435264,0.047831006,0.069897216,0.064372739,0.065492181,0.095819505,0.075282642,0.044704169,0.029250764,0.017462782,0.009400887,-99999,-99999,-99999,-99999,-99999,-99999,0.026605,0.017626
1502698,2000-03-29T14:30:58.189000Z,I00708A01,5.25,0.15,Slab,N,0,54,14,-7.60E+01,nlloc,-41.0482,175.43,-41.1314,174.8391,6014768.04,2714246.82,6006740,2664387,3.9,3.9,50.38,59,48.68,57.39,-99999,-99999,0,30.49,29.31,nu,POLS,C,250,Q2,0.4,Q1,25,Q2,0,-99999,-99999,0,0.27,21,0.459,21,HarvardCMT,0.026146501,0.02628062,0.026778451,0.027846594,0.031664073,0.037494573,0.049293096,0.050848151,0.072126899,0.073386296,0.080835914,0.067342643,0.038737494,0.013592347,0.006817722,0.003447079,0.001570217,-99999,-99999,-99999,-99999,-99999,0.026112,0.01265
1502698,2000-03-29T14:30:58.189000Z,I00918C06,5.25,0.15,Slab,N,0,54,14,-7.60E+01,nlloc,-41.0482,175.43,-41.284,174.7682,6014768.04,2714246.82,5989908,2658140,3.9,3.9,61.29,68.59,59.45,66.85,-99999,-99999,0,30.49,29.31,nu,WEL,B,1000,Q3,0.3,Q1,0,Q2,0,-99999,-99999,0,0.25,22,0.425,22,HarvardCMT,0.029054629,0.029338737,0.029824896,0.030631248,0.031169153,0.044951708,0.058389888,0.082243406,0.099645381,0.082198293,0.051868571,0.080657121,0.066315447,0.030315743,0.010787313,0.003369271,0.001844673,-99999,-99999,-99999,-99999,-99999,0.028951,0.019104
1597193,2000-08-08T10:31:18.725000Z,D00014A01,5.29,0.15,Slab,U,0,32,25,179,nlloc,-39.1704,176.298,-39.4984,176.8761,6220747.43,2794953.59,6182359,2843283,4.1,4.1,61.66,82.31,59.73,80.9,-99999,-99999,0,54.45,53.01,nu,NCDS,E,162,Q3,1.25,Q2,110,Q3,0,-99999,-99999,0,0.4,10,0.68,10,HarvardCMT,0.115113552,0.115616808,0.116423201,0.117637737,0.119307534,0.126536459,0.144836715,0.182718591,0.172937701,0.300083287,0.402039501,0.250986221,0.147459859,0.192308018,0.077027401,-99999,-99999,-99999,-99999,-99999,-99999,-99999,0.114895,0.063933
1597193,2000-08-08T10:31:18.725000Z,D00027G01,5.29,0.15,Slab,U,0,32,25,179,nlloc,-39.1704,176.298,-39.4884,176.9189,6220747.43,2794953.59,6183307,2847012,4.1,4.1,64.05,84.13,62.12,82.71,-99999,-99999,0,54.45,53.01,nu,NAMS,C,268,Q3,0.4,Q3,20,Q3,0,-99999,-99999,1,0.45,13,0.765,13,HarvardCMT,0.028212833,0.028400715,0.028725044,0.029262729,0.030174969,0.040623292,0.052550235,0.048009718,0.054868368,0.08160943,0.087040806,0.080835954,0.051351756,0.026589743,0.01149061,-99999,-99999,-99999,-99999,-99999,-99999,-99999,0.028176,0.016537
1597193,2000-08-08T10:31:18.725000Z,D00029A01,5.29,0.15,Slab,U,0,32,25,179,nlloc,-39.1704,176.298,-39.6458,176.8429,6220747.43,2794953.59,6166127,2839726,4.1,4.1,70.62,89.19,68.72,87.72,-99999,-99999,0,54.45,53.01,nu,HCDS,D,182,Q2,>2,Q3,1000,Q3,0,-99999,-99999,1,0.23,10,0.391,10,HarvardCMT,0.014606868,0.014671066,0.014755939,0.014896847,0.015079095,0.016016832,0.024063294,0.023175405,0.026304071,0.028701741,0.035393844,0.042539779,0.037332165,0.058428145,0.026805129,0.012491127,0.007803304,-99999,-99999,-99999,-99999,-99999,0.014583,0.014259
1597193,2000-08-08T10:31:18.725000Z,I00926A02,5.29,0.15,Slab,U,0,32,25,179,nlloc,-39.1704,176.298,-39.4883,176.9169,6220747.43,2794953.59,6183331,2846839,4.1,4.1,63.9,84.04,61.97,82.61,-99999,-99999,0,54.45,53.01,nu,926A,C,651,Q3,0.07,Q3,5,Q3,0,-99999,-99999,0,0.17,15,0.289,15,HarvardCMT,0.026789208,0.02701998,0.027422836,0.02802994,0.028926837,0.03563945,0.049241177,0.046041779,0.044304375,0.0500764,0.089165686,0.084514571,0.030809636,0.019529383,0.009399072,0.006263396,0.003412925,0.001123355,-99999,-99999,-99999,-99999,0.026525,0.012679
1793707,2001-09-24T04:49:55.561000Z,I01928B02,5.34,0.15,Slab,R,0,33,89,90,simulps,-40.3285,176.6197,-39.671,176.8801,6091194.76,2817495.83,6163197,2842795,4.3,4.3,76.4,81.14,74.28,79.09,-99999,-99999,0,27.54,26.45,nu,HNPS,D,425,Q3,0.8,Q3,300,Q3,0,-99999,-99999,1,0.27,13,0.459,13,HarvardCMT,0.009607133,0.009668822,0.009761729,0.009918036,0.01013378,0.011007179,0.013109492,0.024158306,0.021111368,0.021572761,0.020778603,0.022557584,0.016186947,0.011328108,0.006761951,0.003785342,0.0022591,-99999,-99999,-99999,-99999,-99999,0.009592,0.006009
1803016,2001-10-15T03:49:37.441000Z,I01928B03,5.54,0.15,Interface,R,1,201,8,90,simulps,-39.6603,176.6415,-39.671,176.8801,6165248.02,2822390.46,6163197,2842795,7.35,7.35,20.46,34.77,16.83,32.34,-16.15,-5.4,0,28.06,27.55,fw,HNPS,D,425,Q3,0.8,Q3,300,Q3,0,-99999,-99999,0,0.25,20,0.425,20,HarvardCMT,0.047832905,0.048057455,0.048429944,0.048993388,0.050057401,0.061791681,0.086998429,0.124248742,0.092658875,0.09882531,0.107223619,0.135069362,0.094175962,0.047238036,0.035535471,0.017110176,0.008042384,-99999,-99999,-99999,-99999,-99999,0.047835,0.034411
2019057,2003-01-25T21:30:30.911999Z,I03640A03,5.22,0.15,Slab,N,0,252,51,-4.20E+01,simulps,-40.3372,176.1508,-41.235,174.9147,6091756.44,2777645.89,5995103,2670479,3.7,3.7,144.21,148.41,142.52,146.61,-99999,-99999,0,34.6,33.07,nu,640A,E,230,Q3,0.5,Q3,60,Q3,0,-99999,-99999,0,0.7,14,1.19,14,HarvardCMT,0.00335641,0.003389556,0.003448361,0.003541429,0.003710049,0.005190545,0.004861243,0.006973026,0.008782067,0.010984961,0.012412771,0.007861151,0.004449722,0.001920654,-99999,-99999,-99999,-99999,-99999,-99999,-99999,-99999,0.003345,0.001672
2019057,2003-01-25T21:30:30.911999Z,I03918C02,5.22,0.15,Slab,N,0,252,51,-4.20E+01,simulps,-40.3372,176.1508,-41.284,174.7682,6091756.44,2777645.89,5989908,2658140,3.7,3.7,156.92,160.82,155.23,159.03,-99999,-99999,0,34.6,33.07,nu,WEL,B,1000,Q3,0.3,Q1,0,Q2,0,-99999,-99999,1,0.8,20,1.36,20,HarvardCMT,0.002119427,0.002144432,0.002191309,0.00227898,0.002507614,0.003226538,0.004053327,0.004393019,0.006013311,0.005186337,0.006274735,0.00446178,0.004145432,-99999,-99999,-99999,-99999,-99999,-99999,-99999,-99999,-99999,0.002113,0.001184
2095626,2003-08-03T11:46:13.974000Z,I03468A09,5.16,0.15,Slab,N,0,241,28,-7.10E+01,simulps,-40.4658,175.9793,-41.2011,174.9547,6077982.79,2762600.17,5998793,2673916,3.5,3.5,118.81,130.44,117.07,128.73,-99999,-99999,0,53.64,52.44,nu,468A,D,190,Q1,0.9,Q3,50,Q3,0,-99999,-99999,1,0.55,21,0.935,21,HarvardCMT,0.006707235,0.006866553,0.007173018,0.007751925,0.00884869,0.012276648,0.014905678,0.023486615,0.017308959,0.010089919,0.011211302,0.008942475,0.007058291,0.005599332,0.003238624,-99999,-99999,-99999,-99999,-99999,-99999,-99999,0.006643,0.002234
2095626,2003-08-03T11:46:13.974000Z,I03640A21,5.16,0.15,Slab,N,0,241,28,-7.10E+01,simulps,-40.4658,175.9793,-41.235,174.9147,6077982.79,2762600.17,5995103,2670479,3.5,3.5,123.83,135.03,122.09,133.32,-99999,-99999,0,53.64,52.44,nu,640A,E,230,Q3,0.5,Q3,60,Q3,0,-99999,-99999,0,0.7,18,1.19,18,HarvardCMT,0.003567177,0.003633079,0.003754477,0.00394198,0.00437956,0.009288431,0.007453388,0.008375967,0.006632078,0.006077381,0.008381869,0.004247533,0.002896842,0.001477363,-99999,-99999,-99999,-99999,-99999,-99999,-99999,-99999,0.003546,0.001254
2095626,2003-08-03T11:46:13.974000Z,I03646B07,5.16,0.15,Slab,N,0,241,28,-7.10E+01,simulps,-40.4658,175.9793,-41.2574,174.9485,6077982.79,2762600.17,5992552,2673256,3.5,3.5,123.54,134.79,121.8,133.07,-99999,-99999,0,53.64,52.44,nu,WDAS,E,120,Q1,1.6,Q2,62,Q2,0,-99999,-99999,1,0.6,18,1.02,18,HarvardCMT,0.002878358,0.002977453,0.003169372,0.003530395,0.004316849,0.008917196,0.005229862,0.010212514,0.004783223,0.003617382,0.00387979,0.003825213,0.003548382,0.003018477,-99999,-99999,-99999,-99999,-99999,-99999,-99999,-99999,0.00284,0.001337
2095626,2003-08-03T11:46:13.974000Z,I03651A03,5.16,0.15,Slab,N,0,241,28,-7.10E+01,simulps,-40.4658,175.9793,-41.2047,174.9233,6077982.79,2762600.17,5998451,2671274,3.5,3.5,121.01,132.45,119.27,130.74,-99999,-99999,0,53.64,52.44,nu,651A,D,330,Q2,1,Q3,120,Q3,0,-99999,-99999,1,0.6,33,1.02,33,HarvardCMT,0.003813969,0.003890451,0.004112055,0.004410004,0.004142222,0.00783784,0.00609421,0.008339226,0.008200636,0.006936731,0.010364295,0.004012158,0.003116344,0.002757449,-99999,-99999,-99999,-99999,-99999,-99999,-99999,-99999,0.003797,0.001415
2103645,2003-08-21T12:12:50.433999Z,D03075A01,7.17,0.06,Interface,R,1,25,29,92,nlloc,-45.2484,166.881,-46.2388,169.7395,5533192.9,2030019.32,5436514,2258284,47.97,47.97,247.63,248.88,225.8,228.59,269.6,8.85,0,22.11,9.99,nu,075A,D,400,Q3,0.6,Q3,60,Q3,0,-99999,-99999,1,0.25,11,0.425,11,McGinty_Robinson_2007&Reyners_etal_2003&Ristau2013&HarvardCMT,0.015513916,0.015583731,0.015681347,0.015808243,0.016020162,0.016949789,0.021249293,0.031771676,0.036020308,0.049007744,0.030824601,0.027735301,0.047214959,0.04639433,0.014335215,0.008412251,0.004768431,-99999,-99999,-99999,-99999,-99999,0.015513,0.015486
2229114,2004-05-12T09:52:57.378999Z,I04918C19,4.54,0.1,Slab,U,0,212,85,-1.25E+02,simulps,-40.6182,175.7817,-41.284,174.7682,6061623,2745311.52,5989908,2658140,1.7,1.7,112.81,116.92,112.04,116.22,-99999,-99999,0,30.33,29.65,nu,WEL,B,1000,Q3,0.3,Q1,0,Q2,0,-99999,-99999,1,0.6,18,1.02,18,Ristau2013,0.001120619,0.001133206,0.001154083,0.001186466,0.001309269,0.0020815,0.003604389,0.004087626,0.003047706,0.002693692,0.002253283,0.001729725,0.001603028,0.000499541,-99999,-99999,-99999,-99999,-99999,-99999,-99999,-99999,0.001115,0.000486
2352986,2005-01-18T08:36:04.378000Z,I05464A03,5.18,0.06,Interface,R,1,265,30,-1.69E+02,nlloc,-41.4433,175.737,-41.2308,174.9135,5970144.9,2738676.33,5995572,2670389,4.85,4.85,72.7,73.81,70.34,71.54,33.38,65.81,0,11.74,10.53,nu,464A,D,210,Q3,1.2,Q3,170,Q3,0,-99999,-99999,0,0.4,16,0.68,16,Ristau2013&HarvardCMT,0.029936567,0.030098857,0.03036534,0.030756546,0.031317307,0.034845695,0.03747721,0.054276124,0.03712715,0.040431522,0.064431211,0.052245173,0.070790551,0.028274083,0.011013871,-99999,-99999,-99999,-99999,-99999,-99999,-99999,0.029888,0.017983
2352986,2005-01-18T08:36:04.378000Z,I05465B02,5.18,0.06,Interface,R,1,265,30,-1.69E+02,nlloc,-41.4433,175.737,-41.2058,174.9544,5970144.9,2738676.33,5998271,2673878,4.85,4.85,70.49,71.61,68.14,69.37,35.77,62.1,0,11.74,10.53,nu,DAVS,C,600,Q3,0.1,Q3,5,Q3,0,-99999,-99999,0,0.3,18,0.51,18,Ristau2013&HarvardCMT,0.015341405,0.015405458,0.01549548,0.015653338,0.015978427,0.017302854,0.02076757,0.026602697,0.031763463,0.043902424,0.042200002,0.032289991,0.042405281,0.021133053,0.007430609,0.002246333,-99999,-99999,-99999,-99999,-99999,-99999,0.01532,0.009977
2352986,2005-01-18T08:36:04.378000Z,I05467A03,5.18,0.06,Interface,R,1,265,30,-1.69E+02,nlloc,-41.4433,175.737,-41.2425,174.9024,5970144.9,2738676.33,5994293,2669430,4.85,4.85,73.17,74.27,70.8,71.99,32.19,66.88,0,11.74,10.53,nu,467A,D,218,Q3,1.5,Q3,200,Q3,0,-99999,-99999,0,0.27,16,0.459,16,Ristau2013&HarvardCMT,0.013998738,0.014024531,0.014043441,0.014099152,0.014161943,0.014992512,0.016521042,0.022916269,0.031069994,0.029908877,0.025068055,0.035481543,0.067222613,0.023697948,0.012692854,0.005068819,0.00242637,-99999,-99999,-99999,-99999,-99999,0.013989,0.013199
2352986,2005-01-18T08:36:04.378000Z,I05468A02,5.18,0.06,Interface,R,1,265,30,-1.69E+02,nlloc,-41.4433,175.737,-41.2011,174.9547,5970144.9,2738676.33,5998793,2673916,4.85,4.85,70.66,71.78,68.32,69.54,36.28,62.02,0,11.74,10.53,nu,468A,D,190,Q1,0.9,Q3,50,Q3,0,-99999,-99999,0,0.4,17,0.68,17,Ristau2013&HarvardCMT,0.019728021,0.0198272,0.020076089,0.020398261,0.020900858,0.024040707,0.026262758,0.054103975,0.078083777,0.041868934,0.038848315,0.042458478,0.047006509,0.04339183,0.023041916,-99999,-99999,-99999,-99999,-99999,-99999,-99999,0.019688,0.01261
2352986,2005-01-18T08:36:04.378000Z,I05642G03,5.18,0.06,Interface,R,1,265,30,-1.69E+02,nlloc,-41.4433,175.737,-41.235,174.9172,5970144.9,2738676.33,5995098,2670688,4.85,4.85,72.26,73.37,69.89,71.1,32.89,65.55,0,11.74,10.53,nu,642G,C,350,Q1,0.35,Q2,50,Q3,0,-99999,-99999,0,0.4,18,0.68,18,Ristau2013&HarvardCMT,0.017073132,0.017188599,0.017387527,0.017647353,0.017942704,0.022921123,0.025329538,0.039148283,0.032235091,0.038426032,0.029533844,0.033468463,0.027330269,0.011941682,0.004794017,-99999,-99999,-99999,-99999,-99999,-99999,-99999,0.017019,0.007721
2354133,2005-01-20T18:56:31.199999Z,D05644C03,5.31,0.06,Slab,N,1,70,48,-7.50E+01,simulps,-41.0967,175.0648,-41.2187,174.8826,6010174.62,2683429.55,5996970,2667828,4,3,20.42,37.43,18.52,36.19,8.08,-19.18,0,31.36,30.25,nu,644C,D,189,Q3,2,Q3,250,Q3,0,-99999,-99999,0,0.3,15,0.51,15,ReynersBannister2007&Ristau2013&HarvardCMT,0.060524638,0.060879835,0.061471367,0.062361498,0.063852653,0.077245323,0.08728905,0.157211621,0.11068939,0.126198216,0.130705785,0.1730727,0.187332167,0.058892916,0.030761315,0.009966572,-99999,-99999,-99999,-99999,-99999,-99999,0.060521,0.039583
2354133,2005-01-20T18:56:31.199999Z,I05464A05,5.31,0.06,Slab,N,1,70,48,-7.50E+01,simulps,-41.0967,175.0648,-41.2308,174.9135,6010174.62,2683429.55,5995572,2670389,4,3,19.57,36.98,17.76,35.84,10.27,-17.25,0,31.36,30.25,nu,464A,D,210,Q3,1.2,Q3,170,Q3,0,-99999,-99999,0,0.55,50,0.935,50,ReynersBannister2007&Ristau2013&HarvardCMT,0.094669752,0.094996823,0.097470302,0.10086072,0.109065378,0.133896285,0.1611595,0.244896398,0.189350346,0.195078147,0.250304163,0.275624464,0.238845248,0.058390663,0.034859875,-99999,-99999,-99999,-99999,-99999,-99999,-99999,0.094497,0.044977
2354133,2005-01-20T18:56:31.199999Z,I05465B04,5.31,0.06,Slab,N,1,70,48,-7.50E+01,simulps,-41.0967,175.0648,-41.2058,174.9544,6010174.62,2683429.55,5998271,2673878,4,3,15.26,34.89,13.49,33.84,8.92,-13.05,0,31.36,30.25,nu,DAVS,C,600,Q3,0.1,Q3,5,Q3,0,-99999,-99999,0,0.2,20,0.34,20,ReynersBannister2007&Ristau2013&HarvardCMT,0.131439275,0.132995322,0.136059345,0.141058959,0.169408509,0.234089077,0.363366063,0.408372309,0.30200611,0.255726262,0.252744633,0.255032428,0.187036215,0.051024697,0.023456316,0.007618667,0.004017728,-99999,-99999,-99999,-99999,-99999,0.130142,0.051909
2354133,2005-01-20T18:56:31.199999Z,I05467A05,5.31,0.06,Slab,N,1,70,48,-7.50E+01,simulps,-41.0967,175.0648,-41.2425,174.9024,6010174.62,2683429.55,5994293,2669430,4,3,21.16,37.84,19.36,36.69,11.14,-18.59,0,31.36,30.25,nu,467A,D,218,Q3,1.5,Q3,200,Q3,0,-99999,-99999,0,0.25,55,0.425,55,ReynersBannister2007&Ristau2013&HarvardCMT,0.071331548,0.071346827,0.07349395,0.075127779,0.078863935,0.102530807,0.13512429,0.199040154,0.194293754,0.13339843,0.108878052,0.139251811,0.151088435,0.056658892,0.031401479,0.012427895,0.005306551,-99999,-99999,-99999,-99999,-99999,0.071128,0.035618
2354133,2005-01-20T18:56:31.199999Z,I05468A04,5.31,0.06,Slab,N,1,70,48,-7.50E+01,simulps,-41.0967,175.0648,-41.2011,174.9547,6010174.62,2683429.55,5998793,2673916,4,3,14.83,34.7,13.05,33.64,8.45,-12.83,0,31.36,30.25,nu,468A,D,190,Q1,0.9,Q3,50,Q3,0,-99999,-99999,0,0.2,40,0.34,40,ReynersBannister2007&Ristau2013&HarvardCMT,0.176370456,0.178958864,0.197367568,0.204030524,0.192390681,0.261667658,0.375697537,0.596689469,0.48289027,0.369684814,0.295112761,0.222851355,0.230019055,0.058662932,0.055217567,0.012854038,0.005973771,-99999,-99999,-99999,-99999,-99999,0.17459,0.061388
2354133,2005-01-20T18:56:31.199999Z,I05642G05,5.31,0.06,Slab,N,1,70,48,-7.50E+01,simulps,-41.0967,175.0648,-41.235,174.9172,6010174.62,2683429.55,5995098,2670688,4,3,19.73,37.06,17.94,35.95,10.81,-17.13,0,31.36,30.25,nu,642G,C,350,Q1,0.35,Q2,50,Q3,0,-99999,-99999,0,0.25,31,0.425,31,ReynersBannister2007&Ristau2013&HarvardCMT,0.130433317,0.132256028,0.135336751,0.140755335,0.158795172,0.249502158,0.243111236,0.314367577,0.264363195,0.267795374,0.315314626,0.323461498,0.193914194,0.053348694,0.023386605,0.007275349,0.003907847,-99999,-99999,-99999,-99999,-99999,0.12979,0.053876
2359081,2005-01-31T17:31:53.470999Z,I05464A10,5.1,0.06,Interface,R,1,267,38,164,nlloc,-41.4249,175.709,-41.2308,174.9135,5972260.68,2736400.47,5995572,2670389,4.43,4.43,69.85,71.26,67.7,69.22,28.48,64.7,0,13.32,11.96,nu,464A,D,210,Q3,1.2,Q3,170,Q3,0,-99999,-99999,0,0.25,18,0.425,18,Ristau2013&HarvardCMT,0.0297114,0.029876559,0.03013437,0.0305147,0.031506133,0.04010933,0.049920823,0.089264306,0.06322871,0.070511918,0.100287596,0.079101127,0.029283871,0.020264304,0.01408915,0.003367709,0.001330292,-99999,-99999,-99999,-99999,-99999,0.029664,0.014301
2359081,2005-01-31T17:31:53.470999Z,I05465B13,5.1,0.06,Interface,R,1,267,38,164,nlloc,-41.4249,175.709,-41.2058,174.9544,5972260.68,2736400.47,5998271,2673878,4.43,4.43,67.57,69.02,65.44,67.01,30.99,61.08,0,13.32,11.96,nu,DAVS,C,600,Q3,0.1,Q3,5,Q3,0,-99999,-99999,0,0.25,20,0.425,20,Ristau2013&HarvardCMT,0.025277268,0.02538276,0.025604334,0.025915109,0.02647813,0.030340384,0.035695742,0.048604893,0.060262537,0.067507407,0.0960303,0.061635542,0.031355011,0.015546292,0.008758611,0.002221522,0.001234133,-99999,-99999,-99999,-99999,-99999,0.025203,0.014122
2359081,2005-01-31T17:31:53.470999Z,I05467A10,5.1,0.06,Interface,R,1,267,38,164,nlloc,-41.4249,175.709,-41.2425,174.9024,5972260.68,2736400.47,5994293,2669430,4.43,4.43,70.34,71.75,68.19,69.69,27.25,65.73,0,13.32,11.96,nu,467A,D,218,Q3,1.5,Q3,200,Q3,0,-99999,-99999,0,0.27,14,0.459,14,Ristau2013&HarvardCMT,0.015058324,0.015134809,0.015253584,0.015431704,0.015668676,0.017253577,0.021141523,0.030409191,0.047084,0.035681446,0.027464614,0.044038163,0.025970659,0.015992762,0.014201977,0.004712938,0.001771588,-99999,-99999,-99999,-99999,-99999,0.015012,0.009569
2359081,2005-01-31T17:31:53.470999Z,I05468A09,5.1,0.06,Interface,R,1,267,38,164,nlloc,-41.4249,175.709,-41.2011,174.9547,5972260.68,2736400.47,5998793,2673916,4.43,4.43,67.74,69.18,65.61,67.17,31.51,61.01,0,13.32,11.96,nu,468A,D,190,Q1,0.9,Q3,50,Q3,0,-99999,-99999,0,0.3,17,0.51,17,Ristau2013&HarvardCMT,0.029198711,0.02936622,0.029676546,0.030107023,0.030711793,0.034125769,0.04112978,0.089792799,0.069363909,0.072392948,0.080296818,0.070253108,0.032977683,0.034345247,0.030968818,0.005304033,-99999,-99999,-99999,-99999,-99999,-99999,0.029155,0.015658
2359081,2005-01-31T17:31:53.470999Z,I05642G14,5.1,0.06,Interface,R,1,267,38,164,nlloc,-41.4249,175.709,-41.235,174.9172,5972260.68,2736400.47,5995098,2670688,4.43,4.43,69.41,70.83,67.26,68.79,27.99,64.43,0,13.32,11.96,nu,642G,C,350,Q1,0.35,Q2,50,Q3,0,-99999,-99999,0,0.25,18,0.425,18,Ristau2013&HarvardCMT,0.030500191,0.030739831,0.031144147,0.031726951,0.032528281,0.03920259,0.050532929,0.091802415,0.082040662,0.080867226,0.074189335,0.062735497,0.021870574,0.009087726,0.004609155,0.001566252,0.00092361,-99999,-99999,-99999,-99999,-99999,0.030428,0.013518
2359081,2005-01-31T17:31:53.470999Z,I05646B11,5.1,0.06,Interface,R,1,267,38,164,nlloc,-41.4249,175.709,-41.2574,174.9485,5972260.68,2736400.47,5992552,2673256,4.43,4.43,66.17,67.67,64.01,65.62,25.31,62,0,13.32,11.96,nu,WDAS,E,120,Q1,1.6,Q2,62,Q2,0,-99999,-99999,0,0.25,18,0.425,18,Ristau2013&HarvardCMT,0.01387822,0.013952574,0.0140958,0.014308624,0.014685154,0.015812378,0.016918618,0.025422406,0.038376012,0.041187243,0.057215339,0.044279503,0.021559632,0.029614413,0.033895892,0.008722868,0.002888158,-99999,-99999,-99999,-99999,-99999,0.013879,0.013629
