CuspID,Origin_time,Record,Mw,MwUncert,TectClass,Mech,PreferredFaultPlane,Strike,Dip,Rake,Location,HypLat,HypLon,StationLat,StationLon,HypN,HypE,StationN,StationE,LENGTH_km,WIDTH_km,Repi_km,Rhyp_km,Rjb_km,Rrup_km,Rx_km,Ry_km,Rvol_km,HypDepth_km,ZTOR_km,HWFW,SiteCode,SiteClass1170,Vs30,Vs30Uncert,Tsite,TsiteUncert,Z1,Z1Uncertainty,Directivity,Pulse_or,Pulse_T,S_Trigger_Flag,fcButterHP,f_iniLP,fmin,fmax,References,f100.0000SA_RotD50,f50.0000SA_RotD50,f33.3333SA_RotD50,f25.0000SA_RotD50,f20.0000SA_RotD50,f13.3333SA_RotD50,f10.0000SA_RotD50,f6.6667SA_RotD50,f5.0000SA_RotD50,f4.0000SA_RotD50,f3.3333SA_RotD50,f2.5000SA_RotD50,f2.0000SA_RotD50,f1.3333SA_RotD50,f1.0000SA_RotD50,f0.6667SA_RotD50,f0.5000SA_RotD50,f0.3333SA_RotD50,f0.2500SA_RotD50,f0.2000SA_RotD50,f0.1333SA_RotD50,f0.1000SA_RotD50,f100.0000SA_RotD100,f50.0000SA_RotD100,f33.3333SA_RotD100,f25.0000SA_RotD100,f20.0000SA_RotD100,f13.3333SA_RotD100,f10.0000SA_RotD100,f6.6667SA_RotD100,f5.0000SA_RotD100,f4.0000SA_RotD100,f3.3333SA_RotD100,f2.5000SA_RotD100,f2.0000SA_RotD100,f1.3333SA_RotD100,f1.0000SA_RotD100,f0.6667SA_RotD100,f0.5000SA_RotD100,f0.3333SA_RotD100,f0.2500SA_RotD100,f0.2000SA_RotD100,f0.1333SA_RotD100,f0.1000SA_RotD100,PGA_RotD50,PGA_RotD100,PGV_RotD50,PGV_RotD100
241414,1991-07-12T04:42:23.301999Z,D91302A4,5.3,0.15,Slab,S,1,135,57,25,geonet,-39.3052,175.9748,-39.9338,175.053,6206777.74,2766544.08,6139282,2685450,4.1,4.1,105.45,126.78,104.32,126.64,106.19,-9.62,0,70.28,68.56,nu,302A,D,250,Q2,0.8,Q3,80,Q3,0,-99999,-99999,1,0.3,12,0.51,12,HarvardCMT,0.01761556,0.017649166,0.017709215,0.01780405,0.017868582,0.018291116,0.018958255,0.019543989,0.019807648,0.01994449,0.019853014,0.018003293,0.01542878,0.01027468,0.00675248,0.003871362,-99999,-99999,-99999,-99999,-99999,-99999,0.019826255,0.019895788,0.019976971,0.020061486,0.020227539,0.020624759,0.021022956,0.021228603,0.021785791,0.02193086,0.021674798,0.020403936,0.017170098,0.01169394,0.009090158,0.00516744,-99999,-99999,-99999,-99999,-99999,-99999,0.01761,0.019802,0.015326,0.018936
255338,1991-09-08T13:50:30.989999Z,A92087A4,5.61,0.15,Slab,R,1,95,70,108,geonet,-40.2442,175.1672,-39.7163,175.1455,6104594.2,2694363.31,6163232,2693941,5.9,5.9,58.73,104.69,57.7,101.84,-57.37,-5.53,0,86.69,83.93,nu,087A,B,1000,Q3,<0.1,Q3,0,Q2,0,-99999,-99999,1,0.6,27,1.02,27,HarvardCMT,0.142241243,0.143712904,0.148907829,0.152518343,0.156208468,0.161547758,0.162673374,0.152681607,0.122664316,0.101787473,0.085481834,0.071734524,0.050412313,0.022731992,-99999,-99999,-99999,-99999,-99999,-99999,-99999,-99999,0.166065273,0.168267738,0.171448076,0.175450923,0.180504946,0.184723857,0.19588445,0.192121433,0.148119575,0.118937053,0.106175616,0.076262089,0.055088628,0.02533959,-99999,-99999,-99999,-99999,-99999,-99999,-99999,-99999,0.138426,0.165445,0.052495,0.059593
255338,1991-09-08T13:50:30.989999Z,D91302A5,5.61,0.15,Slab,R,1,95,70,108,geonet,-40.2442,175.1672,-39.9338,175.053,6104594.2,2694363.31,6139282,2685450,5.9,5.9,35.86,93.81,34.54,90.88,-32.78,-11.9,0,86.69,83.93,nu,302A,D,250,Q2,0.8,Q3,80,Q3,0,-99999,-99999,0,0.35,20,0.595,20,HarvardCMT,0.099015715,0.099665299,0.100979033,0.102432215,0.105027476,0.108043175,0.109300505,0.101730681,0.095605148,0.094596005,0.091894771,0.077390693,0.062452734,0.037411302,0.023253478,0.008853283,-99999,-99999,-99999,-99999,-99999,-99999,0.102628754,0.103800278,0.106248255,0.109974368,0.115774081,0.124688722,0.12653252,0.12509023,0.127854366,0.120192374,0.105739006,0.088365777,0.07159213,0.0399809,0.024904619,0.010111908,-99999,-99999,-99999,-99999,-99999,-99999,0.098958,0.102989,0.049331,0.058808
255338,1991-09-08T13:50:30.989999Z,D91467A2,5.61,0.15,Slab,R,1,95,70,108,geonet,-40.2442,175.1672,-41.2425,174.9024,6104594.2,2694363.31,5994293,2669430,5.9,5.9,113.22,142.49,112.16,141.58,113.06,-15.23,0,86.69,83.93,nu,467A,D,218,Q3,1.5,Q3,200,Q3,0,-99999,-99999,1,0.25,15,0.425,15,HarvardCMT,0.025403944,0.025539609,0.025713496,0.025995742,0.026388879,0.027432832,0.02873542,0.028429715,0.027537604,0.027067586,0.026849233,0.025198467,0.022709183,0.015300479,0.008983054,0.004073511,0.002188099,-99999,-99999,-99999,-99999,-99999,0.028935716,0.029088681,0.029277747,0.0297004,0.030120773,0.031032993,0.032007088,0.034612818,0.036016688,0.034455233,0.033333883,0.030833368,0.027573546,0.018931768,0.010896281,0.00474597,0.00233876,-99999,-99999,-99999,-99999,-99999,0.025376,0.028816,0.019351,0.021977
255338,1991-09-08T13:50:30.989999Z,D91468A2,5.61,0.15,Slab,R,1,95,70,108,geonet,-40.2442,175.1672,-41.2011,174.9547,6104594.2,2694363.31,5998793,2673916,5.9,5.9,107.9,138.3,106.86,137.35,108.18,-11.15,0,86.69,83.93,nu,468A,D,190,Q1,0.9,Q3,50,Q3,0,-99999,-99999,0,0.45,13,0.765,13,HarvardCMT,0.041256916,0.041550623,0.041838998,0.042318578,0.042852032,0.046058306,0.049171479,0.048475708,0.049169919,0.046064192,0.041940384,0.037472443,0.030445245,0.016922971,0.012680145,-99999,-99999,-99999,-99999,-99999,-99999,-99999,0.056403673,0.056715741,0.057212229,0.058298139,0.059654548,0.064532366,0.068851199,0.068025911,0.062050544,0.051073654,0.047845807,0.043948452,0.035753498,0.021547763,0.015384916,-99999,-99999,-99999,-99999,-99999,-99999,-99999,0.041167,0.056406,0.028165,0.036325
255338,1991-09-08T13:50:30.989999Z,D91606B1,5.61,0.15,Slab,R,1,95,70,108,geonet,-40.2442,175.1672,-41.2333,174.9199,6104594.2,2694363.31,5995282,2670919,5.9,5.9,111.94,141.47,110.88,140.55,111.94,-13.83,0,86.69,83.93,nu,606B,B,800,Q3,<0.1,Q3,0,Q3,0,-99999,-99999,0,0.45,26,0.765,26,HarvardCMT,0.018269188,0.018359205,0.018535484,0.018701537,0.01907821,0.019829715,0.019494131,0.019665153,0.020440882,0.019921373,0.018239186,0.013949273,0.010108549,0.005145393,0.002999387,-99999,-99999,-99999,-99999,-99999,-99999,-99999,0.022065561,0.022321136,0.022512089,0.022795138,0.023036652,0.023441015,0.023363132,0.023313903,0.024666476,0.024679322,0.02327202,0.017976872,0.012918184,0.006513618,0.004073131,-99999,-99999,-99999,-99999,-99999,-99999,-99999,0.018079,0.022062,0.00858,0.011222
255338,1991-09-08T13:50:30.989999Z,D91642E7,5.61,0.15,Slab,R,1,95,70,108,geonet,-40.2442,175.1672,-41.2341,174.918,6104594.2,2694363.31,5995197,2670758,5.9,5.9,112.06,141.57,111,140.65,112.04,-13.98,0,86.69,83.93,nu,642E,C,350,Q1,0.35,Q2,50,Q3,0,-99999,-99999,0,0.5,12,0.85,12,HarvardCMT,0.049742067,0.049818015,0.04996558,0.050130898,0.05035412,0.051067091,0.052011949,0.057438343,0.062071169,0.063412585,0.061373128,0.049428542,0.033221531,0.014895199,0.00821002,-99999,-99999,-99999,-99999,-99999,-99999,-99999,0.060195518,0.060396223,0.060632139,0.060901028,0.061267607,0.062596405,0.064417159,0.069190814,0.075705165,0.076985327,0.072813784,0.052489503,0.035548233,0.016056972,0.009112107,-99999,-99999,-99999,-99999,-99999,-99999,-99999,0.049631,0.060112,0.028527,0.031818
255338,1991-09-08T13:50:30.989999Z,D91644C3,5.61,0.15,Slab,R,1,95,70,108,geonet,-40.2442,175.1672,-41.2187,174.8826,6104594.2,2694363.31,5996970,2667828,5.9,5.9,110.98,140.72,109.9,139.76,110.53,-17.05,0,86.69,83.93,nu,644C,D,189,Q3,2,Q3,250,Q3,0,-99999,-99999,0,0.35,15,0.595,15,HarvardCMT,0.022111397,0.022241109,0.022421869,0.022695811,0.023022922,0.024293966,0.025426381,0.025623698,0.025350859,0.024986416,0.024266649,0.020957612,0.015997108,0.008269052,0.005165581,0.002593813,-99999,-99999,-99999,-99999,-99999,-99999,0.025302003,0.025449721,0.02556913,0.025644679,0.025798925,0.026689755,0.027551252,0.028242103,0.026796169,0.026539187,0.026878306,0.022312802,0.017162173,0.009098191,0.006102388,0.003085612,-99999,-99999,-99999,-99999,-99999,-99999,0.022024,0.025364,0.012054,0.01511
255338,1991-09-08T13:50:30.989999Z,D91646A2,5.61,0.15,Slab,R,1,95,70,108,geonet,-40.2442,175.1672,-41.2574,174.9485,6104594.2,2694363.31,5992552,2673256,5.9,5.9,114.16,143.28,113.12,142.4,114.46,-11.26,0,86.69,83.93,nu,WDAS,E,120,Q1,1.6,Q2,62,Q2,0,-99999,-99999,0,0.35,18,0.595,18,HarvardCMT,0.051304163,0.051506525,0.051893489,0.052462197,0.053280073,0.054884858,0.056387162,0.05885714,0.058418364,0.056592388,0.053252,0.041533943,0.030482787,0.018651884,0.012737586,0.006332883,-99999,-99999,-99999,-99999,-99999,-99999,0.055289043,0.055551577,0.05596893,0.056582302,0.057464409,0.060488782,0.063058308,0.065115017,0.065334289,0.064603585,0.059258121,0.046335544,0.034893231,0.020010849,0.01628716,0.007802648,-99999,-99999,-99999,-99999,-99999,-99999,0.051233,0.055137,0.027295,0.029666
255338,1991-09-08T13:50:30.989999Z,D91705B3,5.61,0.15,Slab,R,1,95,70,108,geonet,-40.2442,175.1672,-41.1391,174.8502,6104594.2,2694363.31,6005867,2665298,5.9,5.9,103.03,134.58,101.9,133.49,101.89,-20.35,0,86.69,83.93,nu,707A,C,570,Q3,0.15,Q3,10,Q3,0,-99999,-99999,0,0.5,15,0.85,15,HarvardCMT,0.033742005,0.033926255,0.034198921,0.03458893,0.035047749,0.035830848,0.036980266,0.037923228,0.039025671,0.036608482,0.031661008,0.022082255,0.014467989,0.006873434,0.004282069,-99999,-99999,-99999,-99999,-99999,-99999,-99999,0.039181104,0.039303287,0.039477526,0.039512699,0.03959869,0.040970206,0.044795986,0.049043425,0.052248395,0.048378633,0.041744255,0.029678806,0.020404107,0.008538774,0.005512468,-99999,-99999,-99999,-99999,-99999,-99999,-99999,0.033595,0.039242,0.013553,0.018716
255338,1991-09-08T13:50:30.989999Z,D91706A2,5.61,0.15,Slab,R,1,95,70,108,geonet,-40.2442,175.1672,-41.1288,174.8382,6104594.2,2694363.31,6007032,2664315,5.9,5.9,102.2,133.93,101.05,132.82,100.81,-21.43,0,86.69,83.93,nu,706A,C,210,Q3,0.5,Q2,30,Q3,0,-99999,-99999,0,0.35,12,0.595,12,HarvardCMT,0.074921813,0.075200766,0.075571348,0.07617738,0.076896007,0.08059794,0.084904789,0.090044215,0.085868064,0.077709294,0.072400204,0.064105558,0.045249729,0.023718534,0.012921251,0.005516683,-99999,-99999,-99999,-99999,-99999,-99999,0.089307646,0.089515291,0.08995751,0.090680251,0.091506226,0.094444536,0.097373984,0.100131435,0.100270784,0.100857266,0.099580208,0.081646102,0.063119211,0.028189614,0.014636055,0.007191042,-99999,-99999,-99999,-99999,-99999,-99999,0.074799,0.089337,0.037786,0.048001
255338,1991-09-08T13:50:30.989999Z,D91900B7,5.61,0.15,Slab,R,1,95,70,108,geonet,-40.2442,175.1672,-41.2921,174.779,6104594.2,2694363.31,5989003,2658976,5.9,5.9,121.02,148.76,119.87,147.84,119.24,-25.18,0,86.69,83.93,nu,941A,D,272,Q2,0.85,Q2,9.85E+01,Q2,0,-99999,-99999,0,0.45,12,0.765,12,HarvardCMT,0.036015752,0.036065843,0.036193548,0.036354269,0.036466431,0.036713363,0.037260058,0.040024918,0.042115283,0.041830246,0.040235914,0.036544163,0.030718181,0.017311399,0.011167421,-99999,-99999,-99999,-99999,-99999,-99999,-99999,0.050800513,0.05094568,0.051091476,0.051284507,0.051558696,0.051922291,0.051922304,0.05395629,0.05753519,0.057560426,0.055599302,0.051180029,0.043366682,0.022394262,0.015469715,-99999,-99999,-99999,-99999,-99999,-99999,-99999,0.035998,0.05075,0.022835,0.030844
255338,1991-09-08T13:50:30.989999Z,D91918B7,5.61,0.15,Slab,R,1,95,70,108,geonet,-40.2442,175.1672,-41.284,174.7682,6104594.2,2694363.31,5989908,2658140,5.9,5.9,120.4,148.34,119.25,147.39,118.41,-26.09,0,86.69,83.93,nu,WEL,B,1000,Q3,0.3,Q1,0,Q2,0,-99999,-99999,0,0.5,18,0.85,18,HarvardCMT,0.041824843,0.04198121,0.042250537,0.04269278,0.043368072,0.045271621,0.047129838,0.049920438,0.04979233,0.045780432,0.037846369,0.024075391,0.015755173,0.007072431,0.003677842,-99999,-99999,-99999,-99999,-99999,-99999,-99999,0.057502117,0.057781585,0.058299899,0.05897658,0.059753504,0.062292692,0.064326823,0.067401274,0.067723062,0.061692831,0.051321059,0.033176325,0.021820522,0.009927201,0.004958358,-99999,-99999,-99999,-99999,-99999,-99999,-99999,0.041816,0.05761,0.016822,0.023348
255338,1991-09-08T13:50:30.989999Z,D91935B3,5.61,0.15,Slab,R,1,95,70,108,geonet,-40.2442,175.1672,-41.2108,174.9047,6104594.2,2694363.31,5997808,2669699,5.9,5.9,109.73,139.74,108.66,138.78,109.53,-15.26,0,86.69,83.93,nu,935A,D,240,Q3,1.2,Q3,275,Q3,0,-99999,-99999,1,0.45,15,0.765,15,HarvardCMT,0.035500904,0.035572745,0.03565466,0.035740871,0.035791831,0.036808485,0.039259288,0.043189812,0.045776662,0.045529485,0.041610787,0.033534713,0.025116636,0.012503378,0.006910311,-99999,-99999,-99999,-99999,-99999,-99999,-99999,0.050135874,0.050188988,0.050283971,0.050409237,0.050503861,0.051934414,0.0553603,0.061072894,0.064543899,0.062484191,0.058717972,0.043458241,0.030248035,0.013707516,0.008044735,-99999,-99999,-99999,-99999,-99999,-99999,-99999,0.035455,0.050141,0.022492,0.028499
255338,1991-09-08T13:50:30.989999Z,K91102A3,5.61,0.15,Slab,R,1,95,70,108,geonet,-40.2442,175.1672,-39.4637,175.5669,6104594.2,2694363.31,6190285,2730871,5.9,5.9,93.25,127.72,91.95,125.06,-87.54,28.9,0,86.69,83.93,nu,102A,C,555,Q3,0.15,Q3,12,Q3,0,-99999,-99999,1,0.5,18,0.85,18,HarvardCMT,0.045239117,0.04576323,0.046360528,0.047101301,0.048306637,0.05077095,0.052636445,0.049594739,0.044481627,0.036536429,0.028968048,0.019383073,0.014578815,0.007526823,0.004806718,-99999,-99999,-99999,-99999,-99999,-99999,-99999,0.051597236,0.05248734,0.053495508,0.054496161,0.056379985,0.060791798,0.061759817,0.056430751,0.050608517,0.042199747,0.033396756,0.024262203,0.017844901,0.008312101,0.006165343,-99999,-99999,-99999,-99999,-99999,-99999,-99999,0.044941,0.051243,0.015324,0.0173
314805,1992-03-30T07:02:51.226999Z,D92505A1,5.5,0.15,Crustal,R,1,205,76,77,nlloc,-43.0605,171.212,-42.9489,171.5677,5792540.97,2364375.65,5805487,2393135,5.17,5.17,31.47,32.08,29.52,30.01,-19.97,-23.89,0,5.12,2.61,nu,APPS,C,300,Q2,0.4,Q1,30,Q2,0,-99999,-99999,0,0.6,20,1.02,20,HarvardCMT,0.026716671,0.026892404,0.027169584,0.027512566,0.027919371,0.029105029,0.029377458,0.031062297,0.029602641,0.0273051,0.02759954,0.023831988,0.018180608,0.00963346,-99999,-99999,-99999,-99999,-99999,-99999,-99999,-99999,0.031006561,0.031120841,0.031296856,0.031460296,0.031726376,0.032836454,0.032247367,0.034969108,0.033806454,0.034736999,0.034744173,0.030043345,0.022257962,0.010570313,-99999,-99999,-99999,-99999,-99999,-99999,-99999,-99999,0.026526,0.031057,0.016402,0.018266
339342,1992-05-27T22:30:35.064000Z,D92129A2,5.9,0.08,Slab,S,1,117,85,21,special,-41.63,173.62,-41.7999,172.328,5952812.98,2561652.09,5933893,2454147,8.2,8.2,108.89,128.17,105.65,124.79,66.02,-87.2,0,67,62.92,nu,MCAS,D,501,Q3,1.6,Q3,200,Q3,0,-99999,-99999,0,0.23,19,0.391,19,Webb_Anderson_1998&Dowrick_Rhoades1998&HarvardCMT,0.028753852,0.029076133,0.029435502,0.030013028,0.030713939,0.031096664,0.03046058,0.027836488,0.027750462,0.027248606,0.026956576,0.022269495,0.016291812,0.01036068,0.007056365,0.004250243,0.002946046,-99999,-99999,-99999,-99999,-99999,0.032349635,0.032513104,0.032801792,0.033439367,0.03419368,0.035447613,0.035212533,0.032358938,0.030370454,0.030172817,0.029057668,0.023191236,0.017996065,0.012433424,0.009610219,0.005394107,0.003221524,-99999,-99999,-99999,-99999,-99999,0.028644,0.032355,0.016475,0.019402
339342,1992-05-27T22:30:35.064000Z,D92467A3,5.9,0.08,Slab,S,1,117,85,21,special,-41.63,173.62,-41.2425,174.9024,5952812.98,2561652.09,5994293,2669430,8.2,8.2,115.26,133.52,112.56,130.25,-85.53,77.2,0,67,62.92,nu,467A,D,218,Q3,1.5,Q3,200,Q3,0,-99999,-99999,0,0.35,14,0.595,14,Webb_Anderson_1998&Dowrick_Rhoades1998&HarvardCMT,0.031672267,0.031770784,0.031933855,0.032066291,0.032290028,0.032734675,0.033459186,0.035306389,0.034612213,0.034035961,0.032378052,0.030517805,0.026508333,0.013922647,0.007877186,0.004350713,-99999,-99999,-99999,-99999,-99999,-99999,0.034787812,0.034941156,0.035173092,0.035460364,0.0359005,0.03701191,0.037248293,0.037312941,0.038226887,0.036348448,0.034305505,0.034341806,0.03113064,0.016069656,0.009884425,0.005305391,-99999,-99999,-99999,-99999,-99999,-99999,0.031627,0.034838,0.01937,0.02218
339342,1992-05-27T22:30:35.064000Z,D92468A6,5.9,0.08,Slab,S,1,117,85,21,special,-41.63,173.62,-41.2011,174.9547,5952812.98,2561652.09,5998793,2673916,8.2,8.2,121.08,138.59,118.45,135.4,-91.58,79.15,0,67,62.92,nu,468A,D,190,Q1,0.9,Q3,50,Q3,0,-99999,-99999,0,0.4,19,0.68,19,Webb_Anderson_1998&Dowrick_Rhoades1998&HarvardCMT,0.030544484,0.030671431,0.030878501,0.03127304,0.031761161,0.033506035,0.035316928,0.035399918,0.03372388,0.031254739,0.029901173,0.025087503,0.019285904,0.011849031,0.008460466,-99999,-99999,-99999,-99999,-99999,-99999,-99999,0.035582793,0.035772848,0.036060079,0.036390912,0.036847464,0.038204129,0.039362945,0.038273179,0.036335496,0.034720275,0.032188421,0.027665289,0.023220734,0.014809596,0.010768204,-99999,-99999,-99999,-99999,-99999,-99999,-99999,0.030491,0.035661,0.016906,0.020622
339342,1992-05-27T22:30:35.064000Z,D92644C3,5.9,0.08,Slab,S,1,117,85,21,special,-41.63,173.62,-41.2187,174.8826,5952812.98,2561652.09,5996970,2667828,8.2,8.2,114.77,133.09,112.16,129.87,-87.19,74.56,0,67,62.92,nu,644C,D,189,Q3,2,Q3,250,Q3,0,-99999,-99999,0,0.25,12,0.425,12,Webb_Anderson_1998&Dowrick_Rhoades1998&HarvardCMT,0.02186329,0.02191816,0.022047444,0.022188917,0.022308432,0.02261399,0.022956976,0.024426446,0.024647726,0.024445638,0.023230366,0.02206441,0.019796694,0.011203568,0.006476659,0.003458325,0.002165086,-99999,-99999,-99999,-99999,-99999,0.025514265,0.025607842,0.025824772,0.026119821,0.026510303,0.028052085,0.029285738,0.029999102,0.028825597,0.026829814,0.025505948,0.026008837,0.021723157,0.012692351,0.007871258,0.004279257,0.002807873,-99999,-99999,-99999,-99999,-99999,0.021789,0.025551,0.015829,0.019203
339342,1992-05-27T22:30:35.064000Z,D92646A5,5.9,0.08,Slab,S,1,117,85,21,special,-41.63,173.62,-41.2574,174.9485,5952812.98,2561652.09,5992552,2673256,8.2,8.2,118.23,136.15,115.45,132.85,-85.72,81.4,0,67,62.92,nu,WDAS,E,120,Q1,1.6,Q2,62,Q2,0,-99999,-99999,0,0.5,16,0.85,16,Webb_Anderson_1998&Dowrick_Rhoades1998&HarvardCMT,0.02752809,0.027662038,0.027894897,0.028110938,0.028466605,0.029073132,0.028964053,0.028549492,0.029595872,0.02984945,0.028334451,0.024172138,0.020741342,0.016998623,0.015138103,-99999,-99999,-99999,-99999,-99999,-99999,-99999,0.031810971,0.031882637,0.032100839,0.032330176,0.032587678,0.032817311,0.032362888,0.032340291,0.034343934,0.035776736,0.034908411,0.029183213,0.02433142,0.019460025,0.016717751,-99999,-99999,-99999,-99999,-99999,-99999,-99999,0.027296,0.031602,0.020955,0.023387
339342,1992-05-27T22:30:35.064000Z,D92647A1,5.9,0.08,Slab,S,1,117,85,21,special,-41.63,173.62,-41.2871,174.778,5952812.98,2561652.09,5989560,2658904,8.2,8.2,103.76,123.68,101.04,120.35,-76.54,69.97,0,67,62.92,nu,647A,C,474,Q2,0.12,Q2,5.70E+00,Q2,0,-99999,-99999,0,0.4,19,0.68,19,Webb_Anderson_1998&Dowrick_Rhoades1998&HarvardCMT,0.019848981,0.020066071,0.020290317,0.020581797,0.020898067,0.020919563,0.021374119,0.021814169,0.02128729,0.021056616,0.020553808,0.015851543,0.011711807,0.006200343,0.004601728,-99999,-99999,-99999,-99999,-99999,-99999,-99999,0.024817905,0.024926818,0.025113053,0.025475622,0.0258721,0.026620234,0.025439605,0.023603084,0.02543937,0.025453117,0.024836878,0.022108133,0.016562416,0.007857922,0.006011689,-99999,-99999,-99999,-99999,-99999,-99999,-99999,0.01987,0.024677,0.010584,0.014771
339342,1992-05-27T22:30:35.064000Z,D92706A2,5.9,0.08,Slab,S,1,117,85,21,special,-41.63,173.62,-41.1288,174.8382,5952812.98,2561652.09,6007032,2664315,8.2,8.2,115.91,134.05,113.6,131,-94.56,66.86,0,67,62.92,nu,706A,C,210,Q3,0.5,Q2,30,Q3,0,-99999,-99999,0,0.45,12,0.765,12,Webb_Anderson_1998&Dowrick_Rhoades1998&HarvardCMT,0.030380841,0.030559144,0.030764194,0.031068179,0.03137597,0.032553119,0.033463609,0.035290559,0.036797382,0.034229172,0.028610461,0.024127184,0.019847771,0.01223865,0.008048119,-99999,-99999,-99999,-99999,-99999,-99999,-99999,0.033392523,0.033507999,0.03379482,0.034187679,0.034570155,0.035659479,0.036005413,0.038300384,0.039618958,0.037228249,0.033029544,0.02915185,0.022988085,0.013443223,0.009015011,-99999,-99999,-99999,-99999,-99999,-99999,-99999,0.030306,0.033412,0.017727,0.019672
