CuspID,Origin_time,Record,Mw,MwUncert,TectClass,Mech,PreferredFaultPlane,Strike,Dip,Rake,Location,HypLat,HypLon,StationLat,StationLon,HypN,HypE,StationN,StationE,LENGTH_km,WIDTH_km,Repi_km,Rhyp_km,Rjb_km,Rrup_km,Rx_km,Ry_km,Rvol_km,HypDepth_km,ZTOR_km,HWFW,SiteCode,SiteClass1170,Vs30,Vs30Uncert,Tsite,TsiteUncert,Z1,Z1Uncertainty,Directivity,Pulse_or,Pulse_T,S_Trigger_Flag,fcButterHP,f_iniLP,fmin,fmax,References,f100.0000SA_RotD50,f50.0000SA_RotD50,f33.3333SA_RotD50,f25.0000SA_RotD50,f20.0000SA_RotD50,f13.3333SA_RotD50,f10.0000SA_RotD50,f6.6667SA_RotD50,f5.0000SA_RotD50,f4.0000SA_RotD50,f3.3333SA_RotD50,f2.5000SA_RotD50,f2.0000SA_RotD50,f1.3333SA_RotD50,f1.0000SA_RotD50,f0.6667SA_RotD50,f0.5000SA_RotD50,f0.3333SA_RotD50,f0.2500SA_RotD50,f0.2000SA_RotD50,f0.1333SA_RotD50,f0.1000SA_RotD50,f100.0000SA_RotD100,f50.0000SA_RotD100,f33.3333SA_RotD100,f25.0000SA_RotD100,f20.0000SA_RotD100,f13.3333SA_RotD100,f10.0000SA_RotD100,f6.6667SA_RotD100,f5.0000SA_RotD100,f4.0000SA_RotD100,f3.3333SA_RotD100,f2.5000SA_RotD100,f2.0000SA_RotD100,f1.3333SA_RotD100,f1.0000SA_RotD100,f0.6667SA_RotD100,f0.5000SA_RotD100,f0.3333SA_RotD100,f0.2500SA_RotD100,f0.2000SA_RotD100,f0.1333SA_RotD100,f0.1000SA_RotD100,PGA_RotD50,PGA_RotD100,PGV_RotD50,PGV_RotD100
722185,1995-03-22T19:43:30.268000Z,D5646A05,5.83,0.15,Slab,S,0,27,64,30,nlloc,-41.0514,174.216,-41.2574,174.9485,6016538.56,2612205.51,5992552,2673256,7.6,7.6,65.46,107.84,62.76,105.2,-99999,-99999,0,85.51,82.13,nu,WDAS,E,120,Q1,1.6,Q2,62,Q2,0,-99999,-99999,0,0.25,19,0.425,19,HarvardCMT,0.044249729,0.044737,0.045722715,0.047328802,0.050260597,0.109044829,0.107670145,0.159830152,0.191960727,0.21959513,0.166110989,0.129871767,0.138717617,0.143534053,0.079915208,0.035940344,0.010130826,-99999,-99999,-99999,-99999,-99999,0.061452314,0.062003773,0.062950501,0.064695685,0.066572779,0.117425777,0.114604261,0.175743048,0.237065517,0.296072298,0.209436047,0.150863981,0.174880067,0.198044202,0.089629924,0.049205232,0.013351489,-99999,-99999,-99999,-99999,-99999,0.044194,0.061457,0.031242,0.043211
722185,1995-03-22T19:43:30.268000Z,D5647D02,5.83,0.15,Slab,S,0,27,64,30,nlloc,-41.0514,174.216,-41.2875,174.7769,6016538.56,2612205.51,5989514,2658817,7.6,7.6,53.8,101.07,51.16,98.26,-99999,-99999,0,85.51,82.13,nu,647D,D,474,Q2,0.12,Q2,5.70E+00,Q2,0,-99999,-99999,0,0.3,18,0.51,18,HarvardCMT,0.044003401,0.044488961,0.045274417,0.046592541,0.048929069,0.089230222,0.127098376,0.219077326,0.312416748,0.153439329,0.1600358,0.156888279,0.07926627,0.029450576,0.016192432,0.010352152,-99999,-99999,-99999,-99999,-99999,-99999,0.053277176,0.053406507,0.053597402,0.054195188,0.056868183,0.098464902,0.138815515,0.23947943,0.339228214,0.201160881,0.171146513,0.204049403,0.105403966,0.036440434,0.021213023,0.013749279,-99999,-99999,-99999,-99999,-99999,-99999,0.044004,0.053275,0.021937,0.024439
722185,1995-03-22T19:43:30.268000Z,D5648A03,5.83,0.15,Slab,S,0,27,64,30,nlloc,-41.0514,174.216,-41.2775,174.7735,6016538.56,2612205.51,5990634,2658549,7.6,7.6,53.01,109.27,50.36,106.39,-99999,-99999,0,85.51,82.13,nu,921A,C,330,Q3,0.5,Q3,38,Q3,0,-99999,-99999,0,0.35,32,0.595,32,HarvardCMT,0.057776638,0.058806855,0.064405627,0.141758905,0.116542393,0.139207093,0.274800529,0.40123178,0.326069954,0.20704543,0.248833428,0.183041695,0.096450592,0.049543824,0.020619818,0.012477993,-99999,-99999,-99999,-99999,-99999,-99999,0.060728538,0.061302918,0.079274494,0.192073018,0.163006183,0.187893393,0.327594016,0.534872717,0.402629114,0.239321537,0.34141164,0.232963959,0.121163484,0.058337522,0.024887101,0.016011974,-99999,-99999,-99999,-99999,-99999,-99999,0.057084,0.060531,0.025057,0.029225
722185,1995-03-22T19:43:30.268000Z,D5707A02,5.83,0.15,Slab,S,0,27,64,30,nlloc,-41.0514,174.216,-41.1391,174.8502,6016538.56,2612205.51,6005867,2665298,7.6,7.6,54.03,101.23,51.21,98.48,-99999,-99999,0,85.51,82.13,nu,707A,C,570,Q3,0.15,Q3,10,Q3,0,-99999,-99999,0,0.25,20,0.425,20,HarvardCMT,0.032794592,0.03386163,0.035668398,0.039066694,0.077652599,0.125927173,0.169757121,0.156661125,0.068510059,0.10115583,0.045081104,0.054833883,0.027938715,0.018133815,0.010288585,0.007604853,0.004241303,-99999,-99999,-99999,-99999,-99999,0.038078432,0.038925415,0.040433803,0.042646842,0.086749954,0.154507347,0.206053588,0.210848878,0.078319675,0.117553394,0.05667875,0.065477611,0.029528747,0.023482025,0.013443884,0.00984959,0.005638813,-99999,-99999,-99999,-99999,-99999,0.032794,0.037966,0.009417,0.01102
722185,1995-03-22T19:43:30.268000Z,D5900C02,5.83,0.15,Slab,S,0,27,64,30,nlloc,-41.0514,174.216,-41.2891,174.7799,6016538.56,2612205.51,5989335,2659058,7.6,7.6,54.09,101.23,51.45,98.43,-99999,-99999,0,85.51,82.13,nu,900C,D,250,Q3,0.8,Q3,60,Q3,0,-99999,-99999,0,0.3,15,0.51,15,HarvardCMT,0.0548969,0.055183272,0.055650943,0.056340413,0.057305079,0.074911211,0.113743893,0.167852507,0.285760517,0.335564376,0.254985038,0.260780956,0.114576714,0.055953442,0.024379603,0.010605284,-99999,-99999,-99999,-99999,-99999,-99999,0.070218634,0.070572494,0.071222753,0.072203251,0.073522128,0.093309038,0.128338198,0.229468825,0.354100101,0.412925664,0.319624172,0.332489065,0.151646627,0.073395442,0.029155677,0.014108092,-99999,-99999,-99999,-99999,-99999,-99999,0.054898,0.07014,0.030361,0.034038
722185,1995-03-22T19:43:30.268000Z,D5935C03,5.83,0.15,Slab,S,0,27,64,30,nlloc,-41.0514,174.216,-41.2108,174.9047,6016538.56,2612205.51,5997808,2669699,7.6,7.6,60.34,104.73,57.6,102.04,-99999,-99999,0,85.51,82.13,nu,935A,D,240,Q3,1.2,Q3,275,Q3,0,-99999,-99999,0,0.25,24.5,0.425,24.5,HarvardCMT,0.038870551,0.039211933,0.039928227,0.043139182,0.057964318,0.095492713,0.10051508,0.109567835,0.14785433,0.185348052,0.145163557,0.182144465,0.129259307,0.03831432,0.046541036,0.01633386,0.009817802,-99999,-99999,-99999,-99999,-99999,0.042452771,0.042896935,0.043687871,0.052457764,0.067158236,0.111801786,0.113871423,0.119008306,0.187760027,0.21932118,0.181475194,0.250563531,0.155314253,0.051733422,0.053723174,0.022539198,0.010989079,-99999,-99999,-99999,-99999,-99999,0.038712,0.042452,0.023412,0.027531
722185,1995-03-22T19:43:30.268000Z,I5027F03,5.83,0.15,Slab,S,0,27,64,30,nlloc,-41.0514,174.216,-39.4884,176.9189,6016538.56,2612205.51,6183307,2847012,7.6,7.6,287.72,300.43,284.58,297.6,-99999,-99999,0,85.51,82.13,nu,NAMS,C,268,Q3,0.4,Q3,20,Q3,0,-99999,-99999,1,0.5,21,0.85,21,HarvardCMT,0.007504005,0.007532038,0.007585186,0.007704153,0.008511175,0.010411163,0.013205005,0.016967121,0.01865184,0.022691753,0.033810551,0.072902186,0.02121675,0.006986749,0.003267553,-99999,-99999,-99999,-99999,-99999,-99999,-99999,0.010086959,0.010126669,0.010193653,0.010294029,0.01112386,0.014655744,0.016675341,0.022774312,0.021913234,0.031530211,0.044866977,0.095700143,0.02829809,0.008934938,0.004411321,-99999,-99999,-99999,-99999,-99999,-99999,-99999,0.00749,0.010072,0.004646,0.005415
722185,1995-03-22T19:43:30.268000Z,I5467A07,5.83,0.15,Slab,S,0,27,64,30,nlloc,-41.0514,174.216,-41.2425,174.9024,6016538.56,2612205.51,5994293,2669430,7.6,7.6,61.27,105.27,58.57,102.59,-99999,-99999,0,85.51,82.13,nu,467A,D,218,Q3,1.5,Q3,200,Q3,0,-99999,-99999,0,0.19,28,0.323,28,HarvardCMT,0.037786479,0.038181739,0.038954913,0.041647904,0.046484798,0.077769208,0.087232217,0.183406044,0.221585233,0.102279498,0.056363724,0.059938956,0.109913914,0.06427998,0.054691519,0.040613246,0.010507704,0.002284675,-99999,-99999,-99999,-99999,0.043064087,0.043518684,0.044326774,0.044491969,0.061270267,0.084002074,0.094583846,0.25296153,0.269827296,0.116416742,0.066564772,0.075156187,0.124716494,0.085092434,0.069558764,0.057256646,0.011618499,0.00247834,-99999,-99999,-99999,-99999,0.037621,0.042592,0.02036,0.023217
722185,1995-03-22T19:43:30.268000Z,I5468A06,5.83,0.15,Slab,S,0,27,64,30,nlloc,-41.0514,174.216,-41.2011,174.9547,6016538.56,2612205.51,5998793,2673916,7.6,7.6,64.07,106.94,61.31,104.29,-99999,-99999,0,85.51,82.13,nu,468A,D,190,Q1,0.9,Q3,50,Q3,0,-99999,-99999,0,0.25,24,0.425,24,HarvardCMT,0.057138678,0.057727138,0.058832338,0.063516506,0.092435077,0.140292926,0.141379266,0.477655833,0.462948844,0.268252104,0.217894883,0.189888899,0.137375487,0.094139512,0.108054918,0.017356341,0.00848528,-99999,-99999,-99999,-99999,-99999,0.074549139,0.075331783,0.076614036,0.078701692,0.102953204,0.157794164,0.152344796,0.602644085,0.623820164,0.295731453,0.272130291,0.236601217,0.172003428,0.108946683,0.127951184,0.020519624,0.010038181,-99999,-99999,-99999,-99999,-99999,0.057084,0.07455,0.031492,0.037271
722185,1995-03-22T19:43:30.268000Z,I5602C01,5.83,0.15,Slab,S,0,27,64,30,nlloc,-41.0514,174.216,-41.1903,174.928,6016538.56,2612205.51,6000041,2671703,7.6,7.6,61.61,105.49,58.84,102.81,-99999,-99999,0,85.51,82.13,nu,602C,B,1000,Q3,<0.1,Q3,0,Q3,0,-99999,-99999,0,0.2,45,0.34,45,HarvardCMT,0.018181424,0.01868427,0.021201812,0.031929438,0.030262523,0.071024964,0.073243199,0.055020674,0.076998825,0.070689278,0.064209299,0.043810144,0.026487058,0.012548093,0.012427006,0.006485386,0.005454241,-99999,-99999,-99999,-99999,-99999,0.02278018,0.023293902,0.024990794,0.038930256,0.032358865,0.085621421,0.103452101,0.073093788,0.093174411,0.097024558,0.088329136,0.048126835,0.028677423,0.017686319,0.015318403,0.008139146,0.007139382,-99999,-99999,-99999,-99999,-99999,0.017965,0.022615,0.008932,0.011987
722185,1995-03-22T19:43:30.268000Z,I5603B03,5.83,0.15,Slab,S,0,27,64,30,nlloc,-41.0514,174.216,-41.2237,174.86,6016538.56,2612205.51,5996453,2665923,7.6,7.6,57.23,102.97,54.52,100.24,-99999,-99999,0,85.51,82.13,nu,603B,B,1000,Q3,<0.1,Q3,0,Q3,0,-99999,-99999,0,0.25,30,0.425,30,HarvardCMT,0.016769233,0.017017488,0.017556279,0.021774331,0.03082728,0.046414159,0.055448899,0.093093458,0.082911929,0.039973196,0.034176574,0.059963256,0.026544877,0.018099147,0.016202417,0.010725417,0.005799945,-99999,-99999,-99999,-99999,-99999,0.023689942,0.024006049,0.024830797,0.025639302,0.036143899,0.062160773,0.074633173,0.121517028,0.109597302,0.053183826,0.041269415,0.081947096,0.03294128,0.020551197,0.020999683,0.012904631,0.007855998,-99999,-99999,-99999,-99999,-99999,0.016751,0.023688,0.00872,0.011914
722185,1995-03-22T19:43:30.268000Z,I5605B05,5.83,0.15,Slab,S,0,27,64,30,nlloc,-41.0514,174.216,-41.2074,174.9401,6016538.56,2612205.51,5998119,2672679,7.6,7.6,63.08,106.39,60.33,103.72,-99999,-99999,0,85.51,82.13,nu,FAIS,B,760,Q3,0.27,Q1,0,Q2,0,-99999,-99999,0,0.15,32,0.255,32,HarvardCMT,0.031850699,0.032357127,0.033593071,0.036812386,0.04859724,0.058666432,0.097533057,0.190769102,0.144066191,0.146089102,0.09343095,0.062353469,0.045964049,0.01716744,0.010615248,0.005143372,0.004068318,0.001321614,-99999,-99999,-99999,-99999,0.037416363,0.037799754,0.038452063,0.045603931,0.053498882,0.06873457,0.112568436,0.234360831,0.16931336,0.200050126,0.104887374,0.084701927,0.054962694,0.021008637,0.013331731,0.00665372,0.005134013,0.001697896,-99999,-99999,-99999,-99999,0.03163,0.037414,0.013971,0.019442
722185,1995-03-22T19:43:30.268000Z,I5606B07,5.83,0.15,Slab,S,0,27,64,30,nlloc,-41.0514,174.216,-41.2333,174.9199,6016538.56,2612205.51,5995282,2670919,7.6,7.6,62.31,105.88,59.59,103.21,-99999,-99999,0,85.51,82.13,nu,606B,B,800,Q3,<0.1,Q3,0,Q3,0,-99999,-99999,0,0.25,35,0.425,35,HarvardCMT,0.033478403,0.034769792,0.041267367,0.057787935,0.071558079,0.134476395,0.116457329,0.183256375,0.149462004,0.059318985,0.051333022,0.032597542,0.025596605,0.013785233,0.005272346,0.003260797,0.002936606,-99999,-99999,-99999,-99999,-99999,0.037314337,0.039096776,0.043786573,0.078498515,0.088742932,0.169416333,0.134528546,0.23002765,0.179434761,0.070140049,0.067166877,0.03671943,0.034376795,0.018848866,0.006609772,0.004591369,0.003380832,-99999,-99999,-99999,-99999,-99999,0.032391,0.036712,0.008125,0.009724
722185,1995-03-22T19:43:30.268000Z,I5642G18,5.83,0.15,Slab,S,0,27,64,30,nlloc,-41.0514,174.216,-41.235,174.9172,6016538.56,2612205.51,5995098,2670688,7.6,7.6,62.16,105.8,59.44,103.12,-99999,-99999,0,85.51,82.13,nu,642G,C,350,Q1,0.35,Q2,50,Q3,0,-99999,-99999,0,0.25,35,0.425,35,HarvardCMT,0.074235643,0.075898631,0.080936925,0.078347622,0.10493301,0.163021224,0.179675456,0.329628382,0.237134865,0.170970375,0.112525421,0.098166842,0.068301615,0.026058374,0.010836907,0.004379928,0.003101557,-99999,-99999,-99999,-99999,-99999,0.083281123,0.084787829,0.087822849,0.088781709,0.117094641,0.179134851,0.200651281,0.432578279,0.305820152,0.189720997,0.146203592,0.122387975,0.076543697,0.035309584,0.012675553,0.005969381,0.003401414,-99999,-99999,-99999,-99999,-99999,0.073975,0.0828,0.018827,0.023045
722185,1995-03-22T19:43:30.268000Z,I5642H18,5.83,0.15,Slab,S,0,27,64,30,nlloc,-41.0514,174.216,-41.235,174.9172,6016538.56,2612205.51,5995098,2670688,7.6,7.6,62.16,105.8,59.44,103.12,-99999,-99999,0,85.51,82.13,nu,642H,C,350,Q1,0.35,Q2,50,Q3,0,-99999,-99999,0,0.25,35,0.425,35,HarvardCMT,0.053435482,0.054433331,0.058305959,0.065991122,0.067284931,0.106060863,0.145153586,0.27229195,0.259488937,0.287378699,0.180593216,0.118073409,0.078464082,0.02771798,0.012021187,0.004678405,0.00336643,-99999,-99999,-99999,-99999,-99999,0.069750866,0.070897486,0.071753434,0.081836503,0.087368397,0.143117456,0.178277482,0.367903771,0.319235464,0.352281803,0.208469385,0.132389547,0.084374945,0.036167396,0.015485436,0.006335167,0.003675197,-99999,-99999,-99999,-99999,-99999,0.053201,0.069069,0.020039,0.022652
722185,1995-03-22T19:43:30.268000Z,I5708A04,5.83,0.15,Slab,S,0,27,64,30,nlloc,-41.0514,174.216,-41.1314,174.8391,6016538.56,2612205.51,6006740,2664387,7.6,7.6,52.97,100.66,50.14,97.89,-99999,-99999,0,85.51,82.13,nu,POLS,C,250,Q2,0.4,Q1,25,Q2,0,-99999,-99999,0,0.15,30,0.255,30,HarvardCMT,0.03946627,0.039964054,0.041122198,0.042461527,0.054281542,0.102300823,0.115692688,0.186063669,0.128479785,0.118805644,0.231437183,0.173280094,0.052756038,0.029538353,0.017807747,0.009751308,0.004886805,0.001864282,-99999,-99999,-99999,-99999,0.044087114,0.044748573,0.046639518,0.052865424,0.060248815,0.124514154,0.125693043,0.248361887,0.165614009,0.140320363,0.296858531,0.238218572,0.058653161,0.03165343,0.022821001,0.011986955,0.006582786,0.002367695,-99999,-99999,-99999,-99999,0.039215,0.044089,0.018455,0.02399
722185,1995-03-22T19:43:30.268000Z,I5711A01,5.83,0.15,Slab,S,0,27,64,30,nlloc,-41.0514,174.216,-41.2294,174.9042,6016538.56,2612205.51,5995739,2669619,7.6,7.6,60.94,105.08,58.22,102.39,-99999,-99999,0,85.51,82.13,nu,LRSS,D,230,Q3,1.4,Q3,175,Q3,0,-99999,-99999,0,0.25,24.5,0.425,24.5,HarvardCMT,0.043219726,0.043711399,0.044609504,0.049173493,0.058741517,0.114176487,0.156631323,0.16282965,0.1169127,0.145074506,0.12071333,0.149974241,0.132153976,0.053578612,0.033555591,0.031567658,0.013883806,-99999,-99999,-99999,-99999,-99999,0.061129086,0.061822427,0.063087491,0.064872983,0.067017095,0.138078305,0.217884436,0.192410227,0.148212847,0.199634821,0.166937143,0.182379257,0.173336308,0.074008407,0.045265838,0.034030485,0.015466751,-99999,-99999,-99999,-99999,-99999,0.042852,0.06009,0.026957,0.036004
722185,1995-03-22T19:43:30.268000Z,I5918B08,5.83,0.15,Slab,S,0,27,64,30,nlloc,-41.0514,174.216,-41.284,174.7682,6016538.56,2612205.51,5989908,2658140,7.6,7.6,52.97,100.77,50.33,97.95,-99999,-99999,0,85.51,82.13,nu,WEL,B,1000,Q3,0.3,Q1,0,Q2,0,-99999,-99999,0,0.25,24.5,0.425,24.5,HarvardCMT,0.058503692,0.059302469,0.060806208,0.065315746,0.071398809,0.120726659,0.109749883,0.60804461,0.345348307,0.207962889,0.141958976,0.102929667,0.065617675,0.02187744,0.020043135,0.012463086,0.008144703,-99999,-99999,-99999,-99999,-99999,0.079343148,0.080144977,0.081429075,0.084426427,0.09210847,0.147203852,0.128368707,0.74406266,0.437769489,0.228744493,0.199107306,0.144166472,0.090928404,0.028250053,0.025590517,0.015674726,0.009802495,-99999,-99999,-99999,-99999,-99999,0.058394,0.078329,0.02109,0.029719
722185,1995-03-22T19:43:30.268000Z,I5926A03,5.83,0.15,Slab,S,0,27,64,30,nlloc,-41.0514,174.216,-39.4883,176.9169,6016538.56,2612205.51,6183331,2846839,7.6,7.6,287.59,300.32,284.45,297.49,-99999,-99999,0,85.51,82.13,nu,926A,C,651,Q3,0.07,Q3,5,Q3,0,-99999,-99999,1,0.35,15,0.595,15,HarvardCMT,0.004262914,0.004281483,0.004314672,0.004364692,0.004454524,0.006197373,0.008231748,0.012340964,0.01929337,0.011260948,0.023535155,0.042387308,0.01248142,0.004735604,0.003045857,0.001299307,-99999,-99999,-99999,-99999,-99999,-99999,0.005463359,0.005500931,0.005566469,0.005670202,0.005834521,0.006650507,0.010192265,0.014127735,0.023263394,0.01439095,0.032529869,0.057617054,0.017295088,0.00535123,0.004023014,0.001832611,-99999,-99999,-99999,-99999,-99999,-99999,0.004257,0.005447,0.002834,0.003776
722185,1995-03-22T19:43:30.268000Z,K5046A01,5.83,0.15,Slab,S,0,27,64,30,nlloc,-41.0514,174.216,-41.2709,173.2837,6016538.56,2612205.51,5992838,2533754,7.6,7.6,81.77,118.44,78.66,114.68,-99999,-99999,0,85.51,82.13,nu,NCBS,D,210,Q3,0.7,Q2,50,Q3,0,-99999,-99999,1,0.7,14,1.19,14,HarvardCMT,0.03903442,0.039352772,0.03987079,0.040578606,0.041550452,0.049608683,0.07656913,0.141868361,0.112809515,0.175025395,0.160022165,0.081256841,0.086532412,0.0455293,-99999,-99999,-99999,-99999,-99999,-99999,-99999,-99999,0.043798134,0.04399872,0.044366212,0.044961178,0.045755615,0.05409897,0.087584832,0.159459384,0.131514754,0.233082026,0.215856301,0.098831483,0.104610974,0.059178709,-99999,-99999,-99999,-99999,-99999,-99999,-99999,-99999,0.038739,0.043798,0.018358,0.023447
722185,1995-03-22T19:43:30.268000Z,K5087A01,5.83,0.15,Slab,S,0,27,64,30,nlloc,-41.0514,174.216,-39.7163,175.1455,6016538.56,2612205.51,6163232,2693941,7.6,7.6,168.04,188.46,165.17,186.14,-99999,-99999,0,85.51,82.13,nu,087A,B,1000,Q3,<0.1,Q3,0,Q2,0,-99999,-99999,1,0.5,20,0.85,20,HarvardCMT,0.057477526,0.058299175,0.059536522,0.061826407,0.077268057,0.144620563,0.208264457,0.192797594,0.397347731,0.201019986,0.191231529,0.325305117,0.106489572,0.033600775,0.037086961,-99999,-99999,-99999,-99999,-99999,-99999,-99999,0.075268519,0.076418284,0.078334146,0.081375102,0.106553958,0.203619648,0.239410454,0.212194837,0.516762262,0.25113814,0.256006385,0.452955854,0.123172214,0.04534892,0.048881633,-99999,-99999,-99999,-99999,-99999,-99999,-99999,0.057253,0.07431,0.025754,0.03317
722185,1995-03-22T19:43:30.268000Z,K5087C01,5.83,0.15,Slab,S,0,27,64,30,nlloc,-41.0514,174.216,-39.7171,175.1382,6016538.56,2612205.51,6163158,2693314,7.6,7.6,167.67,188.13,164.8,185.82,-99999,-99999,0,85.51,82.13,nu,087C,C,425,Q3,0.33,Q3,30,Q3,0,-99999,-99999,1,0.7,14,1.19,14,HarvardCMT,0.064533056,0.064824728,0.065302064,0.065970188,0.066812052,0.099738553,0.13823582,0.266386444,0.388121902,0.381226381,0.307936929,0.409745027,0.388691872,0.072866234,-99999,-99999,-99999,-99999,-99999,-99999,-99999,-99999,0.071404329,0.071710846,0.072151916,0.072810905,0.073630485,0.105126561,0.165730978,0.36214652,0.421348878,0.452528694,0.388305891,0.46923251,0.499412877,0.096020632,-99999,-99999,-99999,-99999,-99999,-99999,-99999,-99999,0.064436,0.071363,0.034959,0.043902
722185,1995-03-22T19:43:30.268000Z,K5608A01,5.83,0.15,Slab,S,0,27,64,30,nlloc,-41.0514,174.216,-41.2241,174.8794,6016538.56,2612205.51,5996377,2667546,7.6,7.6,58.78,103.83,56.06,101.12,-99999,-99999,0,85.51,82.13,nu,608A,D,200,Q2,2,Q2,250,Q3,0,-99999,-99999,1,0.4,11,0.68,11,HarvardCMT,0.029266811,0.029342407,0.029569155,0.029849453,0.030277476,0.031826561,0.046933631,0.084700136,0.114241859,0.058033577,0.063693875,0.13151906,0.15379172,0.074708088,0.034008726,-99999,-99999,-99999,-99999,-99999,-99999,-99999,0.036010186,0.036198675,0.036469342,0.036863303,0.037482117,0.040134329,0.057407485,0.093446009,0.140831223,0.068647422,0.067100396,0.178523265,0.175563687,0.102049439,0.038997675,-99999,-99999,-99999,-99999,-99999,-99999,-99999,0.029264,0.035812,0.024995,0.030959
