CuspID,Origin_time,Record,Mw,MwUncert,TectClass,Mech,PreferredFaultPlane,Strike,Dip,Rake,Location,HypLat,HypLon,StationLat,StationLon,HypN,HypE,StationN,StationE,LENGTH_km,WIDTH_km,Repi_km,Rhyp_km,Rjb_km,Rrup_km,Rx_km,Ry_km,Rvol_km,HypDepth_km,ZTOR_km,HWFW,SiteCode,SiteClass1170,Vs30,Vs30Uncert,Tsite,TsiteUncert,Z1,Z1Uncertainty,Directivity,Pulse_or,Pulse_T,S_Trigger_Flag,fcButterHP,f_iniLP,fmin,fmax,References,f100.0000SA_GeoMean,f50.0000SA_GeoMean,f33.3333SA_GeoMean,f25.0000SA_GeoMean,f20.0000SA_GeoMean,f13.3333SA_GeoMean,f10.0000SA_GeoMean,f6.6667SA_GeoMean,f5.0000SA_GeoMean,f4.0000SA_GeoMean,f3.3333SA_GeoMean,f2.5000SA_GeoMean,f2.0000SA_GeoMean,f1.3333SA_GeoMean,f1.0000SA_GeoMean,f0.6667SA_GeoMean,f0.5000SA_GeoMean,f0.3333SA_GeoMean,f0.2500SA_GeoMean,f0.2000SA_GeoMean,f0.1333SA_GeoMean,f0.1000SA_GeoMean,PGA_Geomean,PGV_Geomean
722185,1995-03-22T19:43:30.268000Z,D5132A05,5.83,0.15,Slab,S,0,27,64,30,nlloc,-41.0514,174.216,-41.2975,174.781,6016538.56,2612205.51,5988401,2659132,7.6,7.6,54.63,101.53,52,98.73,-99999,-99999,0,85.51,82.13,nu,132A,C,245,Q2,0.47,Q2,27,Q2,0,-99999,-99999,0,0.3,15,0.51,15,HarvardCMT,0.049304943,0.049879798,0.050927656,0.052760727,0.055648591,0.079656058,0.115033819,0.174564321,0.118521818,0.093664338,0.111882992,0.09763443,0.082548627,0.034779229,0.013103825,0.010612384,-99999,-99999,-99999,-99999,-99999,-99999,0.048902,0.023971
722185,1995-03-22T19:43:30.268000Z,D5302A03,5.83,0.15,Slab,S,0,27,64,30,nlloc,-41.0514,174.216,-39.9338,175.053,6016538.56,2612205.51,6139282,2685450,7.6,7.6,143.02,166.57,140.12,164.23,-99999,-99999,0,85.51,82.13,nu,302A,D,250,Q2,0.8,Q3,80,Q3,0,-99999,-99999,0,0.4,18,0.68,18,HarvardCMT,0.028137837,0.02837156,0.028781928,0.029467865,0.03108173,0.049783095,0.087393875,0.083723107,0.072410115,0.083176175,0.089105269,0.089391906,0.063171537,0.030846844,0.014633045,-99999,-99999,-99999,-99999,-99999,-99999,-99999,0.028042,0.016545
722185,1995-03-22T19:43:30.268000Z,D5643B07,5.83,0.15,Slab,S,0,27,64,30,nlloc,-41.0514,174.216,-41.1513,174.9794,6016538.56,2612205.51,6004275,2676112,7.6,7.6,64.92,107.53,62.09,104.88,-99999,-99999,0,85.51,82.13,nu,643B,B,1000,Q3,<0.1,Q3,1.50E+00,Q3,0,-99999,-99999,0,0.3,30,0.51,30,HarvardCMT,0.041583351,0.042390562,0.045808551,0.048883481,0.05810035,0.09291871,0.105055613,0.200997117,0.116588919,0.08408754,0.06094703,0.033526218,0.020873042,0.011215193,0.005902337,0.003458889,-99999,-99999,-99999,-99999,-99999,-99999,0.041584,0.014512
722185,1995-03-22T19:43:30.268000Z,D5646A05,5.83,0.15,Slab,S,0,27,64,30,nlloc,-41.0514,174.216,-41.2574,174.9485,6016538.56,2612205.51,5992552,2673256,7.6,7.6,65.46,107.84,62.76,105.2,-99999,-99999,0,85.51,82.13,nu,WDAS,E,120,Q1,1.6,Q2,62,Q2,0,-99999,-99999,0,0.25,19,0.425,19,HarvardCMT,0.047075296,0.047629093,0.048586741,0.05012485,0.052960726,0.075304727,0.074243827,0.097739687,0.110872599,0.112588342,0.100403406,0.084297981,0.09900445,0.068024891,0.055995636,0.023609489,0.008336798,-99999,-99999,-99999,-99999,-99999,0.046993,0.029999
722185,1995-03-22T19:43:30.268000Z,D5647D02,5.83,0.15,Slab,S,0,27,64,30,nlloc,-41.0514,174.216,-41.2875,174.7769,6016538.56,2612205.51,5989514,2658817,7.6,7.6,53.8,101.07,51.16,98.26,-99999,-99999,0,85.51,82.13,nu,647D,D,474,Q2,0.12,Q2,5.70E+00,Q2,0,-99999,-99999,0,0.3,18,0.51,18,HarvardCMT,0.045239703,0.045519105,0.046174043,0.04732819,0.049935451,0.073794827,0.084022507,0.12542622,0.178533623,0.106292027,0.110570173,0.102946661,0.041033957,0.021337182,0.012813139,0.006417843,-99999,-99999,-99999,-99999,-99999,-99999,0.045111,0.021821
722185,1995-03-22T19:43:30.268000Z,D5648A03,5.83,0.15,Slab,S,0,27,64,30,nlloc,-41.0514,174.216,-41.2775,174.7735,6016538.56,2612205.51,5990634,2658549,7.6,7.6,53.01,109.27,50.36,106.39,-99999,-99999,0,85.51,82.13,nu,921A,C,330,Q3,0.5,Q3,38,Q3,0,-99999,-99999,0,0.35,32,0.595,32,HarvardCMT,0.058654762,0.059663537,0.063566986,0.081618409,0.079880443,0.094582908,0.116907881,0.190359832,0.196043171,0.138663994,0.138717562,0.108949312,0.055319404,0.030081636,0.014227185,0.008659999,-99999,-99999,-99999,-99999,-99999,-99999,0.058037,0.025123
722185,1995-03-22T19:43:30.268000Z,D5707A02,5.83,0.15,Slab,S,0,27,64,30,nlloc,-41.0514,174.216,-41.1391,174.8502,6016538.56,2612205.51,6005867,2665298,7.6,7.6,54.03,101.23,51.21,98.48,-99999,-99999,0,85.51,82.13,nu,707A,C,570,Q3,0.15,Q3,10,Q3,0,-99999,-99999,0,0.25,20,0.425,20,HarvardCMT,0.033339275,0.034326478,0.036157922,0.039447617,0.051208906,0.076523455,0.097398115,0.080404131,0.039914894,0.047863898,0.033188594,0.033153356,0.019220979,0.01442074,0.008028975,0.006064767,0.003699058,-99999,-99999,-99999,-99999,-99999,0.033086,0.009236
722185,1995-03-22T19:43:30.268000Z,D5900C02,5.83,0.15,Slab,S,0,27,64,30,nlloc,-41.0514,174.216,-41.2891,174.7799,6016538.56,2612205.51,5989335,2659058,7.6,7.6,54.09,101.23,51.45,98.43,-99999,-99999,0,85.51,82.13,nu,900C,D,250,Q3,0.8,Q3,60,Q3,0,-99999,-99999,0,0.3,15,0.51,15,HarvardCMT,0.0579199,0.058239893,0.058764693,0.059544522,0.060644276,0.071930873,0.091434462,0.124769734,0.176852006,0.211689368,0.153383694,0.157752766,0.061098925,0.040748932,0.01694531,0.007773341,-99999,-99999,-99999,-99999,-99999,-99999,0.057741,0.028216
722185,1995-03-22T19:43:30.268000Z,D5935C03,5.83,0.15,Slab,S,0,27,64,30,nlloc,-41.0514,174.216,-41.2108,174.9047,6016538.56,2612205.51,5997808,2669699,7.6,7.6,60.34,104.73,57.6,102.04,-99999,-99999,0,85.51,82.13,nu,935A,D,240,Q3,1.2,Q3,275,Q3,0,-99999,-99999,0,0.25,24.5,0.425,24.5,HarvardCMT,0.040836799,0.04124351,0.042098716,0.044834891,0.0442158,0.058900113,0.067108924,0.08083863,0.096055661,0.095319114,0.105363932,0.117510194,0.090864932,0.028346489,0.027086511,0.010958448,0.006602958,-99999,-99999,-99999,-99999,-99999,0.040731,0.02347
722185,1995-03-22T19:43:30.268000Z,I5027F03,5.83,0.15,Slab,S,0,27,64,30,nlloc,-41.0514,174.216,-39.4884,176.9189,6016538.56,2612205.51,6183307,2847012,7.6,7.6,287.72,300.43,284.58,297.6,-99999,-99999,0,85.51,82.13,nu,NAMS,C,268,Q3,0.4,Q3,20,Q3,0,-99999,-99999,1,0.5,21,0.85,21,HarvardCMT,0.007426918,0.00747078,0.007554833,0.007714948,0.007937863,0.008929089,0.009768855,0.012617659,0.014692403,0.015916501,0.02283668,0.037746068,0.016602817,0.005768775,0.002598072,-99999,-99999,-99999,-99999,-99999,-99999,-99999,0.007416,0.004647
722185,1995-03-22T19:43:30.268000Z,I5467A07,5.83,0.15,Slab,S,0,27,64,30,nlloc,-41.0514,174.216,-41.2425,174.9024,6016538.56,2612205.51,5994293,2669430,7.6,7.6,61.27,105.27,58.57,102.59,-99999,-99999,0,85.51,82.13,nu,467A,D,218,Q3,1.5,Q3,200,Q3,0,-99999,-99999,0,0.19,28,0.323,28,HarvardCMT,0.039495466,0.039892322,0.040651495,0.040911578,0.046430765,0.053914204,0.067506009,0.111933673,0.129638834,0.059628459,0.045539579,0.048890964,0.06801515,0.035754887,0.025002547,0.023514496,0.008456404,0.002160945,-99999,-99999,-99999,-99999,0.039238,0.01968
722185,1995-03-22T19:43:30.268000Z,I5468A06,5.83,0.15,Slab,S,0,27,64,30,nlloc,-41.0514,174.216,-41.2011,174.9547,6016538.56,2612205.51,5998793,2673916,7.6,7.6,64.07,106.94,61.31,104.29,-99999,-99999,0,85.51,82.13,nu,468A,D,190,Q1,0.9,Q3,50,Q3,0,-99999,-99999,0,0.25,24,0.425,24,HarvardCMT,0.062554975,0.063302825,0.064639868,0.069037746,0.071578092,0.110562123,0.121619993,0.235820655,0.229145896,0.154908401,0.12527101,0.130431395,0.096047228,0.064834135,0.062539871,0.013537644,0.006520776,-99999,-99999,-99999,-99999,-99999,0.06229,0.030953
722185,1995-03-22T19:43:30.268000Z,I5602C01,5.83,0.15,Slab,S,0,27,64,30,nlloc,-41.0514,174.216,-41.1903,174.928,6016538.56,2612205.51,6000041,2671703,7.6,7.6,61.61,105.49,58.84,102.81,-99999,-99999,0,85.51,82.13,nu,602C,B,1000,Q3,<0.1,Q3,0,Q3,0,-99999,-99999,0,0.2,45,0.34,45,HarvardCMT,0.016401025,0.01686671,0.018589131,0.020110295,0.022584184,0.047893673,0.03933658,0.036705518,0.044270459,0.038912964,0.035632293,0.02340531,0.016963956,0.010848409,0.008339525,0.005027346,0.003536791,-99999,-99999,-99999,-99999,-99999,0.016238,0.008364
722185,1995-03-22T19:43:30.268000Z,I5603B03,5.83,0.15,Slab,S,0,27,64,30,nlloc,-41.0514,174.216,-41.2237,174.86,6016538.56,2612205.51,5996453,2665923,7.6,7.6,57.23,102.97,54.52,100.24,-99999,-99999,0,85.51,82.13,nu,603B,B,1000,Q3,<0.1,Q3,0,Q3,0,-99999,-99999,0,0.25,30,0.425,30,HarvardCMT,0.016434458,0.016650889,0.017211303,0.018509142,0.021409743,0.029524134,0.044366956,0.060757087,0.037199119,0.023002299,0.022302398,0.027017763,0.021993598,0.011454644,0.010597277,0.006710588,0.004349612,-99999,-99999,-99999,-99999,-99999,0.016383,0.008793
722185,1995-03-22T19:43:30.268000Z,I5605B05,5.83,0.15,Slab,S,0,27,64,30,nlloc,-41.0514,174.216,-41.2074,174.9401,6016538.56,2612205.51,5998119,2672679,7.6,7.6,63.08,106.39,60.33,103.72,-99999,-99999,0,85.51,82.13,nu,FAIS,B,760,Q3,0.27,Q1,0,Q2,0,-99999,-99999,0,0.15,32,0.255,32,HarvardCMT,0.032290996,0.032712278,0.033624727,0.034166633,0.039695391,0.045412402,0.060495703,0.096171678,0.08515299,0.073388795,0.050076815,0.032957406,0.029687332,0.012840339,0.007423769,0.003870641,0.002688827,0.001029599,-99999,-99999,-99999,-99999,0.032291,0.01391
722185,1995-03-22T19:43:30.268000Z,I5606B07,5.83,0.15,Slab,S,0,27,64,30,nlloc,-41.0514,174.216,-41.2333,174.9199,6016538.56,2612205.51,5995282,2670919,7.6,7.6,62.31,105.88,59.59,103.21,-99999,-99999,0,85.51,82.13,nu,606B,B,800,Q3,<0.1,Q3,0,Q3,0,-99999,-99999,0,0.25,35,0.425,35,HarvardCMT,0.032244385,0.033603767,0.037251321,0.042425631,0.054682091,0.065809709,0.075682947,0.101060156,0.072371648,0.042636421,0.032758172,0.021159671,0.01489672,0.008970223,0.003423497,0.002203451,0.001891757,-99999,-99999,-99999,-99999,-99999,0.031543,0.008079
722185,1995-03-22T19:43:30.268000Z,I5642G18,5.83,0.15,Slab,S,0,27,64,30,nlloc,-41.0514,174.216,-41.235,174.9172,6016538.56,2612205.51,5995098,2670688,7.6,7.6,62.16,105.8,59.44,103.12,-99999,-99999,0,85.51,82.13,nu,642G,C,350,Q1,0.35,Q2,50,Q3,0,-99999,-99999,0,0.25,35,0.425,35,HarvardCMT,0.070475632,0.071915116,0.074626849,0.077818352,0.09568234,0.1180491,0.146338142,0.237887638,0.165170057,0.122486395,0.080910606,0.067439782,0.046961409,0.01752012,0.006755307,0.003332639,0.002673872,-99999,-99999,-99999,-99999,-99999,0.069625,0.020836
722185,1995-03-22T19:43:30.268000Z,I5642H18,5.83,0.15,Slab,S,0,27,64,30,nlloc,-41.0514,174.216,-41.235,174.9172,6016538.56,2612205.51,5995098,2670688,7.6,7.6,62.16,105.8,59.44,103.12,-99999,-99999,0,85.51,82.13,nu,642H,C,350,Q1,0.35,Q2,50,Q3,0,-99999,-99999,0,0.25,35,0.425,35,HarvardCMT,0.05333318,0.053999662,0.055867131,0.058339959,0.063008207,0.082276673,0.112558015,0.167383138,0.165862305,0.166534132,0.111856454,0.080859044,0.050621399,0.018572218,0.007648553,0.003787799,0.002866816,-99999,-99999,-99999,-99999,-99999,0.053073,0.020932
722185,1995-03-22T19:43:30.268000Z,I5708A04,5.83,0.15,Slab,S,0,27,64,30,nlloc,-41.0514,174.216,-41.1314,174.8391,6016538.56,2612205.51,6006740,2664387,7.6,7.6,52.97,100.66,50.14,97.89,-99999,-99999,0,85.51,82.13,nu,POLS,C,250,Q2,0.4,Q1,25,Q2,0,-99999,-99999,0,0.15,30,0.255,30,HarvardCMT,0.038482496,0.038919251,0.040438734,0.044941051,0.047477455,0.065153241,0.080899895,0.109271842,0.074880719,0.085819368,0.110387931,0.099633023,0.038836945,0.022672098,0.011148721,0.007128767,0.004018605,0.001657325,-99999,-99999,-99999,-99999,0.038247,0.01882
722185,1995-03-22T19:43:30.268000Z,I5711A01,5.83,0.15,Slab,S,0,27,64,30,nlloc,-41.0514,174.216,-41.2294,174.9042,6016538.56,2612205.51,5995739,2669619,7.6,7.6,60.94,105.08,58.22,102.39,-99999,-99999,0,85.51,82.13,nu,LRSS,D,230,Q3,1.4,Q3,175,Q3,0,-99999,-99999,0,0.25,24.5,0.425,24.5,HarvardCMT,0.04565462,0.046086195,0.046613718,0.04892586,0.053404442,0.081611133,0.101235995,0.112430013,0.074945816,0.089850715,0.089105872,0.09898109,0.074635019,0.032400059,0.018068606,0.017393511,0.008396916,-99999,-99999,-99999,-99999,-99999,0.045378,0.024851
722185,1995-03-22T19:43:30.268000Z,I5918B08,5.83,0.15,Slab,S,0,27,64,30,nlloc,-41.0514,174.216,-41.284,174.7682,6016538.56,2612205.51,5989908,2658140,7.6,7.6,52.97,100.77,50.33,97.95,-99999,-99999,0,85.51,82.13,nu,WEL,B,1000,Q3,0.3,Q1,0,Q2,0,-99999,-99999,0,0.25,24.5,0.425,24.5,HarvardCMT,0.059438487,0.060040184,0.060990777,0.0621656,0.063641263,0.082980544,0.099653576,0.266029956,0.175952772,0.146384875,0.098630949,0.058838175,0.03771392,0.013605798,0.011712609,0.007819138,0.004327804,-99999,-99999,-99999,-99999,-99999,0.059261,0.020528
722185,1995-03-22T19:43:30.268000Z,I5926A03,5.83,0.15,Slab,S,0,27,64,30,nlloc,-41.0514,174.216,-39.4883,176.9169,6016538.56,2612205.51,6183331,2846839,7.6,7.6,287.59,300.32,284.45,297.49,-99999,-99999,0,85.51,82.13,nu,926A,C,651,Q3,0.07,Q3,5,Q3,0,-99999,-99999,1,0.35,15,0.595,15,HarvardCMT,0.004266021,0.004284515,0.004315955,0.004362354,0.004483663,0.005090581,0.007158922,0.009074989,0.011436963,0.010191973,0.013973647,0.021852259,0.009664146,0.003030261,0.002010299,0.000878835,-99999,-99999,-99999,-99999,-99999,-99999,0.004261,0.002833
722185,1995-03-22T19:43:30.268000Z,K5046A01,5.83,0.15,Slab,S,0,27,64,30,nlloc,-41.0514,174.216,-41.2709,173.2837,6016538.56,2612205.51,5992838,2533754,7.6,7.6,81.77,118.44,78.66,114.68,-99999,-99999,0,85.51,82.13,nu,NCBS,D,210,Q3,0.7,Q2,50,Q3,0,-99999,-99999,1,0.7,14,1.19,14,HarvardCMT,0.038424772,0.038592437,0.038846634,0.039218044,0.039705022,0.044272159,0.051730917,0.084807353,0.087287111,0.117233929,0.099204375,0.073399126,0.055213316,0.033222616,-99999,-99999,-99999,-99999,-99999,-99999,-99999,-99999,0.038304,0.019555
722185,1995-03-22T19:43:30.268000Z,K5087A01,5.83,0.15,Slab,S,0,27,64,30,nlloc,-41.0514,174.216,-39.7163,175.1455,6016538.56,2612205.51,6163232,2693941,7.6,7.6,168.04,188.46,165.17,186.14,-99999,-99999,0,85.51,82.13,nu,087A,B,1000,Q3,<0.1,Q3,0,Q2,0,-99999,-99999,1,0.5,20,0.85,20,HarvardCMT,0.057357235,0.058014655,0.05928318,0.061771105,0.06730567,0.088590752,0.164531416,0.139054717,0.190410281,0.137967096,0.124392822,0.171320851,0.061854754,0.025829261,0.024890779,-99999,-99999,-99999,-99999,-99999,-99999,-99999,0.057177,0.024898
722185,1995-03-22T19:43:30.268000Z,K5087C01,5.83,0.15,Slab,S,0,27,64,30,nlloc,-41.0514,174.216,-39.7171,175.1382,6016538.56,2612205.51,6163158,2693314,7.6,7.6,167.67,188.13,164.8,185.82,-99999,-99999,0,85.51,82.13,nu,087C,C,425,Q3,0.33,Q3,30,Q3,0,-99999,-99999,1,0.7,14,1.19,14,HarvardCMT,0.067294946,0.067613309,0.068151639,0.068938352,0.070055365,0.084100954,0.097757885,0.157551734,0.241475023,0.212022962,0.20562715,0.224207523,0.186410129,0.056710832,-99999,-99999,-99999,-99999,-99999,-99999,-99999,-99999,0.066947,0.036866
722185,1995-03-22T19:43:30.268000Z,K5608A01,5.83,0.15,Slab,S,0,27,64,30,nlloc,-41.0514,174.216,-41.2241,174.8794,6016538.56,2612205.51,5996377,2667546,7.6,7.6,58.78,103.83,56.06,101.12,-99999,-99999,0,85.51,82.13,nu,608A,D,200,Q2,2,Q2,250,Q3,0,-99999,-99999,1,0.4,11,0.68,11,HarvardCMT,0.027676775,0.027780722,0.02796024,0.028246258,0.028632698,0.030178111,0.038873031,0.05918708,0.06150751,0.045413873,0.043751757,0.070227579,0.101630974,0.045636499,0.022375823,-99999,-99999,-99999,-99999,-99999,-99999,-99999,0.027593,0.024803
771645,1995-11-24T06:18:56.622999Z,D5505A37,6.19,0.08,Crustal,O,1,176,46,44,geonet,-42.953,171.8188,-42.9489,171.5677,5805359.34,2413627.76,5805487,2393135,11.44,11.44,20.44,22,18.34,21,22.52,-1.56,0,7.26,5.1,hw,APPS,C,300,Q2,0.4,Q1,30,Q2,0,-99999,-99999,0,0.29,20,0.493,20,Gledhill_etal_2000,0.132906212,0.134652694,0.137592118,0.142049474,0.170960459,0.241002894,0.301225238,0.391979387,0.455364442,0.285038942,0.23407023,0.275758437,0.228989812,0.098403574,0.05227671,0.016590122,0.011439527,-99999,-99999,-99999,-99999,-99999,0.132345,0.065664
771645,1995-11-24T06:18:56.622999Z,D6051D01,6.19,0.08,Crustal,O,1,176,46,44,geonet,-42.953,171.8188,-41.7557,171.5998,5805359.34,2413627.76,5938069,2393545,11.44,11.44,134.35,134.42,128.36,128.45,12.86,-133.79,0,7.26,5.1,nu,WBCS,D,300,Q3,1.2,Q2,105,Q3,0,-99999,-99999,0,0.2,20,0.34,20,Gledhill_etal_2000,0.01953878,0.019697361,0.019947658,0.020399195,0.021270413,0.031625049,0.030062502,0.042763902,0.04540555,0.035862928,0.046463846,0.03997291,0.046726711,0.032383593,0.035501134,0.016752922,0.008144187,-99999,-99999,-99999,-99999,-99999,0.019487,0.01579
771645,1995-11-24T06:18:56.622999Z,D6129A01,6.19,0.08,Crustal,O,1,176,46,44,geonet,-42.953,171.8188,-41.7999,172.328,5805359.34,2413627.76,5933893,2454147,11.44,11.44,134.87,134.97,129.24,129.34,-47.3,-125.39,0,7.26,5.1,nu,MCAS,D,501,Q3,1.6,Q3,200,Q3,0,-99999,-99999,1,0.2,10,0.34,10,Gledhill_etal_2000,0.018046428,0.018068269,0.018117372,0.018162131,0.018241857,0.0185356,0.021567811,0.028017344,0.035889665,0.039124218,0.046598286,0.053104366,0.049012765,0.040668469,0.04440268,0.037801153,0.016502479,-99999,-99999,-99999,-99999,-99999,0.018044,0.030101
771645,1995-11-24T06:18:56.622999Z,K5112B01,6.19,0.08,Crustal,O,1,176,46,44,geonet,-42.953,171.8188,-43.1325,171.7693,5805359.34,2413627.76,5785358,2409884,11.44,11.44,20.36,21.83,14.58,16.61,7.21,19.69,0,7.26,5.1,nu,112B,C,667,Q3,0.36,Q3,60,Q3,0,-99999,-99999,1,0.25,20,0.425,20,Gledhill_etal_2000,0.13382888,0.135903594,0.139827436,0.148724843,0.17894531,0.258302179,0.402615997,0.357331476,0.364292831,0.431225089,0.244495124,0.134682772,0.108274235,0.049519778,0.034641044,0.034052753,0.015934776,-99999,-99999,-99999,-99999,-99999,0.133842,0.051106
1037562,1996-08-29T04:47:00.878000Z,D6042A01,5.25,0.15,Crustal,S,0,317,67,-2.00E+01,geonet,-42.4891,172.7921,-42.5232,172.8305,5857551.8,2492912.82,5853765,2496076,3.9,3.9,4.93,10.98,3.66,9.43,-99999,-99999,0,9.43,7.61,nu,HSES,D,280,Q3,0.9,Q1,85,Q3,0,-99999,-99999,0,0.2,18,0.34,18,HarvardCMT,0.232296507,0.233935004,0.236671984,0.241316555,0.248739129,0.26473978,0.351230895,0.449095827,0.394961955,0.43353651,0.495699324,0.532485551,0.416933488,0.446225762,0.387133835,0.136661144,0.067504355,-99999,-99999,-99999,-99999,-99999,0.231618,0.245687
1348340,1999-01-03T07:00:20.568000Z,D9131A03,5.22,0.15,Slab,N,1,211,80,-8.30E+01,nlloc,-41.0938,174.519,-40.9143,175.005,6011432.3,2637591.18,6030534,2678862,3.7,3.7,45.4,72.68,43.85,70.85,-25.21,-37.63,0,56.68,54.84,nu,PAPS,D,200,Q3,1.4,Q1,100,Q3,0,-99999,-99999,0,0.4,15,0.68,15,HarvardCMT,0.024092666,0.024362154,0.024815701,0.025474572,0.026440223,0.037988243,0.049789297,0.096296093,0.080640837,0.045873116,0.034180697,0.025186139,0.024163138,0.020122955,0.015769526,-99999,-99999,-99999,-99999,-99999,-99999,-99999,0.023872,0.012535
1348340,1999-01-03T07:00:20.568000Z,D9469A01,5.22,0.15,Slab,N,1,211,80,-8.30E+01,nlloc,-41.0938,174.519,-41.2117,174.9033,6011432.3,2637591.18,5997711,2669586,3.7,3.7,34.75,66.53,34.35,64.79,-34.17,-4.72,0,56.68,54.84,nu,LHES,D,240,Q3,1.16,Q3,280,Q3,0,-99999,-99999,0,0.35,12.5,0.595,12.5,HarvardCMT,0.017610034,0.017746368,0.017978624,0.018337735,0.018851193,0.022019715,0.027549253,0.036512863,0.041837781,0.039822188,0.041015483,0.032647009,0.02749963,0.020554547,0.01633725,0.005080057,-99999,-99999,-99999,-99999,-99999,-99999,0.017443,0.012445
1348340,1999-01-03T07:00:20.568000Z,D9643B07,5.22,0.15,Slab,N,1,211,80,-8.30E+01,nlloc,-41.0938,174.519,-41.1513,174.9794,6011432.3,2637591.18,6004275,2676112,3.7,3.7,39.09,68.98,38.4,67.25,-36.38,-13.7,0,56.68,54.84,nu,643B,B,1000,Q3,<0.1,Q3,1.50E+00,Q3,0,-99999,-99999,0,0.45,18,0.765,18,HarvardCMT,0.031119026,0.031640529,0.032577941,0.034129086,0.037062814,0.059515904,0.065206172,0.098063372,0.103592132,0.044324774,0.025702734,0.017242142,0.011009834,0.008735662,0.004641759,-99999,-99999,-99999,-99999,-99999,-99999,-99999,0.031126,0.009122
1348340,1999-01-03T07:00:20.568000Z,D9644C05,5.22,0.15,Slab,N,1,211,80,-8.30E+01,nlloc,-41.0938,174.519,-41.2187,174.8826,6011432.3,2637591.18,5996970,2667828,3.7,3.7,33.46,65.85,33.1,64.1,-33.04,-3.18,0,56.68,54.84,nu,644C,D,189,Q3,2,Q3,250,Q3,0,-99999,-99999,0,0.3,18,0.51,18,HarvardCMT,0.019400717,0.019549193,0.019840911,0.020340239,0.021688206,0.030630571,0.034388618,0.041052193,0.049833791,0.02651538,0.029332193,0.043360498,0.040651443,0.018153494,0.009907793,0.004090993,-99999,-99999,-99999,-99999,-99999,-99999,0.019327,0.011726
