CuspID,Origin_time,Record,Mw,MwUncert,TectClass,Mech,PreferredFaultPlane,Strike,Dip,Rake,Location,HypLat,HypLon,StationLat,StationLon,HypN,HypE,StationN,StationE,LENGTH_km,WIDTH_km,Repi_km,Rhyp_km,Rjb_km,Rrup_km,Rx_km,Ry_km,Rvol_km,HypDepth_km,ZTOR_km,HWFW,SiteCode,SiteClass1170,Vs30,Vs30Uncert,Tsite,TsiteUncert,Z1,Z1Uncertainty,Directivity,Pulse_or,Pulse_T,S_Trigger_Flag,fcButterHP,f_iniLP,fmin,fmax,References,f100.0000SA_RotD50,f50.0000SA_RotD50,f33.3333SA_RotD50,f25.0000SA_RotD50,f20.0000SA_RotD50,f13.3333SA_RotD50,f10.0000SA_RotD50,f6.6667SA_RotD50,f5.0000SA_RotD50,f4.0000SA_RotD50,f3.3333SA_RotD50,f2.5000SA_RotD50,f2.0000SA_RotD50,f1.3333SA_RotD50,f1.0000SA_RotD50,f0.6667SA_RotD50,f0.5000SA_RotD50,f0.3333SA_RotD50,f0.2500SA_RotD50,f0.2000SA_RotD50,f0.1333SA_RotD50,f0.1000SA_RotD50,f100.0000SA_RotD100,f50.0000SA_RotD100,f33.3333SA_RotD100,f25.0000SA_RotD100,f20.0000SA_RotD100,f13.3333SA_RotD100,f10.0000SA_RotD100,f6.6667SA_RotD100,f5.0000SA_RotD100,f4.0000SA_RotD100,f3.3333SA_RotD100,f2.5000SA_RotD100,f2.0000SA_RotD100,f1.3333SA_RotD100,f1.0000SA_RotD100,f0.6667SA_RotD100,f0.5000SA_RotD100,f0.3333SA_RotD100,f0.2500SA_RotD100,f0.2000SA_RotD100,f0.1333SA_RotD100,f0.1000SA_RotD100,PGA_RotD50,PGA_RotD100,PGV_RotD50,PGV_RotD100
339342,1992-05-27T22:30:35.064000Z,K92934B1,5.9,0.08,Slab,S,1,117,85,21,special,-41.63,173.62,-41.2436,174.908,5952812.98,2561652.09,5994160,2669897,8.2,8.2,115.64,133.85,112.94,130.58,-85.63,77.68,0,67,62.92,nu,934B,D,180,Q1,1.1,Q3,100,Q3,0,-99999,-99999,1,0.4,16,0.68,16,Webb_Anderson_1998&Dowrick_Rhoades1998&HarvardCMT,0.025403498,0.025506726,0.025751624,0.026127938,0.026634481,0.028798087,0.037452508,0.056044126,0.038443363,0.058162225,0.060980046,0.081502635,0.092996722,0.023275602,0.015349655,-99999,-99999,-99999,-99999,-99999,-99999,-99999,0.035623522,0.035812118,0.036135105,0.036591286,0.037191503,0.040623486,0.041132872,0.06322287,0.05323344,0.063470222,0.070038982,0.096263937,0.123878224,0.026999424,0.020957267,-99999,-99999,-99999,-99999,-99999,-99999,-99999,0.025401,0.035412,0.017923,0.022841
338849,1992-06-21T17:43:09.086000Z,K92028A1,6.25,0.08,Crustal,N,1,32,41,246,special,-37.67,176.86,-38.0079,177.284,6385179.66,2850645.07,6346024,2886230,12.26,12.26,52.9,53.06,48.15,48.79,55.55,-14.35,25,4,0.01,nu,028A,D,210,Q3,1,Q3,75,Q3,0,-99999,-99999,1,0.2,15,0.34,15,Webb_Anderson_1998&Dowrick_Rhoades1998&HarvardCMT,0.031127843,0.031390503,0.031927774,0.032692237,0.034021761,0.049523322,0.058857089,0.082247349,0.077220713,0.066198379,0.055330081,0.07577377,0.08737314,0.046461603,0.064679755,0.039972281,0.045368362,-99999,-99999,-99999,-99999,-99999,0.033841919,0.034130167,0.034615058,0.035431965,0.036753173,0.056781884,0.069338652,0.101822723,0.092826943,0.093205057,0.067810521,0.095814085,0.106045076,0.061062973,0.068451668,0.052445436,0.049889039,-99999,-99999,-99999,-99999,-99999,0.031059,0.033848,0.042707,0.059619
338849,1992-06-21T17:43:09.086000Z,A92930A1,6.25,0.08,Crustal,N,1,32,41,246,special,-37.67,176.86,-37.9885,176.8294,6385179.66,2850645.07,6349976,2846440,12.26,12.26,35.52,35.68,29.64,30.05,19.71,-32.08,30,4,0.01,nu,930A,E,150,Q3,>2,Q3,300,Q3,0,-99999,-99999,1,0.15,12,0.255,12,Webb_Anderson_1998&Dowrick_Rhoades1998&HarvardCMT,0.04141042,0.04148627,0.04163017,0.041819932,0.042106747,0.043729179,0.05567723,0.062310452,0.073376616,0.077683217,0.08214982,0.078805738,0.102052107,0.09797758,0.094226631,0.06953531,0.053643701,0.046028068,-99999,-99999,-99999,-99999,0.052093416,0.05221082,0.05241817,0.052717933,0.053153693,0.055933658,0.070239004,0.075197589,0.095611147,0.081838981,0.089487767,0.084230973,0.110376323,0.115710609,0.121941822,0.088951185,0.061368544,0.055829129,-99999,-99999,-99999,-99999,0.041386,0.051907,0.084975,0.103354
435226,1993-04-11T06:59:48.228000Z,A93032A1,5.68,0.08,Interface,O,1,198,15,52,special,-39.74,176.52,-39.9425,176.5874,6156829.5,2811622.89,6134136,2816486,8.63,8.63,23.24,34.95,18.95,31.74,-7.47,20.08,0,26,24.88,nu,032A,C,495,Q3,0.13,Q3,10,Q3,0,-99999,-99999,1,0.4,10,0.68,10,Webb_Anderson_1998&Dowrick_Rhoades1998&HarvardCMT,0.158443647,0.158840089,0.159491611,0.160380379,0.161585086,0.165489381,0.169286341,0.227085474,0.351807895,0.328925411,0.36757567,0.376222413,0.391284611,0.234028238,0.153552965,-99999,-99999,-99999,-99999,-99999,-99999,-99999,0.185063169,0.185517098,0.186266892,0.187257575,0.188515933,0.19340466,0.193412694,0.27337501,0.399067631,0.411801035,0.432228848,0.482480017,0.444017451,0.292019935,0.209498804,-99999,-99999,-99999,-99999,-99999,-99999,-99999,0.158186,0.185064,0.131958,0.175139
435226,1993-04-11T06:59:48.228000Z,D93014A2,5.68,0.08,Interface,O,1,198,15,52,special,-39.74,176.52,-39.4984,176.8761,6156829.5,2811622.89,6182359,2843283,8.63,8.63,40.64,48.27,36.38,44.35,-18.05,-34.06,0,26,24.88,nu,NCDS,E,162,Q3,1.25,Q2,110,Q3,0,-99999,-99999,0,0.24,12,0.408,12,Webb_Anderson_1998&Dowrick_Rhoades1998&HarvardCMT,0.032499072,0.032796033,0.03343325,0.034252376,0.035476288,0.041247499,0.048106973,0.090714469,0.083045312,0.090392311,0.074551657,0.071175962,0.061932912,0.050446192,0.038596346,0.01163469,0.004627161,-99999,-99999,-99999,-99999,-99999,0.039534112,0.039754642,0.040134878,0.04065269,0.041395478,0.045505347,0.060576756,0.106511858,0.092966422,0.103571196,0.086193457,0.097033476,0.067601598,0.062280653,0.04465542,0.016345138,0.004966885,-99999,-99999,-99999,-99999,-99999,0.032393,0.039539,0.021884,0.02309
435226,1993-04-11T06:59:48.228000Z,D93015A1,5.68,0.08,Interface,O,1,198,15,52,special,-39.74,176.52,-39.4891,176.8982,6156829.5,2811622.89,6183313,2845228,8.63,8.63,42.76,50.1,38.49,46.14,-19.61,-35.57,0,26,24.88,nu,015A,B,1000,Q3,<0.1,Q3,0,Q3,0,-99999,-99999,0,0.5,12,0.85,12,Webb_Anderson_1998&Dowrick_Rhoades1998&HarvardCMT,0.016442706,0.016556043,0.016707612,0.01703425,0.017439027,0.020157848,0.025073938,0.0291025,0.036861784,0.053347104,0.06505782,0.042595706,0.046114661,0.013987422,0.009217661,-99999,-99999,-99999,-99999,-99999,-99999,-99999,0.017772651,0.01793282,0.018165626,0.018539823,0.019081924,0.022388906,0.029763068,0.031707512,0.041628088,0.067280481,0.076566288,0.057506668,0.061657933,0.016677183,0.010364379,-99999,-99999,-99999,-99999,-99999,-99999,-99999,0.016392,0.017773,0.009443,0.011342
435226,1993-04-11T06:59:48.228000Z,D93029A2,5.68,0.08,Interface,O,1,198,15,52,special,-39.74,176.52,-39.6458,176.8429,6156829.5,2811622.89,6166127,2839726,8.63,8.63,29.55,39.41,25.33,35.69,-19.69,-17.53,0,26,24.88,nu,HCDS,D,182,Q2,>2,Q3,1000,Q3,0,-99999,-99999,0,0.2,15,0.34,15,Webb_Anderson_1998&Dowrick_Rhoades1998&HarvardCMT,0.029052397,0.029347765,0.02981716,0.030698002,0.031916562,0.042202085,0.044856227,0.063031028,0.092800114,0.08965105,0.097685831,0.070543498,0.038751319,0.059737621,0.031077974,0.014122858,0.014861206,-99999,-99999,-99999,-99999,-99999,0.034615686,0.034701103,0.034840467,0.035056912,0.035370317,0.04422232,0.053649004,0.080171698,0.124490447,0.108436453,0.107625433,0.094729668,0.044704811,0.079644339,0.03945047,0.015293624,0.017397638,-99999,-99999,-99999,-99999,-99999,0.02904,0.034619,0.026152,0.030611
471730,1993-08-10T00:51:55.033000Z,A93070A1,6.89,0.08,Interface,R,1,41,41,107,nlloc,-45.3625,166.649,-45.4167,167.7191,5519161.25,2012843.95,5519112,2096857,34.75,34.75,83.78,85.7,74.67,77.26,68.91,55.08,0,16.72,11.96,nu,TAFS,D,298,Q3,1.4,Q3,200,Q3,0,-99999,-99999,1,0.2,19,0.34,19,Robinson_etal_2003&Dowrick_Rhoades1998&HarvardCMT,0.06390518,0.064611711,0.065829139,0.067814237,0.070761533,0.117242746,0.146152143,0.179736575,0.159508381,0.140008783,0.137377811,0.133080955,0.085189305,0.078710749,0.073162039,0.080857935,0.052220728,-99999,-99999,-99999,-99999,-99999,0.085556092,0.086513592,0.088165605,0.090766866,0.093498269,0.139066739,0.163813599,0.220479257,0.175641654,0.169214554,0.180083629,0.188211357,0.094130127,0.091638724,0.101789075,0.107619575,0.064382949,-99999,-99999,-99999,-99999,-99999,0.063904,0.085534,0.06115,0.07679
471730,1993-08-10T00:51:55.033000Z,A93940A1,6.89,0.08,Interface,R,1,41,41,107,nlloc,-45.3625,166.649,-45.0322,168.6629,5519161.25,2012843.95,5566104,2168345,34.75,34.75,162.01,163.32,150.75,152.25,92.03,137.45,0,16.72,11.96,nu,QTPS,D,350,Q3,0.95,Q1,90,Q3,0,-99999,-99999,1,0.5,10,0.85,10,Robinson_etal_2003&Dowrick_Rhoades1998&HarvardCMT,0.035834204,0.035986785,0.036250626,0.036602824,0.03707761,0.038975733,0.043719883,0.067085007,0.105885329,0.113806662,0.111683761,0.086798881,0.089306234,0.054246601,0.027023107,-99999,-99999,-99999,-99999,-99999,-99999,-99999,0.04024703,0.040492979,0.040901985,0.041468878,0.042248035,0.045195207,0.053255966,0.074830522,0.117450794,0.141823051,0.129831611,0.116015415,0.102123342,0.065366447,0.035647338,-99999,-99999,-99999,-99999,-99999,-99999,-99999,0.035774,0.040236,0.023354,0.02647
471730,1993-08-10T00:51:55.033000Z,D93044A2s,6.89,0.08,Interface,R,1,41,41,107,nlloc,-45.3625,166.649,-45.8986,170.5097,5519161.25,2012843.95,5475848,2316608,34.75,34.75,306.03,307.29,297.73,299.13,263.14,166.6,0,16.72,11.96,nu,SKFS,D,140,Q2,0.8,Q3,25,Q3,0,-99999,-99999,1,0.25,10,0.425,10,Robinson_etal_2003&Dowrick_Rhoades1998&HarvardCMT,0.014964558,0.014983833,0.015013096,0.015093083,0.015194625,0.015730641,0.016850858,0.02405264,0.027939455,0.036862936,0.03628555,0.034293532,0.043509738,0.057136288,0.030252119,0.01498199,0.006462166,-99999,-99999,-99999,-99999,-99999,0.016291428,0.016311648,0.016341643,0.016370729,0.016412386,0.016597513,0.018971984,0.026688818,0.03141238,0.044269054,0.046732364,0.037628263,0.055882849,0.061821012,0.036011404,0.019963267,0.007841414,-99999,-99999,-99999,-99999,-99999,0.014949,0.016283,0.018465,0.019737
471730,1993-08-10T00:51:55.033000Z,D93054A6,6.89,0.08,Interface,R,1,41,41,107,nlloc,-45.3625,166.649,-43.883,169.0441,5519161.25,2012843.95,5695156,2192230,34.75,34.75,250.97,251.86,238.02,238.93,25.39,250.51,0,16.72,11.96,nu,HDWS,D,210,Q3,0.87,Q1,100,Q3,0,-99999,-99999,0,0.35,14,0.595,14,Robinson_etal_2003&Dowrick_Rhoades1998&HarvardCMT,0.030156321,0.030543811,0.031206501,0.032217568,0.033608797,0.045266409,0.056775752,0.106107291,0.070002237,0.068618202,0.087613913,0.043362646,0.034682306,0.067374737,0.026379139,0.015427409,-99999,-99999,-99999,-99999,-99999,-99999,0.035455784,0.035588925,0.035801696,0.036109823,0.037487213,0.049308444,0.068684063,0.114983692,0.072275603,0.076092002,0.106983548,0.053909132,0.041603767,0.083201472,0.036482542,0.021588124,-99999,-99999,-99999,-99999,-99999,-99999,0.029905,0.035416,0.021456,0.023931
471755,1993-08-10T09:46:38.453000Z,A93028A1,6.3,0.08,Slab,S,1,354,64,168,special,-38.55,177.92,-38.0079,177.284,6283090.62,2938734.07,6346024,2886230,30,15,81.95,90.77,69.76,78.95,-42.35,68.08,0,39,32.26,nu,028A,D,210,Q3,1,Q3,75,Q3,0,-99999,-99999,1,0.35,15,0.595,15,Reyners_et_al2010&Webb_Anderson_1998&Dowrick_Rhoades1998&HarvardCMT,0.061378169,0.061609328,0.061940475,0.06246412,0.063134125,0.065906351,0.082095679,0.119565625,0.200371601,0.152782345,0.13302348,0.172698364,0.240028501,0.097132602,0.080129736,0.067714347,-99999,-99999,-99999,-99999,-99999,-99999,0.069006294,0.069196323,0.069491857,0.069930205,0.07046138,0.076409138,0.115357117,0.169111913,0.283192178,0.174720335,0.16106037,0.205915879,0.323944162,0.125340513,0.11123139,0.08192224,-99999,-99999,-99999,-99999,-99999,-99999,0.061272,0.068831,0.052639,0.065922
471755,1993-08-10T09:46:38.453000Z,A93096A1,6.3,0.08,Slab,S,1,354,64,168,special,-38.55,177.92,-39.0342,177.4249,6283090.62,2938734.07,6231637,2892985,30,15,68.85,79.13,59.27,69.25,-47.59,-46.39,0,39,32.26,nu,WFSS,D,155,Q3,1.5,Q3,100,Q3,0,-99999,-99999,1,0.35,13,0.595,13,Reyners_et_al2010&Webb_Anderson_1998&Dowrick_Rhoades1998&HarvardCMT,0.043892405,0.044007837,0.044207219,0.044480106,0.04487004,0.049201861,0.052900035,0.073513071,0.091671853,0.098733616,0.147378232,0.152199879,0.125347941,0.10202918,0.099705264,0.061190486,-99999,-99999,-99999,-99999,-99999,-99999,0.056454907,0.056570274,0.056769144,0.057035547,0.057413579,0.05923886,0.069007759,0.080424126,0.108142073,0.113944902,0.169866643,0.170519256,0.144703423,0.120701313,0.120669062,0.071314853,-99999,-99999,-99999,-99999,-99999,-99999,0.043862,0.056459,0.046615,0.050072
471755,1993-08-10T09:46:38.453000Z,A93113A1,6.3,0.08,Slab,S,1,354,64,168,special,-38.55,177.92,-37.8735,177.5847,6283090.62,2938734.07,6359624,2913365,30,15,80.72,89.57,66.1,76.08,-13.94,78.77,0,39,32.26,nu,113A,C,522,Q3,0.15,Q3,10,Q3,0,-99999,-99999,1,0.42,13,0.714,13,Reyners_et_al2010&Webb_Anderson_1998&Dowrick_Rhoades1998&HarvardCMT,0.089780168,0.090296004,0.091160323,0.092413746,0.094340175,0.102623677,0.116175995,0.169366858,0.305887859,0.352859491,0.269582925,0.163863159,0.106925169,0.046687853,0.026675788,-99999,-99999,-99999,-99999,-99999,-99999,-99999,0.111088062,0.111498891,0.112177508,0.113108855,0.114257894,0.117270207,0.147412135,0.198974826,0.384873982,0.489255705,0.3374071,0.194439499,0.141196791,0.05717008,0.033234269,-99999,-99999,-99999,-99999,-99999,-99999,-99999,0.089493,0.110538,0.041559,0.054997
471755,1993-08-10T09:46:38.453000Z,D93014A4,6.3,0.08,Slab,S,1,354,64,168,special,-38.55,177.92,-39.4984,176.8761,6283090.62,2938734.07,6182359,2843283,30,15,138.75,144.15,129.07,134.18,-102.17,-90.2,0,39,32.26,nu,NCDS,E,162,Q3,1.25,Q2,110,Q3,0,-99999,-99999,0,0.25,10,0.425,10,Reyners_et_al2010&Webb_Anderson_1998&Dowrick_Rhoades1998&HarvardCMT,0.015076929,0.015168923,0.015324508,0.015546826,0.015857789,0.017365573,0.02461867,0.041474916,0.049522552,0.038511921,0.037425083,0.032818666,0.031490303,0.043126313,0.028574917,0.014558698,0.007361957,-99999,-99999,-99999,-99999,-99999,0.016761923,0.016835953,0.016971434,0.017152216,0.017412382,0.018469577,0.027357125,0.048308687,0.061071858,0.045782415,0.047015927,0.038705889,0.036870315,0.051306402,0.035189708,0.018056705,0.008386273,-99999,-99999,-99999,-99999,-99999,0.015065,0.016758,0.013876,0.016776
471755,1993-08-10T09:46:38.453000Z,D93016A1,6.3,0.08,Slab,S,1,354,64,168,special,-38.55,177.92,-38.6774,178.031,6283090.62,2938734.07,6268431,2947608,30,15,17.14,42.71,6.16,35.7,10.58,-15.51,0,39,32.26,nu,016A,C,480,Q3,0.15,Q3,10,Q3,0,-99999,-99999,0,0.3,21,0.51,21,Reyners_et_al2010&Webb_Anderson_1998&Dowrick_Rhoades1998&HarvardCMT,0.155876439,0.156933859,0.158667572,0.161340207,0.167202322,0.186407522,0.250831667,0.46704605,0.460728615,0.39255757,0.363183257,0.355520559,0.42104074,0.253415272,0.137433514,0.045002518,-99999,-99999,-99999,-99999,-99999,-99999,0.193089312,0.194482256,0.19674282,0.199975567,0.204984276,0.227068102,0.291353967,0.585532801,0.625420491,0.477427262,0.482177742,0.368922294,0.510328324,0.278820483,0.142526284,0.049603952,-99999,-99999,-99999,-99999,-99999,-99999,0.154414,0.193073,0.103709,0.140525
471755,1993-08-10T09:46:38.453000Z,D93017A1,6.3,0.08,Slab,S,1,354,64,168,special,-38.55,177.92,-38.6665,178.0227,6283090.62,2938734.07,6269685,2946952,30,15,15.73,42.06,5.22,35.18,10.06,-14.19,0,39,32.26,nu,GISS,D,138,Q2,1,Q1,40,Q3,0,-99999,-99999,0,0.25,30,0.425,30,Reyners_et_al2010&Webb_Anderson_1998&Dowrick_Rhoades1998&HarvardCMT,0.187025802,0.189090574,0.195102902,0.221476719,0.215026578,0.257503527,0.273300966,0.405792651,0.412714547,0.499991322,0.668799146,0.550863519,0.329828898,0.285429052,0.210429183,0.067934008,0.030763894,-99999,-99999,-99999,-99999,-99999,0.217021039,0.218091807,0.22091165,0.235665764,0.218726797,0.28952018,0.287922792,0.478220004,0.459193493,0.634498511,0.836021161,0.628553904,0.433885469,0.372524062,0.235113866,0.075539152,0.035992819,-99999,-99999,-99999,-99999,-99999,0.186203,0.217059,0.121691,0.144066
471755,1993-08-10T09:46:38.453000Z,D93021A3,6.3,0.08,Slab,S,1,354,64,168,special,-38.55,177.92,-38.4249,176.3157,6283090.62,2938734.07,6303375,2799556,30,15,140.32,146.04,135.79,140.25,-133.01,34.72,10,39,32.26,nu,021A,D,210,Q3,2,Q3,200,Q3,0,-99999,-99999,1,0.18,10,0.306,10,Reyners_et_al2010&Webb_Anderson_1998&Dowrick_Rhoades1998&HarvardCMT,0.026354848,0.026361838,0.026400908,0.026458692,0.026511748,0.026718879,0.027011854,0.028800948,0.038612358,0.038327772,0.03657485,0.047128331,0.058335544,0.058097643,0.090351969,0.102945021,0.033230407,0.010835787,-99999,-99999,-99999,-99999,0.028011777,0.02802484,0.028052077,0.028055426,0.028101851,0.028215701,0.028913863,0.035439651,0.043227,0.047681192,0.045398673,0.0577095,0.06319778,0.072370643,0.106047071,0.124137174,0.036875266,0.011648649,-99999,-99999,-99999,-99999,0.026355,0.028006,0.056127,0.064898
608810,1994-06-18T03:25:13.819000Z,D4505A01,6.72,0.08,Crustal,R,1,221,47,112,geonet,-43.0078,171.4762,-42.9489,171.5677,5798820.69,2385786.14,5805487,2393135,21.06,21.06,9.91,11.12,2.02,4.12,2.92,-9.85,0,4.27,1,hw,APPS,C,300,Q2,0.4,Q1,30,Q2,0,-99999,-99999,0,0.11,40,0.187,40,Abercrombie_etal_2000&HarvardCMT,0.434865198,0.448634844,0.485123085,0.462510179,0.486812202,0.645641512,0.733818828,0.969260651,1.195472019,1.237492014,0.869920281,0.936500379,1.157670044,0.404165984,0.23943077,0.141798578,0.094091021,0.050918,0.034982942,0.018669424,-99999,-99999,0.509268572,0.525434298,0.545090516,0.601978478,0.538092987,0.734710978,0.824744687,1.159006482,1.449805873,1.55741024,1.056028459,1.165636962,1.481517616,0.52157698,0.325269262,0.188924823,0.098416078,0.069202719,0.048278515,0.023567966,-99999,-99999,0.423633,0.509184,0.28269,0.316738
608810,1994-06-18T03:25:13.819000Z,D94042A1,6.72,0.08,Crustal,R,1,221,47,112,geonet,-43.0078,171.4762,-42.5232,172.8305,5798820.69,2385786.14,5853765,2496076,21.06,21.06,122.98,123.31,115.46,115.74,-43.1,-113.82,0,4.27,1,nu,HSES,D,280,Q3,0.9,Q1,85,Q3,0,-99999,-99999,1,0.25,10,0.425,10,Abercrombie_etal_2000&HarvardCMT,0.01548235,0.015489847,0.01550724,0.015549699,0.015568591,0.015658231,0.01620928,0.016916805,0.017471137,0.022599517,0.027162838,0.02702485,0.034490997,0.059898807,0.0277595,0.013308182,0.013852863,-99999,-99999,-99999,-99999,-99999,0.017202306,0.017220578,0.017211183,0.017244964,0.017275964,0.017353135,0.018112024,0.019389272,0.019923292,0.026431609,0.032205086,0.034437799,0.045719645,0.066095913,0.03159757,0.018482266,0.016251229,-99999,-99999,-99999,-99999,-99999,0.015473,0.017197,0.019453,0.022497
608810,1994-06-18T03:25:13.819000Z,D94044A1b,6.72,0.08,Crustal,R,1,221,47,112,geonet,-43.0078,171.4762,-45.8986,170.5097,5798820.69,2385786.14,5475848,2316608,21.06,21.06,330.46,330.33,323.2,323.05,-155.59,289.14,0,4.27,1,nu,SKFS,D,140,Q2,0.8,Q3,25,Q3,0,-99999,-99999,1,0.2,10,0.34,10,Abercrombie_etal_2000&HarvardCMT,0.013960238,0.013986473,0.013999865,0.014030958,0.014084846,0.014290904,0.014721874,0.015620901,0.017763806,0.022214911,0.022983419,0.023536328,0.041900506,0.072325076,0.032282539,0.014130434,0.006270264,-99999,-99999,-99999,-99999,-99999,0.015707851,0.015709907,0.015737274,0.015757519,0.015786311,0.015883747,0.016014814,0.017213365,0.019677776,0.023621041,0.026915831,0.026006204,0.051488773,0.078708587,0.041231366,0.015876084,0.006609725,-99999,-99999,-99999,-99999,-99999,0.013958,0.015708,0.018737,0.02038
608810,1994-06-18T03:25:13.819000Z,D94051D1,6.72,0.08,Crustal,R,1,221,47,112,geonet,-43.0078,171.4762,-41.7557,171.5998,5798820.69,2385786.14,5938069,2393545,21.06,21.06,139.6,139.53,132.84,132.84,89.59,-110.18,0,4.27,1,nu,WBCS,D,300,Q3,1.2,Q2,105,Q3,0,-99999,-99999,0,0.25,20,0.425,20,Abercrombie_etal_2000&HarvardCMT,0.045902822,0.046195042,0.046567298,0.047137677,0.051926668,0.072895241,0.084803588,0.092502414,0.103086297,0.094655765,0.107799552,0.10199518,0.113290922,0.140014819,0.082706911,0.036968446,0.03346106,-99999,-99999,-99999,-99999,-99999,0.058158323,0.05853643,0.05926115,0.060778875,0.064227485,0.084972876,0.11316399,0.096209253,0.111371132,0.108855665,0.123881305,0.110654004,0.15997069,0.181792616,0.088235719,0.04421565,0.036863935,-99999,-99999,-99999,-99999,-99999,0.045551,0.058169,0.050876,0.058746
