CuspID,Origin_time,Record,Mw,MwUncert,TectClass,Mech,PreferredFaultPlane,Strike,Dip,Rake,Location,HypLat,HypLon,StationLat,StationLon,HypN,HypE,StationN,StationE,LENGTH_km,WIDTH_km,Repi_km,Rhyp_km,Rjb_km,Rrup_km,Rx_km,Ry_km,Rvol_km,HypDepth_km,ZTOR_km,HWFW,SiteCode,SiteClass1170,Vs30,Vs30Uncert,Tsite,TsiteUncert,Z1,Z1Uncertainty,Directivity,Pulse_or,Pulse_T,S_Trigger_Flag,fcButterHP,f_iniLP,fmin,fmax,References,f100.0000SA_RotD50,f50.0000SA_RotD50,f33.3333SA_RotD50,f25.0000SA_RotD50,f20.0000SA_RotD50,f13.3333SA_RotD50,f10.0000SA_RotD50,f6.6667SA_RotD50,f5.0000SA_RotD50,f4.0000SA_RotD50,f3.3333SA_RotD50,f2.5000SA_RotD50,f2.0000SA_RotD50,f1.3333SA_RotD50,f1.0000SA_RotD50,f0.6667SA_RotD50,f0.5000SA_RotD50,f0.3333SA_RotD50,f0.2500SA_RotD50,f0.2000SA_RotD50,f0.1333SA_RotD50,f0.1000SA_RotD50,f100.0000SA_RotD100,f50.0000SA_RotD100,f33.3333SA_RotD100,f25.0000SA_RotD100,f20.0000SA_RotD100,f13.3333SA_RotD100,f10.0000SA_RotD100,f6.6667SA_RotD100,f5.0000SA_RotD100,f4.0000SA_RotD100,f3.3333SA_RotD100,f2.5000SA_RotD100,f2.0000SA_RotD100,f1.3333SA_RotD100,f1.0000SA_RotD100,f0.6667SA_RotD100,f0.5000SA_RotD100,f0.3333SA_RotD100,f0.2500SA_RotD100,f0.2000SA_RotD100,f0.1333SA_RotD100,f0.1000SA_RotD100,PGA_RotD50,PGA_RotD100,PGV_RotD50,PGV_RotD100
255338,1991-09-08T13:50:30.989999Z,D91467A2,5.61,0.15,Slab,R,1,95,70,108,geonet,-40.2442,175.1672,-41.2425,174.9024,6104594.2,2694363.31,5994293,2669430,5.9,5.9,113.22,142.49,112.16,141.58,113.06,-15.23,0,86.69,83.93,nu,467A,D,218,Q3,1.5,Q3,200,Q3,0,-99999,-99999,1,0.25,15,0.425,15,HarvardCMT,0.025383256,0.025575797,0.025893175,0.02635496,0.027115999,0.030282394,0.04419797,0.046877354,0.076500949,0.052839564,0.058683778,0.081961252,0.075731229,0.037460435,0.015148675,0.007898609,0.002681289,-99999,-99999,-99999,-99999,-99999,0.02892584,0.029163513,0.029590444,0.030268416,0.03141798,0.040335745,0.059840602,0.050613341,0.09420888,0.05577214,0.066561608,0.095831667,0.090085664,0.045557347,0.019768508,0.008939596,0.003064191,-99999,-99999,-99999,-99999,-99999,0.025376,0.028816,0.019351,0.021977
255338,1991-09-08T13:50:30.989999Z,D91468A2,5.61,0.15,Slab,R,1,95,70,108,geonet,-40.2442,175.1672,-41.2011,174.9547,6104594.2,2694363.31,5998793,2673916,5.9,5.9,107.9,138.3,106.86,137.35,108.18,-11.15,0,86.69,83.93,nu,468A,D,190,Q1,0.9,Q3,50,Q3,0,-99999,-99999,0,0.45,13,0.765,13,HarvardCMT,0.04119181,0.04162398,0.042375249,0.043443179,0.044815654,0.053224001,0.090421509,0.103039078,0.127534274,0.119410057,0.110199247,0.140571761,0.091159261,0.051837592,0.02844124,-99999,-99999,-99999,-99999,-99999,-99999,-99999,0.05641678,0.056943219,0.057810851,0.059127568,0.061036784,0.074301288,0.123828587,0.125650029,0.159457734,0.135495779,0.124510439,0.198568134,0.108392126,0.064433627,0.033542274,-99999,-99999,-99999,-99999,-99999,-99999,-99999,0.041167,0.056406,0.028165,0.036325
255338,1991-09-08T13:50:30.989999Z,D91606B1,5.61,0.15,Slab,R,1,95,70,108,geonet,-40.2442,175.1672,-41.2333,174.9199,6104594.2,2694363.31,5995282,2670919,5.9,5.9,111.94,141.47,110.88,140.55,111.94,-13.83,0,86.69,83.93,nu,606B,B,800,Q3,<0.1,Q3,0,Q3,0,-99999,-99999,0,0.45,26,0.765,26,HarvardCMT,0.018280086,0.018554058,0.019125764,0.021204184,0.021003506,0.027429137,0.037058963,0.023578573,0.037433912,0.051568435,0.054274297,0.033582649,0.017124899,0.008564174,0.004539572,-99999,-99999,-99999,-99999,-99999,-99999,-99999,0.022048043,0.022376339,0.023249921,0.024514582,0.024220144,0.034496612,0.051838935,0.025716027,0.050621581,0.065831251,0.064058083,0.041502839,0.01960972,0.010712158,0.006154889,-99999,-99999,-99999,-99999,-99999,-99999,-99999,0.018079,0.022062,0.00858,0.011222
255338,1991-09-08T13:50:30.989999Z,D91642E7,5.61,0.15,Slab,R,1,95,70,108,geonet,-40.2442,175.1672,-41.2341,174.918,6104594.2,2694363.31,5995197,2670758,5.9,5.9,112.06,141.57,111,140.65,112.04,-13.98,0,86.69,83.93,nu,642E,C,350,Q1,0.35,Q2,50,Q3,0,-99999,-99999,0,0.5,12,0.85,12,HarvardCMT,0.049750284,0.049878182,0.050080936,0.050373071,0.050807703,0.052420019,0.054482321,0.074097435,0.119881038,0.13726454,0.164758907,0.152968864,0.053293229,0.023483234,0.011336585,-99999,-99999,-99999,-99999,-99999,-99999,-99999,0.060262963,0.060457259,0.06078796,0.061238317,0.061838448,0.063721861,0.060514618,0.093426155,0.154089343,0.175606999,0.212655076,0.180508873,0.058467787,0.028215383,0.012583828,-99999,-99999,-99999,-99999,-99999,-99999,-99999,0.049631,0.060112,0.028527,0.031818
255338,1991-09-08T13:50:30.989999Z,D91644C3,5.61,0.15,Slab,R,1,95,70,108,geonet,-40.2442,175.1672,-41.2187,174.8826,6104594.2,2694363.31,5996970,2667828,5.9,5.9,110.98,140.72,109.9,139.76,110.53,-17.05,0,86.69,83.93,nu,644C,D,189,Q3,2,Q3,250,Q3,0,-99999,-99999,0,0.35,15,0.595,15,HarvardCMT,0.022112675,0.022270102,0.022550448,0.022982352,0.023525727,0.029969867,0.038873419,0.046722378,0.06220771,0.049022147,0.063828939,0.080702202,0.044598928,0.021263144,0.010466004,0.006181026,-99999,-99999,-99999,-99999,-99999,-99999,0.025359184,0.025506065,0.025763438,0.026197459,0.026562172,0.032635279,0.045309303,0.051772222,0.068203008,0.052083613,0.073497578,0.102992019,0.059740002,0.026277161,0.013102676,0.007267457,-99999,-99999,-99999,-99999,-99999,-99999,0.022024,0.025364,0.012054,0.01511
255338,1991-09-08T13:50:30.989999Z,D91646A2,5.61,0.15,Slab,R,1,95,70,108,geonet,-40.2442,175.1672,-41.2574,174.9485,6104594.2,2694363.31,5992552,2673256,5.9,5.9,114.16,143.28,113.12,142.4,114.46,-11.26,0,86.69,83.93,nu,WDAS,E,120,Q1,1.6,Q2,62,Q2,0,-99999,-99999,0,0.35,18,0.595,18,HarvardCMT,0.051349156,0.051615757,0.052120978,0.053055917,0.054309201,0.06170438,0.075174679,0.087406984,0.084617872,0.136374355,0.168940015,0.113367427,0.070880439,0.038501831,0.028954623,0.013069757,-99999,-99999,-99999,-99999,-99999,-99999,0.055381849,0.055669388,0.056163702,0.056849519,0.058492686,0.07305505,0.091743986,0.10656144,0.092543162,0.182747887,0.222103443,0.126669757,0.085618012,0.045803578,0.038429604,0.015779772,-99999,-99999,-99999,-99999,-99999,-99999,0.051233,0.055137,0.027295,0.029666
255338,1991-09-08T13:50:30.989999Z,D91705B3,5.61,0.15,Slab,R,1,95,70,108,geonet,-40.2442,175.1672,-41.1391,174.8502,6104594.2,2694363.31,6005867,2665298,5.9,5.9,103.03,134.58,101.9,133.49,101.89,-20.35,0,86.69,83.93,nu,707A,C,570,Q3,0.15,Q3,10,Q3,0,-99999,-99999,0,0.5,15,0.85,15,HarvardCMT,0.033753201,0.034052421,0.03454039,0.03533886,0.036552982,0.039248254,0.061104598,0.061445643,0.115308128,0.127746792,0.088332482,0.066591983,0.025935581,0.011930649,0.007835882,-99999,-99999,-99999,-99999,-99999,-99999,-99999,0.039238601,0.039448432,0.039751155,0.040449327,0.041482577,0.049644521,0.0798144,0.074826714,0.141313445,0.143880366,0.104965198,0.083472862,0.035294722,0.014981929,0.008683674,-99999,-99999,-99999,-99999,-99999,-99999,-99999,0.033595,0.039242,0.013553,0.018716
255338,1991-09-08T13:50:30.989999Z,D91706A2,5.61,0.15,Slab,R,1,95,70,108,geonet,-40.2442,175.1672,-41.1288,174.8382,6104594.2,2694363.31,6007032,2664315,5.9,5.9,102.2,133.93,101.05,132.82,100.81,-21.43,0,86.69,83.93,nu,706A,C,210,Q3,0.5,Q2,30,Q3,0,-99999,-99999,0,0.35,12,0.595,12,HarvardCMT,0.074970252,0.075367886,0.07598608,0.076900968,0.078323235,0.086203599,0.101003356,0.151721941,0.20592399,0.18579526,0.197703481,0.25176962,0.136817456,0.046288869,0.023745136,0.008206484,-99999,-99999,-99999,-99999,-99999,-99999,0.089342318,0.089763857,0.090432026,0.091393599,0.092730145,0.099364976,0.106494698,0.188754525,0.279407184,0.25173132,0.248333174,0.354875136,0.165510168,0.061202538,0.026593027,0.009505926,-99999,-99999,-99999,-99999,-99999,-99999,0.074799,0.089337,0.037786,0.048001
255338,1991-09-08T13:50:30.989999Z,D91900B7,5.61,0.15,Slab,R,1,95,70,108,geonet,-40.2442,175.1672,-41.2921,174.779,6104594.2,2694363.31,5989003,2658976,5.9,5.9,121.02,148.76,119.87,147.84,119.24,-25.18,0,86.69,83.93,nu,941A,D,272,Q2,0.85,Q2,9.85E+01,Q2,0,-99999,-99999,0,0.45,12,0.765,12,HarvardCMT,0.036026981,0.036157338,0.036366345,0.03666823,0.037058767,0.039622583,0.050598451,0.074501585,0.087988659,0.114340493,0.116128705,0.123060427,0.067949841,0.049451666,0.02127404,-99999,-99999,-99999,-99999,-99999,-99999,-99999,0.05079185,0.050968114,0.05129959,0.051770637,0.05241286,0.056025278,0.066529255,0.094566849,0.115714284,0.15342931,0.163406949,0.173526688,0.096084254,0.068035896,0.026664983,-99999,-99999,-99999,-99999,-99999,-99999,-99999,0.035998,0.05075,0.022835,0.030844
255338,1991-09-08T13:50:30.989999Z,D91918B7,5.61,0.15,Slab,R,1,95,70,108,geonet,-40.2442,175.1672,-41.284,174.7682,6104594.2,2694363.31,5989908,2658140,5.9,5.9,120.4,148.34,119.25,147.39,118.41,-26.09,0,86.69,83.93,nu,WEL,B,1000,Q3,0.3,Q1,0,Q2,0,-99999,-99999,0,0.5,18,0.85,18,HarvardCMT,0.041818688,0.042052234,0.042426189,0.042990633,0.044133261,0.048401669,0.057669738,0.076328094,0.116191314,0.1789805,0.108458483,0.062935205,0.023357606,0.01019342,0.005562321,-99999,-99999,-99999,-99999,-99999,-99999,-99999,0.057604838,0.057977028,0.058613822,0.059650743,0.061452787,0.068106041,0.078339844,0.099777911,0.163177971,0.237034967,0.149577011,0.080053765,0.024153538,0.014404451,0.007803972,-99999,-99999,-99999,-99999,-99999,-99999,-99999,0.041816,0.05761,0.016822,0.023348
255338,1991-09-08T13:50:30.989999Z,D91935B3,5.61,0.15,Slab,R,1,95,70,108,geonet,-40.2442,175.1672,-41.2108,174.9047,6104594.2,2694363.31,5997808,2669699,5.9,5.9,109.73,139.74,108.66,138.78,109.53,-15.26,0,86.69,83.93,nu,935A,D,240,Q3,1.2,Q3,275,Q3,0,-99999,-99999,1,0.45,15,0.765,15,HarvardCMT,0.035514625,0.035608128,0.035761295,0.035988466,0.036327372,0.045341165,0.059169517,0.053703434,0.084900224,0.1285683,0.13671435,0.114292543,0.058303206,0.02121034,0.01250584,-99999,-99999,-99999,-99999,-99999,-99999,-99999,0.050142937,0.050273429,0.050447369,0.050661216,0.050954427,0.057999371,0.082427404,0.073453066,0.120019708,0.175927378,0.188198129,0.159080532,0.070417724,0.024967646,0.015734867,-99999,-99999,-99999,-99999,-99999,-99999,-99999,0.035455,0.050141,0.022492,0.028499
255338,1991-09-08T13:50:30.989999Z,K91102A3,5.61,0.15,Slab,R,1,95,70,108,geonet,-40.2442,175.1672,-39.4637,175.5669,6104594.2,2694363.31,6190285,2730871,5.9,5.9,93.25,127.72,91.95,125.06,-87.54,28.9,0,86.69,83.93,nu,102A,C,555,Q3,0.15,Q3,12,Q3,0,-99999,-99999,1,0.5,18,0.85,18,HarvardCMT,0.045299468,0.045951373,0.046895019,0.048563567,0.050876911,0.068071251,0.104320777,0.169525192,0.149131075,0.115642412,0.081434142,0.050063515,0.029108248,0.022446787,0.013223817,-99999,-99999,-99999,-99999,-99999,-99999,-99999,0.051829112,0.052753932,0.05431111,0.056838278,0.061121629,0.090472131,0.146804813,0.175700636,0.173521659,0.145659791,0.096193871,0.069644855,0.0316739,0.027819646,0.01755748,-99999,-99999,-99999,-99999,-99999,-99999,-99999,0.044941,0.051243,0.015324,0.0173
314805,1992-03-30T07:02:51.226999Z,D92505A1,5.5,0.15,Crustal,R,1,205,76,77,nlloc,-43.0605,171.212,-42.9489,171.5677,5792540.97,2364375.65,5805487,2393135,5.17,5.17,31.47,32.08,29.52,30.01,-19.97,-23.89,0,5.12,2.61,nu,APPS,C,300,Q2,0.4,Q1,30,Q2,0,-99999,-99999,0,0.6,20,1.02,20,HarvardCMT,0.026711198,0.027069147,0.027809365,0.02950568,0.037826429,0.048167879,0.054276599,0.096575781,0.07353412,0.064840894,0.077566565,0.074959615,0.037629638,0.018522632,-99999,-99999,-99999,-99999,-99999,-99999,-99999,-99999,0.031053777,0.031197996,0.031462078,0.032003554,0.041634784,0.051604459,0.059471807,0.114761726,0.091445163,0.073030526,0.090258213,0.095872101,0.04794706,0.019464048,-99999,-99999,-99999,-99999,-99999,-99999,-99999,-99999,0.026526,0.031057,0.016402,0.018266
339342,1992-05-27T22:30:35.064000Z,D92129A2,5.9,0.08,Slab,S,1,117,85,21,special,-41.63,173.62,-41.7999,172.328,5952812.98,2561652.09,5933893,2454147,8.2,8.2,108.89,128.17,105.65,124.79,66.02,-87.2,0,67,62.92,nu,MCAS,D,501,Q3,1.6,Q3,200,Q3,0,-99999,-99999,0,0.23,19,0.391,19,Webb_Anderson_1998&Dowrick_Rhoades1998&HarvardCMT,0.028692149,0.029130739,0.02987827,0.030898186,0.032745546,0.049298756,0.058664695,0.062569413,0.071096773,0.057146481,0.068965151,0.057758378,0.049755398,0.040211085,0.020327822,0.012116882,0.008119594,-99999,-99999,-99999,-99999,-99999,0.032360108,0.032642283,0.033113349,0.033820632,0.036649361,0.053772285,0.063302532,0.070084698,0.079864812,0.063154571,0.080114297,0.066179027,0.063733818,0.048523926,0.024063154,0.015581932,0.011175393,-99999,-99999,-99999,-99999,-99999,0.028644,0.032355,0.016475,0.019402
339342,1992-05-27T22:30:35.064000Z,D92467A3,5.9,0.08,Slab,S,1,117,85,21,special,-41.63,173.62,-41.2425,174.9024,5952812.98,2561652.09,5994293,2669430,8.2,8.2,115.26,133.52,112.56,130.25,-85.53,77.2,0,67,62.92,nu,467A,D,218,Q3,1.5,Q3,200,Q3,0,-99999,-99999,0,0.35,14,0.595,14,Webb_Anderson_1998&Dowrick_Rhoades1998&HarvardCMT,0.031671619,0.031817648,0.032013109,0.032349094,0.032973639,0.046329721,0.043600491,0.043392402,0.060071715,0.084859054,0.046717707,0.089808347,0.080049053,0.023294381,0.016802799,0.011942811,-99999,-99999,-99999,-99999,-99999,-99999,0.03483354,0.035015604,0.035323282,0.035826768,0.036623287,0.0564662,0.052175892,0.053434774,0.063644595,0.089113119,0.05219924,0.098868108,0.089638336,0.026287057,0.019368657,0.012970809,-99999,-99999,-99999,-99999,-99999,-99999,0.031627,0.034838,0.01937,0.02218
339342,1992-05-27T22:30:35.064000Z,D92468A6,5.9,0.08,Slab,S,1,117,85,21,special,-41.63,173.62,-41.2011,174.9547,5952812.98,2561652.09,5998793,2673916,8.2,8.2,121.08,138.59,118.45,135.4,-91.58,79.15,0,67,62.92,nu,468A,D,190,Q1,0.9,Q3,50,Q3,0,-99999,-99999,0,0.4,19,0.68,19,Webb_Anderson_1998&Dowrick_Rhoades1998&HarvardCMT,0.030549582,0.030771319,0.031083509,0.031401881,0.031886933,0.037301286,0.0457294,0.072674751,0.066685743,0.081897452,0.072722456,0.098359694,0.051685906,0.028562333,0.025076613,-99999,-99999,-99999,-99999,-99999,-99999,-99999,0.035655926,0.035892328,0.036268247,0.036779423,0.037058121,0.045206664,0.048695871,0.083715436,0.076018433,0.097359202,0.087732037,0.115732589,0.063584791,0.032535141,0.029444598,-99999,-99999,-99999,-99999,-99999,-99999,-99999,0.030491,0.035661,0.016906,0.020622
339342,1992-05-27T22:30:35.064000Z,D92644C3,5.9,0.08,Slab,S,1,117,85,21,special,-41.63,173.62,-41.2187,174.8826,5952812.98,2561652.09,5996970,2667828,8.2,8.2,114.77,133.09,112.16,129.87,-87.19,74.56,0,67,62.92,nu,644C,D,189,Q3,2,Q3,250,Q3,0,-99999,-99999,0,0.25,12,0.425,12,Webb_Anderson_1998&Dowrick_Rhoades1998&HarvardCMT,0.02186686,0.021974984,0.022181135,0.022405752,0.02272107,0.025609333,0.043584905,0.046795523,0.043354416,0.065404889,0.047447354,0.072201035,0.073183438,0.021924749,0.010088067,0.006476957,0.004957945,-99999,-99999,-99999,-99999,-99999,0.025549526,0.025698862,0.025946598,0.026342143,0.026903059,0.031262507,0.054085186,0.058398433,0.05023111,0.086494388,0.067085169,0.086027607,0.086934582,0.028678123,0.013084849,0.007503888,0.006360843,-99999,-99999,-99999,-99999,-99999,0.021789,0.025551,0.015829,0.019203
339342,1992-05-27T22:30:35.064000Z,D92646A5,5.9,0.08,Slab,S,1,117,85,21,special,-41.63,173.62,-41.2574,174.9485,5952812.98,2561652.09,5992552,2673256,8.2,8.2,118.23,136.15,115.45,132.85,-85.72,81.4,0,67,62.92,nu,WDAS,E,120,Q1,1.6,Q2,62,Q2,0,-99999,-99999,0,0.5,16,0.85,16,Webb_Anderson_1998&Dowrick_Rhoades1998&HarvardCMT,0.027544718,0.027763412,0.028088797,0.028681858,0.029402726,0.039719245,0.036059044,0.041524229,0.045871979,0.059715787,0.113270725,0.053224456,0.069901849,0.037600772,0.050486396,-99999,-99999,-99999,-99999,-99999,-99999,-99999,0.031842266,0.032014245,0.032282503,0.032760361,0.033625592,0.044287135,0.043757189,0.050031253,0.049908913,0.073259211,0.124579497,0.059185379,0.083531311,0.044889744,0.068135736,-99999,-99999,-99999,-99999,-99999,-99999,-99999,0.027296,0.031602,0.020955,0.023387
339342,1992-05-27T22:30:35.064000Z,D92647A1,5.9,0.08,Slab,S,1,117,85,21,special,-41.63,173.62,-41.2871,174.778,5952812.98,2561652.09,5989560,2658904,8.2,8.2,103.76,123.68,101.04,120.35,-76.54,69.97,0,67,62.92,nu,647A,C,474,Q2,0.12,Q2,5.70E+00,Q2,0,-99999,-99999,0,0.4,19,0.68,19,Webb_Anderson_1998&Dowrick_Rhoades1998&HarvardCMT,0.019859093,0.020095924,0.020595437,0.021423521,0.022904215,0.027240252,0.040781838,0.046504442,0.044154471,0.049162778,0.053115772,0.059856805,0.028170328,0.009381379,0.008704881,-99999,-99999,-99999,-99999,-99999,-99999,-99999,0.024826532,0.025027243,0.025362428,0.025889546,0.026448233,0.035170818,0.051949518,0.064912966,0.053013194,0.067756651,0.058091411,0.07228416,0.039801289,0.013116894,0.011773408,-99999,-99999,-99999,-99999,-99999,-99999,-99999,0.01987,0.024677,0.010584,0.014771
339342,1992-05-27T22:30:35.064000Z,D92706A2,5.9,0.08,Slab,S,1,117,85,21,special,-41.63,173.62,-41.1288,174.8382,5952812.98,2561652.09,6007032,2664315,8.2,8.2,115.91,134.05,113.6,131,-94.56,66.86,0,67,62.92,nu,706A,C,210,Q3,0.5,Q2,30,Q3,0,-99999,-99999,0,0.45,12,0.765,12,Webb_Anderson_1998&Dowrick_Rhoades1998&HarvardCMT,0.030394964,0.030618666,0.030985503,0.031379162,0.032052251,0.03380399,0.043598871,0.061691698,0.072783928,0.120653432,0.076579029,0.072962657,0.045273841,0.02924413,0.017991046,-99999,-99999,-99999,-99999,-99999,-99999,-99999,0.033415103,0.033678592,0.034104908,0.034747855,0.035660299,0.040352053,0.050674865,0.067095709,0.089299362,0.155271952,0.097229716,0.091043082,0.051190696,0.035999521,0.024012058,-99999,-99999,-99999,-99999,-99999,-99999,-99999,0.030306,0.033412,0.017727,0.019672
339342,1992-05-27T22:30:35.064000Z,D92707A1,5.9,0.08,Slab,S,1,117,85,21,special,-41.63,173.62,-41.1391,174.8502,5952812.98,2561652.09,6005867,2665298,8.2,8.2,116.24,134.35,113.89,131.28,-93.97,68.26,0,67,62.92,nu,707A,C,570,Q3,0.15,Q3,10,Q3,0,-99999,-99999,0,0.5,21,0.85,21,Webb_Anderson_1998&Dowrick_Rhoades1998&HarvardCMT,0.022495526,0.022707817,0.023029996,0.023500837,0.025538692,0.033710469,0.053086773,0.078400743,0.038253972,0.042736978,0.040043369,0.03258557,0.021037483,0.006233446,0.003745455,-99999,-99999,-99999,-99999,-99999,-99999,-99999,0.027099085,0.02742457,0.027993893,0.029063772,0.030394333,0.040998784,0.058898321,0.086223746,0.043549304,0.049760648,0.050815101,0.045272896,0.029602982,0.008349336,0.004181567,-99999,-99999,-99999,-99999,-99999,-99999,-99999,0.022265,0.027107,0.007825,0.010582
339342,1992-05-27T22:30:35.064000Z,D92918B5,5.9,0.08,Slab,S,1,117,85,21,special,-41.63,173.62,-41.284,174.7682,5952812.98,2561652.09,5989908,2658140,8.2,8.2,103.13,123.26,100.44,119.93,-76.5,69.13,0,67,62.92,nu,WEL,B,1000,Q3,0.3,Q1,0,Q2,0,-99999,-99999,0,0.4,18,0.68,18,Webb_Anderson_1998&Dowrick_Rhoades1998&HarvardCMT,0.020406448,0.020508611,0.020670508,0.02092145,0.02125057,0.024798592,0.030601508,0.046494886,0.050722601,0.07592053,0.063398536,0.073156336,0.024661956,0.009139885,0.007880685,-99999,-99999,-99999,-99999,-99999,-99999,-99999,0.025811641,0.02601346,0.026382248,0.026970595,0.028038024,0.027721365,0.04275557,0.048744902,0.068204663,0.100696107,0.089651305,0.099749251,0.03260495,0.010196644,0.011073626,-99999,-99999,-99999,-99999,-99999,-99999,-99999,0.020406,0.02579,0.01161,0.014177
339342,1992-05-27T22:30:35.064000Z,D92935B2,5.9,0.08,Slab,S,1,117,85,21,special,-41.63,173.62,-41.2108,174.9047,5952812.98,2561652.09,5997808,2669699,8.2,8.2,116.82,134.86,114.21,131.66,-88.79,75.84,0,67,62.92,nu,935A,D,240,Q3,1.2,Q3,275,Q3,0,-99999,-99999,0,0.35,16,0.595,16,Webb_Anderson_1998&Dowrick_Rhoades1998&HarvardCMT,0.018493343,0.018601519,0.019082882,0.019897914,0.021280166,0.029326461,0.057259133,0.040445706,0.040439391,0.070647729,0.065490204,0.043530774,0.0333867,0.015123375,0.01027089,0.006474157,-99999,-99999,-99999,-99999,-99999,-99999,0.022371407,0.022650292,0.023132286,0.023938332,0.02537852,0.033346897,0.07371535,0.051442278,0.051546169,0.083784909,0.080311952,0.057770908,0.039461931,0.017200385,0.011055364,0.008057665,-99999,-99999,-99999,-99999,-99999,-99999,0.018451,0.022359,0.01207,0.013051
