CuspID,Origin_time,Record,Mw,MwUncert,TectClass,Mech,PreferredFaultPlane,Strike,Dip,Rake,Location,HypLat,HypLon,StationLat,StationLon,HypN,HypE,StationN,StationE,LENGTH_km,WIDTH_km,Repi_km,Rhyp_km,Rjb_km,Rrup_km,Rx_km,Ry_km,Rvol_km,HypDepth_km,ZTOR_km,HWFW,SiteCode,SiteClass1170,Vs30,Vs30Uncert,Tsite,TsiteUncert,Z1,Z1Uncertainty,Directivity,Pulse_or,Pulse_T,S_Trigger_Flag,fcButterHP,f_iniLP,fmin,fmax,References,f100.0000SA_RotD50,f50.0000SA_RotD50,f33.3333SA_RotD50,f25.0000SA_RotD50,f20.0000SA_RotD50,f13.3333SA_RotD50,f10.0000SA_RotD50,f6.6667SA_RotD50,f5.0000SA_RotD50,f4.0000SA_RotD50,f3.3333SA_RotD50,f2.5000SA_RotD50,f2.0000SA_RotD50,f1.3333SA_RotD50,f1.0000SA_RotD50,f0.6667SA_RotD50,f0.5000SA_RotD50,f0.3333SA_RotD50,f0.2500SA_RotD50,f0.2000SA_RotD50,f0.1333SA_RotD50,f0.1000SA_RotD50,f100.0000SA_RotD100,f50.0000SA_RotD100,f33.3333SA_RotD100,f25.0000SA_RotD100,f20.0000SA_RotD100,f13.3333SA_RotD100,f10.0000SA_RotD100,f6.6667SA_RotD100,f5.0000SA_RotD100,f4.0000SA_RotD100,f3.3333SA_RotD100,f2.5000SA_RotD100,f2.0000SA_RotD100,f1.3333SA_RotD100,f1.0000SA_RotD100,f0.6667SA_RotD100,f0.5000SA_RotD100,f0.3333SA_RotD100,f0.2500SA_RotD100,f0.2000SA_RotD100,f0.1333SA_RotD100,f0.1000SA_RotD100,PGA_RotD50,PGA_RotD100,PGV_RotD50,PGV_RotD100
164529,1990-10-04T23:48:26.123000Z,D90606B5,5.57,0.15,Interface,O,1,190,21,58,special,-41.61,175.44,-41.2333,174.9199,5952370.8,2713346.37,5995282,2670919,7.6,7.6,60.3,61.9,58.15,59.96,51.33,-34.89,0,13.8,12.99,nu,606B,B,800,Q3,<0.1,Q3,0,Q3,0,-99999,-99999,0,0.4,12,0.68,12,HarvardCMT&Luo(1992),0.013732452,0.013821802,0.013977177,0.01421674,0.014505547,0.015516682,0.01712512,0.020151337,0.017855238,0.015229171,0.016066104,0.012942527,0.010477417,0.008039631,0.006642185,-99999,-99999,-99999,-99999,-99999,-99999,-99999,0.018019356,0.018143899,0.018337052,0.018734813,0.019230911,0.020959562,0.022140823,0.022554794,0.01874464,0.018355016,0.018549314,0.016487009,0.01155174,0.009466971,0.007287662,-99999,-99999,-99999,-99999,-99999,-99999,-99999,0.013701,0.018028,0.009334,0.010354
164529,1990-10-04T23:48:26.123000Z,D90642E8,5.57,0.15,Interface,O,1,190,21,58,special,-41.61,175.44,-41.2341,174.918,5952370.8,2713346.37,5995197,2670758,7.6,7.6,60.35,61.96,58.2,60.01,51.48,-34.78,0,13.8,12.99,nu,642E,C,350,Q1,0.35,Q2,50,Q3,0,-99999,-99999,0,0.4,13,0.68,13,HarvardCMT&Luo(1992),0.037683611,0.037817995,0.038079256,0.038371665,0.038812041,0.040136807,0.041105212,0.046327447,0.048897229,0.053335672,0.054020713,0.042543835,0.033372199,0.015326422,0.011288774,-99999,-99999,-99999,-99999,-99999,-99999,-99999,0.042360746,0.042508882,0.0427433,0.043164389,0.043760191,0.045826306,0.048376486,0.054804776,0.058777347,0.061608128,0.058046187,0.054095544,0.041254633,0.017247331,0.012449596,-99999,-99999,-99999,-99999,-99999,-99999,-99999,0.037615,0.042374,0.022462,0.02414
164529,1990-10-04T23:48:26.123000Z,D90900B5,5.57,0.15,Interface,O,1,190,21,58,special,-41.61,175.44,-41.2921,174.779,5952370.8,2713346.37,5989003,2658976,7.6,7.6,65.46,67,63.34,65.08,62.01,-26.63,0,13.8,12.99,nu,941A,D,272,Q2,0.85,Q2,9.85E+01,Q2,0,-99999,-99999,0,0.4,11.5,0.68,11.5,HarvardCMT&Luo(1992),0.022650639,0.022702043,0.022800257,0.022935352,0.023126794,0.02372469,0.024584491,0.028634796,0.029763096,0.029315164,0.029325265,0.028956616,0.027063638,0.024189248,0.01588146,-99999,-99999,-99999,-99999,-99999,-99999,-99999,0.025330159,0.025370702,0.025464499,0.025600236,0.025739844,0.026035795,0.02679033,0.031651463,0.031752228,0.031611855,0.031739931,0.03434347,0.032848544,0.025562331,0.018128617,-99999,-99999,-99999,-99999,-99999,-99999,-99999,0.02265,0.025338,0.022889,0.025328
164529,1990-10-04T23:48:26.123000Z,D90935B2,5.57,0.15,Interface,O,1,190,21,58,special,-41.61,175.44,-41.2108,174.9047,5952370.8,2713346.37,5997808,2669699,7.6,7.6,62.96,64.5,60.81,62.54,52.97,-37.17,0,13.8,12.99,nu,935A,D,240,Q3,1.2,Q3,275,Q3,0,-99999,-99999,0,0.4,15,0.68,15,HarvardCMT&Luo(1992),0.032885539,0.033026699,0.033315432,0.033772638,0.034258502,0.035778847,0.037185888,0.041122088,0.044903328,0.046309713,0.046657493,0.037477848,0.030242181,0.024001775,0.02274559,-99999,-99999,-99999,-99999,-99999,-99999,-99999,0.037495213,0.037597075,0.03781168,0.038140748,0.038566697,0.039343049,0.039388012,0.044817656,0.051725935,0.056272449,0.05754089,0.043846398,0.039030373,0.033593043,0.028135168,-99999,-99999,-99999,-99999,-99999,-99999,-99999,0.032746,0.037519,0.034941,0.042109
164529,1990-10-04T23:48:26.123000Z,D90941A5,5.57,0.15,Interface,O,1,190,21,58,special,-41.61,175.44,-41.2921,174.779,5952370.8,2713346.37,5989003,2658976,7.6,7.6,65.46,67,63.34,65.08,62.01,-26.63,0,13.8,12.99,nu,941A,D,272,Q2,0.85,Q2,9.85E+01,Q2,0,-99999,-99999,0,0.41,11,0.697,11,HarvardCMT&Luo(1992),0.02297119,0.023040092,0.023168612,0.023395085,0.023693008,0.024776339,0.026343782,0.029529866,0.028975209,0.02726105,0.027198524,0.0263929,0.024522914,0.020425946,0.013194466,-99999,-99999,-99999,-99999,-99999,-99999,-99999,0.031393513,0.031497403,0.031639538,0.031813762,0.032018202,0.032748279,0.034299918,0.038656287,0.038778482,0.038426785,0.036911497,0.037326897,0.032844556,0.024160372,0.018523593,-99999,-99999,-99999,-99999,-99999,-99999,-99999,0.022982,0.031422,0.021391,0.023599
160610,1990-10-06T02:41:12.583000Z,D90642EB,5.46,0.15,Interface,O,1,250,38,145,special,-41.61,175.43,-41.2341,174.918,5952394.08,2712513.04,5995197,2670758,6.7,6.7,59.75,61.46,58.1,60.11,56.08,24.6,0,14.2,12.97,nu,642E,C,350,Q1,0.35,Q2,50,Q3,0,-99999,-99999,0,0.6,11,1.02,11,HarvardCMT&Luo(1992),0.028062378,0.028172145,0.028288674,0.0284376,0.028718046,0.029605627,0.03114945,0.035249986,0.036389791,0.038373771,0.040020108,0.035719634,0.026270084,0.010686274,-99999,-99999,-99999,-99999,-99999,-99999,-99999,-99999,0.030132042,0.030278202,0.030488601,0.030768115,0.031127041,0.032566192,0.034527554,0.038377522,0.039849057,0.042625866,0.043857251,0.043159904,0.033121538,0.014797161,-99999,-99999,-99999,-99999,-99999,-99999,-99999,-99999,0.027979,0.030104,0.016174,0.019076
160610,1990-10-06T02:41:12.583000Z,D90900B6,5.46,0.15,Interface,O,1,250,38,145,special,-41.61,175.43,-41.2921,174.779,5952394.08,2712513.04,5989003,2658976,6.7,6.7,64.76,66.39,63.03,64.9,54.29,37.79,0,14.2,12.97,nu,941A,D,272,Q2,0.85,Q2,9.85E+01,Q2,0,-99999,-99999,0,0.4,10,0.68,10,HarvardCMT&Luo(1992),0.014071881,0.014097637,0.014140142,0.014197886,0.01427132,0.01448857,0.014876637,0.015727323,0.017331697,0.017798185,0.017102317,0.014604066,0.013844716,0.012544005,0.009214733,-99999,-99999,-99999,-99999,-99999,-99999,-99999,0.019029201,0.019052328,0.01910295,0.019181924,0.019273733,0.019594947,0.020156842,0.021486603,0.024101892,0.024694508,0.023551253,0.01967017,0.017651441,0.017737557,0.012615178,-99999,-99999,-99999,-99999,-99999,-99999,-99999,0.014052,0.019034,0.012221,0.01399
160610,1990-10-06T02:41:12.583000Z,D90935B3,5.46,0.15,Interface,O,1,250,38,145,special,-41.61,175.43,-41.2108,174.9047,5952394.08,2712513.04,5997808,2669699,6.7,6.7,62.37,64.01,60.72,62.65,58.89,24.7,0,14.2,12.97,nu,935A,D,240,Q3,1.2,Q3,275,Q3,0,-99999,-99999,0,0.3,15,0.51,15,HarvardCMT&Luo(1992),0.019830059,0.019916908,0.020016275,0.020135368,0.020332851,0.020951636,0.021462621,0.024430352,0.026037634,0.025220067,0.024784661,0.02238683,0.020754528,0.013210882,0.009926274,0.00728156,-99999,-99999,-99999,-99999,-99999,-99999,0.021460177,0.021530536,0.021639234,0.021818443,0.02206314,0.022846848,0.024085154,0.028410383,0.029776442,0.029828934,0.030054033,0.027284933,0.024554665,0.01796387,0.013402256,0.008442111,-99999,-99999,-99999,-99999,-99999,-99999,0.019813,0.021374,0.01878,0.023053
160610,1990-10-06T02:41:12.583000Z,D90941A6,5.46,0.15,Interface,O,1,250,38,145,special,-41.61,175.43,-41.2921,174.779,5952394.08,2712513.04,5989003,2658976,6.7,6.7,64.76,66.39,63.03,64.9,54.29,37.79,0,14.2,12.97,nu,941A,D,272,Q2,0.85,Q2,9.85E+01,Q2,0,-99999,-99999,0,0.35,12,0.595,12,HarvardCMT&Luo(1992),0.013384813,0.013424293,0.013483209,0.013575339,0.013694479,0.014196727,0.015146939,0.016530782,0.016764359,0.01535922,0.015113521,0.012682277,0.012448902,0.009910706,0.007277311,0.003359599,-99999,-99999,-99999,-99999,-99999,-99999,0.016521748,0.016581816,0.016671726,0.016808011,0.017034208,0.017949482,0.019003115,0.019367297,0.019403755,0.019707263,0.020128351,0.016918767,0.014443769,0.013229098,0.008652454,0.003992272,-99999,-99999,-99999,-99999,-99999,-99999,0.013333,0.016519,0.009242,0.010038
194283,1991-01-28T12:58:46.823000Z,A91051B1,5.76,0.08,Crustal,R,1,42,30,99,special,-41.89,171.58,-41.7557,171.5998,5923123.14,2392149.06,5938069,2393545,6.97,6.97,15.03,18.04,11.7,14.67,-5.94,12.04,0,10,8.26,nu,WBCS,D,300,Q3,1.2,Q2,105,Q3,0,-99999,-99999,1,0.4,27,0.68,27,Anderson_etal_1993&Dowrick_Rhoades1998&HarvardCMT,0.143721867,0.145189758,0.147800328,0.152170434,0.159758259,0.175890392,0.181003735,0.163592153,0.147577361,0.143016647,0.139783209,0.136640141,0.132910893,0.104186073,0.074804851,-99999,-99999,-99999,-99999,-99999,-99999,-99999,0.162341627,0.164778268,0.16859072,0.170634685,0.170764499,0.195906849,0.220788407,0.189887968,0.17768739,0.168966122,0.154994052,0.162685107,0.169741081,0.144877428,0.10245054,-99999,-99999,-99999,-99999,-99999,-99999,-99999,0.142879,0.161382,0.10733,0.128337
194283,1991-01-28T12:58:46.823000Z,A91083A1,5.76,0.08,Crustal,R,1,42,30,99,special,-41.89,171.58,-41.8311,171.6606,5923123.14,2392149.06,5929772,2398735,6.97,6.97,9.35,13.7,5.87,11.28,3.46,9.35,0,10,8.26,nu,083A,B,1200,Q3,<0.1,Q3,0,Q2,0,-99999,-99999,0,0.5,40,0.85,40,Anderson_etal_1993&Dowrick_Rhoades1998&HarvardCMT,0.201896568,0.207309505,0.235153273,0.241645375,0.243116999,0.225622706,0.197243444,0.165865053,0.143928144,0.108849034,0.100647268,0.089988378,0.082811083,0.053113191,0.037029546,-99999,-99999,-99999,-99999,-99999,-99999,-99999,0.255260151,0.292508704,0.332511015,0.341777794,0.327182602,0.248140773,0.23899688,0.204876666,0.160843633,0.128225966,0.1122902,0.101636632,0.101628764,0.07471501,0.050133048,-99999,-99999,-99999,-99999,-99999,-99999,-99999,0.193315,0.234507,0.065445,0.081315
194283,1991-01-28T12:58:46.823000Z,A91090A1,5.76,0.08,Crustal,R,1,42,30,99,special,-41.89,171.58,-41.8553,171.9539,5923123.14,2392149.06,5927428,2423132,6.97,6.97,31.2,32.86,27.91,30.07,23.16,23.93,0,10,8.26,nu,090A,C,270,Q3,0.33,Q3,40,Q3,0,-99999,-99999,1,0.3,22,0.51,22,Anderson_etal_1993&Dowrick_Rhoades1998&HarvardCMT,0.083405704,0.084251181,0.085468592,0.086864014,0.088385047,0.091898893,0.098413026,0.104089753,0.099654763,0.09081079,0.089772753,0.091447195,0.0786523,0.045828888,0.03409035,0.019445714,-99999,-99999,-99999,-99999,-99999,-99999,0.115123679,0.116311887,0.11774818,0.119193077,0.121693781,0.126975699,0.132599728,0.144279839,0.140840463,0.127523221,0.126824336,0.129263321,0.111127925,0.061633598,0.0430347,0.023540577,-99999,-99999,-99999,-99999,-99999,-99999,0.08299,0.115127,0.061288,0.084013
194283,1991-01-28T12:58:46.823000Z,A91122A1,5.76,0.08,Crustal,R,1,42,30,99,special,-41.89,171.58,-41.8025,172.3248,5923123.14,2392149.06,5933606,2453884,6.97,6.97,62.46,63.44,59.16,60.33,41.88,49.1,0,10,8.26,nu,122A,D,500,Q3,1.6,Q3,250,Q3,0,-99999,-99999,1,0.4,40,0.68,40,Anderson_etal_1993&Dowrick_Rhoades1998&HarvardCMT,0.128796618,0.137491322,0.139999512,0.144966769,0.142424162,0.150566683,0.165011683,0.151185258,0.140794729,0.132709222,0.123497617,0.114554566,0.100503624,0.054360027,0.0302267,-99999,-99999,-99999,-99999,-99999,-99999,-99999,0.171253314,0.175504989,0.177163683,0.178634699,0.18256273,0.206142376,0.222970897,0.210492915,0.196069302,0.18655745,0.16686805,0.162017289,0.141891854,0.061828328,0.037377277,-99999,-99999,-99999,-99999,-99999,-99999,-99999,0.128037,0.172541,0.069375,0.08888
194283,1991-01-28T12:58:46.823000Z,D91042A3,5.76,0.08,Crustal,R,1,42,30,99,special,-41.89,171.58,-42.5232,172.8305,5923123.14,2392149.06,5853765,2496076,6.97,6.97,124.76,125.38,121.74,122.51,126.66,18,0,10,8.26,nu,HSES,D,280,Q3,0.9,Q1,85,Q3,0,-99999,-99999,1,0.2,11,0.34,11,Anderson_etal_1993&Dowrick_Rhoades1998&HarvardCMT,0.023585754,0.023639483,0.023735692,0.023875631,0.024084439,0.024707957,0.025938766,0.027680533,0.02740916,0.028116054,0.027904931,0.027784738,0.029444472,0.024803859,0.017361074,0.007805995,0.004693167,-99999,-99999,-99999,-99999,-99999,0.026786415,0.026842145,0.026927186,0.027037576,0.027174855,0.027683589,0.028727043,0.033166399,0.034460543,0.034197218,0.034640769,0.036249997,0.03652653,0.030119554,0.02374916,0.010416611,0.006584343,-99999,-99999,-99999,-99999,-99999,0.023586,0.026774,0.023361,0.029622
201724,1991-01-28T18:00:53.158000Z,A91051B2,5.89,0.08,Crustal,S,1,48,77,11,special,-41.9,171.67,-41.7557,171.5998,5922133.85,2399635.78,5938069,2393545,8.1,8.1,17.07,20.86,15.62,17.84,-15.01,6.14,0,12,8.05,fw,WBCS,D,300,Q3,1.2,Q2,105,Q3,0,-99999,-99999,1,0.3,20,0.51,20,Anderson_etal_1993&Dowrick_Rhoades1998&HarvardCMT,0.147594029,0.149507779,0.153194884,0.159589389,0.16732116,0.18681471,0.184288618,0.161770712,0.157311324,0.134387033,0.110277923,0.094367692,0.096940144,0.08208129,0.050149423,0.025575778,-99999,-99999,-99999,-99999,-99999,-99999,0.163612531,0.164637227,0.165979321,0.168840922,0.176635582,0.231904521,0.239779764,0.18690349,0.189918237,0.168982007,0.148462768,0.127057408,0.133276582,0.110389177,0.069473612,0.031137205,-99999,-99999,-99999,-99999,-99999,-99999,0.146803,0.16229,0.090179,0.110719
201724,1991-01-28T18:00:53.158000Z,A91052A2,5.89,0.08,Crustal,S,1,48,77,11,special,-41.9,171.67,-42.1166,171.8604,5922133.85,2399635.78,5898305,2415760,8.1,8.1,28.77,31.24,27.75,30.62,29.41,-3.96,0,12,8.05,hw,052A,C,333,Q3,0.3,Q3,30,Q3,0,-99999,-99999,1,0.5,35,0.85,35,Anderson_etal_1993&Dowrick_Rhoades1998&HarvardCMT,0.172550595,0.176393917,0.182938312,0.201402735,0.212803924,0.234652618,0.245086645,0.153111185,0.117283318,0.097301743,0.084858062,0.060465224,0.040643232,0.024228694,0.016120825,-99999,-99999,-99999,-99999,-99999,-99999,-99999,0.182400428,0.187090042,0.193451154,0.210590282,0.231751535,0.26577065,0.308377723,0.214438975,0.145159554,0.125257328,0.100929978,0.073679234,0.054670115,0.029283253,0.018342436,-99999,-99999,-99999,-99999,-99999,-99999,-99999,0.172849,0.182562,0.048354,0.054283
201724,1991-01-28T18:00:53.158000Z,A91083A2,5.89,0.08,Crustal,S,1,48,77,11,special,-41.9,171.67,-41.8311,171.6606,5922133.85,2399635.78,5929772,2398735,8.1,8.1,7.7,14.26,5.85,10.38,-5.37,4.44,0,12,8.05,fw,083A,B,1200,Q3,<0.1,Q3,0,Q2,0,-99999,-99999,1,1,35,1.7,35,Anderson_etal_1993&Dowrick_Rhoades1998&HarvardCMT,0.143358796,0.153178573,0.159124068,0.1709317,0.185517385,0.192662406,0.154054944,0.106312191,0.085681865,0.070970629,0.055358944,0.040539908,0.027747804,-99999,-99999,-99999,-99999,-99999,-99999,-99999,-99999,-99999,0.200898241,0.20751851,0.224064652,0.222070236,0.222715654,0.251949584,0.215186998,0.143561261,0.110958652,0.100335596,0.076961949,0.047414163,0.033618261,-99999,-99999,-99999,-99999,-99999,-99999,-99999,-99999,-99999,0.14279,0.201932,0.029918,0.038692
201724,1991-01-28T18:00:53.158000Z,A91090A2,5.89,0.08,Crustal,S,1,48,77,11,special,-41.9,171.67,-41.8553,171.9539,5922133.85,2399635.78,5927428,2423132,8.1,8.1,24.03,26.94,20.56,23.59,12.7,21,0,12,8.05,nu,090A,C,270,Q3,0.33,Q3,40,Q3,0,-99999,-99999,1,0.3,20,0.51,20,Anderson_etal_1993&Dowrick_Rhoades1998&HarvardCMT,0.166863759,0.167306346,0.167858867,0.169470187,0.17223511,0.178857,0.188819806,0.204782582,0.223174961,0.221938233,0.210459042,0.198041989,0.176261458,0.109067367,0.078268075,0.039670048,-99999,-99999,-99999,-99999,-99999,-99999,0.185648268,0.186109716,0.186903847,0.18838341,0.190944923,0.19646943,0.201500404,0.228701462,0.245788474,0.237393306,0.246671542,0.238974827,0.192597454,0.134244979,0.09621859,0.047383664,-99999,-99999,-99999,-99999,-99999,-99999,0.16676,0.185405,0.123361,0.148819
201724,1991-01-28T18:00:53.158000Z,A91122A2,5.89,0.08,Crustal,S,1,48,77,11,special,-41.9,171.67,-41.8025,172.3248,5922133.85,2399635.78,5933606,2453884,8.1,8.1,55.31,56.76,51.82,53.36,28.68,47.99,0,12,8.05,nu,122A,D,500,Q3,1.6,Q3,250,Q3,0,-99999,-99999,1,0.3,33,0.51,33,Anderson_etal_1993&Dowrick_Rhoades1998&HarvardCMT,0.256886724,0.273583522,0.312463021,0.298647178,0.271813248,0.282619908,0.309445669,0.328048223,0.231824639,0.186469879,0.170010895,0.123001088,0.101604997,0.055990292,0.035082509,0.018181854,-99999,-99999,-99999,-99999,-99999,-99999,0.320698067,0.331893601,0.348082398,0.340488549,0.317364674,0.382358722,0.403150378,0.369047301,0.297098113,0.245081136,0.206339466,0.145484592,0.134321683,0.078831956,0.044655148,0.020703607,-99999,-99999,-99999,-99999,-99999,-99999,0.259538,0.310917,0.0751,0.09991
201724,1991-01-28T18:00:53.158000Z,D91042A4,5.89,0.08,Crustal,S,1,48,77,11,special,-41.9,171.67,-42.5232,172.8305,5922133.85,2399635.78,5853765,2496076,8.1,8.1,118.06,118.86,116.84,117.93,116.25,25.92,0,12,8.05,nu,HSES,D,280,Q3,0.9,Q1,85,Q3,0,-99999,-99999,0,0.3,12,0.51,12,Anderson_etal_1993&Dowrick_Rhoades1998&HarvardCMT,0.02723142,0.027279606,0.027352328,0.027454372,0.027586401,0.028086063,0.028735269,0.028935519,0.030849183,0.033774781,0.035931417,0.035462745,0.034243039,0.032509392,0.022286797,0.010738444,-99999,-99999,-99999,-99999,-99999,-99999,0.030577552,0.030598653,0.030627583,0.030674191,0.030768548,0.031483159,0.03251394,0.036992264,0.039555524,0.041418851,0.044740446,0.045988405,0.04370888,0.040758445,0.031447879,0.015001899,-99999,-99999,-99999,-99999,-99999,-99999,0.027216,0.030578,0.029481,0.035726
201354,1991-02-15T10:48:09.669000Z,A91051B3,5.42,0.15,Crustal,R,0,213,37,90,geonet,-42.0386,171.5897,-41.7557,171.5998,5906631.78,2393229.54,5938069,2393545,4.7,4.7,31.47,32.19,29.3,30.05,-99999,-99999,0,6.92,5.27,nu,WBCS,D,300,Q3,1.2,Q2,105,Q3,0,-99999,-99999,1,0.3,22,0.51,22,HarvardCMT,0.097796139,0.098606478,0.10099461,0.105374198,0.112808784,0.133407794,0.111895623,0.110621031,0.091709407,0.075561956,0.063290948,0.052587581,0.049278929,0.035691046,0.022231325,0.013998671,-99999,-99999,-99999,-99999,-99999,-99999,0.119683358,0.122741442,0.127213389,0.133933032,0.147231808,0.169112054,0.138516374,0.130400456,0.115472019,0.089618432,0.071323186,0.057128678,0.053680496,0.044128947,0.030951025,0.017002152,-99999,-99999,-99999,-99999,-99999,-99999,0.09661,0.119132,0.037472,0.047378
201354,1991-02-15T10:48:09.669000Z,A91052A3,5.42,0.15,Crustal,R,0,213,37,90,geonet,-42.0386,171.5897,-42.1166,171.8604,5906631.78,2393229.54,5898305,2415760,4.7,4.7,23.97,25.04,22.28,23.52,-99999,-99999,0,6.92,5.27,nu,052A,C,333,Q3,0.3,Q3,30,Q3,0,-99999,-99999,0,0.5,32,0.85,32,HarvardCMT,0.158728644,0.162538603,0.16720865,0.1842087,0.195306513,0.206659953,0.209101376,0.221315685,0.149800686,0.108878505,0.089820113,0.054933156,0.046395773,0.027326541,0.01655977,-99999,-99999,-99999,-99999,-99999,-99999,-99999,0.191326423,0.194747699,0.202402933,0.21695561,0.238963866,0.262019778,0.287738518,0.260524128,0.200864718,0.141527317,0.098208814,0.058192574,0.05583362,0.037630822,0.021372423,-99999,-99999,-99999,-99999,-99999,-99999,-99999,0.159601,0.19139,0.046705,0.056129
201354,1991-02-15T10:48:09.669000Z,A91090A3,5.42,0.15,Crustal,R,0,213,37,90,geonet,-42.0386,171.5897,-41.8553,171.9539,5906631.78,2393229.54,5927428,2423132,4.7,4.7,36.37,37.09,34.1,34.84,-99999,-99999,0,6.92,5.27,nu,090A,C,270,Q3,0.33,Q3,40,Q3,0,-99999,-99999,1,0.45,13,0.765,13,HarvardCMT,0.080260674,0.080520445,0.081076987,0.081875881,0.082838587,0.085907951,0.090390741,0.105069438,0.111850139,0.111198503,0.098136969,0.072126256,0.055440066,0.033242612,0.018813214,-99999,-99999,-99999,-99999,-99999,-99999,-99999,0.10777574,0.108232287,0.108893839,0.10978974,0.11093888,0.115578024,0.124150274,0.147121134,0.149929864,0.135937649,0.120722424,0.08922398,0.073537041,0.042716955,0.024129385,-99999,-99999,-99999,-99999,-99999,-99999,-99999,0.080027,0.10772,0.042587,0.057742
