CuspID,Origin_time,Record,Mw,MwUncert,TectClass,Mech,PreferredFaultPlane,Strike,Dip,Rake,Location,HypLat,HypLon,StationLat,StationLon,HypN,HypE,StationN,StationE,LENGTH_km,WIDTH_km,Repi_km,Rhyp_km,Rjb_km,Rrup_km,Rx_km,Ry_km,Rvol_km,HypDepth_km,ZTOR_km,HWFW,SiteCode,SiteClass1170,Vs30,Vs30Uncert,Tsite,TsiteUncert,Z1,Z1Uncertainty,Directivity,Pulse_or,Pulse_T,S_Trigger_Flag,fcButterHP,f_iniLP,fmin,fmax,References,f100.0000SA_RotD50,f50.0000SA_RotD50,f33.3333SA_RotD50,f25.0000SA_RotD50,f20.0000SA_RotD50,f13.3333SA_RotD50,f10.0000SA_RotD50,f6.6667SA_RotD50,f5.0000SA_RotD50,f4.0000SA_RotD50,f3.3333SA_RotD50,f2.5000SA_RotD50,f2.0000SA_RotD50,f1.3333SA_RotD50,f1.0000SA_RotD50,f0.6667SA_RotD50,f0.5000SA_RotD50,f0.3333SA_RotD50,f0.2500SA_RotD50,f0.2000SA_RotD50,f0.1333SA_RotD50,f0.1000SA_RotD50,f100.0000SA_RotD100,f50.0000SA_RotD100,f33.3333SA_RotD100,f25.0000SA_RotD100,f20.0000SA_RotD100,f13.3333SA_RotD100,f10.0000SA_RotD100,f6.6667SA_RotD100,f5.0000SA_RotD100,f4.0000SA_RotD100,f3.3333SA_RotD100,f2.5000SA_RotD100,f2.0000SA_RotD100,f1.3333SA_RotD100,f1.0000SA_RotD100,f0.6667SA_RotD100,f0.5000SA_RotD100,f0.3333SA_RotD100,f0.2500SA_RotD100,f0.2000SA_RotD100,f0.1333SA_RotD100,f0.1000SA_RotD100,PGA_RotD50,PGA_RotD100,PGV_RotD50,PGV_RotD100
241414,1991-07-12T04:42:23.301999Z,D91302A4,5.3,0.15,Slab,S,1,135,57,25,geonet,-39.3052,175.9748,-39.9338,175.053,6206777.74,2766544.08,6139282,2685450,4.1,4.1,105.45,126.78,104.32,126.64,106.19,-9.62,0,70.28,68.56,nu,302A,D,250,Q2,0.8,Q3,80,Q3,0,-99999,-99999,1,0.3,12,0.51,12,HarvardCMT,0.017615867,0.017664942,0.017745827,0.017832019,0.017982408,0.018455618,0.01966095,0.020614611,0.021684068,0.022847076,0.023045036,0.021006088,0.018274246,0.012172209,0.008124571,0.004412334,-99999,-99999,-99999,-99999,-99999,-99999,0.019823106,0.019905474,0.020019047,0.020153455,0.020318734,0.02089216,0.021638339,0.022082586,0.023223977,0.024801712,0.025746053,0.025174674,0.021229495,0.014428272,0.0107556,0.005891931,-99999,-99999,-99999,-99999,-99999,-99999,0.01761,0.019802,0.015326,0.018936
255338,1991-09-08T13:50:30.989999Z,A92087A4,5.61,0.15,Slab,R,1,95,70,108,geonet,-40.2442,175.1672,-39.7163,175.1455,6104594.2,2694363.31,6163232,2693941,5.9,5.9,58.73,104.69,57.7,101.84,-57.37,-5.53,0,86.69,83.93,nu,087A,B,1000,Q3,<0.1,Q3,0,Q2,0,-99999,-99999,1,0.6,27,1.02,27,HarvardCMT,0.142514213,0.144811417,0.150220989,0.158251148,0.162253664,0.173341705,0.182926106,0.189377251,0.143581453,0.123631447,0.104100136,0.088176189,0.059032785,0.02471999,-99999,-99999,-99999,-99999,-99999,-99999,-99999,-99999,0.165993596,0.168558949,0.173164566,0.178813259,0.187014252,0.193475302,0.213085674,0.232969989,0.169604896,0.146750524,0.129176844,0.094763584,0.067690394,0.028683142,-99999,-99999,-99999,-99999,-99999,-99999,-99999,-99999,0.138426,0.165445,0.052495,0.059593
255338,1991-09-08T13:50:30.989999Z,D91302A5,5.61,0.15,Slab,R,1,95,70,108,geonet,-40.2442,175.1672,-39.9338,175.053,6104594.2,2694363.31,6139282,2685450,5.9,5.9,35.86,93.81,34.54,90.88,-32.78,-11.9,0,86.69,83.93,nu,302A,D,250,Q2,0.8,Q3,80,Q3,0,-99999,-99999,0,0.35,20,0.595,20,HarvardCMT,0.09905635,0.099710291,0.101182101,0.103491566,0.109592977,0.112657031,0.122133691,0.112148357,0.113665284,0.105802787,0.10300592,0.08835644,0.071522768,0.044002531,0.027147397,0.009460253,-99999,-99999,-99999,-99999,-99999,-99999,0.10276784,0.10410916,0.107256276,0.112940206,0.120449812,0.137424736,0.142686252,0.140474124,0.155431489,0.1496301,0.127651819,0.108465056,0.089029832,0.045988617,0.029726888,0.011538885,-99999,-99999,-99999,-99999,-99999,-99999,0.098958,0.102989,0.049331,0.058808
255338,1991-09-08T13:50:30.989999Z,D91467A2,5.61,0.15,Slab,R,1,95,70,108,geonet,-40.2442,175.1672,-41.2425,174.9024,6104594.2,2694363.31,5994293,2669430,5.9,5.9,113.22,142.49,112.16,141.58,113.06,-15.23,0,86.69,83.93,nu,467A,D,218,Q3,1.5,Q3,200,Q3,0,-99999,-99999,1,0.25,15,0.425,15,HarvardCMT,0.025403795,0.02557572,0.025828216,0.026150509,0.026648365,0.02820189,0.030916573,0.031387656,0.031919803,0.030417014,0.030535774,0.031267608,0.027802882,0.018731339,0.009765769,0.004420608,0.002262886,-99999,-99999,-99999,-99999,-99999,0.028940023,0.029141019,0.029439756,0.029862164,0.030571749,0.031990265,0.034362384,0.037950002,0.041587709,0.038626524,0.038179907,0.037994578,0.035967061,0.02339773,0.012696611,0.005175292,0.002466216,-99999,-99999,-99999,-99999,-99999,0.025376,0.028816,0.019351,0.021977
255338,1991-09-08T13:50:30.989999Z,D91468A2,5.61,0.15,Slab,R,1,95,70,108,geonet,-40.2442,175.1672,-41.2011,174.9547,6104594.2,2694363.31,5998793,2673916,5.9,5.9,107.9,138.3,106.86,137.35,108.18,-11.15,0,86.69,83.93,nu,468A,D,190,Q1,0.9,Q3,50,Q3,0,-99999,-99999,0,0.45,13,0.765,13,HarvardCMT,0.041249412,0.041623747,0.042094644,0.042597627,0.043532638,0.048341585,0.054787372,0.054741237,0.055577045,0.052768124,0.049860511,0.044652995,0.036964285,0.02051937,0.014857941,-99999,-99999,-99999,-99999,-99999,-99999,-99999,0.056423432,0.056851312,0.057546801,0.058588139,0.060302981,0.067508912,0.076732603,0.077243131,0.075646595,0.061837649,0.054696838,0.055544308,0.044494671,0.025966416,0.017468916,-99999,-99999,-99999,-99999,-99999,-99999,-99999,0.041167,0.056406,0.028165,0.036325
255338,1991-09-08T13:50:30.989999Z,D91606B1,5.61,0.15,Slab,R,1,95,70,108,geonet,-40.2442,175.1672,-41.2333,174.9199,6104594.2,2694363.31,5995282,2670919,5.9,5.9,111.94,141.47,110.88,140.55,111.94,-13.83,0,86.69,83.93,nu,606B,B,800,Q3,<0.1,Q3,0,Q3,0,-99999,-99999,0,0.45,26,0.765,26,HarvardCMT,0.018279313,0.018432965,0.018702488,0.019016782,0.019850345,0.021539934,0.021121965,0.020670966,0.023024163,0.023719766,0.022219982,0.016783112,0.011734565,0.005828551,0.003325827,-99999,-99999,-99999,-99999,-99999,-99999,-99999,0.02205693,0.022384554,0.022766869,0.023045656,0.023461407,0.024433614,0.024623298,0.024572662,0.028415013,0.029599852,0.028347448,0.021603887,0.01517374,0.007391868,0.004515802,-99999,-99999,-99999,-99999,-99999,-99999,-99999,0.018079,0.022062,0.00858,0.011222
255338,1991-09-08T13:50:30.989999Z,D91642E7,5.61,0.15,Slab,R,1,95,70,108,geonet,-40.2442,175.1672,-41.2341,174.918,6104594.2,2694363.31,5995197,2670758,5.9,5.9,112.06,141.57,111,140.65,112.04,-13.98,0,86.69,83.93,nu,642E,C,350,Q1,0.35,Q2,50,Q3,0,-99999,-99999,0,0.5,12,0.85,12,HarvardCMT,0.049746777,0.049845823,0.05001078,0.050239812,0.050547648,0.051477607,0.052199691,0.06035269,0.070160452,0.073208408,0.074858316,0.060969016,0.038527581,0.016696741,0.008905857,-99999,-99999,-99999,-99999,-99999,-99999,-99999,0.060213751,0.060410486,0.060713666,0.061090947,0.061540037,0.063268286,0.065582116,0.072854819,0.085756932,0.091309617,0.090463278,0.066198364,0.04160338,0.018129991,0.009767656,-99999,-99999,-99999,-99999,-99999,-99999,-99999,0.049631,0.060112,0.028527,0.031818
255338,1991-09-08T13:50:30.989999Z,D91644C3,5.61,0.15,Slab,R,1,95,70,108,geonet,-40.2442,175.1672,-41.2187,174.8826,6104594.2,2694363.31,5996970,2667828,5.9,5.9,110.98,140.72,109.9,139.76,110.53,-17.05,0,86.69,83.93,nu,644C,D,189,Q3,2,Q3,250,Q3,0,-99999,-99999,0,0.35,15,0.595,15,HarvardCMT,0.022108165,0.02226416,0.022488484,0.02280453,0.023241266,0.025038058,0.026999471,0.029177257,0.029036767,0.028307378,0.028610981,0.026243589,0.020106512,0.009373571,0.00565061,0.002942377,-99999,-99999,-99999,-99999,-99999,-99999,0.025320618,0.025470024,0.025655631,0.025799499,0.025954879,0.028036519,0.02941155,0.031568508,0.030944601,0.031965778,0.032165831,0.028410801,0.021439738,0.010361685,0.006891692,0.003545376,-99999,-99999,-99999,-99999,-99999,-99999,0.022024,0.025364,0.012054,0.01511
255338,1991-09-08T13:50:30.989999Z,D91646A2,5.61,0.15,Slab,R,1,95,70,108,geonet,-40.2442,175.1672,-41.2574,174.9485,6104594.2,2694363.31,5992552,2673256,5.9,5.9,114.16,143.28,113.12,142.4,114.46,-11.26,0,86.69,83.93,nu,WDAS,E,120,Q1,1.6,Q2,62,Q2,0,-99999,-99999,0,0.35,18,0.595,18,HarvardCMT,0.051312983,0.05154344,0.051999137,0.052673746,0.053885435,0.055993066,0.058409891,0.063622604,0.065254862,0.065520942,0.064405479,0.050360057,0.037254038,0.021247373,0.015126262,0.007282139,-99999,-99999,-99999,-99999,-99999,-99999,0.055325005,0.055552297,0.056032374,0.05676959,0.05799199,0.06267114,0.066604377,0.070994434,0.073136433,0.077398204,0.074275888,0.058274953,0.041716321,0.023620785,0.019997253,0.009596036,-99999,-99999,-99999,-99999,-99999,-99999,0.051233,0.055137,0.027295,0.029666
255338,1991-09-08T13:50:30.989999Z,D91705B3,5.61,0.15,Slab,R,1,95,70,108,geonet,-40.2442,175.1672,-41.1391,174.8502,6104594.2,2694363.31,6005867,2665298,5.9,5.9,103.03,134.58,101.9,133.49,101.89,-20.35,0,86.69,83.93,nu,707A,C,570,Q3,0.15,Q3,10,Q3,0,-99999,-99999,0,0.5,15,0.85,15,HarvardCMT,0.033751637,0.034000711,0.034372192,0.034897704,0.035522441,0.036623596,0.039104166,0.042204038,0.046538049,0.045186693,0.039268028,0.027338492,0.017045266,0.007733551,0.004758634,-99999,-99999,-99999,-99999,-99999,-99999,-99999,0.039203057,0.039321499,0.039602492,0.039788757,0.040035182,0.042303842,0.0488186,0.055194001,0.061778232,0.057877872,0.049465858,0.035336433,0.023278943,0.009647165,0.006165264,-99999,-99999,-99999,-99999,-99999,-99999,-99999,0.033595,0.039242,0.013553,0.018716
255338,1991-09-08T13:50:30.989999Z,D91706A2,5.61,0.15,Slab,R,1,95,70,108,geonet,-40.2442,175.1672,-41.1288,174.8382,6104594.2,2694363.31,6007032,2664315,5.9,5.9,102.2,133.93,101.05,132.82,100.81,-21.43,0,86.69,83.93,nu,706A,C,210,Q3,0.5,Q2,30,Q3,0,-99999,-99999,0,0.35,12,0.595,12,HarvardCMT,0.07494748,0.075258582,0.075771162,0.076441599,0.077421258,0.082657541,0.089341057,0.099888273,0.097598603,0.090839018,0.088122448,0.080758778,0.053905467,0.027589809,0.01407117,0.005865627,-99999,-99999,-99999,-99999,-99999,-99999,0.089330113,0.089634516,0.09010169,0.090920441,0.092065678,0.096084614,0.101077404,0.116815072,0.117752219,0.113197635,0.120218088,0.103662921,0.076219557,0.031849843,0.016099844,0.00772709,-99999,-99999,-99999,-99999,-99999,-99999,0.074799,0.089337,0.037786,0.048001
255338,1991-09-08T13:50:30.989999Z,D91900B7,5.61,0.15,Slab,R,1,95,70,108,geonet,-40.2442,175.1672,-41.2921,174.779,6104594.2,2694363.31,5989003,2658976,5.9,5.9,121.02,148.76,119.87,147.84,119.24,-25.18,0,86.69,83.93,nu,941A,D,272,Q2,0.85,Q2,9.85E+01,Q2,0,-99999,-99999,0,0.45,12,0.765,12,HarvardCMT,0.03602275,0.036106698,0.036240471,0.036467338,0.036695767,0.037163249,0.038115536,0.042963644,0.04844388,0.049953297,0.048070687,0.042819886,0.037306945,0.020432264,0.012823887,-99999,-99999,-99999,-99999,-99999,-99999,-99999,0.050794947,0.050975011,0.05119791,0.051444107,0.05182818,0.052559017,0.05242766,0.05929274,0.067186411,0.069763021,0.065508516,0.059771872,0.05267965,0.026325133,0.0178108,-99999,-99999,-99999,-99999,-99999,-99999,-99999,0.035998,0.05075,0.022835,0.030844
255338,1991-09-08T13:50:30.989999Z,D91918B7,5.61,0.15,Slab,R,1,95,70,108,geonet,-40.2442,175.1672,-41.284,174.7682,6104594.2,2694363.31,5989908,2658140,5.9,5.9,120.4,148.34,119.25,147.39,118.41,-26.09,0,86.69,83.93,nu,WEL,B,1000,Q3,0.3,Q1,0,Q2,0,-99999,-99999,0,0.5,18,0.85,18,HarvardCMT,0.041830311,0.042034057,0.042363011,0.042880381,0.043693315,0.046382308,0.049346689,0.054738534,0.059143553,0.057369176,0.04665831,0.027924061,0.017271644,0.007693324,0.003935167,-99999,-99999,-99999,-99999,-99999,-99999,-99999,0.057543203,0.057787903,0.058403972,0.059311335,0.060558348,0.064141207,0.067268432,0.073623673,0.081762334,0.076167536,0.061150481,0.038167227,0.023866935,0.010810543,0.005284568,-99999,-99999,-99999,-99999,-99999,-99999,-99999,0.041816,0.05761,0.016822,0.023348
255338,1991-09-08T13:50:30.989999Z,D91935B3,5.61,0.15,Slab,R,1,95,70,108,geonet,-40.2442,175.1672,-41.2108,174.9047,6104594.2,2694363.31,5997808,2669699,5.9,5.9,109.73,139.74,108.66,138.78,109.53,-15.26,0,86.69,83.93,nu,935A,D,240,Q3,1.2,Q3,275,Q3,0,-99999,-99999,1,0.45,15,0.765,15,HarvardCMT,0.035500334,0.035588992,0.03569199,0.035824133,0.035875711,0.037201398,0.04094864,0.046468653,0.053406541,0.056196663,0.052697814,0.041365324,0.031074076,0.013914812,0.00776369,-99999,-99999,-99999,-99999,-99999,-99999,-99999,0.050141578,0.050225194,0.050313824,0.050471567,0.050519509,0.052309874,0.057509604,0.065715271,0.074234277,0.07769054,0.074339633,0.053858872,0.035447679,0.015506976,0.008653808,-99999,-99999,-99999,-99999,-99999,-99999,-99999,0.035455,0.050141,0.022492,0.028499
255338,1991-09-08T13:50:30.989999Z,K91102A3,5.61,0.15,Slab,R,1,95,70,108,geonet,-40.2442,175.1672,-39.4637,175.5669,6104594.2,2694363.31,6190285,2730871,5.9,5.9,93.25,127.72,91.95,125.06,-87.54,28.9,0,86.69,83.93,nu,102A,C,555,Q3,0.15,Q3,12,Q3,0,-99999,-99999,1,0.5,18,0.85,18,HarvardCMT,0.045280149,0.045900946,0.046554168,0.047739813,0.049175565,0.052955651,0.05726968,0.059852175,0.054112971,0.044036191,0.035801026,0.022927838,0.016200141,0.008631902,0.005774893,-99999,-99999,-99999,-99999,-99999,-99999,-99999,0.051589752,0.052580063,0.053973491,0.05569108,0.057729768,0.065409048,0.071257334,0.065887941,0.061425401,0.052319692,0.041689986,0.028804329,0.020662992,0.009805256,0.007487454,-99999,-99999,-99999,-99999,-99999,-99999,-99999,0.044941,0.051243,0.015324,0.0173
314805,1992-03-30T07:02:51.226999Z,D92505A1,5.5,0.15,Crustal,R,1,205,76,77,nlloc,-43.0605,171.212,-42.9489,171.5677,5792540.97,2364375.65,5805487,2393135,5.17,5.17,31.47,32.08,29.52,30.01,-19.97,-23.89,0,5.12,2.61,nu,APPS,C,300,Q2,0.4,Q1,30,Q2,0,-99999,-99999,0,0.6,20,1.02,20,HarvardCMT,0.026724343,0.026989356,0.027327546,0.028071309,0.029326226,0.031664774,0.032551063,0.037280806,0.034978968,0.030941086,0.032976302,0.029266755,0.020905826,0.010628045,-99999,-99999,-99999,-99999,-99999,-99999,-99999,-99999,0.031024687,0.031133032,0.031375985,0.031607376,0.031905878,0.034154417,0.034573259,0.039754665,0.040109591,0.038855083,0.040244377,0.036799409,0.026426415,0.011923441,-99999,-99999,-99999,-99999,-99999,-99999,-99999,-99999,0.026526,0.031057,0.016402,0.018266
339342,1992-05-27T22:30:35.064000Z,D92129A2,5.9,0.08,Slab,S,1,117,85,21,special,-41.63,173.62,-41.7999,172.328,5952812.98,2561652.09,5933893,2454147,8.2,8.2,108.89,128.17,105.65,124.79,66.02,-87.2,0,67,62.92,nu,MCAS,D,501,Q3,1.6,Q3,200,Q3,0,-99999,-99999,0,0.23,19,0.391,19,Webb_Anderson_1998&Dowrick_Rhoades1998&HarvardCMT,0.028743226,0.029146439,0.029670933,0.030353618,0.031595051,0.033004223,0.032419849,0.029953946,0.030517309,0.030633136,0.031902705,0.026868341,0.019143874,0.012693695,0.008524232,0.005071885,0.003500201,-99999,-99999,-99999,-99999,-99999,0.032361267,0.032590191,0.032969566,0.033626876,0.034938962,0.037267487,0.037454281,0.035216379,0.034055876,0.034230934,0.034876628,0.028323015,0.021633148,0.015593323,0.011176034,0.006115454,0.004021184,-99999,-99999,-99999,-99999,-99999,0.028644,0.032355,0.016475,0.019402
339342,1992-05-27T22:30:35.064000Z,D92467A3,5.9,0.08,Slab,S,1,117,85,21,special,-41.63,173.62,-41.2425,174.9024,5952812.98,2561652.09,5994293,2669430,8.2,8.2,115.26,133.52,112.56,130.25,-85.53,77.2,0,67,62.92,nu,467A,D,218,Q3,1.5,Q3,200,Q3,0,-99999,-99999,0,0.35,14,0.595,14,Webb_Anderson_1998&Dowrick_Rhoades1998&HarvardCMT,0.031674289,0.0317854,0.031996678,0.032182073,0.032535395,0.033119064,0.034174423,0.037564904,0.03829501,0.039084275,0.035688995,0.03611847,0.03291404,0.01583795,0.008890993,0.005058734,-99999,-99999,-99999,-99999,-99999,-99999,0.034806283,0.034948379,0.035239309,0.035654125,0.036223906,0.038355399,0.038885956,0.039024129,0.042304375,0.041197198,0.040698352,0.040465159,0.038798285,0.0184269,0.011433037,0.005850792,-99999,-99999,-99999,-99999,-99999,-99999,0.031627,0.034838,0.01937,0.02218
339342,1992-05-27T22:30:35.064000Z,D92468A6,5.9,0.08,Slab,S,1,117,85,21,special,-41.63,173.62,-41.2011,174.9547,5952812.98,2561652.09,5998793,2673916,8.2,8.2,121.08,138.59,118.45,135.4,-91.58,79.15,0,67,62.92,nu,468A,D,190,Q1,0.9,Q3,50,Q3,0,-99999,-99999,0,0.4,19,0.68,19,Webb_Anderson_1998&Dowrick_Rhoades1998&HarvardCMT,0.030552724,0.030720833,0.030965715,0.031337883,0.03198298,0.034488049,0.03790451,0.039175853,0.037839546,0.03703119,0.035987916,0.031833956,0.023325293,0.013066139,0.010045191,-99999,-99999,-99999,-99999,-99999,-99999,-99999,0.035610856,0.035785032,0.036151443,0.036608216,0.037259874,0.039252371,0.041611475,0.043083133,0.041319743,0.040758762,0.039255914,0.034979855,0.028293078,0.017227533,0.012794201,-99999,-99999,-99999,-99999,-99999,-99999,-99999,0.030491,0.035661,0.016906,0.020622
339342,1992-05-27T22:30:35.064000Z,D92644C3,5.9,0.08,Slab,S,1,117,85,21,special,-41.63,173.62,-41.2187,174.8826,5952812.98,2561652.09,5996970,2667828,8.2,8.2,114.77,133.09,112.16,129.87,-87.19,74.56,0,67,62.92,nu,644C,D,189,Q3,2,Q3,250,Q3,0,-99999,-99999,0,0.25,12,0.425,12,Webb_Anderson_1998&Dowrick_Rhoades1998&HarvardCMT,0.021866626,0.021943503,0.022085598,0.022257378,0.022480769,0.023042797,0.024172149,0.027313699,0.027602566,0.028088353,0.02763892,0.025923545,0.024591176,0.012907655,0.007339201,0.003723191,0.002383963,-99999,-99999,-99999,-99999,-99999,0.025529005,0.025628825,0.025852388,0.026218579,0.026746204,0.029056388,0.031165416,0.033352939,0.032596427,0.03162615,0.030219469,0.032448484,0.027910352,0.01542332,0.00861148,0.004670894,0.003146838,-99999,-99999,-99999,-99999,-99999,0.021789,0.025551,0.015829,0.019203
339342,1992-05-27T22:30:35.064000Z,D92646A5,5.9,0.08,Slab,S,1,117,85,21,special,-41.63,173.62,-41.2574,174.9485,5952812.98,2561652.09,5992552,2673256,8.2,8.2,118.23,136.15,115.45,132.85,-85.72,81.4,0,67,62.92,nu,WDAS,E,120,Q1,1.6,Q2,62,Q2,0,-99999,-99999,0,0.5,16,0.85,16,Webb_Anderson_1998&Dowrick_Rhoades1998&HarvardCMT,0.027539264,0.027697709,0.02795324,0.028304694,0.028796817,0.02990029,0.029983971,0.029257078,0.032352259,0.035230184,0.035197487,0.027940327,0.024961249,0.018609057,0.018986616,-99999,-99999,-99999,-99999,-99999,-99999,-99999,0.031824791,0.031924085,0.032154182,0.032515861,0.032924698,0.033612472,0.032969363,0.03252321,0.036234972,0.040196818,0.040640027,0.032755373,0.027386464,0.02301556,0.021233166,-99999,-99999,-99999,-99999,-99999,-99999,-99999,0.027296,0.031602,0.020955,0.023387
339342,1992-05-27T22:30:35.064000Z,D92647A1,5.9,0.08,Slab,S,1,117,85,21,special,-41.63,173.62,-41.2871,174.778,5952812.98,2561652.09,5989560,2658904,8.2,8.2,103.76,123.68,101.04,120.35,-76.54,69.97,0,67,62.92,nu,647A,C,474,Q2,0.12,Q2,5.70E+00,Q2,0,-99999,-99999,0,0.4,19,0.68,19,Webb_Anderson_1998&Dowrick_Rhoades1998&HarvardCMT,0.019839218,0.020104508,0.020458047,0.02084051,0.021454928,0.021428085,0.022661875,0.023652284,0.023149918,0.023615293,0.024723169,0.020031167,0.014217143,0.006623528,0.005033739,-99999,-99999,-99999,-99999,-99999,-99999,-99999,0.024826372,0.024977565,0.025209428,0.025624219,0.026310873,0.028105294,0.026976141,0.027015774,0.02773099,0.027870982,0.027605396,0.027191463,0.020104664,0.008593345,0.006771594,-99999,-99999,-99999,-99999,-99999,-99999,-99999,0.01987,0.024677,0.010584,0.014771
339342,1992-05-27T22:30:35.064000Z,D92706A2,5.9,0.08,Slab,S,1,117,85,21,special,-41.63,173.62,-41.1288,174.8382,5952812.98,2561652.09,6007032,2664315,8.2,8.2,115.91,134.05,113.6,131,-94.56,66.86,0,67,62.92,nu,706A,C,210,Q3,0.5,Q2,30,Q3,0,-99999,-99999,0,0.45,12,0.765,12,Webb_Anderson_1998&Dowrick_Rhoades1998&HarvardCMT,0.030385127,0.030592288,0.030885829,0.031228575,0.031610255,0.033259244,0.035008233,0.037912753,0.043048893,0.042461159,0.034621015,0.030328192,0.024060918,0.013869438,0.009154915,-99999,-99999,-99999,-99999,-99999,-99999,-99999,0.033406706,0.033588661,0.033855098,0.034398101,0.035028926,0.036997787,0.037792119,0.041635013,0.046782961,0.045592108,0.041510632,0.035219814,0.027023406,0.015581714,0.01013481,-99999,-99999,-99999,-99999,-99999,-99999,-99999,0.030306,0.033412,0.017727,0.019672
