CuspID,Origin_time,Record,Mw,MwUncert,TectClass,Mech,PreferredFaultPlane,Strike,Dip,Rake,Location,HypLat,HypLon,StationLat,StationLon,HypN,HypE,StationN,StationE,LENGTH_km,WIDTH_km,Repi_km,Rhyp_km,Rjb_km,Rrup_km,Rx_km,Ry_km,Rvol_km,HypDepth_km,ZTOR_km,HWFW,SiteCode,SiteClass1170,Vs30,Vs30Uncert,Tsite,TsiteUncert,Z1,Z1Uncertainty,Directivity,Pulse_or,Pulse_T,S_Trigger_Flag,fcButterHP,f_iniLP,fmin,fmax,References,f100.0000SA_RotD50,f50.0000SA_RotD50,f33.3333SA_RotD50,f25.0000SA_RotD50,f20.0000SA_RotD50,f13.3333SA_RotD50,f10.0000SA_RotD50,f6.6667SA_RotD50,f5.0000SA_RotD50,f4.0000SA_RotD50,f3.3333SA_RotD50,f2.5000SA_RotD50,f2.0000SA_RotD50,f1.3333SA_RotD50,f1.0000SA_RotD50,f0.6667SA_RotD50,f0.5000SA_RotD50,f0.3333SA_RotD50,f0.2500SA_RotD50,f0.2000SA_RotD50,f0.1333SA_RotD50,f0.1000SA_RotD50,f100.0000SA_RotD100,f50.0000SA_RotD100,f33.3333SA_RotD100,f25.0000SA_RotD100,f20.0000SA_RotD100,f13.3333SA_RotD100,f10.0000SA_RotD100,f6.6667SA_RotD100,f5.0000SA_RotD100,f4.0000SA_RotD100,f3.3333SA_RotD100,f2.5000SA_RotD100,f2.0000SA_RotD100,f1.3333SA_RotD100,f1.0000SA_RotD100,f0.6667SA_RotD100,f0.5000SA_RotD100,f0.3333SA_RotD100,f0.2500SA_RotD100,f0.2000SA_RotD100,f0.1333SA_RotD100,f0.1000SA_RotD100,PGA_RotD50,PGA_RotD100,PGV_RotD50,PGV_RotD100
100789,1990-02-19T05:34:36.673000Z,A90032A1,6.24,0.08,Slab,N,1,209,72,-1.12E+02,special,-40.38,176.22,-39.9425,176.5874,6086791.59,2783346.23,6134136,2816486,13,13,57.81,62.25,51.34,55.75,-4.02,-57.47,0,23,16.82,nu,032A,C,495,Q3,0.13,Q3,10,Q3,0,-99999,-99999,1,0.5,11,0.85,11,Robinson_1994&Dowrick_Rhoades1998&HarvardCMT,0.167872095,0.16837906,0.169284014,0.17070074,0.172370505,0.178428399,0.196132884,0.337244238,0.500085581,0.440153952,0.38406408,0.372361786,0.227118607,0.192412522,0.096409542,-99999,-99999,-99999,-99999,-99999,-99999,-99999,0.201232309,0.202025339,0.203293475,0.205043603,0.207293213,0.215083161,0.26369365,0.423012885,0.600537884,0.565063984,0.456886641,0.507293345,0.292296645,0.222530536,0.112142718,-99999,-99999,-99999,-99999,-99999,-99999,-99999,0.167641,0.201198,0.111262,0.147159
100789,1990-02-19T05:34:36.673000Z,A90033A1,6.24,0.08,Slab,N,1,209,72,-1.12E+02,special,-40.38,176.22,-40.2088,176.0985,6086791.59,2783346.23,6106160,2773698,13,13,21.65,31.73,18.06,27.95,19.84,-12.26,0,23,16.82,nu,033A,C,367,Q3,0.33,Q3,30,Q3,0,-99999,-99999,1,0.38,19,0.646,19,Robinson_1994&Dowrick_Rhoades1998&HarvardCMT,0.222626731,0.224597857,0.22834478,0.234067493,0.243081847,0.274883979,0.361015046,0.453217781,0.476542675,0.650348754,0.583245783,0.718424159,0.436285931,0.26967337,0.103080792,0.092370849,-99999,-99999,-99999,-99999,-99999,-99999,0.303742335,0.307117336,0.312879147,0.322139457,0.336691896,0.386917242,0.481684435,0.564765735,0.573379727,0.734473174,0.772147563,0.949861762,0.566632502,0.358183662,0.134813377,0.123091771,-99999,-99999,-99999,-99999,-99999,-99999,0.222026,0.302467,0.136251,0.18609
100789,1990-02-19T05:34:36.673000Z,A90102A1,6.24,0.08,Slab,N,1,209,72,-1.12E+02,special,-40.38,176.22,-39.4637,175.5669,6086791.59,2783346.23,6190285,2730871,13,13,116.11,118.43,112.17,114.97,98.08,-65.08,0,23,16.82,nu,102A,C,555,Q3,0.15,Q3,12,Q3,0,-99999,-99999,1,0.4,15,0.68,15,Robinson_1994&Dowrick_Rhoades1998&HarvardCMT,0.035419445,0.035584348,0.035858996,0.036389566,0.037147379,0.038392766,0.045736618,0.077220167,0.06271877,0.087849767,0.11081902,0.06386132,0.085149949,0.059854543,0.072125883,-99999,-99999,-99999,-99999,-99999,-99999,-99999,0.046664298,0.046849154,0.047140935,0.047604938,0.0482817,0.053945033,0.059005585,0.096357058,0.081495707,0.11523609,0.155723755,0.089121898,0.112756362,0.066360767,0.098063705,-99999,-99999,-99999,-99999,-99999,-99999,-99999,0.035302,0.046516,0.031044,0.037797
100789,1990-02-19T05:34:36.673000Z,A90120A1,6.24,0.08,Slab,N,1,209,72,-1.12E+02,special,-40.38,176.22,-40.335,175.8682,6086791.59,2783346.23,6092817,2753648,13,13,30.23,38.1,27.71,35.87,30.9,9.13,0,23,16.82,nu,120A,D,290,Q3,1.1,Q3,100,Q3,0,-99999,-99999,1,0.3,16,0.51,16,Robinson_1994&Dowrick_Rhoades1998&HarvardCMT,0.181787193,0.182356766,0.18328486,0.184640011,0.186430545,0.190447513,0.220297089,0.293713772,0.500809441,0.499752302,0.484109524,0.334388276,0.521394834,0.162013487,0.171613077,0.078271505,-99999,-99999,-99999,-99999,-99999,-99999,0.242106974,0.242878305,0.244109022,0.245889282,0.248141753,0.245318511,0.306490054,0.384720794,0.66684609,0.680512235,0.615035314,0.41855809,0.729108551,0.217670027,0.240514525,0.109160146,-99999,-99999,-99999,-99999,-99999,-99999,0.181617,0.241485,0.147823,0.171479
100789,1990-02-19T05:34:36.673000Z,A90301A1,6.24,0.08,Slab,N,1,209,72,-1.12E+02,special,-40.38,176.22,-40.3553,175.6152,6086791.59,2783346.23,6091232,2732094,13,13,51.31,56.37,48.28,54.13,48.99,20.96,0,23,16.82,nu,301A,D,341,Q3,0.7,Q2,60,Q3,0,-99999,-99999,1,0.15,12,0.255,12,Robinson_1994&Dowrick_Rhoades1998&HarvardCMT,0.044287005,0.044452906,0.044707388,0.045164861,0.045648231,0.047555126,0.054824311,0.069464538,0.080432082,0.081116384,0.101377229,0.108107009,0.078206506,0.08571906,0.086153745,0.029717246,0.022941694,0.011339102,-99999,-99999,-99999,-99999,0.048353743,0.048457833,0.04862545,0.048893195,0.049230097,0.051331094,0.065644472,0.084660456,0.093824725,0.092616917,0.114904987,0.13107317,0.094864885,0.100630689,0.106272472,0.034641209,0.028565265,0.015516509,-99999,-99999,-99999,-99999,0.04421,0.048352,0.051714,0.058661
100789,1990-02-19T05:34:36.673000Z,A90340A2,6.24,0.08,Slab,N,1,209,72,-1.12E+02,special,-40.38,176.22,-40.3863,175.6165,6086791.59,2783346.23,6087788,2732102,13,13,51.12,56.19,47.8,53.59,47.31,23.97,0,23,16.82,nu,340A,D,283,Q3,0.96,Q3,90,Q3,0,-99999,-99999,1,0.33,18,0.561,18,Robinson_1994&Dowrick_Rhoades1998&HarvardCMT,0.054079649,0.054500793,0.055264477,0.056465664,0.058993797,0.066973548,0.079628283,0.111376,0.14800326,0.138461638,0.151428947,0.127332364,0.078764508,0.048186551,0.057801729,0.032191312,-99999,-99999,-99999,-99999,-99999,-99999,0.05829723,0.058662788,0.05997235,0.062199091,0.067060343,0.078140415,0.111871155,0.121503188,0.191854021,0.155278895,0.168796925,0.145590237,0.101335374,0.056585417,0.072718307,0.0401335,-99999,-99999,-99999,-99999,-99999,-99999,0.053732,0.058295,0.036687,0.044976
100789,1990-02-19T05:34:36.673000Z,D90029A2,6.24,0.08,Slab,N,1,209,72,-1.12E+02,special,-40.38,176.22,-39.6458,176.8429,6086791.59,2783346.23,6166127,2839726,13,13,97.36,100.01,90.89,93.52,-8.84,-96.72,0,23,16.82,nu,HCDS,D,182,Q2,>2,Q3,1000,Q3,0,-99999,-99999,0,0.17,11,0.289,11,Robinson_1994&Dowrick_Rhoades1998&HarvardCMT,0.039422253,0.039513879,0.0396732,0.039916213,0.040222697,0.041582773,0.043560001,0.065068191,0.079872161,0.075546198,0.099615813,0.123903571,0.095758068,0.093792099,0.074222508,0.038342178,0.020780281,0.011308458,-99999,-99999,-99999,-99999,0.044831753,0.044939806,0.045106888,0.045325065,0.045652955,0.047269679,0.048664567,0.073272802,0.097737497,0.086759443,0.124774667,0.144182038,0.120034766,0.112973066,0.08042976,0.04384876,0.022000264,0.012644057,-99999,-99999,-99999,-99999,0.039334,0.044829,0.046135,0.048753
100789,1990-02-19T05:34:36.673000Z,D90039E2,6.24,0.08,Slab,N,1,209,72,-1.12E+02,special,-40.38,176.22,-40.9483,175.6597,6086791.59,2783346.23,6025298,2733883,13,13,78.91,82.2,72.5,75.91,15.46,77.76,0,23,16.82,nu,039E,D,314,Q3,1,Q3,100,Q3,0,-99999,-99999,0,0.15,16.5,0.255,16.5,Robinson_1994&Dowrick_Rhoades1998&HarvardCMT,0.015473804,0.015666163,0.015934878,0.016352431,0.016930161,0.019333474,0.027579239,0.045335272,0.067545882,0.051041354,0.036943155,0.040949965,0.02598364,0.023516065,0.01731808,0.01538293,0.010091317,0.004738446,-99999,-99999,-99999,-99999,0.0187947,0.018948079,0.019192105,0.019558752,0.02005072,0.019891354,0.032248146,0.050688814,0.085023956,0.063254541,0.037956064,0.050554594,0.031815924,0.029838144,0.018823553,0.016781097,0.013108598,0.006593871,-99999,-99999,-99999,-99999,0.01547,0.018655,0.011163,0.013236
125056,1990-05-13T04:23:09.012999Z,A90032A2,6.39,0.08,Crustal,O,1,220,28,149,special,-40.35,176.23,-39.9425,176.5874,6090089.72,2784316.52,6134136,2816486,14.4,14.4,54.56,55.67,48.31,49.57,9.19,-54.42,0,11,8.07,nu,032A,C,495,Q3,0.13,Q3,10,Q3,0,-99999,-99999,0,0.25,12,0.425,12,Robinson_1994&Dowrick_Rhoades1998&HarvardCMT,0.191653394,0.192047163,0.192657246,0.193570825,0.194884416,0.200787387,0.217855798,0.364086946,0.47273095,0.591459241,0.58697009,0.560942934,0.544694177,0.230677063,0.096535698,0.048896549,0.029798041,-99999,-99999,-99999,-99999,-99999,0.247698316,0.248615177,0.250095918,0.252186514,0.254944986,0.263309419,0.264785333,0.454166289,0.532673543,0.708755644,0.793280259,0.616762854,0.666098939,0.280597645,0.134499994,0.061795962,0.035261765,-99999,-99999,-99999,-99999,-99999,0.19151,0.246938,0.136746,0.152172
125056,1990-05-13T04:23:09.012999Z,A90033C3,6.39,0.08,Crustal,O,1,220,28,149,special,-40.35,176.23,-40.2103,176.0955,6090089.72,2784316.52,6106003,2773437,14.4,14.4,19.28,22.3,13.71,19.56,24.08,-5.2,0,11,8.07,hw,033C,C,403,Q3,0.22,Q3,20,Q3,0,-99999,-99999,0,0.15,25,0.255,25,Robinson_1994&Dowrick_Rhoades1998&HarvardCMT,0.295835963,0.298182925,0.305002224,0.324309711,0.335855665,0.557489769,0.806402524,0.89213801,0.982872644,0.650473575,0.681503429,0.513911702,0.515927935,0.39283789,0.264150209,0.199268175,0.089709597,0.041343868,-99999,-99999,-99999,-99999,0.401628039,0.404377742,0.40950584,0.422994055,0.456175048,0.659377089,0.981552618,1.047292148,1.158711248,0.767032488,0.932728663,0.54189594,0.607501735,0.546426509,0.351111634,0.23729914,0.107199815,0.056665589,-99999,-99999,-99999,-99999,0.294788,0.401181,0.193359,0.2536
125056,1990-05-13T04:23:09.012999Z,A90087A2,6.39,0.08,Crustal,O,1,220,28,149,special,-40.35,176.23,-39.7163,175.1455,6090089.72,2784316.52,6163232,2693941,14.4,14.4,116.15,116.79,110.64,111.62,121.77,2.06,0,11,8.07,nu,087A,B,1000,Q3,<0.1,Q3,0,Q2,0,-99999,-99999,1,0.37,17,0.629,17,Robinson_1994&Dowrick_Rhoades1998&HarvardCMT,0.079120515,0.079503356,0.079981848,0.081008075,0.082346008,0.097249398,0.119574074,0.166676308,0.240781361,0.168826525,0.158802851,0.143188128,0.148708182,0.074334491,0.079069932,0.057877333,-99999,-99999,-99999,-99999,-99999,-99999,0.093197122,0.094100569,0.095596374,0.097899715,0.101415922,0.11827036,0.139299454,0.179339613,0.271965629,0.215723128,0.181379917,0.180215016,0.182504689,0.082370089,0.097048775,0.074998258,-99999,-99999,-99999,-99999,-99999,-99999,0.079003,0.092207,0.058432,0.076016
125056,1990-05-13T04:23:09.012999Z,A90102A2,6.39,0.08,Crustal,O,1,220,28,149,special,-40.35,176.23,-39.4637,175.5669,6090089.72,2784316.52,6190285,2730871,14.4,14.4,113.62,114.16,108,108.88,110.86,-42.4,0,11,8.07,nu,102A,C,555,Q3,0.15,Q3,12,Q3,0,-99999,-99999,1,0.3,10,0.51,10,Robinson_1994&Dowrick_Rhoades1998&HarvardCMT,0.042929254,0.043096656,0.043370608,0.043762184,0.044309271,0.046863125,0.054604329,0.109369506,0.085884882,0.088723749,0.07483083,0.133136468,0.116518207,0.083441153,0.071082931,0.024283419,-99999,-99999,-99999,-99999,-99999,-99999,0.050111698,0.050285283,0.050546846,0.050946622,0.051473717,0.053358752,0.05878461,0.124840256,0.100104879,0.10439375,0.092706832,0.170520274,0.133447519,0.104581282,0.074800755,0.027711504,-99999,-99999,-99999,-99999,-99999,-99999,0.042812,0.04997,0.037913,0.04199
125056,1990-05-13T04:23:09.012999Z,A90120A2,6.39,0.08,Crustal,O,1,220,28,149,special,-40.35,176.23,-40.335,175.8682,6090089.72,2784316.52,6092817,2753648,14.4,14.4,30.71,32.73,24.96,28.34,30.76,17.62,0,11,8.07,nu,120A,D,290,Q3,1.1,Q3,100,Q3,0,-99999,-99999,1,0.2,18,0.34,18,Robinson_1994&Dowrick_Rhoades1998&HarvardCMT,0.15599979,0.156424762,0.157134486,0.158218003,0.159890418,0.167045594,0.205986167,0.292314179,0.498656374,0.516731067,0.41735967,0.438937506,0.378160002,0.181657792,0.129363864,0.06583448,0.031541873,-99999,-99999,-99999,-99999,-99999,0.172070204,0.172963793,0.174420874,0.176427289,0.178720987,0.181239854,0.235199052,0.375518173,0.537662839,0.596269788,0.485772663,0.513175029,0.453701326,0.222582177,0.14239636,0.077019975,0.041512098,-99999,-99999,-99999,-99999,-99999,0.155832,0.172039,0.109383,0.123406
125056,1990-05-13T04:23:09.012999Z,A90340A3,6.39,0.08,Crustal,O,1,220,28,149,special,-40.35,176.23,-40.3863,175.6165,6090089.72,2784316.52,6087788,2732102,14.4,14.4,52.13,53.42,46.29,48.19,44.04,35.33,0,11,8.07,nu,340A,D,283,Q3,0.96,Q3,90,Q3,0,-99999,-99999,1,0.5,17,0.85,17,Robinson_1994&Dowrick_Rhoades1998&HarvardCMT,0.044934685,0.045086174,0.045355069,0.045828629,0.046429197,0.056959414,0.069228258,0.105013617,0.1437882,0.120188333,0.106355068,0.112033526,0.073682274,0.046710677,0.03912568,-99999,-99999,-99999,-99999,-99999,-99999,-99999,0.057982298,0.058345232,0.058960687,0.059750985,0.060567137,0.070323868,0.075764273,0.140836989,0.159559764,0.148213784,0.126398602,0.122228623,0.092364561,0.061865808,0.044771275,-99999,-99999,-99999,-99999,-99999,-99999,-99999,0.044742,0.0576,0.031249,0.035342
125056,1990-05-13T04:23:09.012999Z,D90029A3,6.39,0.08,Crustal,O,1,220,28,149,special,-40.35,176.23,-39.6458,176.8429,6090089.72,2784316.52,6166127,2839726,14.4,14.4,94.11,94.73,87.86,88.54,11.95,-93.86,0,11,8.07,nu,HCDS,D,182,Q2,>2,Q3,1000,Q3,0,-99999,-99999,0,0.14,10.6,0.238,10.6,Robinson_1994&Dowrick_Rhoades1998&HarvardCMT,0.04984407,0.049945402,0.050105136,0.050346028,0.050641716,0.05166952,0.059956144,0.068190381,0.096543051,0.093680964,0.152307213,0.182876518,0.157825734,0.128464224,0.101154975,0.054727837,0.051527953,0.027377224,0.017919903,-99999,-99999,-99999,0.060750148,0.060884195,0.061110543,0.061427848,0.061847652,0.063451861,0.067269554,0.087562623,0.102482703,0.100849779,0.173863787,0.237232434,0.180496521,0.175615466,0.112538071,0.07235655,0.066227642,0.032283558,0.024741296,-99999,-99999,-99999,0.049794,0.060752,0.076501,0.104498
125056,1990-05-13T04:23:09.012999Z,D90039E3,6.39,0.08,Crustal,O,1,220,28,149,special,-40.35,176.23,-40.9483,175.6597,6090089.72,2784316.52,6025298,2733883,14.4,14.4,82.1,82.84,75.85,76.63,2.51,82.05,0,11,8.07,nu,039E,D,314,Q3,1,Q3,100,Q3,0,-99999,-99999,0,0.2,10,0.34,10,Robinson_1994&Dowrick_Rhoades1998&HarvardCMT,0.026924758,0.026990799,0.027060848,0.027154118,0.027324265,0.027708019,0.035320966,0.045377587,0.069896495,0.061543838,0.053975091,0.06705105,0.06480184,0.059749404,0.034286054,0.025520099,0.014341565,-99999,-99999,-99999,-99999,-99999,0.030640555,0.030763419,0.030985706,0.03129128,0.031706888,0.03357967,0.04522256,0.052143721,0.07906669,0.06640801,0.066082267,0.090866159,0.083357536,0.083059462,0.041492544,0.033444677,0.0156269,-99999,-99999,-99999,-99999,-99999,0.026912,0.030638,0.031591,0.037909
125056,1990-05-13T04:23:09.012999Z,D90302A2,6.39,0.08,Crustal,O,1,220,28,149,special,-40.35,176.23,-39.9338,175.053,6090089.72,2784316.52,6139282,2685450,14.4,14.4,110.24,110.98,104.69,105.78,112.87,25.87,0,11,8.07,nu,302A,D,250,Q2,0.8,Q3,80,Q3,0,-99999,-99999,0,0.19,12,0.323,12,Robinson_1994&Dowrick_Rhoades1998&HarvardCMT,0.049214496,0.049329719,0.049534191,0.049837475,0.050263427,0.052171036,0.055097899,0.07476859,0.083347023,0.089186835,0.11167247,0.104857443,0.090633308,0.061707417,0.066970841,0.047579162,0.023848363,0.012326679,-99999,-99999,-99999,-99999,0.066441404,0.066534236,0.066687003,0.06689603,0.067200624,0.068021043,0.068795344,0.082209191,0.096518055,0.119038442,0.122686426,0.142703938,0.107100387,0.076071745,0.087411469,0.055717472,0.027986854,0.013207243,-99999,-99999,-99999,-99999,0.049166,0.066443,0.04682,0.062416
125056,1990-05-13T04:23:09.012999Z,D90642E4,6.39,0.08,Crustal,O,1,220,28,149,special,-40.35,176.23,-41.2341,174.918,6090089.72,2784316.52,5995197,2670758,14.4,14.4,147.86,148.4,141.64,142.22,31.51,145.69,0,11,8.07,nu,642E,C,350,Q1,0.35,Q2,50,Q3,0,-99999,-99999,1,0.25,10,0.425,10,Robinson_1994&Dowrick_Rhoades1998&HarvardCMT,0.018864286,0.018937627,0.019093575,0.019276895,0.019546176,0.020677788,0.023931083,0.042726231,0.058136675,0.058238843,0.073464562,0.043407434,0.041140123,0.019504946,0.009984851,0.004528752,0.003338575,-99999,-99999,-99999,-99999,-99999,0.024807497,0.024949025,0.025154943,0.025461128,0.025866296,0.02729838,0.030659259,0.05982092,0.07129691,0.07354333,0.084643826,0.060617784,0.045833703,0.020967138,0.013609697,0.006102986,0.004647059,-99999,-99999,-99999,-99999,-99999,0.018788,0.024775,0.012752,0.014581
125056,1990-05-13T04:23:09.012999Z,D90941A1,6.39,0.08,Crustal,O,1,220,28,149,special,-40.35,176.23,-41.2921,174.779,6090089.72,2784316.52,5989003,2658976,14.4,14.4,160.88,161.4,154.66,155.22,36.56,158,0,11,8.07,nu,941A,D,272,Q2,0.85,Q2,9.85E+01,Q2,0,-99999,-99999,1,0.25,10,0.425,10,Robinson_1994&Dowrick_Rhoades1998&HarvardCMT,0.012226711,0.012237094,0.012277818,0.012302439,0.012344124,0.012511374,0.013404329,0.017939077,0.0236032,0.027360983,0.027589636,0.031892591,0.0352817,0.040047624,0.029775685,0.011658444,0.006993125,-99999,-99999,-99999,-99999,-99999,0.013631573,0.013667482,0.013703377,0.013738423,0.013834476,0.014135104,0.014479968,0.020274541,0.02563054,0.030702251,0.031345449,0.034119696,0.041645468,0.048357377,0.033674178,0.016270155,0.007304006,-99999,-99999,-99999,-99999,-99999,0.012219,0.013631,0.013685,0.015876
164529,1990-10-04T23:48:26.123000Z,D90606B5,5.57,0.15,Interface,O,1,190,21,58,special,-41.61,175.44,-41.2333,174.9199,5952370.8,2713346.37,5995282,2670919,7.6,7.6,60.3,61.9,58.15,59.96,51.33,-34.89,0,13.8,12.99,nu,606B,B,800,Q3,<0.1,Q3,0,Q3,0,-99999,-99999,0,0.4,12,0.68,12,HarvardCMT&Luo(1992),0.013749281,0.013862207,0.014086014,0.014411544,0.014847379,0.017584187,0.021405052,0.044713244,0.035659339,0.026123546,0.035314685,0.031339669,0.023837176,0.012741796,0.015473663,-99999,-99999,-99999,-99999,-99999,-99999,-99999,0.018029107,0.018206212,0.018517862,0.018960517,0.01961433,0.023679846,0.026378465,0.061471992,0.045218408,0.031440253,0.047733568,0.043821337,0.027485945,0.016744195,0.017390975,-99999,-99999,-99999,-99999,-99999,-99999,-99999,0.013701,0.018028,0.009334,0.010354
164529,1990-10-04T23:48:26.123000Z,D90642E8,5.57,0.15,Interface,O,1,190,21,58,special,-41.61,175.44,-41.2341,174.918,5952370.8,2713346.37,5995197,2670758,7.6,7.6,60.35,61.96,58.2,60.01,51.48,-34.78,0,13.8,12.99,nu,642E,C,350,Q1,0.35,Q2,50,Q3,0,-99999,-99999,0,0.4,13,0.68,13,HarvardCMT&Luo(1992),0.037692594,0.037893577,0.038154328,0.038591035,0.039093921,0.041900169,0.0450257,0.073853439,0.085080251,0.087394114,0.151057701,0.117089795,0.09947165,0.025838544,0.022621254,-99999,-99999,-99999,-99999,-99999,-99999,-99999,0.042374265,0.042573351,0.042881747,0.043372335,0.04402528,0.050919124,0.049924199,0.0983885,0.109723052,0.107428696,0.180986154,0.155336626,0.137464211,0.031100784,0.030900724,-99999,-99999,-99999,-99999,-99999,-99999,-99999,0.037615,0.042374,0.022462,0.02414
164529,1990-10-04T23:48:26.123000Z,D90900B5,5.57,0.15,Interface,O,1,190,21,58,special,-41.61,175.44,-41.2921,174.779,5952370.8,2713346.37,5989003,2658976,7.6,7.6,65.46,67,63.34,65.08,62.01,-26.63,0,13.8,12.99,nu,941A,D,272,Q2,0.85,Q2,9.85E+01,Q2,0,-99999,-99999,0,0.4,11.5,0.68,11.5,HarvardCMT&Luo(1992),0.022650938,0.022707955,0.022825658,0.023014538,0.023254619,0.024163159,0.025506248,0.047328679,0.04976124,0.048369458,0.052980215,0.058050874,0.070970395,0.054852834,0.040027847,-99999,-99999,-99999,-99999,-99999,-99999,-99999,0.025337727,0.025410381,0.025521579,0.025691882,0.025938996,0.02725111,0.02629209,0.053981737,0.05321728,0.050902481,0.05921047,0.076079139,0.10037534,0.061084943,0.043930898,-99999,-99999,-99999,-99999,-99999,-99999,-99999,0.02265,0.025338,0.022889,0.025328
