CuspID,Origin_time,Record,Mw,MwUncert,TectClass,Mech,PreferredFaultPlane,Strike,Dip,Rake,Location,HypLat,HypLon,StationLat,StationLon,HypN,HypE,StationN,StationE,LENGTH_km,WIDTH_km,Repi_km,Rhyp_km,Rjb_km,Rrup_km,Rx_km,Ry_km,Rvol_km,HypDepth_km,ZTOR_km,HWFW,SiteCode,SiteClass1170,Vs30,Vs30Uncert,Tsite,TsiteUncert,Z1,Z1Uncertainty,Directivity,Pulse_or,Pulse_T,S_Trigger_Flag,fcButterHP,f_iniLP,fmin,fmax,References,f100.0000SA_RotD50,f50.0000SA_RotD50,f33.3333SA_RotD50,f25.0000SA_RotD50,f20.0000SA_RotD50,f13.3333SA_RotD50,f10.0000SA_RotD50,f6.6667SA_RotD50,f5.0000SA_RotD50,f4.0000SA_RotD50,f3.3333SA_RotD50,f2.5000SA_RotD50,f2.0000SA_RotD50,f1.3333SA_RotD50,f1.0000SA_RotD50,f0.6667SA_RotD50,f0.5000SA_RotD50,f0.3333SA_RotD50,f0.2500SA_RotD50,f0.2000SA_RotD50,f0.1333SA_RotD50,f0.1000SA_RotD50,f100.0000SA_RotD100,f50.0000SA_RotD100,f33.3333SA_RotD100,f25.0000SA_RotD100,f20.0000SA_RotD100,f13.3333SA_RotD100,f10.0000SA_RotD100,f6.6667SA_RotD100,f5.0000SA_RotD100,f4.0000SA_RotD100,f3.3333SA_RotD100,f2.5000SA_RotD100,f2.0000SA_RotD100,f1.3333SA_RotD100,f1.0000SA_RotD100,f0.6667SA_RotD100,f0.5000SA_RotD100,f0.3333SA_RotD100,f0.2500SA_RotD100,f0.2000SA_RotD100,f0.1333SA_RotD100,f0.1000SA_RotD100,PGA_RotD50,PGA_RotD100,PGV_RotD50,PGV_RotD100
608810,1994-06-18T03:25:13.819000Z,D94042A1,6.72,0.08,Crustal,R,1,221,47,112,geonet,-43.0078,171.4762,-42.5232,172.8305,5798820.69,2385786.14,5853765,2496076,21.06,21.06,122.98,123.31,115.46,115.74,-43.1,-113.82,0,4.27,1,nu,HSES,D,280,Q3,0.9,Q1,85,Q3,0,-99999,-99999,1,0.25,10,0.425,10,Abercrombie_etal_2000&HarvardCMT,0.015482262,0.015498879,0.015506137,0.01556174,0.015579424,0.015667674,0.01718391,0.021635705,0.023879705,0.031289129,0.035383913,0.03825469,0.045756111,0.112304538,0.03600963,0.017767782,0.022279669,-99999,-99999,-99999,-99999,-99999,0.017202326,0.017244645,0.01722868,0.017258668,0.017286101,0.017363404,0.020197174,0.022838542,0.028606999,0.037510779,0.038261445,0.049704089,0.058418425,0.133433233,0.038697381,0.023829131,0.030471294,-99999,-99999,-99999,-99999,-99999,0.015473,0.017197,0.019453,0.022497
608810,1994-06-18T03:25:13.819000Z,D94044A1b,6.72,0.08,Crustal,R,1,221,47,112,geonet,-43.0078,171.4762,-45.8986,170.5097,5798820.69,2385786.14,5475848,2316608,21.06,21.06,330.46,330.33,323.2,323.05,-155.59,289.14,0,4.27,1,nu,SKFS,D,140,Q2,0.8,Q3,25,Q3,0,-99999,-99999,1,0.2,10,0.34,10,Abercrombie_etal_2000&HarvardCMT,0.013960861,0.013999318,0.014003626,0.014055301,0.014094403,0.014306311,0.015721961,0.017496891,0.022799291,0.030572187,0.032177724,0.0291297,0.071074347,0.125840203,0.053305827,0.023118789,0.009562479,-99999,-99999,-99999,-99999,-99999,0.015707636,0.015709739,0.015758044,0.015778238,0.015781498,0.015886841,0.016779753,0.020993136,0.025529111,0.037287637,0.04112907,0.03091383,0.100313763,0.14713201,0.071298982,0.026198216,0.010621856,-99999,-99999,-99999,-99999,-99999,0.013958,0.015708,0.018737,0.02038
608810,1994-06-18T03:25:13.819000Z,D94051D1,6.72,0.08,Crustal,R,1,221,47,112,geonet,-43.0078,171.4762,-41.7557,171.5998,5798820.69,2385786.14,5938069,2393545,21.06,21.06,139.6,139.53,132.84,132.84,89.59,-110.18,0,4.27,1,nu,WBCS,D,300,Q3,1.2,Q2,105,Q3,0,-99999,-99999,0,0.25,20,0.425,20,Abercrombie_etal_2000&HarvardCMT,0.045901306,0.046190312,0.046556976,0.047070316,0.060110021,0.123459274,0.128559705,0.16672598,0.163585586,0.153721583,0.19259682,0.146418096,0.172828736,0.234133253,0.12153412,0.056861669,0.056423459,-99999,-99999,-99999,-99999,-99999,0.058166703,0.058547413,0.059305793,0.060826759,0.064695897,0.170253859,0.136785498,0.192711952,0.209603903,0.190965968,0.263802631,0.173926108,0.226836261,0.288763717,0.133021325,0.069973454,0.066939692,-99999,-99999,-99999,-99999,-99999,0.045551,0.058169,0.050876,0.058746
608810,1994-06-18T03:25:13.819000Z,D94054A3,6.72,0.08,Crustal,R,1,221,47,112,geonet,-43.0078,171.4762,-43.883,169.0441,5798820.69,2385786.14,5695156,2192230,21.06,21.06,219.12,219.61,211.53,212.02,82.16,205.22,0,4.27,1,nu,HDWS,D,210,Q3,0.87,Q1,100,Q3,0,-99999,-99999,1,0.3,11,0.51,11,Abercrombie_etal_2000&HarvardCMT,0.014427355,0.014515715,0.014660878,0.014949553,0.015306,0.017194368,0.034592567,0.048706014,0.047376506,0.078119474,0.07687976,0.063867269,0.055372543,0.052673589,0.03774741,0.012633434,-99999,-99999,-99999,-99999,-99999,-99999,0.019527395,0.019617511,0.019848053,0.020158422,0.020537879,0.022509782,0.037246054,0.052684258,0.054731722,0.102706291,0.104599245,0.082767524,0.063961275,0.056417569,0.051478844,0.015622739,-99999,-99999,-99999,-99999,-99999,-99999,0.014384,0.01943,0.01289,0.014801
608810,1994-06-18T03:25:13.819000Z,D94129A2,6.72,0.08,Crustal,R,1,221,47,112,geonet,-43.0078,171.4762,-41.7999,172.328,5798820.69,2385786.14,5933893,2454147,21.06,21.06,151.43,151.45,143.62,143.66,41.11,-146.79,0,4.27,1,nu,MCAS,D,501,Q3,1.6,Q3,200,Q3,0,-99999,-99999,0,0.1,13,0.17,13,Abercrombie_etal_2000&HarvardCMT,0.027196544,0.027353063,0.027597783,0.027934509,0.028407345,0.044141771,0.054597094,0.114511711,0.120681342,0.137864026,0.124872976,0.159025123,0.151020902,0.076082663,0.096155182,0.041194827,0.059515826,0.017262133,0.006457986,0.005799301,-99999,-99999,0.029466714,0.02958879,0.029862286,0.030265214,0.030963447,0.047182479,0.059858811,0.144497776,0.144733141,0.150510828,0.145274871,0.184919264,0.183669524,0.081879616,0.115478755,0.053188813,0.077562979,0.022477667,0.007646637,0.007561495,-99999,-99999,0.027166,0.029349,0.027983,0.029524
608810,1994-06-18T03:25:13.819000Z,K94112A1,6.72,0.08,Crustal,R,1,221,47,112,geonet,-43.0078,171.4762,-43.1325,171.7693,5798820.69,2385786.14,5785358,2409884,21.06,21.06,27.55,28.04,23.3,23.35,-22.93,-5.65,0,4.27,1,fw,112B,C,667,Q3,0.36,Q3,60,Q3,0,-99999,-99999,1,0.35,18,0.595,18,Abercrombie_etal_2000&HarvardCMT,0.134155039,0.135061081,0.136654714,0.139381586,0.144788725,0.221071412,0.337011261,0.439086365,0.464635297,0.575411098,0.566522063,0.257427016,0.316079433,0.196183269,0.115812133,0.05274514,-99999,-99999,-99999,-99999,-99999,-99999,0.14788537,0.148398042,0.149192195,0.15102426,0.158288252,0.254580771,0.453022609,0.46225223,0.54554637,0.711670147,0.711259341,0.320135492,0.413531866,0.243072399,0.13995601,0.058624842,-99999,-99999,-99999,-99999,-99999,-99999,0.133497,0.147884,0.080934,0.108476
697172,1994-12-15T11:20:17.858000Z,K5113A01,6.31,0.15,Crustal,S,0,194,77,-1.61E+02,geonet,-37.1987,177.528,-37.8735,177.5847,6434683.68,2912134.85,6359624,2913365,13.1,13.1,75.2,76.03,70.88,72.17,-99999,-99999,10,12,5.68,nu,113A,C,522,Q3,0.15,Q3,10,Q3,0,-99999,-99999,1,0.5,11,0.85,11,HarvardCMT,0.080155378,0.080639387,0.081334751,0.082379015,0.08377029,0.088796074,0.119195152,0.208922593,0.505065641,0.54966123,0.254644423,0.210900047,0.099339448,0.032287919,0.034843026,-99999,-99999,-99999,-99999,-99999,-99999,-99999,0.08782098,0.088219266,0.088779984,0.089684554,0.090814758,0.096606223,0.146478794,0.224462158,0.598830529,0.712122056,0.319233583,0.271045787,0.110096401,0.0423216,0.038140344,-99999,-99999,-99999,-99999,-99999,-99999,-99999,0.079917,0.087819,0.035922,0.044695
731516,1995-02-05T22:51:04.665000Z,D5016A02,7.09,0.15,Crustal,N,0,215,58,-9.00E+01,geonet,-37.6496,179.4886,-38.6774,178.031,6374193.93,3082358.22,6268431,2947608,32.2,32.2,171.17,171.73,155.42,156.01,-99999,-99999,0,12,1.73,nu,016A,C,480,Q3,0.15,Q3,10,Q3,0,-99999,-99999,0,0.35,14,0.595,14,HarvardCMT,0.019708681,0.019793597,0.019902661,0.020114879,0.020465111,0.027721395,0.033032647,0.066129798,0.064735647,0.064951842,0.093840263,0.080604167,0.097052162,0.090997814,0.043584323,0.020873866,-99999,-99999,-99999,-99999,-99999,-99999,0.022115478,0.022191124,0.022342515,0.022531589,0.022799163,0.033502769,0.038568978,0.086804477,0.074440087,0.073427127,0.114263686,0.094346292,0.120636318,0.101817319,0.049397371,0.028575968,-99999,-99999,-99999,-99999,-99999,-99999,0.019614,0.022096,0.013599,0.015489
731516,1995-02-05T22:51:04.665000Z,D5017A02,7.09,0.15,Crustal,N,0,215,58,-9.00E+01,geonet,-37.6496,179.4886,-38.6665,178.0227,6374193.93,3082358.22,6269685,2946952,32.2,32.2,170.91,171.47,155.18,155.77,-99999,-99999,0,12,1.73,nu,GISS,D,138,Q2,1,Q1,40,Q3,0,-99999,-99999,0,0.18,12,0.306,12,HarvardCMT,0.022679081,0.022755418,0.022822148,0.02300769,0.0231804,0.024156789,0.035191036,0.065922747,0.110114307,0.073519471,0.100106537,0.083006392,0.102755769,0.087659167,0.083656175,0.031303778,0.0108174,0.006787833,-99999,-99999,-99999,-99999,0.026673508,0.026761567,0.026826556,0.026989096,0.027185003,0.028026506,0.041645653,0.069252048,0.136220502,0.084284589,0.116045697,0.116297494,0.122469521,0.114494103,0.094663341,0.034718834,0.012443317,0.008646359,-99999,-99999,-99999,-99999,0.022668,0.026673,0.023536,0.028064
731516,1995-02-05T22:51:04.665000Z,D5709A03,7.09,0.15,Crustal,N,0,215,58,-9.00E+01,geonet,-37.6496,179.4886,-38.6257,177.9216,6374193.93,3082358.22,6274694,2938413,32.2,32.2,174.82,175.4,159.22,159.85,-99999,-99999,0,12,1.73,nu,GWTS,D,245,Q3,1.5,Q3,125,Q3,0,-99999,-99999,0,0.15,10,0.255,10,HarvardCMT,0.021732729,0.021769623,0.021815779,0.02182957,0.021860781,0.021953717,0.024106351,0.037915914,0.052031567,0.066732902,0.062700975,0.065976194,0.091398097,0.103319912,0.090030744,0.103023269,0.080501696,0.036025386,-99999,-99999,-99999,-99999,0.023720946,0.023758545,0.023828941,0.023921231,0.024058351,0.024587311,0.027482552,0.043841079,0.060731736,0.080490347,0.076597524,0.087759128,0.107028671,0.126155139,0.112185025,0.128797551,0.106616759,0.047413845,-99999,-99999,-99999,-99999,0.021733,0.023696,0.047036,0.051666
731516,1995-02-05T22:51:04.665000Z,D5712A03,7.09,0.15,Crustal,N,0,215,58,-9.00E+01,geonet,-37.6496,179.4886,-37.9615,176.9855,6374193.93,3082358.22,6352382,2860270,32.2,32.2,222.62,223.48,209.17,210.15,-99999,-99999,0,12,1.73,nu,WKHS,D,210,Q3,0.71,Q2,100,Q3,0,-99999,-99999,0,0.25,12,0.425,12,HarvardCMT,0.017438328,0.017473621,0.017534752,0.017693822,0.017982582,0.0196179,0.029230112,0.059846155,0.047191742,0.046928796,0.062944316,0.05424816,0.101404769,0.073473712,0.02925165,0.016885874,0.008601418,-99999,-99999,-99999,-99999,-99999,0.018992365,0.019042983,0.019110285,0.01917145,0.019365069,0.021562762,0.032591037,0.071438336,0.059124566,0.052472883,0.084691481,0.058494779,0.130831551,0.095053191,0.03161042,0.020085955,0.011526158,-99999,-99999,-99999,-99999,-99999,0.017383,0.01896,0.01429,0.016299
731516,1995-02-05T22:51:04.665000Z,K5113A02,7.09,0.15,Crustal,N,0,215,58,-9.00E+01,geonet,-37.6496,179.4886,-37.8735,177.5847,6374193.93,3082358.22,6359624,2913365,32.2,32.2,169.2,170.05,155.84,156.86,-99999,-99999,0,12,1.73,nu,113A,C,522,Q3,0.15,Q3,10,Q3,0,-99999,-99999,1,0.4,11,0.68,11,HarvardCMT,0.03857381,0.038817545,0.039192578,0.039778505,0.040557879,0.043677713,0.061598249,0.115698554,0.281054453,0.479175606,0.21534256,0.115067492,0.088789053,0.045165526,0.022413296,-99999,-99999,-99999,-99999,-99999,-99999,-99999,0.041674309,0.041880611,0.042250269,0.042799388,0.043476158,0.047019944,0.074723237,0.130307326,0.341741945,0.576227142,0.227216461,0.128558299,0.111144025,0.05941603,0.029032098,-99999,-99999,-99999,-99999,-99999,-99999,-99999,0.038456,0.041675,0.017797,0.020876
721911,1995-02-10T01:44:56.764000Z,D5016A04,6.49,0.15,Crustal,N,0,220,41,-7.80E+01,irisdmc,-38.1086,178.6757,-38.6774,178.031,6344659.25,3005555.26,6268431,2947608,16.2,16.2,84.6,96.52,87.77,88.47,-99999,-99999,0,12,6.26,nu,016A,C,480,Q3,0.15,Q3,10,Q3,0,-99999,-99999,1,0.3,10,0.51,10,HarvardCMT,0.013070551,0.013103134,0.013160576,0.013276911,0.013360929,0.013864746,0.022905815,0.039947748,0.052350483,0.043176472,0.069933064,0.065248726,0.099908138,0.069723247,0.03961391,0.020444189,-99999,-99999,-99999,-99999,-99999,-99999,0.015125184,0.015180282,0.01526735,0.015372059,0.015524772,0.016115051,0.031660498,0.047249538,0.057466723,0.047532007,0.079937319,0.06722266,0.134031925,0.075491401,0.049810149,0.022791408,-99999,-99999,-99999,-99999,-99999,-99999,0.01307,0.015125,0.011199,0.012434
721911,1995-02-10T01:44:56.764000Z,D5017A03,6.49,0.15,Crustal,N,0,220,41,-7.80E+01,irisdmc,-38.1086,178.6757,-38.6665,178.0227,6344659.25,3005555.26,6269685,2946952,16.2,16.2,84.19,95.91,87.18,87.87,-99999,-99999,0,12,6.26,nu,GISS,D,138,Q2,1,Q1,40,Q3,0,-99999,-99999,1,0.2,10,0.34,10,HarvardCMT,0.015887342,0.015935645,0.016023625,0.016110436,0.016256841,0.016922523,0.02028797,0.037870729,0.052588628,0.0629184,0.094637934,0.062042743,0.088637355,0.085189869,0.048799358,0.025701039,0.010466061,-99999,-99999,-99999,-99999,-99999,0.020426522,0.020442155,0.020472601,0.020575511,0.020670625,0.02102056,0.025456298,0.040499745,0.05802397,0.083768392,0.122651468,0.075267351,0.10003208,0.09508152,0.054277942,0.034985237,0.013230107,-99999,-99999,-99999,-99999,-99999,0.015846,0.020389,0.017052,0.020424
722185,1995-03-22T19:43:30.268000Z,D5040A01,5.83,0.15,Slab,S,0,27,64,30,nlloc,-41.0514,174.216,-41.5763,175.2269,6016538.56,2612205.51,5956588,2695679,7.6,7.6,102.64,133.7,100.01,131.33,-99999,-99999,0,85.51,82.13,nu,040A,B,770,Q3,0.08,Q3,7,Q3,0,-99999,-99999,1,0.25,22,0.425,22,HarvardCMT,0.022539089,0.023204473,0.024565587,0.027278065,0.048715021,0.08247513,0.126653405,0.074515161,0.07950042,0.07008984,0.049934552,0.022114278,0.024932606,0.01252615,0.008205805,0.004822115,0.003285978,-99999,-99999,-99999,-99999,-99999,0.027216903,0.027966422,0.029580855,0.033681963,0.068485901,0.102222429,0.179114303,0.095282768,0.086151955,0.097604288,0.06837837,0.028493726,0.029167071,0.016277084,0.009598834,0.006740909,0.004190346,-99999,-99999,-99999,-99999,-99999,0.022443,0.026833,0.006984,0.007547
722185,1995-03-22T19:43:30.268000Z,D5050A02,5.83,0.15,Slab,S,0,27,64,30,nlloc,-41.0514,174.216,-41.1247,173.0095,6016538.56,2612205.51,6009109,2510784,7.6,7.6,101.44,132.87,98.42,129.2,-99999,-99999,0,85.51,82.13,nu,MOTS,D,300,Q3,1.27,Q3,300,Q3,0,-99999,-99999,0,0.3,25,0.51,25,HarvardCMT,0.075011777,0.076028113,0.078330123,0.098886383,0.140840971,0.249553635,0.299873193,0.279947107,0.472651654,0.478212076,0.418223335,0.236481898,0.118246599,0.034307541,0.01635067,0.015447746,-99999,-99999,-99999,-99999,-99999,-99999,0.081437986,0.082130296,0.083263249,0.106731135,0.150710781,0.271975945,0.343125528,0.370351026,0.552738745,0.532074948,0.562407869,0.313162621,0.152938291,0.043604888,0.021005985,0.020691082,-99999,-99999,-99999,-99999,-99999,-99999,0.074658,0.081151,0.031704,0.038098
722185,1995-03-22T19:43:30.268000Z,D5056A02,5.83,0.15,Slab,S,0,27,64,30,nlloc,-41.0514,174.216,-41.2758,173.2851,6016538.56,2612205.51,5992292,2533876,7.6,7.6,81.82,118.48,78.7,114.72,-99999,-99999,0,85.51,82.13,nu,056A,B,450,Q3,0.07,Q3,5,Q3,0,-99999,-99999,0,0.3,15,0.51,15,HarvardCMT,0.204388769,0.205858157,0.208374365,0.212153446,0.217693257,0.305466935,0.320990119,0.685553346,0.532477428,0.939869722,0.827333784,0.331894034,0.167472608,0.094650509,0.0267709,0.01585802,-99999,-99999,-99999,-99999,-99999,-99999,0.257175466,0.258979207,0.262172365,0.26740551,0.275192719,0.382187285,0.390530533,0.928606906,0.753111328,1.31449373,1.134581852,0.427880226,0.234832935,0.126793479,0.033793306,0.022336094,-99999,-99999,-99999,-99999,-99999,-99999,0.203401,0.256838,0.086241,0.109037
722185,1995-03-22T19:43:30.268000Z,D5129A01,5.83,0.15,Slab,S,0,27,64,30,nlloc,-41.0514,174.216,-41.7999,172.328,6016538.56,2612205.51,5933893,2454147,7.6,7.6,178.06,197.87,174.9,194.27,-99999,-99999,0,85.51,82.13,nu,MCAS,D,501,Q3,1.6,Q3,200,Q3,0,-99999,-99999,0,0.3,17,0.51,17,HarvardCMT,0.032923806,0.033271202,0.033899487,0.034784548,0.036286218,0.051316152,0.104964426,0.135938281,0.253048304,0.172704722,0.128925792,0.101954634,0.06820607,0.044806801,0.062518496,0.01926333,-99999,-99999,-99999,-99999,-99999,-99999,0.041475938,0.041855136,0.042464258,0.043422484,0.045001287,0.063934692,0.126693767,0.147995058,0.350029225,0.238191582,0.177607394,0.128185692,0.087676424,0.052323957,0.070074763,0.020691146,-99999,-99999,-99999,-99999,-99999,-99999,0.032924,0.041474,0.019706,0.021382
722185,1995-03-22T19:43:30.268000Z,D5130B01,5.83,0.15,Slab,S,0,27,64,30,nlloc,-41.0514,174.216,-41.6696,173.2029,6016538.56,2612205.51,5948576,2526890,7.6,7.6,108.97,138.82,105.86,135.11,-99999,-99999,0,85.51,82.13,nu,130B,D,367,Q3,0.85,Q3,100,Q3,0,-99999,-99999,1,0.4,24,0.68,24,HarvardCMT,0.020813266,0.02161473,0.023179822,0.031029207,0.067468918,0.112891584,0.101880895,0.083168568,0.055247578,0.079077535,0.077173695,0.047964213,0.01852084,0.018843212,0.00785071,-99999,-99999,-99999,-99999,-99999,-99999,-99999,0.023105193,0.024053439,0.025964688,0.032980535,0.081986923,0.140139988,0.106877101,0.094968534,0.066289446,0.099056297,0.104088666,0.0627014,0.023653076,0.025908466,0.010319719,-99999,-99999,-99999,-99999,-99999,-99999,-99999,0.020729,0.023068,0.007133,0.008654
722185,1995-03-22T19:43:30.268000Z,D5131A06,5.83,0.15,Slab,S,0,27,64,30,nlloc,-41.0514,174.216,-40.9143,175.005,6016538.56,2612205.51,6030534,2678862,7.6,7.6,67.96,109.33,64.87,106.63,-99999,-99999,0,85.51,82.13,nu,PAPS,D,200,Q3,1.4,Q1,100,Q3,0,-99999,-99999,0,0.45,18,0.765,18,HarvardCMT,0.062972237,0.06415566,0.066251453,0.069822606,0.077194707,0.161173789,0.265190784,0.271111036,0.228413473,0.247151042,0.171908238,0.164707168,0.099666795,0.047727488,0.036413756,-99999,-99999,-99999,-99999,-99999,-99999,-99999,0.082812493,0.084203102,0.086588053,0.090399127,0.09585419,0.174891324,0.353003998,0.33199738,0.304745979,0.349319742,0.227986552,0.203128851,0.110877817,0.057065193,0.048370285,-99999,-99999,-99999,-99999,-99999,-99999,-99999,0.062974,0.080919,0.023458,0.025778
722185,1995-03-22T19:43:30.268000Z,D5132A05,5.83,0.15,Slab,S,0,27,64,30,nlloc,-41.0514,174.216,-41.2975,174.781,6016538.56,2612205.51,5988401,2659132,7.6,7.6,54.63,101.53,52,98.73,-99999,-99999,0,85.51,82.13,nu,132A,C,245,Q2,0.47,Q2,27,Q2,0,-99999,-99999,0,0.3,15,0.51,15,HarvardCMT,0.053641615,0.054300533,0.055461204,0.057176459,0.059776314,0.102324238,0.201385744,0.371471051,0.179069182,0.186063602,0.158311101,0.167313502,0.153565876,0.054936189,0.016507124,0.013628326,-99999,-99999,-99999,-99999,-99999,-99999,0.064257875,0.065252659,0.066917271,0.069561008,0.073453755,0.127362871,0.284766756,0.503431821,0.226785902,0.235600043,0.190874666,0.193841999,0.212168505,0.063847714,0.018206441,0.016911237,-99999,-99999,-99999,-99999,-99999,-99999,0.053645,0.064267,0.022839,0.02753
722185,1995-03-22T19:43:30.268000Z,D5302A03,5.83,0.15,Slab,S,0,27,64,30,nlloc,-41.0514,174.216,-39.9338,175.053,6016538.56,2612205.51,6139282,2685450,7.6,7.6,143.02,166.57,140.12,164.23,-99999,-99999,0,85.51,82.13,nu,302A,D,250,Q2,0.8,Q3,80,Q3,0,-99999,-99999,0,0.4,18,0.68,18,HarvardCMT,0.030160843,0.030584066,0.031398242,0.03267776,0.035306638,0.06130754,0.151922978,0.161950643,0.116401356,0.142407665,0.13332336,0.156927721,0.125814027,0.062919371,0.025222481,-99999,-99999,-99999,-99999,-99999,-99999,-99999,0.034817825,0.03521391,0.035938385,0.037117145,0.03822252,0.065860197,0.185372282,0.205430997,0.148286443,0.177465604,0.149089141,0.18382048,0.140364683,0.079204565,0.02799873,-99999,-99999,-99999,-99999,-99999,-99999,-99999,0.030144,0.034818,0.01655,0.019803
722185,1995-03-22T19:43:30.268000Z,D5643B07,5.83,0.15,Slab,S,0,27,64,30,nlloc,-41.0514,174.216,-41.1513,174.9794,6016538.56,2612205.51,6004275,2676112,7.6,7.6,64.92,107.53,62.09,104.88,-99999,-99999,0,85.51,82.13,nu,643B,B,1000,Q3,<0.1,Q3,1.50E+00,Q3,0,-99999,-99999,0,0.3,30,0.51,30,HarvardCMT,0.043802557,0.045088139,0.049024216,0.062349219,0.077475151,0.14493175,0.179606737,0.46787067,0.212245416,0.131334628,0.085624104,0.04114507,0.028183686,0.016777707,0.007523992,0.004468164,-99999,-99999,-99999,-99999,-99999,-99999,0.052845098,0.05428481,0.057705346,0.075954327,0.089912731,0.181296834,0.20769179,0.601844317,0.243930414,0.141589433,0.113738713,0.055970988,0.035130123,0.022699995,0.008671292,0.006076478,-99999,-99999,-99999,-99999,-99999,-99999,0.043803,0.051789,0.013908,0.016355
