CuspID,Origin_time,Record,Mw,MwUncert,TectClass,Mech,PreferredFaultPlane,Strike,Dip,Rake,Location,HypLat,HypLon,StationLat,StationLon,HypN,HypE,StationN,StationE,LENGTH_km,WIDTH_km,Repi_km,Rhyp_km,Rjb_km,Rrup_km,Rx_km,Ry_km,Rvol_km,HypDepth_km,ZTOR_km,HWFW,SiteCode,SiteClass1170,Vs30,Vs30Uncert,Tsite,TsiteUncert,Z1,Z1Uncertainty,Directivity,Pulse_or,Pulse_T,S_Trigger_Flag,fcButterHP,f_iniLP,fmin,fmax,References,f100.0000SA_RotD50,f50.0000SA_RotD50,f33.3333SA_RotD50,f25.0000SA_RotD50,f20.0000SA_RotD50,f13.3333SA_RotD50,f10.0000SA_RotD50,f6.6667SA_RotD50,f5.0000SA_RotD50,f4.0000SA_RotD50,f3.3333SA_RotD50,f2.5000SA_RotD50,f2.0000SA_RotD50,f1.3333SA_RotD50,f1.0000SA_RotD50,f0.6667SA_RotD50,f0.5000SA_RotD50,f0.3333SA_RotD50,f0.2500SA_RotD50,f0.2000SA_RotD50,f0.1333SA_RotD50,f0.1000SA_RotD50,f100.0000SA_RotD100,f50.0000SA_RotD100,f33.3333SA_RotD100,f25.0000SA_RotD100,f20.0000SA_RotD100,f13.3333SA_RotD100,f10.0000SA_RotD100,f6.6667SA_RotD100,f5.0000SA_RotD100,f4.0000SA_RotD100,f3.3333SA_RotD100,f2.5000SA_RotD100,f2.0000SA_RotD100,f1.3333SA_RotD100,f1.0000SA_RotD100,f0.6667SA_RotD100,f0.5000SA_RotD100,f0.3333SA_RotD100,f0.2500SA_RotD100,f0.2000SA_RotD100,f0.1333SA_RotD100,f0.1000SA_RotD100,PGA_RotD50,PGA_RotD100,PGV_RotD50,PGV_RotD100
722185,1995-03-22T19:43:30.268000Z,D5646A05,5.83,0.15,Slab,S,0,27,64,30,nlloc,-41.0514,174.216,-41.2574,174.9485,6016538.56,2612205.51,5992552,2673256,7.6,7.6,65.46,107.84,62.76,105.2,-99999,-99999,0,85.51,82.13,nu,WDAS,E,120,Q1,1.6,Q2,62,Q2,0,-99999,-99999,0,0.25,19,0.425,19,HarvardCMT,0.044252901,0.044755908,0.045737311,0.047315168,0.049867442,0.088849872,0.080092332,0.130911861,0.14256355,0.148346431,0.118913879,0.10406575,0.112820525,0.102422193,0.059881682,0.031427692,0.009160293,-99999,-99999,-99999,-99999,-99999,0.061443364,0.061980313,0.062985087,0.064691367,0.066539686,0.100948601,0.084282925,0.155704501,0.197410157,0.202272834,0.155631493,0.116817005,0.129371776,0.139927076,0.067211781,0.041355781,0.012335595,-99999,-99999,-99999,-99999,-99999,0.044194,0.061457,0.031242,0.043211
722185,1995-03-22T19:43:30.268000Z,D5647D02,5.83,0.15,Slab,S,0,27,64,30,nlloc,-41.0514,174.216,-41.2875,174.7769,6016538.56,2612205.51,5989514,2658817,7.6,7.6,53.8,101.07,51.16,98.26,-99999,-99999,0,85.51,82.13,nu,647D,D,474,Q2,0.12,Q2,5.70E+00,Q2,0,-99999,-99999,0,0.3,18,0.51,18,HarvardCMT,0.044002617,0.044501386,0.045268451,0.046588236,0.048828449,0.076802597,0.094512443,0.154469646,0.231596814,0.121140759,0.126026692,0.121815047,0.053916858,0.02438968,0.012926009,0.007904519,-99999,-99999,-99999,-99999,-99999,-99999,0.053278506,0.053401715,0.053622285,0.054293715,0.05739276,0.087424418,0.102698206,0.16057278,0.274609403,0.158037775,0.132988734,0.158712783,0.069181018,0.030457286,0.016437733,0.009989743,-99999,-99999,-99999,-99999,-99999,-99999,0.044004,0.053275,0.021937,0.024439
722185,1995-03-22T19:43:30.268000Z,D5648A03,5.83,0.15,Slab,S,0,27,64,30,nlloc,-41.0514,174.216,-41.2775,174.7735,6016538.56,2612205.51,5990634,2658549,7.6,7.6,53.01,109.27,50.36,106.39,-99999,-99999,0,85.51,82.13,nu,921A,C,330,Q3,0.5,Q3,38,Q3,0,-99999,-99999,0,0.35,32,0.595,32,HarvardCMT,0.057769137,0.058804732,0.063174731,0.093997204,0.094443387,0.107219902,0.164317478,0.249421924,0.227990084,0.168390259,0.171057254,0.125821311,0.07244564,0.035809516,0.017360423,0.009621391,-99999,-99999,-99999,-99999,-99999,-99999,0.06072454,0.061307697,0.073843138,0.128273431,0.113159522,0.134998321,0.199270587,0.342570533,0.270834747,0.195947001,0.231807401,0.159926959,0.096019074,0.042783002,0.021203622,0.012720169,-99999,-99999,-99999,-99999,-99999,-99999,0.057084,0.060531,0.025057,0.029225
722185,1995-03-22T19:43:30.268000Z,D5707A02,5.83,0.15,Slab,S,0,27,64,30,nlloc,-41.0514,174.216,-41.1391,174.8502,6016538.56,2612205.51,6005867,2665298,7.6,7.6,54.03,101.23,51.21,98.48,-99999,-99999,0,85.51,82.13,nu,707A,C,570,Q3,0.15,Q3,10,Q3,0,-99999,-99999,0,0.25,20,0.425,20,HarvardCMT,0.032795265,0.033845387,0.035614117,0.038957902,0.057271749,0.084086244,0.125480124,0.113317824,0.047829463,0.062181875,0.037078237,0.041760683,0.021896047,0.015769247,0.008775224,0.006756592,0.003502625,-99999,-99999,-99999,-99999,-99999,0.038063357,0.038901587,0.040377622,0.042570166,0.064954777,0.098401471,0.148872513,0.154018439,0.055581648,0.075656529,0.044151417,0.047116189,0.024366452,0.020632952,0.010461549,0.008579807,0.004867777,-99999,-99999,-99999,-99999,-99999,0.032794,0.037966,0.009417,0.01102
722185,1995-03-22T19:43:30.268000Z,D5900C02,5.83,0.15,Slab,S,0,27,64,30,nlloc,-41.0514,174.216,-41.2891,174.7799,6016538.56,2612205.51,5989335,2659058,7.6,7.6,54.09,101.23,51.45,98.43,-99999,-99999,0,85.51,82.13,nu,900C,D,250,Q3,0.8,Q3,60,Q3,0,-99999,-99999,0,0.3,15,0.51,15,HarvardCMT,0.054893991,0.055179986,0.055641114,0.056336382,0.05734592,0.069328287,0.092789826,0.139096138,0.232902836,0.26296445,0.178126716,0.196943947,0.07861375,0.04671871,0.021725409,0.008576856,-99999,-99999,-99999,-99999,-99999,-99999,0.070224061,0.070576629,0.071208806,0.072212788,0.07357194,0.094663247,0.102431201,0.190115249,0.2995594,0.330318246,0.2285799,0.260399593,0.095469375,0.057749039,0.02338429,0.010430593,-99999,-99999,-99999,-99999,-99999,-99999,0.054898,0.07014,0.030361,0.034038
722185,1995-03-22T19:43:30.268000Z,D5935C03,5.83,0.15,Slab,S,0,27,64,30,nlloc,-41.0514,174.216,-41.2108,174.9047,6016538.56,2612205.51,5997808,2669699,7.6,7.6,60.34,104.73,57.6,102.04,-99999,-99999,0,85.51,82.13,nu,935A,D,240,Q3,1.2,Q3,275,Q3,0,-99999,-99999,0,0.25,24.5,0.425,24.5,HarvardCMT,0.038868358,0.039206643,0.039888979,0.042644459,0.047339176,0.069004862,0.075760595,0.08728025,0.110638975,0.119111209,0.126100693,0.140895028,0.107644883,0.030961036,0.036910373,0.013414795,0.007578956,-99999,-99999,-99999,-99999,-99999,0.042455105,0.042906631,0.043719611,0.048818312,0.051401447,0.075712259,0.083488019,0.094792974,0.14787425,0.142824978,0.161255248,0.188581285,0.121842304,0.038824922,0.042998415,0.018337057,0.009334449,-99999,-99999,-99999,-99999,-99999,0.038712,0.042452,0.023412,0.027531
722185,1995-03-22T19:43:30.268000Z,I5027F03,5.83,0.15,Slab,S,0,27,64,30,nlloc,-41.0514,174.216,-39.4884,176.9189,6016538.56,2612205.51,6183307,2847012,7.6,7.6,287.72,300.43,284.58,297.6,-99999,-99999,0,85.51,82.13,nu,NAMS,C,268,Q3,0.4,Q3,20,Q3,0,-99999,-99999,1,0.5,21,0.85,21,HarvardCMT,0.00750402,0.007532274,0.007586218,0.007704427,0.008100985,0.009513114,0.011278457,0.014322486,0.016210931,0.018028832,0.02593304,0.050477917,0.018871864,0.006130936,0.002795446,-99999,-99999,-99999,-99999,-99999,-99999,-99999,0.010086703,0.010125995,0.010193327,0.01029663,0.010377763,0.013389384,0.013517235,0.018511552,0.017940244,0.025083574,0.032869451,0.066100545,0.025050374,0.008350771,0.003913955,-99999,-99999,-99999,-99999,-99999,-99999,-99999,0.00749,0.010072,0.004646,0.005415
722185,1995-03-22T19:43:30.268000Z,I5467A07,5.83,0.15,Slab,S,0,27,64,30,nlloc,-41.0514,174.216,-41.2425,174.9024,6016538.56,2612205.51,5994293,2669430,7.6,7.6,61.27,105.27,58.57,102.59,-99999,-99999,0,85.51,82.13,nu,467A,D,218,Q3,1.5,Q3,200,Q3,0,-99999,-99999,0,0.19,28,0.323,28,HarvardCMT,0.037780578,0.038167983,0.038962425,0.039926801,0.044566848,0.060181026,0.075518882,0.128687778,0.157931675,0.081064944,0.049769185,0.057303539,0.081513806,0.05294237,0.030086803,0.030464785,0.008893732,0.002232493,-99999,-99999,-99999,-99999,0.043065623,0.043524727,0.044297729,0.044718914,0.052675152,0.067261754,0.080531101,0.178299113,0.210712209,0.095700884,0.052995083,0.071911736,0.098425272,0.070455973,0.038870101,0.042452254,0.009597046,0.002344709,-99999,-99999,-99999,-99999,0.037621,0.042592,0.02036,0.023217
722185,1995-03-22T19:43:30.268000Z,I5468A06,5.83,0.15,Slab,S,0,27,64,30,nlloc,-41.0514,174.216,-41.2011,174.9547,6016538.56,2612205.51,5998793,2673916,7.6,7.6,64.07,106.94,61.31,104.29,-99999,-99999,0,85.51,82.13,nu,468A,D,190,Q1,0.9,Q3,50,Q3,0,-99999,-99999,0,0.25,24,0.425,24,HarvardCMT,0.057138479,0.057739151,0.058853595,0.064012021,0.079018449,0.111956786,0.120140707,0.3017297,0.317774329,0.193751029,0.151504137,0.140679309,0.118591043,0.07722115,0.075930925,0.014578154,0.007299688,-99999,-99999,-99999,-99999,-99999,0.074547795,0.075318066,0.076605237,0.079620199,0.088772304,0.138078179,0.144252655,0.36659154,0.366005261,0.223144611,0.165491196,0.189183251,0.146163844,0.091443822,0.096184921,0.017411288,0.009143769,-99999,-99999,-99999,-99999,-99999,0.057084,0.07455,0.031492,0.037271
722185,1995-03-22T19:43:30.268000Z,I5602C01,5.83,0.15,Slab,S,0,27,64,30,nlloc,-41.0514,174.216,-41.1903,174.928,6016538.56,2612205.51,6000041,2671703,7.6,7.6,61.61,105.49,58.84,102.81,-99999,-99999,0,85.51,82.13,nu,602C,B,1000,Q3,<0.1,Q3,0,Q3,0,-99999,-99999,0,0.2,45,0.34,45,HarvardCMT,0.018189211,0.018674635,0.021289434,0.024704931,0.024973085,0.061240893,0.059532866,0.043410862,0.052684914,0.049840564,0.045949477,0.029415182,0.020420031,0.01180012,0.010410701,0.005830111,0.004397486,-99999,-99999,-99999,-99999,-99999,0.022773845,0.023275621,0.025217593,0.0299804,0.027867731,0.072797769,0.081104266,0.058558229,0.072247024,0.065994319,0.057465858,0.034694603,0.026467362,0.013050262,0.01275565,0.007276505,0.005674054,-99999,-99999,-99999,-99999,-99999,0.017965,0.022615,0.008932,0.011987
722185,1995-03-22T19:43:30.268000Z,I5603B03,5.83,0.15,Slab,S,0,27,64,30,nlloc,-41.0514,174.216,-41.2237,174.86,6016538.56,2612205.51,5996453,2665923,7.6,7.6,57.23,102.97,54.52,100.24,-99999,-99999,0,85.51,82.13,nu,603B,B,1000,Q3,<0.1,Q3,0,Q3,0,-99999,-99999,0,0.25,30,0.425,30,HarvardCMT,0.016767425,0.017023262,0.017565372,0.019440579,0.023220844,0.033383323,0.04753517,0.070863887,0.050516111,0.029395285,0.02710015,0.035918933,0.023107995,0.013821075,0.012780741,0.007527753,0.004995483,-99999,-99999,-99999,-99999,-99999,0.023693118,0.024013484,0.024831419,0.024931028,0.030252688,0.04300462,0.064206379,0.099602663,0.067616661,0.036218665,0.033478318,0.045791249,0.026245464,0.015003887,0.014188667,0.01049667,0.006879659,-99999,-99999,-99999,-99999,-99999,0.016751,0.023688,0.00872,0.011914
722185,1995-03-22T19:43:30.268000Z,I5605B05,5.83,0.15,Slab,S,0,27,64,30,nlloc,-41.0514,174.216,-41.2074,174.9401,6016538.56,2612205.51,5998119,2672679,7.6,7.6,63.08,106.39,60.33,103.72,-99999,-99999,0,85.51,82.13,nu,FAIS,B,760,Q3,0.27,Q1,0,Q2,0,-99999,-99999,0,0.15,32,0.255,32,HarvardCMT,0.031845236,0.032365833,0.033754971,0.035597582,0.041860378,0.048098706,0.071390031,0.126308311,0.092585688,0.095187197,0.066472024,0.049580819,0.039965485,0.014022288,0.008269588,0.004379309,0.003131816,0.001130037,-99999,-99999,-99999,-99999,0.037419803,0.037802314,0.038447728,0.042011906,0.048854613,0.060297793,0.07774268,0.159829944,0.125899632,0.129592038,0.075683766,0.066831083,0.046191058,0.016264823,0.009711894,0.005688415,0.00366864,0.001593195,-99999,-99999,-99999,-99999,0.03163,0.037414,0.013971,0.019442
722185,1995-03-22T19:43:30.268000Z,I5606B07,5.83,0.15,Slab,S,0,27,64,30,nlloc,-41.0514,174.216,-41.2333,174.9199,6016538.56,2612205.51,5995282,2670919,7.6,7.6,62.31,105.88,59.59,103.21,-99999,-99999,0,85.51,82.13,nu,606B,B,800,Q3,<0.1,Q3,0,Q3,0,-99999,-99999,0,0.25,35,0.425,35,HarvardCMT,0.033485455,0.034800652,0.039763657,0.046841719,0.059861298,0.08135546,0.090742204,0.147159766,0.111156801,0.047656721,0.040420559,0.028715017,0.019214972,0.010853686,0.004235663,0.002842475,0.002507097,-99999,-99999,-99999,-99999,-99999,0.037321704,0.03909992,0.04134401,0.054837852,0.069772323,0.105194034,0.102135795,0.167496752,0.117936736,0.056737903,0.050961653,0.033097722,0.025448513,0.015218979,0.005796745,0.003882633,0.002785624,-99999,-99999,-99999,-99999,-99999,0.032391,0.036712,0.008125,0.009724
722185,1995-03-22T19:43:30.268000Z,I5642G18,5.83,0.15,Slab,S,0,27,64,30,nlloc,-41.0514,174.216,-41.235,174.9172,6016538.56,2612205.51,5995098,2670688,7.6,7.6,62.16,105.8,59.44,103.12,-99999,-99999,0,85.51,82.13,nu,642G,C,350,Q1,0.35,Q2,50,Q3,0,-99999,-99999,0,0.25,35,0.425,35,HarvardCMT,0.074232256,0.075865819,0.080017007,0.081957031,0.102047295,0.134707486,0.151922815,0.272176777,0.194598258,0.144372699,0.094070512,0.080722272,0.053118538,0.021313234,0.007729983,0.003777953,0.002789139,-99999,-99999,-99999,-99999,-99999,0.083264726,0.084742833,0.087480546,0.087840323,0.110361754,0.142224465,0.167963922,0.346555772,0.25569705,0.160510651,0.106576895,0.086719488,0.062847038,0.028134377,0.008503225,0.004949263,0.003201268,-99999,-99999,-99999,-99999,-99999,0.073975,0.0828,0.018827,0.023045
722185,1995-03-22T19:43:30.268000Z,I5642H18,5.83,0.15,Slab,S,0,27,64,30,nlloc,-41.0514,174.216,-41.235,174.9172,6016538.56,2612205.51,5995098,2670688,7.6,7.6,62.16,105.8,59.44,103.12,-99999,-99999,0,85.51,82.13,nu,642H,C,350,Q1,0.35,Q2,50,Q3,0,-99999,-99999,0,0.25,35,0.425,35,HarvardCMT,0.053420187,0.054420422,0.057123657,0.061196903,0.064076915,0.090182318,0.118424194,0.19762046,0.197768685,0.204550859,0.128720582,0.09218078,0.060889187,0.022365427,0.008490985,0.00400505,0.003103801,-99999,-99999,-99999,-99999,-99999,0.069748091,0.070911107,0.072793013,0.075811016,0.086610489,0.118140001,0.129150395,0.278392923,0.248316024,0.271919603,0.1495558,0.10685066,0.072261168,0.029366446,0.010050707,0.005355682,0.003321068,-99999,-99999,-99999,-99999,-99999,0.053201,0.069069,0.020039,0.022652
722185,1995-03-22T19:43:30.268000Z,I5708A04,5.83,0.15,Slab,S,0,27,64,30,nlloc,-41.0514,174.216,-41.1314,174.8391,6016538.56,2612205.51,6006740,2664387,7.6,7.6,52.97,100.66,50.14,97.89,-99999,-99999,0,85.51,82.13,nu,POLS,C,250,Q2,0.4,Q1,25,Q2,0,-99999,-99999,0,0.15,30,0.255,30,HarvardCMT,0.039471627,0.03994426,0.041150777,0.042476962,0.048740895,0.07600824,0.092248014,0.136421182,0.093993508,0.099411236,0.148727019,0.132488243,0.04836844,0.025142383,0.01419908,0.008037888,0.004269427,0.001721999,-99999,-99999,-99999,-99999,0.044082055,0.044759307,0.046833223,0.053234235,0.054734111,0.088438852,0.108060034,0.184998168,0.102586941,0.120635278,0.19405829,0.176689165,0.056335239,0.028177186,0.017450934,0.010494573,0.00569513,0.00226549,-99999,-99999,-99999,-99999,0.039215,0.044089,0.018455,0.02399
722185,1995-03-22T19:43:30.268000Z,I5711A01,5.83,0.15,Slab,S,0,27,64,30,nlloc,-41.0514,174.216,-41.2294,174.9042,6016538.56,2612205.51,5995739,2669619,7.6,7.6,60.94,105.08,58.22,102.39,-99999,-99999,0,85.51,82.13,nu,LRSS,D,230,Q3,1.4,Q3,175,Q3,0,-99999,-99999,0,0.25,24.5,0.425,24.5,HarvardCMT,0.043218819,0.043714583,0.044562441,0.045725588,0.049217566,0.090000618,0.120513146,0.132268792,0.084391023,0.123228207,0.112350032,0.110266239,0.10509621,0.040454737,0.023980665,0.01937443,0.010349309,-99999,-99999,-99999,-99999,-99999,0.061127939,0.061827198,0.063020888,0.064350501,0.066592634,0.105323825,0.168044959,0.159090919,0.110294308,0.163120104,0.158161191,0.143249455,0.143252251,0.057151806,0.032250897,0.023863845,0.012795805,-99999,-99999,-99999,-99999,-99999,0.042852,0.06009,0.026957,0.036004
722185,1995-03-22T19:43:30.268000Z,I5918B08,5.83,0.15,Slab,S,0,27,64,30,nlloc,-41.0514,174.216,-41.284,174.7682,6016538.56,2612205.51,5989908,2658140,7.6,7.6,52.97,100.77,50.33,97.95,-99999,-99999,0,85.51,82.13,nu,WEL,B,1000,Q3,0.3,Q1,0,Q2,0,-99999,-99999,0,0.25,24.5,0.425,24.5,HarvardCMT,0.058489871,0.059299192,0.06079412,0.064317305,0.068766152,0.095012609,0.103028401,0.359313739,0.24367829,0.179325198,0.119164618,0.068458545,0.049503683,0.017575668,0.014958811,0.00917758,0.006033757,-99999,-99999,-99999,-99999,-99999,0.079343622,0.080142933,0.081393116,0.082739907,0.089104404,0.108099042,0.11773133,0.470340552,0.311550208,0.216014996,0.165227673,0.094898512,0.068899704,0.022333891,0.018788076,0.011222226,0.008456199,-99999,-99999,-99999,-99999,-99999,0.058394,0.078329,0.02109,0.029719
722185,1995-03-22T19:43:30.268000Z,I5926A03,5.83,0.15,Slab,S,0,27,64,30,nlloc,-41.0514,174.216,-39.4883,176.9169,6016538.56,2612205.51,6183331,2846839,7.6,7.6,287.59,300.32,284.45,297.49,-99999,-99999,0,85.51,82.13,nu,926A,C,651,Q3,0.07,Q3,5,Q3,0,-99999,-99999,1,0.35,15,0.595,15,HarvardCMT,0.004262868,0.004281721,0.004314429,0.004363275,0.004454168,0.005243474,0.007588304,0.01017803,0.01464291,0.010638552,0.016017866,0.028783896,0.011151441,0.003300517,0.002399209,0.001052245,-99999,-99999,-99999,-99999,-99999,-99999,0.005463662,0.005501276,0.005567482,0.005672018,0.005836393,0.006210478,0.008817887,0.011993529,0.016068192,0.012604514,0.022274941,0.040615503,0.015193625,0.004612134,0.003323181,0.001486201,-99999,-99999,-99999,-99999,-99999,-99999,0.004257,0.005447,0.002834,0.003776
722185,1995-03-22T19:43:30.268000Z,K5046A01,5.83,0.15,Slab,S,0,27,64,30,nlloc,-41.0514,174.216,-41.2709,173.2837,6016538.56,2612205.51,5992838,2533754,7.6,7.6,81.77,118.44,78.66,114.68,-99999,-99999,0,85.51,82.13,nu,NCBS,D,210,Q3,0.7,Q2,50,Q3,0,-99999,-99999,1,0.7,14,1.19,14,HarvardCMT,0.039035158,0.039350258,0.039863333,0.040559064,0.041529594,0.047064888,0.060437891,0.11093374,0.0910213,0.135975382,0.130988769,0.078253927,0.06912876,0.038252497,-99999,-99999,-99999,-99999,-99999,-99999,-99999,-99999,0.043798856,0.044013921,0.044384589,0.044957635,0.045772239,0.049905377,0.06447441,0.128754116,0.115176848,0.178425949,0.164964304,0.08442456,0.080498409,0.049955729,-99999,-99999,-99999,-99999,-99999,-99999,-99999,-99999,0.038739,0.043798,0.018358,0.023447
722185,1995-03-22T19:43:30.268000Z,K5087A01,5.83,0.15,Slab,S,0,27,64,30,nlloc,-41.0514,174.216,-39.7163,175.1455,6016538.56,2612205.51,6163232,2693941,7.6,7.6,168.04,188.46,165.17,186.14,-99999,-99999,0,85.51,82.13,nu,087A,B,1000,Q3,<0.1,Q3,0,Q2,0,-99999,-99999,1,0.5,20,0.85,20,HarvardCMT,0.057469411,0.058295818,0.059494261,0.061908849,0.06837945,0.102137582,0.157412054,0.147077434,0.245805199,0.148353883,0.14403875,0.221007607,0.073264515,0.028774589,0.028208305,-99999,-99999,-99999,-99999,-99999,-99999,-99999,0.075259774,0.076376541,0.078264575,0.081197249,0.093085491,0.13641772,0.222191502,0.174341153,0.33091824,0.193854124,0.179579437,0.295944089,0.088461249,0.036706406,0.037270324,-99999,-99999,-99999,-99999,-99999,-99999,-99999,0.057253,0.07431,0.025754,0.03317
722185,1995-03-22T19:43:30.268000Z,K5087C01,5.83,0.15,Slab,S,0,27,64,30,nlloc,-41.0514,174.216,-39.7171,175.1382,6016538.56,2612205.51,6163158,2693314,7.6,7.6,167.67,188.13,164.8,185.82,-99999,-99999,0,85.51,82.13,nu,087C,C,425,Q3,0.33,Q3,30,Q3,0,-99999,-99999,1,0.7,14,1.19,14,HarvardCMT,0.064532137,0.064821905,0.065306387,0.065978218,0.066819069,0.086324188,0.102651131,0.193364802,0.29640656,0.272980766,0.253540068,0.278439868,0.244474147,0.058928442,-99999,-99999,-99999,-99999,-99999,-99999,-99999,-99999,0.071400285,0.07169115,0.07214025,0.072788186,0.073628246,0.092444553,0.126674959,0.263237325,0.323779889,0.342805441,0.303481513,0.296976577,0.305821796,0.083337032,-99999,-99999,-99999,-99999,-99999,-99999,-99999,-99999,0.064436,0.071363,0.034959,0.043902
722185,1995-03-22T19:43:30.268000Z,K5608A01,5.83,0.15,Slab,S,0,27,64,30,nlloc,-41.0514,174.216,-41.2241,174.8794,6016538.56,2612205.51,5996377,2667546,7.6,7.6,58.78,103.83,56.06,101.12,-99999,-99999,0,85.51,82.13,nu,608A,D,200,Q2,2,Q2,250,Q3,0,-99999,-99999,1,0.4,11,0.68,11,HarvardCMT,0.029266623,0.029349104,0.029561972,0.029861663,0.03028188,0.031988022,0.03994476,0.060914621,0.076691679,0.048200773,0.051372714,0.088445754,0.120731021,0.055263097,0.026802591,-99999,-99999,-99999,-99999,-99999,-99999,-99999,0.036010645,0.036189872,0.036474192,0.036885473,0.037486054,0.040048426,0.047485625,0.078034013,0.097546421,0.053920834,0.058290026,0.118748157,0.15612881,0.071885296,0.029325395,-99999,-99999,-99999,-99999,-99999,-99999,-99999,0.029264,0.035812,0.024995,0.030959
