CuspID,Origin_time,Record,Mw,MwUncert,TectClass,Mech,PreferredFaultPlane,Strike,Dip,Rake,Location,HypLat,HypLon,StationLat,StationLon,HypN,HypE,StationN,StationE,LENGTH_km,WIDTH_km,Repi_km,Rhyp_km,Rjb_km,Rrup_km,Rx_km,Ry_km,Rvol_km,HypDepth_km,ZTOR_km,HWFW,SiteCode,SiteClass1170,Vs30,Vs30Uncert,Tsite,TsiteUncert,Z1,Z1Uncertainty,Directivity,Pulse_or,Pulse_T,S_Trigger_Flag,fcButterHP,f_iniLP,fmin,fmax,References,f100.0000SA_GeoMean,f50.0000SA_GeoMean,f33.3333SA_GeoMean,f25.0000SA_GeoMean,f20.0000SA_GeoMean,f13.3333SA_GeoMean,f10.0000SA_GeoMean,f6.6667SA_GeoMean,f5.0000SA_GeoMean,f4.0000SA_GeoMean,f3.3333SA_GeoMean,f2.5000SA_GeoMean,f2.0000SA_GeoMean,f1.3333SA_GeoMean,f1.0000SA_GeoMean,f0.6667SA_GeoMean,f0.5000SA_GeoMean,f0.3333SA_GeoMean,f0.2500SA_GeoMean,f0.2000SA_GeoMean,f0.1333SA_GeoMean,f0.1000SA_GeoMean,PGA_Geomean,PGV_Geomean
201354,1991-02-15T10:48:09.669000Z,A91052A3,5.42,0.15,Crustal,R,0,213,37,90,geonet,-42.0386,171.5897,-42.1166,171.8604,5906631.78,2393229.54,5898305,2415760,4.7,4.7,23.97,25.04,22.28,23.52,-99999,-99999,0,6.92,5.27,nu,052A,C,333,Q3,0.3,Q3,30,Q3,0,-99999,-99999,0,0.5,32,0.85,32,HarvardCMT,0.168738804,0.171994275,0.183377877,0.221404148,0.267871115,0.367099575,0.448476652,0.410337972,0.357680697,0.243198905,0.178365856,0.109302503,0.085643897,0.056593436,0.034817689,-99999,-99999,-99999,-99999,-99999,-99999,-99999,0.167057,0.046452
201354,1991-02-15T10:48:09.669000Z,A91090A3,5.42,0.15,Crustal,R,0,213,37,90,geonet,-42.0386,171.5897,-41.8553,171.9539,5906631.78,2393229.54,5927428,2423132,4.7,4.7,36.37,37.09,34.1,34.84,-99999,-99999,0,6.92,5.27,nu,090A,C,270,Q3,0.33,Q3,40,Q3,0,-99999,-99999,1,0.45,13,0.765,13,HarvardCMT,0.081338854,0.081744986,0.082414447,0.083388869,0.084745085,0.090328772,0.097721065,0.157822733,0.193855823,0.228760313,0.180241155,0.134696864,0.106962396,0.049076615,0.022983035,-99999,-99999,-99999,-99999,-99999,-99999,-99999,0.081015,0.041489
241414,1991-07-12T04:42:23.301999Z,D91302A4,5.3,0.15,Slab,S,1,135,57,25,geonet,-39.3052,175.9748,-39.9338,175.053,6206777.74,2766544.08,6139282,2685450,4.1,4.1,105.45,126.78,104.32,126.64,106.19,-9.62,0,70.28,68.56,nu,302A,D,250,Q2,0.8,Q3,80,Q3,0,-99999,-99999,1,0.3,12,0.51,12,HarvardCMT,0.019061375,0.019119876,0.019232511,0.019369948,0.019552416,0.020334777,0.025112526,0.027596307,0.030065799,0.044262287,0.043134361,0.043732125,0.032533994,0.026831709,0.016906485,0.00633156,-99999,-99999,-99999,-99999,-99999,-99999,0.019025,0.016245
255338,1991-09-08T13:50:30.989999Z,A92087A4,5.61,0.15,Slab,R,1,95,70,108,geonet,-40.2442,175.1672,-39.7163,175.1455,6104594.2,2694363.31,6163232,2693941,5.9,5.9,58.73,104.69,57.7,101.84,-57.37,-5.53,0,86.69,83.93,nu,087A,B,1000,Q3,<0.1,Q3,0,Q2,0,-99999,-99999,1,0.6,27,1.02,27,HarvardCMT,0.148499876,0.152258197,0.160221113,0.182181033,0.201151772,0.291663636,0.347857981,0.532308027,0.305676699,0.312629021,0.229543779,0.240049559,0.122031835,0.05648134,-99999,-99999,-99999,-99999,-99999,-99999,-99999,-99999,0.144695,0.051987
255338,1991-09-08T13:50:30.989999Z,D91302A5,5.61,0.15,Slab,R,1,95,70,108,geonet,-40.2442,175.1672,-39.9338,175.053,6104594.2,2694363.31,6139282,2685450,5.9,5.9,35.86,93.81,34.54,90.88,-32.78,-11.9,0,86.69,83.93,nu,302A,D,250,Q2,0.8,Q3,80,Q3,0,-99999,-99999,0,0.35,20,0.595,20,HarvardCMT,0.101153492,0.102487853,0.105036651,0.1101447,0.131366153,0.17270056,0.220905102,0.222517783,0.235767853,0.300107246,0.223894008,0.187089719,0.179867627,0.075716479,0.051422594,0.014441569,-99999,-99999,-99999,-99999,-99999,-99999,0.100596,0.053592
255338,1991-09-08T13:50:30.989999Z,D91467A2,5.61,0.15,Slab,R,1,95,70,108,geonet,-40.2442,175.1672,-41.2425,174.9024,6104594.2,2694363.31,5994293,2669430,5.9,5.9,113.22,142.49,112.16,141.58,113.06,-15.23,0,86.69,83.93,nu,467A,D,218,Q3,1.5,Q3,200,Q3,0,-99999,-99999,1,0.25,15,0.425,15,HarvardCMT,0.025173456,0.025339521,0.025633098,0.026176622,0.027031742,0.032477669,0.045312208,0.045640926,0.069128302,0.05433163,0.048012886,0.081788903,0.075774313,0.030108068,0.016932569,0.007692416,0.002533984,-99999,-99999,-99999,-99999,-99999,0.025059,0.017179
255338,1991-09-08T13:50:30.989999Z,D91468A2,5.61,0.15,Slab,R,1,95,70,108,geonet,-40.2442,175.1672,-41.2011,174.9547,6104594.2,2694363.31,5998793,2673916,5.9,5.9,107.9,138.3,106.86,137.35,108.18,-11.15,0,86.69,83.93,nu,468A,D,190,Q1,0.9,Q3,50,Q3,0,-99999,-99999,0,0.45,13,0.765,13,HarvardCMT,0.04204016,0.042412508,0.043063546,0.044038408,0.045451514,0.055843729,0.089733165,0.103740206,0.122906943,0.110188665,0.109368155,0.141050636,0.096752046,0.054566266,0.026794101,-99999,-99999,-99999,-99999,-99999,-99999,-99999,0.041781,0.026927
255338,1991-09-08T13:50:30.989999Z,D91606B1,5.61,0.15,Slab,R,1,95,70,108,geonet,-40.2442,175.1672,-41.2333,174.9199,6104594.2,2694363.31,5995282,2670919,5.9,5.9,111.94,141.47,110.88,140.55,111.94,-13.83,0,86.69,83.93,nu,606B,B,800,Q3,<0.1,Q3,0,Q3,0,-99999,-99999,0,0.45,26,0.765,26,HarvardCMT,0.018280052,0.018554036,0.01910272,0.021162215,0.022163073,0.028669218,0.039774226,0.02434571,0.03732137,0.050297521,0.054274294,0.033913731,0.014963588,0.007931819,0.004487821,-99999,-99999,-99999,-99999,-99999,-99999,-99999,0.018129,0.008508
255338,1991-09-08T13:50:30.989999Z,D91642E7,5.61,0.15,Slab,R,1,95,70,108,geonet,-40.2442,175.1672,-41.2341,174.918,6104594.2,2694363.31,5995197,2670758,5.9,5.9,112.06,141.57,111,140.65,112.04,-13.98,0,86.69,83.93,nu,642E,C,350,Q1,0.35,Q2,50,Q3,0,-99999,-99999,0,0.5,12,0.85,12,HarvardCMT,0.044439163,0.044542084,0.044717858,0.044958653,0.045284843,0.047493433,0.050747211,0.080494584,0.10722843,0.120912525,0.158297007,0.151937068,0.053441922,0.023825965,0.011461318,-99999,-99999,-99999,-99999,-99999,-99999,-99999,0.044418,0.027442
255338,1991-09-08T13:50:30.989999Z,D91644C3,5.61,0.15,Slab,R,1,95,70,108,geonet,-40.2442,175.1672,-41.2187,174.8826,6104594.2,2694363.31,5996970,2667828,5.9,5.9,110.98,140.72,109.9,139.76,110.53,-17.05,0,86.69,83.93,nu,644C,D,189,Q3,2,Q3,250,Q3,0,-99999,-99999,0,0.35,15,0.595,15,HarvardCMT,0.020379885,0.020518021,0.020749144,0.02111865,0.021742449,0.028271709,0.036268884,0.048854074,0.060332091,0.045425989,0.053061673,0.071185474,0.047507773,0.019178312,0.010548748,0.005484594,-99999,-99999,-99999,-99999,-99999,-99999,0.020326,0.012051
255338,1991-09-08T13:50:30.989999Z,D91646A2,5.61,0.15,Slab,R,1,95,70,108,geonet,-40.2442,175.1672,-41.2574,174.9485,6104594.2,2694363.31,5992552,2673256,5.9,5.9,114.16,143.28,113.12,142.4,114.46,-11.26,0,86.69,83.93,nu,WDAS,E,120,Q1,1.6,Q2,62,Q2,0,-99999,-99999,0,0.35,18,0.595,18,HarvardCMT,0.048613424,0.0488859,0.049359503,0.050085848,0.051397798,0.061807528,0.07276352,0.083136616,0.088458694,0.135745986,0.156139997,0.115345673,0.070517889,0.039008998,0.028066848,0.013116136,-99999,-99999,-99999,-99999,-99999,-99999,0.048603,0.026203
255338,1991-09-08T13:50:30.989999Z,D91705B3,5.61,0.15,Slab,R,1,95,70,108,geonet,-40.2442,175.1672,-41.1391,174.8502,6104594.2,2694363.31,6005867,2665298,5.9,5.9,103.03,134.58,101.9,133.49,101.89,-20.35,0,86.69,83.93,nu,707A,C,570,Q3,0.15,Q3,10,Q3,0,-99999,-99999,0,0.5,15,0.85,15,HarvardCMT,0.033095165,0.033379694,0.033871272,0.03464785,0.035885068,0.038827343,0.059065705,0.058221909,0.112405468,0.128300466,0.081203251,0.058320624,0.025785646,0.010838839,0.008089973,-99999,-99999,-99999,-99999,-99999,-99999,-99999,0.033086,0.014413
255338,1991-09-08T13:50:30.989999Z,D91706A2,5.61,0.15,Slab,R,1,95,70,108,geonet,-40.2442,175.1672,-41.1288,174.8382,6104594.2,2694363.31,6007032,2664315,5.9,5.9,102.2,133.93,101.05,132.82,100.81,-21.43,0,86.69,83.93,nu,706A,C,210,Q3,0.5,Q2,30,Q3,0,-99999,-99999,0,0.35,12,0.595,12,HarvardCMT,0.069620047,0.07009142,0.070863067,0.072000097,0.073624586,0.080714727,0.092631972,0.141476535,0.197843912,0.171309098,0.191634804,0.195195559,0.103737098,0.04991609,0.024623629,0.006904692,-99999,-99999,-99999,-99999,-99999,-99999,0.069631,0.033301
255338,1991-09-08T13:50:30.989999Z,D91900B7,5.61,0.15,Slab,R,1,95,70,108,geonet,-40.2442,175.1672,-41.2921,174.779,6104594.2,2694363.31,5989003,2658976,5.9,5.9,121.02,148.76,119.87,147.84,119.24,-25.18,0,86.69,83.93,nu,941A,D,272,Q2,0.85,Q2,9.85E+01,Q2,0,-99999,-99999,0,0.45,12,0.765,12,HarvardCMT,0.035944815,0.036074365,0.036282432,0.036582667,0.036972953,0.039539128,0.050415443,0.07513137,0.086712727,0.126958608,0.116078464,0.122380609,0.065918669,0.050101247,0.018819503,-99999,-99999,-99999,-99999,-99999,-99999,-99999,0.035925,0.022835
255338,1991-09-08T13:50:30.989999Z,D91918B7,5.61,0.15,Slab,R,1,95,70,108,geonet,-40.2442,175.1672,-41.284,174.7682,6104594.2,2694363.31,5989908,2658140,5.9,5.9,120.4,148.34,119.25,147.39,118.41,-26.09,0,86.69,83.93,nu,WEL,B,1000,Q3,0.3,Q1,0,Q2,0,-99999,-99999,0,0.5,18,0.85,18,HarvardCMT,0.034149635,0.034358107,0.034694206,0.035265147,0.036380578,0.044122429,0.050489164,0.071946768,0.107785879,0.158254683,0.098255806,0.057440976,0.023330791,0.009270228,0.005095325,-99999,-99999,-99999,-99999,-99999,-99999,-99999,0.033985,0.014108
255338,1991-09-08T13:50:30.989999Z,D91935B3,5.61,0.15,Slab,R,1,95,70,108,geonet,-40.2442,175.1672,-41.2108,174.9047,6104594.2,2694363.31,5997808,2669699,5.9,5.9,109.73,139.74,108.66,138.78,109.53,-15.26,0,86.69,83.93,nu,935A,D,240,Q3,1.2,Q3,275,Q3,0,-99999,-99999,1,0.45,15,0.765,15,HarvardCMT,0.034823764,0.034957446,0.035220106,0.035556271,0.036131803,0.042198945,0.054670892,0.056924126,0.084282673,0.129997456,0.136578056,0.107447168,0.05002638,0.020690373,0.011699126,-99999,-99999,-99999,-99999,-99999,-99999,-99999,0.034825,0.019397
255338,1991-09-08T13:50:30.989999Z,K91102A3,5.61,0.15,Slab,R,1,95,70,108,geonet,-40.2442,175.1672,-39.4637,175.5669,6104594.2,2694363.31,6190285,2730871,5.9,5.9,93.25,127.72,91.95,125.06,-87.54,28.9,0,86.69,83.93,nu,102A,C,555,Q3,0.15,Q3,12,Q3,0,-99999,-99999,1,0.5,18,0.85,18,HarvardCMT,0.047621723,0.048318344,0.049537554,0.051456482,0.054470994,0.065820853,0.098474489,0.147812334,0.148737366,0.097354803,0.079117233,0.051269423,0.02650234,0.022509931,0.014647631,-99999,-99999,-99999,-99999,-99999,-99999,-99999,0.047301,0.015718
314805,1992-03-30T07:02:51.226999Z,D92505A1,5.5,0.15,Crustal,R,1,205,76,77,nlloc,-43.0605,171.212,-42.9489,171.5677,5792540.97,2364375.65,5805487,2393135,5.17,5.17,31.47,32.08,29.52,30.01,-19.97,-23.89,0,5.12,2.61,nu,APPS,C,300,Q2,0.4,Q1,30,Q2,0,-99999,-99999,0,0.6,20,1.02,20,HarvardCMT,0.027179163,0.027439514,0.027941375,0.029192832,0.037804836,0.047147185,0.054798003,0.09465489,0.070043587,0.063829873,0.076547564,0.072081593,0.040720491,0.017933887,-99999,-99999,-99999,-99999,-99999,-99999,-99999,-99999,0.027148,0.01628
339342,1992-05-27T22:30:35.064000Z,D92129A2,5.9,0.08,Slab,S,1,117,85,21,special,-41.63,173.62,-41.7999,172.328,5952812.98,2561652.09,5933893,2454147,8.2,8.2,108.89,128.17,105.65,124.79,66.02,-87.2,0,67,62.92,nu,MCAS,D,501,Q3,1.6,Q3,200,Q3,0,-99999,-99999,0,0.23,19,0.391,19,Webb_Anderson_1998&Dowrick_Rhoades1998&HarvardCMT,0.028915924,0.029177274,0.029674909,0.03057131,0.033880572,0.04742667,0.05843267,0.061022046,0.074485231,0.053879593,0.066798467,0.053197241,0.051961669,0.040571731,0.02068425,0.012419273,0.008674858,-99999,-99999,-99999,-99999,-99999,0.028858,0.017141
339342,1992-05-27T22:30:35.064000Z,D92467A3,5.9,0.08,Slab,S,1,117,85,21,special,-41.63,173.62,-41.2425,174.9024,5952812.98,2561652.09,5994293,2669430,8.2,8.2,115.26,133.52,112.56,130.25,-85.53,77.2,0,67,62.92,nu,467A,D,218,Q3,1.5,Q3,200,Q3,0,-99999,-99999,0,0.35,14,0.595,14,Webb_Anderson_1998&Dowrick_Rhoades1998&HarvardCMT,0.027913577,0.028087815,0.028380909,0.028868262,0.029636365,0.043583571,0.042192273,0.044947785,0.056560546,0.079882542,0.048825738,0.089242806,0.073208248,0.022762324,0.015938634,0.012731146,-99999,-99999,-99999,-99999,-99999,-99999,0.027901,0.018392
339342,1992-05-27T22:30:35.064000Z,D92468A6,5.9,0.08,Slab,S,1,117,85,21,special,-41.63,173.62,-41.2011,174.9547,5952812.98,2561652.09,5998793,2673916,8.2,8.2,121.08,138.59,118.45,135.4,-91.58,79.15,0,67,62.92,nu,468A,D,190,Q1,0.9,Q3,50,Q3,0,-99999,-99999,0,0.4,19,0.68,19,Webb_Anderson_1998&Dowrick_Rhoades1998&HarvardCMT,0.026206542,0.026338806,0.026558287,0.026877988,0.028055607,0.034325656,0.041626183,0.065626859,0.059167513,0.082419274,0.070467333,0.093125313,0.049095964,0.027981314,0.022101663,-99999,-99999,-99999,-99999,-99999,-99999,-99999,0.026173,0.014519
339342,1992-05-27T22:30:35.064000Z,D92644C3,5.9,0.08,Slab,S,1,117,85,21,special,-41.63,173.62,-41.2187,174.8826,5952812.98,2561652.09,5996970,2667828,8.2,8.2,114.77,133.09,112.16,129.87,-87.19,74.56,0,67,62.92,nu,644C,D,189,Q3,2,Q3,250,Q3,0,-99999,-99999,0,0.25,12,0.425,12,Webb_Anderson_1998&Dowrick_Rhoades1998&HarvardCMT,0.0218808,0.021980292,0.022162104,0.022410721,0.022791478,0.026534725,0.045262113,0.045957944,0.043428018,0.064963933,0.054928526,0.074061832,0.073648349,0.021903738,0.009921379,0.006630949,0.004825631,-99999,-99999,-99999,-99999,-99999,0.021855,0.01683
339342,1992-05-27T22:30:35.064000Z,D92646A5,5.9,0.08,Slab,S,1,117,85,21,special,-41.63,173.62,-41.2574,174.9485,5952812.98,2561652.09,5992552,2673256,8.2,8.2,118.23,136.15,115.45,132.85,-85.72,81.4,0,67,62.92,nu,WDAS,E,120,Q1,1.6,Q2,62,Q2,0,-99999,-99999,0,0.5,16,0.85,16,Webb_Anderson_1998&Dowrick_Rhoades1998&HarvardCMT,0.02466382,0.024847662,0.025204408,0.025821361,0.026751836,0.040530349,0.034371015,0.040601826,0.044024932,0.06025517,0.114844162,0.051163811,0.063667813,0.039368952,0.051374407,-99999,-99999,-99999,-99999,-99999,-99999,-99999,0.024525,0.02077
339342,1992-05-27T22:30:35.064000Z,D92647A1,5.9,0.08,Slab,S,1,117,85,21,special,-41.63,173.62,-41.2871,174.778,5952812.98,2561652.09,5989560,2658904,8.2,8.2,103.76,123.68,101.04,120.35,-76.54,69.97,0,67,62.92,nu,647A,C,474,Q2,0.12,Q2,5.70E+00,Q2,0,-99999,-99999,0,0.4,19,0.68,19,Webb_Anderson_1998&Dowrick_Rhoades1998&HarvardCMT,0.019468787,0.01964384,0.019977984,0.02059075,0.021958369,0.026872093,0.04084739,0.046630999,0.03755825,0.049103252,0.049965777,0.055355736,0.025995997,0.009068257,0.00752039,-99999,-99999,-99999,-99999,-99999,-99999,-99999,0.019451,0.011209
339342,1992-05-27T22:30:35.064000Z,D92706A2,5.9,0.08,Slab,S,1,117,85,21,special,-41.63,173.62,-41.1288,174.8382,5952812.98,2561652.09,6007032,2664315,8.2,8.2,115.91,134.05,113.6,131,-94.56,66.86,0,67,62.92,nu,706A,C,210,Q3,0.5,Q2,30,Q3,0,-99999,-99999,0,0.45,12,0.765,12,Webb_Anderson_1998&Dowrick_Rhoades1998&HarvardCMT,0.026535372,0.026699212,0.026972773,0.027409209,0.028056981,0.030614406,0.038275929,0.059709836,0.07104778,0.102375946,0.068390456,0.069059399,0.046564615,0.029591414,0.017858916,-99999,-99999,-99999,-99999,-99999,-99999,-99999,0.026452,0.018809
339342,1992-05-27T22:30:35.064000Z,D92707A1,5.9,0.08,Slab,S,1,117,85,21,special,-41.63,173.62,-41.1391,174.8502,5952812.98,2561652.09,6005867,2665298,8.2,8.2,116.24,134.35,113.89,131.28,-93.97,68.26,0,67,62.92,nu,707A,C,570,Q3,0.15,Q3,10,Q3,0,-99999,-99999,0,0.5,21,0.85,21,Webb_Anderson_1998&Dowrick_Rhoades1998&HarvardCMT,0.022084553,0.022381132,0.022870019,0.0235629,0.025380261,0.033308361,0.050597975,0.07319931,0.038996627,0.039350353,0.040073065,0.023276014,0.014854513,0.005080635,0.003277757,-99999,-99999,-99999,-99999,-99999,-99999,-99999,0.022056,0.007933
339342,1992-05-27T22:30:35.064000Z,D92918B5,5.9,0.08,Slab,S,1,117,85,21,special,-41.63,173.62,-41.284,174.7682,5952812.98,2561652.09,5989908,2658140,8.2,8.2,103.13,123.26,100.44,119.93,-76.5,69.13,0,67,62.92,nu,WEL,B,1000,Q3,0.3,Q1,0,Q2,0,-99999,-99999,0,0.4,18,0.68,18,Webb_Anderson_1998&Dowrick_Rhoades1998&HarvardCMT,0.020779888,0.020941714,0.021205908,0.021651773,0.022323027,0.02439994,0.032727297,0.043336691,0.043793642,0.061192607,0.053574504,0.069856216,0.024224083,0.008926204,0.007404154,-99999,-99999,-99999,-99999,-99999,-99999,-99999,0.020722,0.01134
339342,1992-05-27T22:30:35.064000Z,D92935B2,5.9,0.08,Slab,S,1,117,85,21,special,-41.63,173.62,-41.2108,174.9047,5952812.98,2561652.09,5997808,2669699,8.2,8.2,116.82,134.86,114.21,131.66,-88.79,75.84,0,67,62.92,nu,935A,D,240,Q3,1.2,Q3,275,Q3,0,-99999,-99999,0,0.35,16,0.595,16,Webb_Anderson_1998&Dowrick_Rhoades1998&HarvardCMT,0.01993224,0.020119296,0.020640417,0.021495933,0.022950938,0.031648822,0.051113979,0.044402175,0.040673292,0.07078218,0.07014712,0.048441955,0.031439491,0.014832764,0.010819177,0.006474157,-99999,-99999,-99999,-99999,-99999,-99999,0.019866,0.011855
339342,1992-05-27T22:30:35.064000Z,K92934B1,5.9,0.08,Slab,S,1,117,85,21,special,-41.63,173.62,-41.2436,174.908,5952812.98,2561652.09,5994160,2669897,8.2,8.2,115.64,133.85,112.94,130.58,-85.63,77.68,0,67,62.92,nu,934B,D,180,Q1,1.1,Q3,100,Q3,0,-99999,-99999,1,0.4,16,0.68,16,Webb_Anderson_1998&Dowrick_Rhoades1998&HarvardCMT,0.02621253,0.026375119,0.026634009,0.027020071,0.027546548,0.031030389,0.037722873,0.044039686,0.038475766,0.05584041,0.056435881,0.078104845,0.080813305,0.023112357,0.015484511,-99999,-99999,-99999,-99999,-99999,-99999,-99999,0.026018,0.016527
338849,1992-06-21T17:43:09.086000Z,K92028A1,6.25,0.08,Crustal,N,1,32,41,246,special,-37.67,176.86,-38.0079,177.284,6385179.66,2850645.07,6346024,2886230,12.26,12.26,52.9,53.06,48.15,48.79,55.55,-14.35,25,4,0.01,nu,028A,D,210,Q3,1,Q3,75,Q3,0,-99999,-99999,1,0.2,15,0.34,15,Webb_Anderson_1998&Dowrick_Rhoades1998&HarvardCMT,0.031081176,0.031258861,0.031628953,0.032309578,0.033368318,0.043973491,0.062872733,0.087141848,0.078006003,0.075993309,0.055924532,0.08388927,0.084874876,0.046474179,0.065727728,0.040027269,0.043009723,-99999,-99999,-99999,-99999,-99999,0.030941,0.045216
338849,1992-06-21T17:43:09.086000Z,A92930A1,6.25,0.08,Crustal,N,1,32,41,246,special,-37.67,176.86,-37.9885,176.8294,6385179.66,2850645.07,6349976,2846440,12.26,12.26,35.52,35.68,29.64,30.05,19.71,-32.08,30,4,0.01,nu,930A,E,150,Q3,>2,Q3,300,Q3,0,-99999,-99999,1,0.15,12,0.255,12,Webb_Anderson_1998&Dowrick_Rhoades1998&HarvardCMT,0.041405842,0.041483616,0.041625488,0.041813662,0.042084809,0.043692777,0.055676761,0.063033062,0.072157032,0.077571414,0.07397907,0.0810852,0.101026893,0.097715162,0.094990866,0.066701429,0.052592075,0.047075753,-99999,-99999,-99999,-99999,0.041372,0.082718
435226,1993-04-11T06:59:48.228000Z,A93032A1,5.68,0.08,Interface,O,1,198,15,52,special,-39.74,176.52,-39.9425,176.5874,6156829.5,2811622.89,6134136,2816486,8.63,8.63,23.24,34.95,18.95,31.74,-7.47,20.08,0,26,24.88,nu,032A,C,495,Q3,0.13,Q3,10,Q3,0,-99999,-99999,1,0.4,10,0.68,10,Webb_Anderson_1998&Dowrick_Rhoades1998&HarvardCMT,0.150366034,0.150635489,0.151073894,0.151667243,0.152394982,0.155017614,0.15860372,0.227703844,0.3603891,0.353561215,0.378798043,0.336358107,0.390968177,0.232335688,0.143288066,-99999,-99999,-99999,-99999,-99999,-99999,-99999,0.15013,0.141215
435226,1993-04-11T06:59:48.228000Z,D93014A2,5.68,0.08,Interface,O,1,198,15,52,special,-39.74,176.52,-39.4984,176.8761,6156829.5,2811622.89,6182359,2843283,8.63,8.63,40.64,48.27,36.38,44.35,-18.05,-34.06,0,26,24.88,nu,NCDS,E,162,Q3,1.25,Q2,110,Q3,0,-99999,-99999,0,0.24,12,0.408,12,Webb_Anderson_1998&Dowrick_Rhoades1998&HarvardCMT,0.02928316,0.029509592,0.029888706,0.0304549,0.031276399,0.038173003,0.045996388,0.08029514,0.086389851,0.077151119,0.078957264,0.070427529,0.057801466,0.044677884,0.034302776,0.012041495,0.004648039,-99999,-99999,-99999,-99999,-99999,0.029272,0.022595
435226,1993-04-11T06:59:48.228000Z,D93015A1,5.68,0.08,Interface,O,1,198,15,52,special,-39.74,176.52,-39.4891,176.8982,6156829.5,2811622.89,6183313,2845228,8.63,8.63,42.76,50.1,38.49,46.14,-19.61,-35.57,0,26,24.88,nu,015A,B,1000,Q3,<0.1,Q3,0,Q3,0,-99999,-99999,0,0.5,12,0.85,12,Webb_Anderson_1998&Dowrick_Rhoades1998&HarvardCMT,0.016967394,0.017100707,0.01729908,0.017614693,0.018080868,0.020781908,0.024899536,0.029130977,0.037378799,0.0477491,0.053845497,0.042550708,0.044109543,0.012840557,0.008429152,-99999,-99999,-99999,-99999,-99999,-99999,-99999,0.016953,0.009355
