CuspID,Origin_time,Record,Mw,MwUncert,TectClass,Mech,PreferredFaultPlane,Strike,Dip,Rake,Location,HypLat,HypLon,StationLat,StationLon,HypN,HypE,StationN,StationE,LENGTH_km,WIDTH_km,Repi_km,Rhyp_km,Rjb_km,Rrup_km,Rx_km,Ry_km,Rvol_km,HypDepth_km,ZTOR_km,HWFW,SiteCode,SiteClass1170,Vs30,Vs30Uncert,Tsite,TsiteUncert,Z1,Z1Uncertainty,Directivity,Pulse_or,Pulse_T,S_Trigger_Flag,fcButterHP,f_iniLP,fmin,fmax,References,f100.0000SA_RotD50,f50.0000SA_RotD50,f33.3333SA_RotD50,f25.0000SA_RotD50,f20.0000SA_RotD50,f13.3333SA_RotD50,f10.0000SA_RotD50,f6.6667SA_RotD50,f5.0000SA_RotD50,f4.0000SA_RotD50,f3.3333SA_RotD50,f2.5000SA_RotD50,f2.0000SA_RotD50,f1.3333SA_RotD50,f1.0000SA_RotD50,f0.6667SA_RotD50,f0.5000SA_RotD50,f0.3333SA_RotD50,f0.2500SA_RotD50,f0.2000SA_RotD50,f0.1333SA_RotD50,f0.1000SA_RotD50,f100.0000SA_RotD100,f50.0000SA_RotD100,f33.3333SA_RotD100,f25.0000SA_RotD100,f20.0000SA_RotD100,f13.3333SA_RotD100,f10.0000SA_RotD100,f6.6667SA_RotD100,f5.0000SA_RotD100,f4.0000SA_RotD100,f3.3333SA_RotD100,f2.5000SA_RotD100,f2.0000SA_RotD100,f1.3333SA_RotD100,f1.0000SA_RotD100,f0.6667SA_RotD100,f0.5000SA_RotD100,f0.3333SA_RotD100,f0.2500SA_RotD100,f0.2000SA_RotD100,f0.1333SA_RotD100,f0.1000SA_RotD100,PGA_RotD50,PGA_RotD100,PGV_RotD50,PGV_RotD100
771645,1995-11-24T06:18:56.622999Z,D5505A37,6.19,0.08,Crustal,O,1,176,46,44,geonet,-42.953,171.8188,-42.9489,171.5677,5805359.34,2413627.76,5805487,2393135,11.44,11.44,20.44,22,18.34,21,22.52,-1.56,0,7.26,5.1,hw,APPS,C,300,Q2,0.4,Q1,30,Q2,0,-99999,-99999,0,0.29,20,0.493,20,Gledhill_etal_2000,0.1335915,0.134806465,0.136995834,0.140014812,0.145231264,0.151076725,0.165106879,0.201643682,0.20679425,0.155495137,0.141102646,0.10240912,0.092648186,0.061352489,0.032715617,0.013048728,0.006126652,-99999,-99999,-99999,-99999,-99999,0.150297762,0.152853107,0.156382549,0.160695043,0.167018697,0.19018735,0.208623974,0.253942724,0.223999738,0.194494499,0.149933205,0.142641395,0.10996015,0.070746559,0.038483605,0.016774784,0.00831261,-99999,-99999,-99999,-99999,-99999,0.132025,0.149811,0.066529,0.086571
771645,1995-11-24T06:18:56.622999Z,D6051D01,6.19,0.08,Crustal,O,1,176,46,44,geonet,-42.953,171.8188,-41.7557,171.5998,5805359.34,2413627.76,5938069,2393545,11.44,11.44,134.35,134.42,128.36,128.45,12.86,-133.79,0,7.26,5.1,nu,WBCS,D,300,Q3,1.2,Q2,105,Q3,0,-99999,-99999,0,0.2,20,0.34,20,Gledhill_etal_2000,0.018588807,0.018670375,0.018808254,0.019048727,0.019389025,0.021101077,0.022632688,0.021795215,0.02124856,0.022191659,0.024396262,0.02219739,0.021441624,0.016377563,0.013078361,0.006887361,0.004318677,-99999,-99999,-99999,-99999,-99999,0.023445036,0.023608752,0.023840009,0.024097564,0.024527262,0.027511635,0.030691955,0.027637142,0.029025144,0.029569047,0.029005294,0.02407701,0.024648446,0.019978102,0.017328641,0.008435902,0.005190914,-99999,-99999,-99999,-99999,-99999,0.018493,0.023427,0.015306,0.017548
771645,1995-11-24T06:18:56.622999Z,D6129A01,6.19,0.08,Crustal,O,1,176,46,44,geonet,-42.953,171.8188,-41.7999,172.328,5805359.34,2413627.76,5933893,2454147,11.44,11.44,134.87,134.97,129.24,129.34,-47.3,-125.39,0,7.26,5.1,nu,MCAS,D,501,Q3,1.6,Q3,200,Q3,0,-99999,-99999,1,0.2,10,0.34,10,Gledhill_etal_2000,0.018074189,0.018105501,0.018159518,0.018231298,0.018316625,0.018685219,0.019565146,0.022302653,0.023385973,0.024677997,0.024295086,0.023455286,0.0227938,0.02291308,0.022709496,0.015987063,0.009381376,-99999,-99999,-99999,-99999,-99999,0.022480381,0.022516717,0.022568388,0.022630726,0.022711897,0.023015738,0.02318298,0.025259079,0.027053626,0.027198353,0.027531937,0.025092899,0.023994415,0.027960481,0.029878529,0.018929472,0.010316774,-99999,-99999,-99999,-99999,-99999,0.018047,0.022471,0.028369,0.03326
771645,1995-11-24T06:18:56.622999Z,K5112B01,6.19,0.08,Crustal,O,1,176,46,44,geonet,-42.953,171.8188,-43.1325,171.7693,5805359.34,2413627.76,5785358,2409884,11.44,11.44,20.36,21.83,14.58,16.61,7.21,19.69,0,7.26,5.1,nu,112B,C,667,Q3,0.36,Q3,60,Q3,0,-99999,-99999,1,0.25,20,0.425,20,Gledhill_etal_2000,0.137291458,0.139523213,0.143031252,0.149174497,0.15648571,0.174677874,0.182015564,0.205189965,0.195210048,0.15563821,0.119639663,0.080625289,0.054068963,0.028395513,0.021313646,0.014099879,0.009075062,-99999,-99999,-99999,-99999,-99999,0.155449266,0.157306685,0.160331233,0.165592106,0.169082516,0.190631085,0.217936852,0.225542972,0.230484317,0.185186162,0.138733688,0.104518058,0.073579091,0.034366723,0.024004064,0.019395277,0.010125697,-99999,-99999,-99999,-99999,-99999,0.136134,0.153001,0.051684,0.068418
1037562,1996-08-29T04:47:00.878000Z,D6042A01,5.25,0.15,Crustal,S,0,317,67,-2.00E+01,geonet,-42.4891,172.7921,-42.5232,172.8305,5857551.8,2492912.82,5853765,2496076,3.9,3.9,4.93,10.98,3.66,9.43,-99999,-99999,0,9.43,7.61,nu,HSES,D,280,Q3,0.9,Q1,85,Q3,0,-99999,-99999,0,0.2,18,0.34,18,HarvardCMT,0.237079921,0.237419063,0.238276675,0.239491251,0.241278401,0.24317428,0.263133361,0.280161002,0.283739063,0.282494727,0.306365466,0.297413021,0.271650536,0.236787506,0.198110957,0.099379287,0.054879448,-99999,-99999,-99999,-99999,-99999,0.274632009,0.275573188,0.278116122,0.281393445,0.284299199,0.285643554,0.2913766,0.331953236,0.309262886,0.323013488,0.321895217,0.323565044,0.282267237,0.245141038,0.226333231,0.115666279,0.065702766,-99999,-99999,-99999,-99999,-99999,0.236709,0.274839,0.238508,0.283921
1348340,1999-01-03T07:00:20.568000Z,D9131A03,5.22,0.15,Slab,N,1,211,80,-8.30E+01,nlloc,-41.0938,174.519,-40.9143,175.005,6011432.3,2637591.18,6030534,2678862,3.7,3.7,45.4,72.68,43.85,70.85,-25.21,-37.63,0,56.68,54.84,nu,PAPS,D,200,Q3,1.4,Q1,100,Q3,0,-99999,-99999,0,0.4,15,0.68,15,HarvardCMT,0.025624467,0.025935189,0.026574369,0.027411427,0.028534662,0.032357795,0.037244539,0.040276903,0.033171336,0.025872002,0.019119148,0.012970383,0.011665778,0.009988472,0.007598284,-99999,-99999,-99999,-99999,-99999,-99999,-99999,0.027326162,0.027669396,0.028153768,0.028781083,0.029574929,0.035039441,0.041369176,0.045581741,0.039799361,0.029468187,0.02130865,0.017895402,0.013577701,0.010772403,0.009185091,-99999,-99999,-99999,-99999,-99999,-99999,-99999,0.025641,0.027261,0.012535,0.014003
1348340,1999-01-03T07:00:20.568000Z,D9469A01,5.22,0.15,Slab,N,1,211,80,-8.30E+01,nlloc,-41.0938,174.519,-41.2117,174.9033,6011432.3,2637591.18,5997711,2669586,3.7,3.7,34.75,66.53,34.35,64.79,-34.17,-4.72,0,56.68,54.84,nu,LHES,D,240,Q3,1.16,Q3,280,Q3,0,-99999,-99999,0,0.35,12.5,0.595,12.5,HarvardCMT,0.018474985,0.018511422,0.018594878,0.018689739,0.018796014,0.018912837,0.019900313,0.022054358,0.023104143,0.023515759,0.025485246,0.024863225,0.021725661,0.014021601,0.008997802,0.003728644,-99999,-99999,-99999,-99999,-99999,-99999,0.026126757,0.026174712,0.026294303,0.026432461,0.02655741,0.026370563,0.026753343,0.030255195,0.031463472,0.033120802,0.033375964,0.032261931,0.029305271,0.019831475,0.012715686,0.005231627,-99999,-99999,-99999,-99999,-99999,-99999,0.018481,0.026135,0.01573,0.02148
1348340,1999-01-03T07:00:20.568000Z,D9643B07,5.22,0.15,Slab,N,1,211,80,-8.30E+01,nlloc,-41.0938,174.519,-41.1513,174.9794,6011432.3,2637591.18,6004275,2676112,3.7,3.7,39.09,68.98,38.4,67.25,-36.38,-13.7,0,56.68,54.84,nu,643B,B,1000,Q3,<0.1,Q3,1.50E+00,Q3,0,-99999,-99999,0,0.45,18,0.765,18,HarvardCMT,0.027500325,0.028027141,0.029088185,0.030862644,0.033381486,0.039185422,0.042938949,0.042085203,0.038204502,0.02610526,0.017382366,0.01057169,0.007598961,0.005145267,0.003072191,-99999,-99999,-99999,-99999,-99999,-99999,-99999,0.036210422,0.0365092,0.037008651,0.037928568,0.038774633,0.044028179,0.046671919,0.059511675,0.052669281,0.036727017,0.024519909,0.014327102,0.009202965,0.007219579,0.004189382,-99999,-99999,-99999,-99999,-99999,-99999,-99999,0.027619,0.036236,0.008702,0.010464
1348340,1999-01-03T07:00:20.568000Z,D9644C05,5.22,0.15,Slab,N,1,211,80,-8.30E+01,nlloc,-41.0938,174.519,-41.2187,174.8826,6011432.3,2637591.18,5996970,2667828,3.7,3.7,33.46,65.85,33.1,64.1,-33.04,-3.18,0,56.68,54.84,nu,644C,D,189,Q3,2,Q3,250,Q3,0,-99999,-99999,0,0.3,18,0.51,18,HarvardCMT,0.019739379,0.019806075,0.01997698,0.020114112,0.020209544,0.022391327,0.024521002,0.029559008,0.027451972,0.02273364,0.022166436,0.022501096,0.020248262,0.011663305,0.006903625,0.003197675,-99999,-99999,-99999,-99999,-99999,-99999,0.027184147,0.027255688,0.027312843,0.027302227,0.027092121,0.031663798,0.034481438,0.041125879,0.038653025,0.032152327,0.031190985,0.03131681,0.027108971,0.014979578,0.009358428,0.004382298,-99999,-99999,-99999,-99999,-99999,-99999,0.019756,0.027164,0.011757,0.016601
1348340,1999-01-03T07:00:20.568000Z,D9900C01,5.22,0.15,Slab,N,1,211,80,-8.30E+01,nlloc,-41.0938,174.519,-41.2891,174.7799,6011432.3,2637591.18,5989335,2659058,3.7,3.7,30.79,64.52,30.25,62.73,-29.46,7.88,0,56.68,54.84,nu,900C,D,250,Q3,0.8,Q3,60,Q3,0,-99999,-99999,0,0.52,10,0.884,10,HarvardCMT,0.01711884,0.017185711,0.017322339,0.017536106,0.017818892,0.018908314,0.021605611,0.020876135,0.021498119,0.023641384,0.025507092,0.021789657,0.015749546,0.007839184,0.004416465,-99999,-99999,-99999,-99999,-99999,-99999,-99999,0.020870093,0.021060755,0.021325016,0.021660601,0.022052449,0.023713379,0.02449516,0.027105043,0.027446631,0.02965659,0.028467423,0.026484441,0.0199598,0.009707249,0.006112122,-99999,-99999,-99999,-99999,-99999,-99999,-99999,0.017089,0.02082,0.011181,0.013802
1348340,1999-01-03T07:00:20.568000Z,G9713A02,5.22,0.15,Slab,N,1,211,80,-8.30E+01,nlloc,-41.0938,174.519,-41.1257,174.8392,6011432.3,2637591.18,6007373,2664412,3.7,3.7,27.06,62.84,26.34,61.02,-24.76,-10.33,0,56.68,54.84,nu,713A,D,210,Q3,0.6,Q3,40,Q3,0,-99999,-99999,0,0.6,12.5,1.02,12.5,HarvardCMT,0.020867234,0.021068997,0.021394902,0.021962656,0.022704638,0.025377008,0.029422756,0.031347235,0.029618645,0.023904287,0.019921745,0.019307166,0.020452909,0.01466243,-99999,-99999,-99999,-99999,-99999,-99999,-99999,-99999,0.028188817,0.028373669,0.028675355,0.029098059,0.029708397,0.032773507,0.037966463,0.036073872,0.03203067,0.027424624,0.025164269,0.0238094,0.024243652,0.016135328,-99999,-99999,-99999,-99999,-99999,-99999,-99999,-99999,0.020826,0.028155,0.012396,0.013872
1348340,1999-01-03T07:00:20.568000Z,I9467A03,5.22,0.15,Slab,N,1,211,80,-8.30E+01,nlloc,-41.0938,174.519,-41.2425,174.9024,6011432.3,2637591.18,5994293,2669430,3.7,3.7,36.1,67.24,35.77,65.51,-35.79,-1.71,0,56.68,54.84,nu,467A,D,218,Q3,1.5,Q3,200,Q3,0,-99999,-99999,0,0.35,18,0.595,18,HarvardCMT,0.015968442,0.016024639,0.01617547,0.016436195,0.016941744,0.018830191,0.019659858,0.023612958,0.025395221,0.022797306,0.022451235,0.025535494,0.024571767,0.016359075,0.009820316,0.004206961,-99999,-99999,-99999,-99999,-99999,-99999,0.022037226,0.022106535,0.022254417,0.022532132,0.02300843,0.025406464,0.026631859,0.029868033,0.031146105,0.029075683,0.030389735,0.035247566,0.034372445,0.022548816,0.013784338,0.005919832,-99999,-99999,-99999,-99999,-99999,-99999,0.015965,0.021979,0.016572,0.021891
1348340,1999-01-03T07:00:20.568000Z,I9468A01,5.22,0.15,Slab,N,1,211,80,-8.30E+01,nlloc,-41.0938,174.519,-41.2011,174.9547,6011432.3,2637591.18,5998793,2673916,3.7,3.7,38.38,68.5,37.91,66.79,-37.32,-7.87,0,56.68,54.84,nu,468A,D,190,Q1,0.9,Q3,50,Q3,0,-99999,-99999,0,0.3,20,0.51,20,HarvardCMT,0.034324952,0.035000588,0.036187786,0.037880622,0.040102771,0.042646908,0.047635082,0.047332619,0.041782862,0.03338569,0.030170628,0.025689854,0.024409046,0.019315019,0.014710017,0.005873132,-99999,-99999,-99999,-99999,-99999,-99999,0.037447378,0.038202948,0.039325771,0.040749576,0.042745045,0.050291765,0.055494036,0.057134721,0.049558614,0.038161549,0.035364557,0.03504276,0.029772535,0.023848628,0.017076879,0.007321277,-99999,-99999,-99999,-99999,-99999,-99999,0.033923,0.037196,0.017852,0.019378
1348340,1999-01-03T07:00:20.568000Z,I9602C01,5.22,0.15,Slab,N,1,211,80,-8.30E+01,nlloc,-41.0938,174.519,-41.1903,174.928,6011432.3,2637591.18,6000041,2671703,3.7,3.7,35.89,67.15,35.4,65.41,-34.78,-7.8,0,56.68,54.84,nu,602C,B,1000,Q3,<0.1,Q3,0,Q3,0,-99999,-99999,0,0.3,40,0.51,40,HarvardCMT,0.012078619,0.012280137,0.012727562,0.013500577,0.014301208,0.015937093,0.01536036,0.014582023,0.012170712,0.010721764,0.009979667,0.008945584,0.008202637,0.005338145,0.003088492,0.001433229,-99999,-99999,-99999,-99999,-99999,-99999,0.016493687,0.016674887,0.017025926,0.018030014,0.019298055,0.021446209,0.020248145,0.018608315,0.017086283,0.01320771,0.012289426,0.011856394,0.01134511,0.007529434,0.004336146,0.001922716,-99999,-99999,-99999,-99999,-99999,-99999,0.012032,0.01644,0.005437,0.007595
1348340,1999-01-03T07:00:20.568000Z,I9603B02,5.22,0.15,Slab,N,1,211,80,-8.30E+01,nlloc,-41.0938,174.519,-41.2237,174.86,6011432.3,2637591.18,5996453,2665923,3.7,3.7,31.99,65.12,31.66,63.36,-31.67,-1.75,0,56.68,54.84,nu,603B,B,1000,Q3,<0.1,Q3,0,Q3,0,-99999,-99999,0,0.19,55,0.323,55,HarvardCMT,0.007817584,0.007969953,0.008126602,0.00822777,0.008803391,0.009884013,0.010769234,0.012054676,0.009620223,0.007257763,0.006265979,0.006287769,0.00608175,0.004415824,0.003174618,0.001497838,0.000845429,0.000330818,-99999,-99999,-99999,-99999,0.00978402,0.009898022,0.009878164,0.010017326,0.010055664,0.010880353,0.011702856,0.013451685,0.011187883,0.007856966,0.007877374,0.00855963,0.007932313,0.006119921,0.004210311,0.002115054,0.001053356,0.000447693,-99999,-99999,-99999,-99999,0.00778,0.00974,0.004733,0.0053
1348340,1999-01-03T07:00:20.568000Z,I9605B22,5.22,0.15,Slab,N,1,211,80,-8.30E+01,nlloc,-41.0938,174.519,-41.2074,174.9401,6011432.3,2637591.18,5998119,2672679,3.7,3.7,37.45,68.03,37.01,66.31,-36.61,-6.66,0,56.68,54.84,nu,FAIS,B,760,Q3,0.27,Q1,0,Q2,0,-99999,-99999,0,0.3,45,0.51,45,HarvardCMT,0.011392171,0.011721954,0.012064782,0.012429248,0.012741636,0.014943595,0.015547031,0.014546464,0.011832529,0.011505497,0.011327281,0.011055822,0.009303863,0.005544199,0.003145737,0.001292875,-99999,-99999,-99999,-99999,-99999,-99999,0.013869609,0.014077895,0.01444424,0.015659803,0.017099992,0.01754943,0.017007261,0.01745,0.015514321,0.014523683,0.014889708,0.015632521,0.013138766,0.007816588,0.004443553,0.001792037,-99999,-99999,-99999,-99999,-99999,-99999,0.011282,0.013748,0.005969,0.008408
1348340,1999-01-03T07:00:20.568000Z,I9606B03,5.22,0.15,Slab,N,1,211,80,-8.30E+01,nlloc,-41.0938,174.519,-41.2333,174.9199,6011432.3,2637591.18,5995282,2670919,3.7,3.7,36.97,67.71,36.61,65.99,-36.56,-3.32,0,56.68,54.84,nu,606B,B,800,Q3,<0.1,Q3,0,Q3,0,-99999,-99999,0,0.18,52,0.306,52,HarvardCMT,0.01282756,0.013251522,0.013682747,0.015075395,0.016431284,0.016962856,0.015904384,0.012467577,0.010313423,0.009387039,0.008132501,0.007141318,0.004961405,0.003413294,0.002081894,0.000807402,0.000443982,0.000223263,-99999,-99999,-99999,-99999,0.017235583,0.017711748,0.018330899,0.01985379,0.021849253,0.023119548,0.018944635,0.015359575,0.013538071,0.011642031,0.010915363,0.009655295,0.006862282,0.004796084,0.002909181,0.001023271,0.000608238,0.000314611,-99999,-99999,-99999,-99999,0.012759,0.017084,0.004154,0.004607
1348340,1999-01-03T07:00:20.568000Z,I9640A06,5.22,0.15,Slab,N,1,211,80,-8.30E+01,nlloc,-41.0938,174.519,-41.235,174.9147,6011432.3,2637591.18,5995103,2670479,3.7,3.7,36.65,67.54,36.31,65.82,-36.28,-2.94,0,56.68,54.84,nu,640A,E,230,Q3,0.5,Q3,60,Q3,0,-99999,-99999,0,0.3,20,0.51,20,HarvardCMT,0.021790428,0.022059927,0.022541951,0.023229469,0.024733699,0.029009959,0.029508882,0.027176396,0.024378849,0.024097847,0.024436641,0.024476955,0.019114797,0.008137555,0.005223536,0.002147975,-99999,-99999,-99999,-99999,-99999,-99999,0.028964452,0.029323781,0.02994776,0.030895977,0.032335297,0.035990963,0.037003249,0.032437494,0.028404306,0.026994523,0.03030407,0.031150852,0.024871799,0.011048628,0.006997212,0.002831438,-99999,-99999,-99999,-99999,-99999,-99999,0.021522,0.029039,0.010105,0.014102
1348340,1999-01-03T07:00:20.568000Z,I9646B03,5.22,0.15,Slab,N,1,211,80,-8.30E+01,nlloc,-41.0938,174.519,-41.2574,174.9485,6011432.3,2637591.18,5992552,2673256,3.7,3.7,40.29,69.65,39.95,67.96,-39.97,-2.19,0,56.68,54.84,nu,WDAS,E,120,Q1,1.6,Q2,62,Q2,0,-99999,-99999,0,0.4,35,0.68,35,HarvardCMT,0.019629148,0.020071987,0.020575483,0.021701697,0.022612599,0.025008697,0.02661603,0.026315843,0.025643504,0.023425698,0.022365399,0.018133353,0.01790374,0.019127325,0.017204163,-99999,-99999,-99999,-99999,-99999,-99999,-99999,0.020560798,0.020835871,0.021354838,0.022859909,0.024495868,0.028725491,0.029887477,0.029774878,0.027599118,0.027367797,0.025573003,0.025348793,0.022941571,0.021080383,0.020543549,-99999,-99999,-99999,-99999,-99999,-99999,-99999,0.019566,0.020568,0.016838,0.020664
1348340,1999-01-03T07:00:20.568000Z,I9708A04,5.22,0.15,Slab,N,1,211,80,-8.30E+01,nlloc,-41.0938,174.519,-41.1314,174.8391,6011432.3,2637591.18,6006740,2664387,3.7,3.7,27.14,62.88,26.45,61.06,-25.06,-9.78,0,56.68,54.84,nu,POLS,C,250,Q2,0.4,Q1,25,Q2,0,-99999,-99999,0,0.25,20,0.425,20,HarvardCMT,0.015901777,0.016136144,0.016618272,0.017392521,0.018525402,0.020000862,0.020920007,0.021406373,0.020627491,0.018027079,0.016081994,0.010866169,0.009729298,0.006341606,0.003843954,0.001540773,0.000830091,-99999,-99999,-99999,-99999,-99999,0.020212616,0.020467738,0.020962681,0.021858383,0.023228532,0.026342601,0.028317491,0.028461318,0.026863633,0.023986942,0.022414479,0.013395026,0.011342883,0.008955863,0.004825103,0.00217843,0.001173888,-99999,-99999,-99999,-99999,-99999,0.015729,0.019999,0.007194,0.008358
1348340,1999-01-03T07:00:20.568000Z,I9918C01,5.22,0.15,Slab,N,1,211,80,-8.30E+01,nlloc,-41.0938,174.519,-41.284,174.7682,6011432.3,2637591.18,5989908,2658140,3.7,3.7,29.7,64.14,29.14,62.35,-28.37,7.87,0,56.68,54.84,nu,WEL,B,1000,Q3,0.3,Q1,0,Q2,0,-99999,-99999,0,0.35,35,0.595,35,HarvardCMT,0.018659822,0.019138663,0.020896539,0.022369126,0.024517193,0.026767469,0.025660944,0.026676503,0.021063049,0.014691507,0.011043574,0.00788575,0.005939012,0.003479232,0.002482346,0.001251529,-99999,-99999,-99999,-99999,-99999,-99999,0.022724787,0.023141692,0.023869302,0.02441111,0.026605446,0.033080227,0.030621292,0.037582368,0.029600557,0.019567585,0.015559189,0.011151664,0.008217374,0.004758389,0.003426282,0.001500549,-99999,-99999,-99999,-99999,-99999,-99999,0.018532,0.022602,0.006648,0.009403
1444773,1999-10-25T20:31:43.627000Z,D9014A02,6.02,0.15,Slab,O,0,158,54,35,nlloc,-38.5427,175.885,-39.4984,176.8761,6291620.32,2761553.77,6182359,2843283,9.4,9.4,136.47,204.75,133.03,201.69,-99999,-99999,0,152.66,148.68,nu,NCDS,E,162,Q3,1.25,Q2,110,Q3,0,-99999,-99999,1,0.25,14,0.425,14,HarvardCMT,0.03734987,0.037485363,0.037650467,0.037853899,0.038343948,0.041358054,0.04634755,0.05085226,0.054043577,0.051251233,0.04756536,0.036915195,0.032485255,0.031301706,0.019643661,0.01043628,0.00592826,-99999,-99999,-99999,-99999,-99999,0.048728018,0.04889915,0.049318843,0.049887279,0.050619588,0.054182471,0.056857916,0.064353922,0.067559856,0.062969636,0.055593989,0.039012143,0.037082325,0.039656621,0.025624065,0.0127088,0.007179266,-99999,-99999,-99999,-99999,-99999,0.037263,0.048479,0.027826,0.03757
1444773,1999-10-25T20:31:43.627000Z,D9027G06,6.02,0.15,Slab,O,0,158,54,35,nlloc,-38.5427,175.885,-39.4884,176.9189,6291620.32,2761553.77,6183307,2847012,9.4,9.4,137.97,205.77,134.56,202.73,-99999,-99999,0,152.66,148.68,nu,NAMS,C,268,Q3,0.4,Q3,20,Q3,0,-99999,-99999,1,0.25,12,0.425,12,HarvardCMT,0.017790482,0.017876284,0.018046593,0.018232106,0.01848207,0.019409693,0.02080984,0.02686017,0.028185198,0.024143848,0.020250314,0.018654742,0.017166141,0.009101178,0.006442134,0.004354937,0.002869626,-99999,-99999,-99999,-99999,-99999,0.020248531,0.020323213,0.020450322,0.02065196,0.020941912,0.022363215,0.024411449,0.029595472,0.032219013,0.027045407,0.023560533,0.021221463,0.018765969,0.01244354,0.008435155,0.005974779,0.003437693,-99999,-99999,-99999,-99999,-99999,0.017732,0.020169,0.011055,0.013032
