CuspID,Origin_time,Record,Mw,MwUncert,TectClass,Mech,PreferredFaultPlane,Strike,Dip,Rake,Location,HypLat,HypLon,StationLat,StationLon,HypN,HypE,StationN,StationE,LENGTH_km,WIDTH_km,Repi_km,Rhyp_km,Rjb_km,Rrup_km,Rx_km,Ry_km,Rvol_km,HypDepth_km,ZTOR_km,HWFW,SiteCode,SiteClass1170,Vs30,Vs30Uncert,Tsite,TsiteUncert,Z1,Z1Uncertainty,Directivity,Pulse_or,Pulse_T,S_Trigger_Flag,fcButterHP,f_iniLP,fmin,fmax,References,f100.0000SA_RotD50,f50.0000SA_RotD50,f33.3333SA_RotD50,f25.0000SA_RotD50,f20.0000SA_RotD50,f13.3333SA_RotD50,f10.0000SA_RotD50,f6.6667SA_RotD50,f5.0000SA_RotD50,f4.0000SA_RotD50,f3.3333SA_RotD50,f2.5000SA_RotD50,f2.0000SA_RotD50,f1.3333SA_RotD50,f1.0000SA_RotD50,f0.6667SA_RotD50,f0.5000SA_RotD50,f0.3333SA_RotD50,f0.2500SA_RotD50,f0.2000SA_RotD50,f0.1333SA_RotD50,f0.1000SA_RotD50,f100.0000SA_RotD100,f50.0000SA_RotD100,f33.3333SA_RotD100,f25.0000SA_RotD100,f20.0000SA_RotD100,f13.3333SA_RotD100,f10.0000SA_RotD100,f6.6667SA_RotD100,f5.0000SA_RotD100,f4.0000SA_RotD100,f3.3333SA_RotD100,f2.5000SA_RotD100,f2.0000SA_RotD100,f1.3333SA_RotD100,f1.0000SA_RotD100,f0.6667SA_RotD100,f0.5000SA_RotD100,f0.3333SA_RotD100,f0.2500SA_RotD100,f0.2000SA_RotD100,f0.1333SA_RotD100,f0.1000SA_RotD100,PGA_RotD50,PGA_RotD100,PGV_RotD50,PGV_RotD100
722185,1995-03-22T19:43:30.268000Z,D5646A05,5.83,0.15,Slab,S,0,27,64,30,nlloc,-41.0514,174.216,-41.2574,174.9485,6016538.56,2612205.51,5992552,2673256,7.6,7.6,65.46,107.84,62.76,105.2,-99999,-99999,0,85.51,82.13,nu,WDAS,E,120,Q1,1.6,Q2,62,Q2,0,-99999,-99999,0,0.25,19,0.425,19,HarvardCMT,0.04427032,0.044610365,0.044992627,0.045685751,0.046407766,0.048997669,0.050304013,0.049808594,0.046587538,0.045494493,0.043051932,0.03554874,0.03076826,0.026447804,0.022922723,0.011393848,0.005970184,-99999,-99999,-99999,-99999,-99999,0.061432869,0.061890284,0.06238367,0.062976208,0.063878181,0.065437494,0.065557489,0.065140965,0.056031117,0.051502502,0.049588685,0.045484796,0.039039021,0.037008995,0.029123221,0.014695967,0.007802863,-99999,-99999,-99999,-99999,-99999,0.044194,0.061457,0.031242,0.043211
722185,1995-03-22T19:43:30.268000Z,D5647D02,5.83,0.15,Slab,S,0,27,64,30,nlloc,-41.0514,174.216,-41.2875,174.7769,6016538.56,2612205.51,5989514,2658817,7.6,7.6,53.8,101.07,51.16,98.26,-99999,-99999,0,85.51,82.13,nu,647D,D,474,Q2,0.12,Q2,5.70E+00,Q2,0,-99999,-99999,0,0.3,18,0.51,18,HarvardCMT,0.043906753,0.044159037,0.044813391,0.04546854,0.046143704,0.048750529,0.051316347,0.054635705,0.052085003,0.046830505,0.041065585,0.029346766,0.021528701,0.009930495,0.005596629,0.00290575,-99999,-99999,-99999,-99999,-99999,-99999,0.053291467,0.053406855,0.05371366,0.054415474,0.055676835,0.058809223,0.06037869,0.067587384,0.071093762,0.064544147,0.056540698,0.038193789,0.023871164,0.011340309,0.0058193,0.003593833,-99999,-99999,-99999,-99999,-99999,-99999,0.044004,0.053275,0.021937,0.024439
722185,1995-03-22T19:43:30.268000Z,D5648A03,5.83,0.15,Slab,S,0,27,64,30,nlloc,-41.0514,174.216,-41.2775,174.7735,6016538.56,2612205.51,5990634,2658549,7.6,7.6,53.01,109.27,50.36,106.39,-99999,-99999,0,85.51,82.13,nu,921A,C,330,Q3,0.5,Q3,38,Q3,0,-99999,-99999,0,0.35,32,0.595,32,HarvardCMT,0.057671822,0.058325922,0.059041189,0.059658994,0.060570153,0.063443319,0.066230321,0.065401884,0.057680931,0.049839661,0.044951504,0.030742386,0.022272842,0.010396565,0.00652871,0.003853065,-99999,-99999,-99999,-99999,-99999,-99999,0.060628652,0.061157967,0.062244722,0.0632154,0.064281265,0.070631399,0.077221443,0.078018952,0.069056165,0.058348481,0.049915978,0.036405173,0.024957313,0.012611238,0.008610051,0.004933939,-99999,-99999,-99999,-99999,-99999,-99999,0.057084,0.060531,0.025057,0.029225
722185,1995-03-22T19:43:30.268000Z,D5707A02,5.83,0.15,Slab,S,0,27,64,30,nlloc,-41.0514,174.216,-41.1391,174.8502,6016538.56,2612205.51,6005867,2665298,7.6,7.6,54.03,101.23,51.21,98.48,-99999,-99999,0,85.51,82.13,nu,707A,C,570,Q3,0.15,Q3,10,Q3,0,-99999,-99999,0,0.25,20,0.425,20,HarvardCMT,0.032679422,0.033274826,0.034354336,0.035353612,0.036512677,0.036924466,0.036462847,0.027204473,0.020204505,0.016789056,0.014367845,0.010796612,0.008960031,0.005842369,0.003797466,0.002234651,0.00141965,-99999,-99999,-99999,-99999,-99999,0.038161237,0.038842872,0.03971991,0.040961804,0.043233178,0.046028908,0.044623621,0.032939221,0.022414801,0.019070158,0.01753253,0.014834945,0.011599323,0.006947908,0.00481022,0.002557833,0.001626182,-99999,-99999,-99999,-99999,-99999,0.032794,0.037966,0.009417,0.01102
722185,1995-03-22T19:43:30.268000Z,D5900C02,5.83,0.15,Slab,S,0,27,64,30,nlloc,-41.0514,174.216,-41.2891,174.7799,6016538.56,2612205.51,5989335,2659058,7.6,7.6,54.09,101.23,51.45,98.43,-99999,-99999,0,85.51,82.13,nu,900C,D,250,Q3,0.8,Q3,60,Q3,0,-99999,-99999,0,0.3,15,0.51,15,HarvardCMT,0.054859139,0.05510189,0.055447816,0.05593675,0.056601318,0.059387616,0.062511502,0.067684724,0.069377911,0.062872196,0.057969619,0.040161002,0.027821195,0.014838001,0.009363849,0.004183392,-99999,-99999,-99999,-99999,-99999,-99999,0.070276717,0.070584497,0.0710628,0.071792899,0.073009647,0.078451001,0.083812417,0.090515321,0.088139574,0.076511195,0.063581253,0.044847725,0.03367955,0.020331746,0.011150891,0.004889878,-99999,-99999,-99999,-99999,-99999,-99999,0.054898,0.07014,0.030361,0.034038
722185,1995-03-22T19:43:30.268000Z,D5935C03,5.83,0.15,Slab,S,0,27,64,30,nlloc,-41.0514,174.216,-41.2108,174.9047,6016538.56,2612205.51,5997808,2669699,7.6,7.6,60.34,104.73,57.6,102.04,-99999,-99999,0,85.51,82.13,nu,935A,D,240,Q3,1.2,Q3,275,Q3,0,-99999,-99999,0,0.25,24.5,0.425,24.5,HarvardCMT,0.038801793,0.038908871,0.039242584,0.039374145,0.039674254,0.041555599,0.043996552,0.046586695,0.045145688,0.042297009,0.040704549,0.035356619,0.030516383,0.017440594,0.010890554,0.005353163,0.003018278,-99999,-99999,-99999,-99999,-99999,0.042428705,0.042659057,0.043168139,0.043878176,0.04433466,0.046623798,0.048109161,0.051333941,0.051336655,0.04765908,0.043684756,0.041882641,0.03435307,0.020535666,0.01387864,0.007377972,0.003722747,-99999,-99999,-99999,-99999,-99999,0.038712,0.042452,0.023412,0.027531
722185,1995-03-22T19:43:30.268000Z,I5027F03,5.83,0.15,Slab,S,0,27,64,30,nlloc,-41.0514,174.216,-39.4884,176.9189,6016538.56,2612205.51,6183307,2847012,7.6,7.6,287.72,300.43,284.58,297.6,-99999,-99999,0,85.51,82.13,nu,NAMS,C,268,Q3,0.4,Q3,20,Q3,0,-99999,-99999,1,0.5,21,0.85,21,HarvardCMT,0.007500784,0.007521357,0.007556607,0.007609977,0.007662707,0.007743881,0.007890577,0.008328489,0.008934792,0.009260003,0.009285131,0.007896488,0.005800158,0.002979226,0.001599908,-99999,-99999,-99999,-99999,-99999,-99999,-99999,0.010084772,0.010110632,0.010160227,0.010231061,0.010332925,0.010567111,0.010674886,0.011182836,0.011694415,0.012177592,0.012303013,0.009976589,0.007499837,0.004074679,0.002061939,-99999,-99999,-99999,-99999,-99999,-99999,-99999,0.00749,0.010072,0.004646,0.005415
722185,1995-03-22T19:43:30.268000Z,I5467A07,5.83,0.15,Slab,S,0,27,64,30,nlloc,-41.0514,174.216,-41.2425,174.9024,6016538.56,2612205.51,5994293,2669430,7.6,7.6,61.27,105.27,58.57,102.59,-99999,-99999,0,85.51,82.13,nu,467A,D,218,Q3,1.5,Q3,200,Q3,0,-99999,-99999,0,0.19,28,0.323,28,HarvardCMT,0.037765609,0.038064092,0.038482245,0.039063723,0.039725022,0.041789202,0.043444824,0.044788772,0.038475192,0.029897476,0.025875436,0.023751296,0.021686097,0.014255223,0.011085911,0.007190851,0.004034254,0.001675658,-99999,-99999,-99999,-99999,0.043021645,0.043198219,0.043661847,0.044213845,0.044453246,0.046580335,0.051087646,0.050573916,0.041355894,0.034415118,0.030997916,0.026514773,0.023697055,0.016878174,0.013023203,0.007926833,0.004854841,0.002005284,-99999,-99999,-99999,-99999,0.037621,0.042592,0.02036,0.023217
722185,1995-03-22T19:43:30.268000Z,I5468A06,5.83,0.15,Slab,S,0,27,64,30,nlloc,-41.0514,174.216,-41.2011,174.9547,6016538.56,2612205.51,5998793,2673916,7.6,7.6,64.07,106.94,61.31,104.29,-99999,-99999,0,85.51,82.13,nu,468A,D,190,Q1,0.9,Q3,50,Q3,0,-99999,-99999,0,0.25,24,0.425,24,HarvardCMT,0.057199626,0.057601657,0.057998429,0.059227139,0.061768002,0.067881235,0.071117754,0.070186243,0.065705704,0.055217829,0.048938042,0.042396657,0.037319152,0.025506679,0.017486057,0.008335553,0.004405559,-99999,-99999,-99999,-99999,-99999,0.074392415,0.074817279,0.075889521,0.077213296,0.079036687,0.085463773,0.089382542,0.082541791,0.070025112,0.0600725,0.05522085,0.049053312,0.041457675,0.034066574,0.023639671,0.009854855,0.005302989,-99999,-99999,-99999,-99999,-99999,0.057084,0.07455,0.031492,0.037271
722185,1995-03-22T19:43:30.268000Z,I5602C01,5.83,0.15,Slab,S,0,27,64,30,nlloc,-41.0514,174.216,-41.1903,174.928,6016538.56,2612205.51,6000041,2671703,7.6,7.6,61.61,105.49,58.84,102.81,-99999,-99999,0,85.51,82.13,nu,602C,B,1000,Q3,<0.1,Q3,0,Q3,0,-99999,-99999,0,0.2,45,0.34,45,HarvardCMT,0.01811588,0.018413782,0.018800212,0.019053561,0.019772932,0.021245396,0.019921276,0.017270212,0.016660228,0.014068404,0.012813466,0.009867883,0.007792706,0.005207798,0.003200895,0.002001051,0.001400555,-99999,-99999,-99999,-99999,-99999,0.022739688,0.022929361,0.023337948,0.024157916,0.0254354,0.02845271,0.026050592,0.022894718,0.022774155,0.018761216,0.0157586,0.01220622,0.00954742,0.00572818,0.003824792,0.002505159,0.00185415,-99999,-99999,-99999,-99999,-99999,0.017965,0.022615,0.008932,0.011987
722185,1995-03-22T19:43:30.268000Z,I5603B03,5.83,0.15,Slab,S,0,27,64,30,nlloc,-41.0514,174.216,-41.2237,174.86,6016538.56,2612205.51,5996453,2665923,7.6,7.6,57.23,102.97,54.52,100.24,-99999,-99999,0,85.51,82.13,nu,603B,B,1000,Q3,<0.1,Q3,0,Q3,0,-99999,-99999,0,0.25,30,0.425,30,HarvardCMT,0.016753612,0.016936533,0.017329122,0.017964254,0.018856515,0.02067448,0.021580916,0.018452805,0.014826283,0.011982714,0.00983498,0.009759888,0.007877465,0.004871131,0.003507986,0.002150765,0.001616058,-99999,-99999,-99999,-99999,-99999,0.023693454,0.023952579,0.024414781,0.025372516,0.026669351,0.029167209,0.03042393,0.025196138,0.018047948,0.014708737,0.013467233,0.010989035,0.010108323,0.006793834,0.004832417,0.002753106,0.002269748,-99999,-99999,-99999,-99999,-99999,0.016751,0.023688,0.00872,0.011914
722185,1995-03-22T19:43:30.268000Z,I5605B05,5.83,0.15,Slab,S,0,27,64,30,nlloc,-41.0514,174.216,-41.2074,174.9401,6016538.56,2612205.51,5998119,2672679,7.6,7.6,63.08,106.39,60.33,103.72,-99999,-99999,0,85.51,82.13,nu,FAIS,B,760,Q3,0.27,Q1,0,Q2,0,-99999,-99999,0,0.15,32,0.255,32,HarvardCMT,0.031724868,0.032133733,0.032727752,0.033200736,0.033792952,0.035236087,0.036612851,0.036143835,0.028215998,0.023820005,0.020602338,0.018580789,0.014525188,0.006789145,0.004016203,0.001966256,0.001290912,0.000618903,-99999,-99999,-99999,-99999,0.037419014,0.037637441,0.037978896,0.038800164,0.039681406,0.040961016,0.039574891,0.0410739,0.037482412,0.031854663,0.029037546,0.025128026,0.020007534,0.009277996,0.004830244,0.002600614,0.001733548,0.000755375,-99999,-99999,-99999,-99999,0.03163,0.037414,0.013971,0.019442
722185,1995-03-22T19:43:30.268000Z,I5606B07,5.83,0.15,Slab,S,0,27,64,30,nlloc,-41.0514,174.216,-41.2333,174.9199,6016538.56,2612205.51,5995282,2670919,7.6,7.6,62.31,105.88,59.59,103.21,-99999,-99999,0,85.51,82.13,nu,606B,B,800,Q3,<0.1,Q3,0,Q3,0,-99999,-99999,0,0.25,35,0.425,35,HarvardCMT,0.03339969,0.033883106,0.035125982,0.035645942,0.036552728,0.039098918,0.038608189,0.033151258,0.023601253,0.016398257,0.01215006,0.007732899,0.005890395,0.003276267,0.002187522,0.001273212,0.000902133,-99999,-99999,-99999,-99999,-99999,0.037193193,0.037676885,0.039073484,0.04000535,0.041791483,0.045098781,0.0440247,0.036012319,0.025503294,0.018445068,0.015604438,0.010772397,0.007087967,0.004017519,0.002683354,0.001421142,0.000999972,-99999,-99999,-99999,-99999,-99999,0.032391,0.036712,0.008125,0.009724
722185,1995-03-22T19:43:30.268000Z,I5642G18,5.83,0.15,Slab,S,0,27,64,30,nlloc,-41.0514,174.216,-41.235,174.9172,6016538.56,2612205.51,5995098,2670688,7.6,7.6,62.16,105.8,59.44,103.12,-99999,-99999,0,85.51,82.13,nu,642G,C,350,Q1,0.35,Q2,50,Q3,0,-99999,-99999,0,0.25,35,0.425,35,HarvardCMT,0.073954868,0.075155457,0.077034292,0.079281275,0.082603128,0.085936936,0.087305443,0.080055428,0.060855164,0.048786238,0.037669286,0.025345858,0.018194456,0.008364534,0.005274454,0.002266938,0.001448058,-99999,-99999,-99999,-99999,-99999,0.083102894,0.084312094,0.085917998,0.08851728,0.092466552,0.100608571,0.103482032,0.090904067,0.07179407,0.055820532,0.043008207,0.028911451,0.019518813,0.009559796,0.00577626,0.002485402,0.001759919,-99999,-99999,-99999,-99999,-99999,0.073975,0.0828,0.018827,0.023045
722185,1995-03-22T19:43:30.268000Z,I5642H18,5.83,0.15,Slab,S,0,27,64,30,nlloc,-41.0514,174.216,-41.235,174.9172,6016538.56,2612205.51,5995098,2670688,7.6,7.6,62.16,105.8,59.44,103.12,-99999,-99999,0,85.51,82.13,nu,642H,C,350,Q1,0.35,Q2,50,Q3,0,-99999,-99999,0,0.25,35,0.425,35,HarvardCMT,0.053358138,0.053978114,0.055060379,0.056489164,0.058339799,0.061425884,0.061725447,0.062636347,0.056184668,0.047761236,0.040693516,0.028391429,0.020816102,0.009213123,0.005172156,0.002393534,0.00167109,-99999,-99999,-99999,-99999,-99999,0.069543453,0.070426154,0.071659386,0.073347629,0.075696063,0.081289917,0.083121329,0.071857836,0.059536468,0.050834732,0.044090722,0.030779878,0.023162865,0.01059501,0.005460799,0.002809435,0.001819079,-99999,-99999,-99999,-99999,-99999,0.053201,0.069069,0.020039,0.022652
722185,1995-03-22T19:43:30.268000Z,I5708A04,5.83,0.15,Slab,S,0,27,64,30,nlloc,-41.0514,174.216,-41.1314,174.8391,6016538.56,2612205.51,6006740,2664387,7.6,7.6,52.97,100.66,50.14,97.89,-99999,-99999,0,85.51,82.13,nu,POLS,C,250,Q2,0.4,Q1,25,Q2,0,-99999,-99999,0,0.15,30,0.255,30,HarvardCMT,0.039446507,0.039724087,0.040015251,0.040332442,0.040763405,0.042827282,0.046347539,0.045895606,0.039372553,0.037379615,0.034843681,0.025606147,0.019949595,0.010835616,0.00634458,0.003605527,0.002198937,0.001027673,-99999,-99999,-99999,-99999,0.044040635,0.044604007,0.045767083,0.046902037,0.048118966,0.050341367,0.051908364,0.050836727,0.049096481,0.046595786,0.042183264,0.031105806,0.022482916,0.012395972,0.007944176,0.004490008,0.002746235,0.001269243,-99999,-99999,-99999,-99999,0.039215,0.044089,0.018455,0.02399
722185,1995-03-22T19:43:30.268000Z,I5711A01,5.83,0.15,Slab,S,0,27,64,30,nlloc,-41.0514,174.216,-41.2294,174.9042,6016538.56,2612205.51,5995739,2669619,7.6,7.6,60.94,105.08,58.22,102.39,-99999,-99999,0,85.51,82.13,nu,LRSS,D,230,Q3,1.4,Q3,175,Q3,0,-99999,-99999,0,0.25,24.5,0.425,24.5,HarvardCMT,0.043120462,0.043498113,0.043877772,0.044393814,0.045385653,0.046320276,0.045610031,0.041621426,0.043951772,0.046332987,0.044896821,0.036386309,0.029221215,0.015121904,0.008961313,0.005202386,0.003735504,-99999,-99999,-99999,-99999,-99999,0.060989982,0.061263889,0.062056053,0.062790571,0.063857203,0.065506494,0.062428608,0.057301551,0.059335087,0.060882178,0.059545297,0.048061363,0.036161514,0.019972962,0.011323388,0.00699959,0.005109472,-99999,-99999,-99999,-99999,-99999,0.042852,0.06009,0.026957,0.036004
722185,1995-03-22T19:43:30.268000Z,I5918B08,5.83,0.15,Slab,S,0,27,64,30,nlloc,-41.0514,174.216,-41.284,174.7682,6016538.56,2612205.51,5989908,2658140,7.6,7.6,52.97,100.77,50.33,97.95,-99999,-99999,0,85.51,82.13,nu,WEL,B,1000,Q3,0.3,Q1,0,Q2,0,-99999,-99999,0,0.25,24.5,0.425,24.5,HarvardCMT,0.05852989,0.059138756,0.059770637,0.060666393,0.061648164,0.067026116,0.072372771,0.072760355,0.060190954,0.04808597,0.0380374,0.023934027,0.016374291,0.008369181,0.005771501,0.003446499,0.002145809,-99999,-99999,-99999,-99999,-99999,0.07921511,0.079480694,0.080419899,0.081410751,0.082473632,0.086602998,0.09314223,0.099720327,0.08342533,0.06360322,0.05028841,0.030447876,0.020116783,0.010502978,0.008150184,0.00454173,0.002742811,-99999,-99999,-99999,-99999,-99999,0.058394,0.078329,0.02109,0.029719
722185,1995-03-22T19:43:30.268000Z,I5926A03,5.83,0.15,Slab,S,0,27,64,30,nlloc,-41.0514,174.216,-39.4883,176.9169,6016538.56,2612205.51,6183331,2846839,7.6,7.6,287.59,300.32,284.45,297.49,-99999,-99999,0,85.51,82.13,nu,926A,C,651,Q3,0.07,Q3,5,Q3,0,-99999,-99999,1,0.35,15,0.595,15,HarvardCMT,0.00426208,0.004272031,0.004289702,0.004311467,0.004332929,0.004500337,0.004700742,0.004783921,0.005117106,0.005311749,0.005252881,0.004691805,0.003437148,0.001468146,0.000941051,0.000428085,-99999,-99999,-99999,-99999,-99999,-99999,0.005459889,0.005486166,0.005531661,0.005598444,0.005680316,0.005942513,0.006264342,0.006722224,0.006851445,0.006948606,0.006754005,0.006094718,0.004289433,0.001927888,0.00127023,0.00055286,-99999,-99999,-99999,-99999,-99999,-99999,0.004257,0.005447,0.002834,0.003776
722185,1995-03-22T19:43:30.268000Z,K5046A01,5.83,0.15,Slab,S,0,27,64,30,nlloc,-41.0514,174.216,-41.2709,173.2837,6016538.56,2612205.51,5992838,2533754,7.6,7.6,81.77,118.44,78.66,114.68,-99999,-99999,0,85.51,82.13,nu,NCBS,D,210,Q3,0.7,Q2,50,Q3,0,-99999,-99999,1,0.7,14,1.19,14,HarvardCMT,0.038995799,0.039125001,0.039497224,0.039914078,0.040348907,0.0418455,0.042621145,0.044138285,0.045052518,0.043911225,0.041355536,0.031901184,0.021934078,0.013632917,-99999,-99999,-99999,-99999,-99999,-99999,-99999,-99999,0.043773273,0.043904561,0.044156775,0.044542364,0.045020517,0.046679073,0.049431267,0.051227158,0.049640063,0.04715944,0.044770092,0.038030948,0.028273046,0.017400944,-99999,-99999,-99999,-99999,-99999,-99999,-99999,-99999,0.038739,0.043798,0.018358,0.023447
722185,1995-03-22T19:43:30.268000Z,K5087A01,5.83,0.15,Slab,S,0,27,64,30,nlloc,-41.0514,174.216,-39.7163,175.1455,6016538.56,2612205.51,6163232,2693941,7.6,7.6,168.04,188.46,165.17,186.14,-99999,-99999,0,85.51,82.13,nu,087A,B,1000,Q3,<0.1,Q3,0,Q2,0,-99999,-99999,1,0.5,20,0.85,20,HarvardCMT,0.057454955,0.058161693,0.058977854,0.059915769,0.061389058,0.06463125,0.07105345,0.071825368,0.06812712,0.062077077,0.05636455,0.041346088,0.027516013,0.012680117,0.008303906,-99999,-99999,-99999,-99999,-99999,-99999,-99999,0.07492086,0.075833754,0.077024346,0.078132011,0.079832487,0.081852499,0.088636886,0.089575289,0.087403276,0.081089051,0.074867802,0.055907675,0.03711229,0.014767199,0.008785035,-99999,-99999,-99999,-99999,-99999,-99999,-99999,0.057253,0.07431,0.025754,0.03317
722185,1995-03-22T19:43:30.268000Z,K5087C01,5.83,0.15,Slab,S,0,27,64,30,nlloc,-41.0514,174.216,-39.7171,175.1382,6016538.56,2612205.51,6163158,2693314,7.6,7.6,167.67,188.13,164.8,185.82,-99999,-99999,0,85.51,82.13,nu,087C,C,425,Q3,0.33,Q3,30,Q3,0,-99999,-99999,1,0.7,14,1.19,14,HarvardCMT,0.064491972,0.064688553,0.065024696,0.065511491,0.066109684,0.068453293,0.070799518,0.074424445,0.07753201,0.074028183,0.07011614,0.056302803,0.047054442,0.024887083,-99999,-99999,-99999,-99999,-99999,-99999,-99999,-99999,0.071416658,0.071655709,0.071958789,0.072379706,0.073057679,0.07538392,0.078099535,0.085506358,0.086835397,0.088361757,0.084282126,0.068346412,0.059343442,0.033443629,-99999,-99999,-99999,-99999,-99999,-99999,-99999,-99999,0.064436,0.071363,0.034959,0.043902
722185,1995-03-22T19:43:30.268000Z,K5608A01,5.83,0.15,Slab,S,0,27,64,30,nlloc,-41.0514,174.216,-41.2241,174.8794,6016538.56,2612205.51,5996377,2667546,7.6,7.6,58.78,103.83,56.06,101.12,-99999,-99999,0,85.51,82.13,nu,608A,D,200,Q2,2,Q2,250,Q3,0,-99999,-99999,1,0.4,11,0.68,11,HarvardCMT,0.029280416,0.029348543,0.029444043,0.029651049,0.029944453,0.030960934,0.032079913,0.033444603,0.032488757,0.030686963,0.029860754,0.029753548,0.027577199,0.019053271,0.012369159,-99999,-99999,-99999,-99999,-99999,-99999,-99999,0.035994533,0.036079496,0.036284409,0.036595571,0.036953599,0.038276224,0.040223389,0.042373352,0.040064777,0.037894434,0.037112061,0.036721877,0.036274634,0.024372613,0.015781495,-99999,-99999,-99999,-99999,-99999,-99999,-99999,0.029264,0.035812,0.024995,0.030959
