CuspID,Origin_time,Record,Mw,MwUncert,TectClass,Mech,PreferredFaultPlane,Strike,Dip,Rake,Location,HypLat,HypLon,StationLat,StationLon,HypN,HypE,StationN,StationE,LENGTH_km,WIDTH_km,Repi_km,Rhyp_km,Rjb_km,Rrup_km,Rx_km,Ry_km,Rvol_km,HypDepth_km,ZTOR_km,HWFW,SiteCode,SiteClass1170,Vs30,Vs30Uncert,Tsite,TsiteUncert,Z1,Z1Uncertainty,Directivity,Pulse_or,Pulse_T,S_Trigger_Flag,fcButterHP,f_iniLP,fmin,fmax,References,f100.0000SA_GeoMean,f50.0000SA_GeoMean,f33.3333SA_GeoMean,f25.0000SA_GeoMean,f20.0000SA_GeoMean,f13.3333SA_GeoMean,f10.0000SA_GeoMean,f6.6667SA_GeoMean,f5.0000SA_GeoMean,f4.0000SA_GeoMean,f3.3333SA_GeoMean,f2.5000SA_GeoMean,f2.0000SA_GeoMean,f1.3333SA_GeoMean,f1.0000SA_GeoMean,f0.6667SA_GeoMean,f0.5000SA_GeoMean,f0.3333SA_GeoMean,f0.2500SA_GeoMean,f0.2000SA_GeoMean,f0.1333SA_GeoMean,f0.1000SA_GeoMean,PGA_Geomean,PGV_Geomean
1348340,1999-01-03T07:00:20.568000Z,D9900C01,5.22,0.15,Slab,N,1,211,80,-8.30E+01,nlloc,-41.0938,174.519,-41.2891,174.7799,6011432.3,2637591.18,5989335,2659058,3.7,3.7,30.79,64.52,30.25,62.73,-29.46,7.88,0,56.68,54.84,nu,900C,D,250,Q3,0.8,Q3,60,Q3,0,-99999,-99999,0,0.52,10,0.884,10,HarvardCMT,0.017263802,0.017391715,0.017593315,0.017907994,0.018310227,0.020652771,0.028978051,0.042737196,0.049519662,0.03607427,0.038944459,0.034579371,0.026505986,0.012979878,0.005996018,-99999,-99999,-99999,-99999,-99999,-99999,-99999,0.017094,0.009754
1348340,1999-01-03T07:00:20.568000Z,G9713A02,5.22,0.15,Slab,N,1,211,80,-8.30E+01,nlloc,-41.0938,174.519,-41.1257,174.8392,6011432.3,2637591.18,6007373,2664412,3.7,3.7,27.06,62.84,26.34,61.02,-24.76,-10.33,0,56.68,54.84,nu,713A,D,210,Q3,0.6,Q3,40,Q3,0,-99999,-99999,0,0.6,12.5,1.02,12.5,HarvardCMT,0.022132485,0.022339894,0.022714551,0.023254221,0.024027782,0.028653785,0.036256592,0.061831135,0.054262893,0.038941696,0.040757951,0.032705579,0.046997936,0.041532348,-99999,-99999,-99999,-99999,-99999,-99999,-99999,-99999,0.022074,0.01144
1348340,1999-01-03T07:00:20.568000Z,I9467A03,5.22,0.15,Slab,N,1,211,80,-8.30E+01,nlloc,-41.0938,174.519,-41.2425,174.9024,6011432.3,2637591.18,5994293,2669430,3.7,3.7,36.1,67.24,35.77,65.51,-35.79,-1.71,0,56.68,54.84,nu,467A,D,218,Q3,1.5,Q3,200,Q3,0,-99999,-99999,0,0.35,18,0.595,18,HarvardCMT,0.018054515,0.018186673,0.0184096,0.0187754,0.019344181,0.028493105,0.025601729,0.032224048,0.047488356,0.024066654,0.02315301,0.036386873,0.040242726,0.02497797,0.016143006,0.006682219,-99999,-99999,-99999,-99999,-99999,-99999,0.018046,0.011673
1348340,1999-01-03T07:00:20.568000Z,I9468A01,5.22,0.15,Slab,N,1,211,80,-8.30E+01,nlloc,-41.0938,174.519,-41.2011,174.9547,6011432.3,2637591.18,5998793,2673916,3.7,3.7,38.38,68.5,37.91,66.79,-37.32,-7.87,0,56.68,54.84,nu,468A,D,190,Q1,0.9,Q3,50,Q3,0,-99999,-99999,0,0.3,20,0.51,20,HarvardCMT,0.034570265,0.035237881,0.036488043,0.038742142,0.046739235,0.067827411,0.089170694,0.09095905,0.109642033,0.070567169,0.067625704,0.059535885,0.04133082,0.035005238,0.03841799,0.007588994,-99999,-99999,-99999,-99999,-99999,-99999,0.03441,0.017821
1348340,1999-01-03T07:00:20.568000Z,I9602C01,5.22,0.15,Slab,N,1,211,80,-8.30E+01,nlloc,-41.0938,174.519,-41.1903,174.928,6011432.3,2637591.18,6000041,2671703,3.7,3.7,35.89,67.15,35.4,65.41,-34.78,-7.8,0,56.68,54.84,nu,602C,B,1000,Q3,<0.1,Q3,0,Q3,0,-99999,-99999,0,0.3,40,0.51,40,HarvardCMT,0.010445171,0.010697773,0.01262695,0.013807546,0.014288925,0.025249823,0.025966994,0.020282652,0.023436119,0.017867598,0.014455947,0.014082932,0.014392321,0.006929404,0.004633819,0.002080496,-99999,-99999,-99999,-99999,-99999,-99999,0.010386,0.004676
1348340,1999-01-03T07:00:20.568000Z,I9603B02,5.22,0.15,Slab,N,1,211,80,-8.30E+01,nlloc,-41.0938,174.519,-41.2237,174.86,6011432.3,2637591.18,5996453,2665923,3.7,3.7,31.99,65.12,31.66,63.36,-31.67,-1.75,0,56.68,54.84,nu,603B,B,1000,Q3,<0.1,Q3,0,Q3,0,-99999,-99999,0,0.19,55,0.323,55,HarvardCMT,0.008185961,0.008499966,0.008596851,0.009740887,0.010887117,0.013703227,0.015100269,0.019436159,0.018548764,0.011542723,0.008976541,0.010288014,0.009597238,0.007766504,0.004427137,0.002004131,0.001015103,0.000344853,-99999,-99999,-99999,-99999,0.008148,0.004454
1348340,1999-01-03T07:00:20.568000Z,I9605B22,5.22,0.15,Slab,N,1,211,80,-8.30E+01,nlloc,-41.0938,174.519,-41.2074,174.9401,6011432.3,2637591.18,5998119,2672679,3.7,3.7,37.45,68.03,37.01,66.31,-36.61,-6.66,0,56.68,54.84,nu,FAIS,B,760,Q3,0.27,Q1,0,Q2,0,-99999,-99999,0,0.3,45,0.51,45,HarvardCMT,0.011803682,0.01205596,0.012777173,0.014128582,0.017334598,0.018696184,0.028291575,0.032712811,0.023998291,0.015716269,0.016658618,0.016342361,0.014149623,0.007448547,0.004063665,0.001404166,-99999,-99999,-99999,-99999,-99999,-99999,0.011738,0.004654
1348340,1999-01-03T07:00:20.568000Z,I9606B03,5.22,0.15,Slab,N,1,211,80,-8.30E+01,nlloc,-41.0938,174.519,-41.2333,174.9199,6011432.3,2637591.18,5995282,2670919,3.7,3.7,36.97,67.71,36.61,65.99,-36.56,-3.32,0,56.68,54.84,nu,606B,B,800,Q3,<0.1,Q3,0,Q3,0,-99999,-99999,0,0.18,52,0.306,52,HarvardCMT,0.013985173,0.015078766,0.01522001,0.018823617,0.020782513,0.032729845,0.02986647,0.022849522,0.019980443,0.014493992,0.013034136,0.011490225,0.009035076,0.004823659,0.002830271,0.000963101,0.000500465,0.000205091,-99999,-99999,-99999,-99999,0.013734,0.004166
1348340,1999-01-03T07:00:20.568000Z,I9640A06,5.22,0.15,Slab,N,1,211,80,-8.30E+01,nlloc,-41.0938,174.519,-41.235,174.9147,6011432.3,2637591.18,5995103,2670479,3.7,3.7,36.65,67.54,36.31,65.82,-36.28,-2.94,0,56.68,54.84,nu,640A,E,230,Q3,0.5,Q3,60,Q3,0,-99999,-99999,0,0.3,20,0.51,20,HarvardCMT,0.022722309,0.023011871,0.023542969,0.024435797,0.027159496,0.046259312,0.046877171,0.039022931,0.043332393,0.040200088,0.038197275,0.042286773,0.032329488,0.01072868,0.006163328,0.002117526,-99999,-99999,-99999,-99999,-99999,-99999,0.022703,0.010217
1348340,1999-01-03T07:00:20.568000Z,I9646B03,5.22,0.15,Slab,N,1,211,80,-8.30E+01,nlloc,-41.0938,174.519,-41.2574,174.9485,6011432.3,2637591.18,5992552,2673256,3.7,3.7,40.29,69.65,39.95,67.96,-39.97,-2.19,0,56.68,54.84,nu,WDAS,E,120,Q1,1.6,Q2,62,Q2,0,-99999,-99999,0,0.4,35,0.68,35,HarvardCMT,0.018920996,0.019252883,0.020549245,0.021561513,0.023224183,0.0380859,0.034337262,0.059722199,0.052814757,0.04209834,0.038026308,0.03245512,0.038039582,0.04656995,0.033707485,-99999,-99999,-99999,-99999,-99999,-99999,-99999,0.018744,0.017473
1348340,1999-01-03T07:00:20.568000Z,I9708A04,5.22,0.15,Slab,N,1,211,80,-8.30E+01,nlloc,-41.0938,174.519,-41.1314,174.8391,6011432.3,2637591.18,6006740,2664387,3.7,3.7,27.14,62.88,26.45,61.06,-25.06,-9.78,0,56.68,54.84,nu,POLS,C,250,Q2,0.4,Q1,25,Q2,0,-99999,-99999,0,0.25,20,0.425,20,HarvardCMT,0.015719708,0.016094686,0.01693891,0.018521245,0.021792359,0.035910637,0.030228026,0.053188824,0.036638041,0.040696213,0.038885229,0.020214324,0.018124854,0.011176565,0.004922213,0.001991975,0.000939452,-99999,-99999,-99999,-99999,-99999,0.015712,0.007585
1348340,1999-01-03T07:00:20.568000Z,I9918C01,5.22,0.15,Slab,N,1,211,80,-8.30E+01,nlloc,-41.0938,174.519,-41.284,174.7682,6011432.3,2637591.18,5989908,2658140,3.7,3.7,29.7,64.14,29.14,62.35,-28.37,7.87,0,56.68,54.84,nu,WEL,B,1000,Q3,0.3,Q1,0,Q2,0,-99999,-99999,0,0.35,35,0.595,35,HarvardCMT,0.01749746,0.018005991,0.021214534,0.023549543,0.026661204,0.048820312,0.045596902,0.061996826,0.043264177,0.022385971,0.017502924,0.013283937,0.011676613,0.005047266,0.004775175,0.001925333,-99999,-99999,-99999,-99999,-99999,-99999,0.017338,0.006546
1444773,1999-10-25T20:31:43.627000Z,D9014A02,6.02,0.15,Slab,O,0,158,54,35,nlloc,-38.5427,175.885,-39.4984,176.8761,6291620.32,2761553.77,6182359,2843283,9.4,9.4,136.47,204.75,133.03,201.69,-99999,-99999,0,152.66,148.68,nu,NCDS,E,162,Q3,1.25,Q2,110,Q3,0,-99999,-99999,1,0.25,14,0.425,14,HarvardCMT,0.037646076,0.037882397,0.038267239,0.038838121,0.039627816,0.04645786,0.064198845,0.091669241,0.138320003,0.11983918,0.071994905,0.059666571,0.051284697,0.106692017,0.035887699,0.014458029,0.007502008,-99999,-99999,-99999,-99999,-99999,0.037534,0.028962
1444773,1999-10-25T20:31:43.627000Z,D9027G06,6.02,0.15,Slab,O,0,158,54,35,nlloc,-38.5427,175.885,-39.4884,176.9189,6291620.32,2761553.77,6183307,2847012,9.4,9.4,137.97,205.77,134.56,202.73,-99999,-99999,0,152.66,148.68,nu,NAMS,C,268,Q3,0.4,Q3,20,Q3,0,-99999,-99999,1,0.25,12,0.425,12,HarvardCMT,0.016928176,0.017009973,0.017143349,0.017334851,0.017605883,0.019262566,0.028757827,0.048270079,0.062983876,0.051680909,0.036030905,0.033236082,0.02865297,0.01824495,0.009966633,0.008925797,0.005304019,-99999,-99999,-99999,-99999,-99999,0.016916,0.010648
1444773,1999-10-25T20:31:43.627000Z,D9029A04,6.02,0.15,Slab,O,0,158,54,35,nlloc,-38.5427,175.885,-39.6458,176.8429,6291620.32,2761553.77,6166127,2839726,9.4,9.4,147.92,212.53,144.4,209.52,-99999,-99999,0,152.66,148.68,nu,HCDS,D,182,Q2,>2,Q3,1000,Q3,0,-99999,-99999,1,0.2,10,0.34,10,HarvardCMT,0.016503905,0.016588454,0.016728454,0.016930744,0.017206046,0.018445007,0.023085934,0.026425262,0.042997751,0.036867052,0.043157234,0.03696036,0.035307642,0.051535654,0.022817764,0.01311698,0.009346909,-99999,-99999,-99999,-99999,-99999,0.01646,0.020384
1444773,1999-10-25T20:31:43.627000Z,D9302A06,6.02,0.15,Slab,O,0,158,54,35,nlloc,-38.5427,175.885,-39.9338,175.053,6291620.32,2761553.77,6139282,2685450,9.4,9.4,170.47,228.71,166.35,225.48,-99999,-99999,0,152.66,148.68,nu,302A,D,250,Q2,0.8,Q3,80,Q3,0,-99999,-99999,0,0.35,10,0.595,10,HarvardCMT,0.011074572,0.011097771,0.011137443,0.011181967,0.011247063,0.011491621,0.013872982,0.014638675,0.017588791,0.023293341,0.034608683,0.033351672,0.029608649,0.015528954,0.011672969,0.004490209,-99999,-99999,-99999,-99999,-99999,-99999,0.011051,0.008789
1444773,1999-10-25T20:31:43.627000Z,I9025A06,6.02,0.15,Slab,O,0,158,54,35,nlloc,-38.5427,175.885,-39.5851,174.2742,6291620.32,2761553.77,6179245,2619477,9.4,9.4,181.03,236.96,177.21,234.15,-99999,-99999,0,152.66,148.68,nu,HWHS,C,210,Q2,0.6,Q2,12,Q2,0,-99999,-99999,0,0.15,10,0.255,10,HarvardCMT,0.005731279,0.005735978,0.005749971,0.005768684,0.00579335,0.005891027,0.006088086,0.006732788,0.007619456,0.007922595,0.008730819,0.013197618,0.017669067,0.015463474,0.011191726,0.007802093,0.004925586,0.001663378,-99999,-99999,-99999,-99999,0.005736,0.008597
1444773,1999-10-25T20:31:43.627000Z,I9467A11,6.02,0.15,Slab,O,0,158,54,35,nlloc,-38.5427,175.885,-41.2425,174.9024,6291620.32,2761553.77,5994293,2669430,9.4,9.4,311.68,346.69,307.53,343.17,-99999,-99999,0,152.66,148.68,nu,467A,D,218,Q3,1.5,Q3,200,Q3,0,-99999,-99999,0,0.25,10,0.425,10,HarvardCMT,0.022278772,0.022337547,0.022438553,0.022561653,0.022756339,0.023551244,0.026902193,0.030334357,0.043180149,0.040449538,0.037146753,0.05566946,0.078894585,0.029425615,0.020437505,0.005345489,0.002778409,-99999,-99999,-99999,-99999,-99999,0.022238,0.01841
1444773,1999-10-25T20:31:43.627000Z,I9468A07,6.02,0.15,Slab,O,0,158,54,35,nlloc,-38.5427,175.885,-41.2011,174.9547,6291620.32,2761553.77,5998793,2673916,9.4,9.4,306.07,341.66,301.92,338.15,-99999,-99999,0,152.66,148.68,nu,468A,D,190,Q1,0.9,Q3,50,Q3,0,-99999,-99999,0,0.15,19,0.255,19,HarvardCMT,0.022402607,0.022504798,0.022690606,0.022999449,0.023894357,0.026477176,0.032060198,0.040143997,0.05422411,0.044178404,0.043110511,0.064358106,0.063649526,0.042874497,0.047433031,0.008352813,0.004157707,0.001560261,-99999,-99999,-99999,-99999,0.022302,0.02112
1444773,1999-10-25T20:31:43.627000Z,I9605B42,6.02,0.15,Slab,O,0,158,54,35,nlloc,-38.5427,175.885,-41.2074,174.9401,6291620.32,2761553.77,5998119,2672679,9.4,9.4,307.07,342.58,302.92,339.07,-99999,-99999,0,152.66,148.68,nu,FAIS,B,760,Q3,0.27,Q1,0,Q2,0,-99999,-99999,0,0.28,24.5,0.476,24.5,HarvardCMT,0.007626051,0.007672032,0.007752594,0.007987,0.008631124,0.010941782,0.010346747,0.011981108,0.013774215,0.015538636,0.022425213,0.023779369,0.018320531,0.007047626,0.005810719,0.001594722,0.00108585,-99999,-99999,-99999,-99999,-99999,0.007604,0.006232
1444773,1999-10-25T20:31:43.627000Z,I9646B11,6.02,0.15,Slab,O,0,158,54,35,nlloc,-38.5427,175.885,-41.2574,174.9485,6291620.32,2761553.77,5992552,2673256,9.4,9.4,312.25,347.23,308.1,343.71,-99999,-99999,0,152.66,148.68,nu,WDAS,E,120,Q1,1.6,Q2,62,Q2,0,-99999,-99999,1,0.33,10,0.561,10,HarvardCMT,0.013418884,0.013428735,0.013449406,0.01348898,0.013506895,0.013679994,0.016198128,0.029034749,0.024963091,0.021474053,0.025369558,0.042611443,0.033477614,0.034984606,0.053909883,0.008720785,-99999,-99999,-99999,-99999,-99999,-99999,0.013427,0.015726
1444773,1999-10-25T20:31:43.627000Z,I9918C30,6.02,0.15,Slab,O,0,158,54,35,nlloc,-38.5427,175.885,-41.284,174.7682,6291620.32,2761553.77,5989908,2658140,9.4,9.4,319.35,353.65,315.2,350.13,-99999,-99999,0,152.66,148.68,nu,WEL,B,1000,Q3,0.3,Q1,0,Q2,0,-99999,-99999,0,0.3,24.5,0.51,24.5,HarvardCMT,0.007760023,0.007834818,0.007963921,0.009626412,0.010267078,0.015261463,0.018246342,0.025739293,0.024847215,0.01153587,0.018998767,0.016200523,0.010853077,0.006586119,0.004524306,0.001720705,-99999,-99999,-99999,-99999,-99999,-99999,0.00776,0.003831
1444773,1999-10-25T20:31:43.627000Z,I9926A14,6.02,0.15,Slab,O,0,158,54,35,nlloc,-38.5427,175.885,-39.4883,176.9169,6291620.32,2761553.77,6183331,2846839,9.4,9.4,137.85,205.71,134.43,202.67,-99999,-99999,0,152.66,148.68,nu,926A,C,651,Q3,0.07,Q3,5,Q3,0,-99999,-99999,1,0.18,19.5,0.306,19.5,HarvardCMT,0.013072772,0.013141092,0.013263027,0.013481999,0.013970108,0.018044226,0.026517947,0.033240963,0.051335908,0.038981046,0.038588673,0.023246318,0.027570941,0.012501875,0.007537267,0.008252467,0.00527345,0.001820278,-99999,-99999,-99999,-99999,0.013052,0.010099
1502698,2000-03-29T14:30:58.189000Z,D00131A01,5.25,0.15,Slab,N,0,54,14,-7.60E+01,nlloc,-41.0482,175.43,-40.9143,175.005,6014768.04,2714246.82,6030534,2678862,3.9,3.9,38.66,49.3,37.39,47.98,-99999,-99999,0,30.49,29.31,nu,PAPS,D,200,Q3,1.4,Q1,100,Q3,0,-99999,-99999,1,0.35,18,0.595,18,HarvardCMT,0.043275039,0.044187374,0.045823546,0.048772468,0.055293011,0.101485294,0.113393592,0.133855987,0.098232909,0.087477228,0.064137252,0.080946864,0.051477308,0.013687799,0.013670009,0.005753702,-99999,-99999,-99999,-99999,-99999,-99999,0.042789,0.016874
1502698,2000-03-29T14:30:58.189000Z,D00469A01,5.25,0.15,Slab,N,0,54,14,-7.60E+01,nlloc,-41.0482,175.43,-41.2117,174.9033,6014768.04,2714246.82,5997711,2669586,3.9,3.9,47.71,56.71,45.9,55.04,-99999,-99999,0,30.49,29.31,nu,LHES,D,240,Q3,1.16,Q3,280,Q3,0,-99999,-99999,0,0.25,14,0.425,14,HarvardCMT,0.025134069,0.025353849,0.02572306,0.026270054,0.027131339,0.033171037,0.04031097,0.039497502,0.067630263,0.090104324,0.062059712,0.063076327,0.036082127,0.02034386,0.0096337,0.008129531,0.003180341,-99999,-99999,-99999,-99999,-99999,0.024931,0.014712
1502698,2000-03-29T14:30:58.189000Z,D00643B01,5.25,0.15,Slab,N,0,54,14,-7.60E+01,nlloc,-41.0482,175.43,-41.1513,174.9794,6014768.04,2714246.82,6004275,2676112,3.9,3.9,39.46,50,37.7,48.39,-99999,-99999,0,30.49,29.31,nu,643B,B,1000,Q3,<0.1,Q3,1.50E+00,Q3,0,-99999,-99999,0,0.4,22,0.68,22,HarvardCMT,0.045341223,0.045645623,0.046196644,0.04776542,0.053499509,0.069529369,0.0708542,0.08973642,0.180188988,0.192534041,0.119719116,0.075993683,0.039762978,0.013003144,0.008056424,-99999,-99999,-99999,-99999,-99999,-99999,-99999,0.045156,0.018474
1502698,2000-03-29T14:30:58.189000Z,D00644C01,5.25,0.15,Slab,N,0,54,14,-7.60E+01,nlloc,-41.0482,175.43,-41.2187,174.8826,6014768.04,2714246.82,5996970,2667828,3.9,3.9,49.61,58.32,47.8,56.64,-99999,-99999,0,30.49,29.31,nu,644C,D,189,Q3,2,Q3,250,Q3,0,-99999,-99999,0,0.35,16,0.595,16,HarvardCMT,0.030982113,0.031121484,0.031375181,0.031770371,0.032398493,0.037680456,0.050025199,0.067601185,0.069983322,0.073355657,0.090768661,0.115384172,0.073694225,0.026643946,0.011125995,0.006067432,-99999,-99999,-99999,-99999,-99999,-99999,0.030876,0.018551
1502698,2000-03-29T14:30:58.189000Z,D00900C01,5.25,0.15,Slab,N,0,54,14,-7.60E+01,nlloc,-41.0482,175.43,-41.2891,174.7799,6014768.04,2714246.82,5989335,2659058,3.9,3.9,60.65,67.99,58.81,66.25,-99999,-99999,0,30.49,29.31,nu,900C,D,250,Q3,0.8,Q3,60,Q3,0,-99999,-99999,1,0.75,12,1.275,12,HarvardCMT,0.032852789,0.033018909,0.03327559,0.033645876,0.03409332,0.03633305,0.043548152,0.073063905,0.084011004,0.078613056,0.090991098,0.093757764,0.050855282,0.024859195,-99999,-99999,-99999,-99999,-99999,-99999,-99999,-99999,0.032784,0.017996
1502698,2000-03-29T14:30:58.189000Z,I00467A02,5.25,0.15,Slab,N,0,54,14,-7.60E+01,nlloc,-41.0482,175.43,-41.2425,174.9024,6014768.04,2714246.82,5994293,2669430,3.9,3.9,49.18,57.95,47.34,56.25,-99999,-99999,0,30.49,29.31,nu,467A,D,218,Q3,1.5,Q3,200,Q3,0,-99999,-99999,0,0.3,24.5,0.51,24.5,HarvardCMT,0.031719019,0.032199041,0.033004915,0.034106921,0.039129136,0.044919256,0.063897599,0.072474952,0.098834027,0.054453749,0.046468921,0.063983644,0.050926415,0.022180872,0.015529434,0.007206147,-99999,-99999,-99999,-99999,-99999,-99999,0.031491,0.014594
1502698,2000-03-29T14:30:58.189000Z,I00468A03,5.25,0.15,Slab,N,0,54,14,-7.60E+01,nlloc,-41.0482,175.43,-41.2011,174.9547,6014768.04,2714246.82,5998793,2673916,3.9,3.9,43.29,53.03,41.47,51.37,-99999,-99999,0,30.49,29.31,nu,468A,D,190,Q1,0.9,Q3,50,Q3,0,-99999,-99999,0,0.3,20,0.51,20,HarvardCMT,0.067681658,0.068357065,0.069510929,0.070958607,0.075261373,0.088286658,0.125921358,0.225617731,0.228875302,0.131402962,0.090129188,0.072633257,0.068325426,0.039272396,0.032418843,0.008995359,-99999,-99999,-99999,-99999,-99999,-99999,0.067055,0.025172
1502698,2000-03-29T14:30:58.189000Z,I00602C01,5.25,0.15,Slab,N,0,54,14,-7.60E+01,nlloc,-41.0482,175.43,-41.1903,174.928,6014768.04,2714246.82,6000041,2671703,3.9,3.9,44.92,54.39,43.13,52.73,-99999,-99999,0,30.49,29.31,nu,602C,B,1000,Q3,<0.1,Q3,0,Q3,0,-99999,-99999,1,0.25,45,0.425,45,HarvardCMT,0.023539847,0.02376082,0.025124932,0.02577033,0.024671399,0.037013286,0.033360031,0.042918088,0.042940611,0.068784102,0.073389594,0.059930898,0.032955874,0.012532335,0.007607196,0.0035982,0.001884327,-99999,-99999,-99999,-99999,-99999,0.023452,0.012955
1502698,2000-03-29T14:30:58.189000Z,I00603B01,5.25,0.15,Slab,N,0,54,14,-7.60E+01,nlloc,-41.0482,175.43,-41.2237,174.86,6014768.04,2714246.82,5996453,2665923,3.9,3.9,51.57,60.01,49.76,58.32,-99999,-99999,0,30.49,29.31,nu,603B,B,1000,Q3,<0.1,Q3,0,Q3,0,-99999,-99999,0,0.25,16,0.425,16,HarvardCMT,0.010100154,0.01017687,0.010324532,0.010546829,0.011052583,0.018229688,0.017905268,0.017630174,0.029857183,0.036523195,0.022662751,0.015565828,0.018588563,0.005637075,0.003841157,0.002999363,0.001365348,-99999,-99999,-99999,-99999,-99999,0.01008,0.004911
1502698,2000-03-29T14:30:58.189000Z,I00605B03,5.25,0.15,Slab,N,0,54,14,-7.60E+01,nlloc,-41.0482,175.43,-41.2074,174.9401,6014768.04,2714246.82,5998119,2672679,3.9,3.9,44.69,54.21,42.87,52.54,-99999,-99999,0,30.49,29.31,nu,FAIS,B,760,Q3,0.27,Q1,0,Q2,0,-99999,-99999,0,0.25,50,0.425,50,HarvardCMT,0.015244392,0.01558698,0.015566563,0.017459566,0.020481716,0.029796624,0.031416312,0.050710297,0.044402921,0.04177173,0.043189342,0.033628501,0.017214443,0.006119007,0.003449449,0.002564281,0.001219974,-99999,-99999,-99999,-99999,-99999,0.015153,0.007474
1502698,2000-03-29T14:30:58.189000Z,I00606B05,5.25,0.15,Slab,N,0,54,14,-7.60E+01,nlloc,-41.0482,175.43,-41.2333,174.9199,6014768.04,2714246.82,5995282,2670919,3.9,3.9,47.42,56.45,45.58,54.76,-99999,-99999,0,30.49,29.31,nu,606B,B,800,Q3,<0.1,Q3,0,Q3,0,-99999,-99999,0,0.6,45,1.02,45,HarvardCMT,0.019453534,0.020321972,0.022170202,0.028945405,0.032984295,0.051161795,0.053790938,0.037632205,0.038047654,0.032426172,0.030678294,0.024251334,0.016107787,0.003779001,-99999,-99999,-99999,-99999,-99999,-99999,-99999,-99999,0.019268,0.005986
1502698,2000-03-29T14:30:58.189000Z,I00640A06,5.25,0.15,Slab,N,0,54,14,-7.60E+01,nlloc,-41.0482,175.43,-41.235,174.9147,6014768.04,2714246.82,5995103,2670479,3.9,3.9,47.89,56.85,46.05,55.16,-99999,-99999,0,30.49,29.31,nu,640A,E,230,Q3,0.5,Q3,60,Q3,0,-99999,-99999,0,0.32,24.5,0.544,24.5,HarvardCMT,0.045653793,0.046299112,0.047529119,0.050213869,0.052224091,0.079447975,0.114439065,0.092195745,0.118868831,0.154138975,0.131092972,0.078563284,0.045199923,0.011976993,0.005632521,0.003024207,-99999,-99999,-99999,-99999,-99999,-99999,0.045551,0.018375
