CuspID,Origin_time,Record,Mw,MwUncert,TectClass,Mech,PreferredFaultPlane,Strike,Dip,Rake,Location,HypLat,HypLon,StationLat,StationLon,HypN,HypE,StationN,StationE,LENGTH_km,WIDTH_km,Repi_km,Rhyp_km,Rjb_km,Rrup_km,Rx_km,Ry_km,Rvol_km,HypDepth_km,ZTOR_km,HWFW,SiteCode,SiteClass1170,Vs30,Vs30Uncert,Tsite,TsiteUncert,Z1,Z1Uncertainty,Directivity,Pulse_or,Pulse_T,S_Trigger_Flag,fcButterHP,f_iniLP,fmin,fmax,References,f100.0000SA_Vert,f50.0000SA_Vert,f33.3333SA_Vert,f25.0000SA_Vert,f20.0000SA_Vert,f13.3333SA_Vert,f10.0000SA_Vert,f6.6667SA_Vert,f5.0000SA_Vert,f4.0000SA_Vert,f3.3333SA_Vert,f2.5000SA_Vert,f2.0000SA_Vert,f1.3333SA_Vert,f1.0000SA_Vert,f0.6667SA_Vert,f0.5000SA_Vert,f0.3333SA_Vert,f0.2500SA_Vert,f0.2000SA_Vert,f0.1333SA_Vert,f0.1000SA_Vert,PGA,PGV
2376455,2005-03-13T15:08:13.134000Z,I05642G18,5.36,0.06,Slab,U,0,317,86,-6.70E+01,simulps,-40.1015,173.5983,-41.235,174.9172,6122550.1,2561016.88,5995098,2670688,4.4,4.4,168.1,225.88,165.99,224.31,-99999,-99999,0,150.82,149.29,nu,642G,C,350,Q1,0.35,Q2,50,Q3,0,-99999,-99999,0,0.4,42,0.68,42,Ristau2013&HarvardCMT,0.012652509,0.012625178,0.01325595,0.017290566,0.018402614,0.018713626,0.027650525,0.055505098,0.037737759,0.014295811,0.01642295,0.012471709,0.006834613,0.001254892,0.000783419,-9999,-9999,-9999,-9999,-9999,-9999,-9999,0.01264,0.00357
2388847,2005-04-11T07:51:37.085000Z,I05464A12,4.31,0.1,Slab,S,0,81,77,25,simulps,-41.6702,174.523,-41.2308,174.9135,5947427.6,2636809.75,5995572,2670389,1.3,1.3,58.7,66.92,58.24,66.45,-99999,-99999,0,32.13,31.51,nu,464A,D,210,Q3,1.2,Q3,170,Q3,0,-99999,-99999,0,0.7,42,1.19,42,Ristau2013,0.004915193,0.006214662,0.010243246,0.015333834,0.010441074,0.00948788,0.013203243,0.004113188,0.003817593,0.004048741,0.003984742,0.002768651,0.001831481,0.000757037,-9999,-9999,-9999,-9999,-9999,-9999,-9999,-9999,0.004534,0.000637
2388847,2005-04-11T07:51:37.085000Z,I05467A14,4.31,0.1,Slab,S,0,81,77,25,simulps,-41.6702,174.523,-41.2425,174.9024,5947427.6,2636809.75,5994293,2669430,1.3,1.3,57.11,65.52,56.64,65.05,-99999,-99999,0,32.13,31.51,nu,467A,D,218,Q3,1.5,Q3,200,Q3,0,-99999,-99999,0,0.7,40,1.19,40,Ristau2013,0.005124311,0.005693319,0.007659593,0.016256519,0.022989863,0.009715599,0.007879893,0.004709391,0.004338784,0.003127344,0.002798774,0.004466812,0.003836851,0.000788077,-9999,-9999,-9999,-9999,-9999,-9999,-9999,-9999,0.004996,0.000998
2388847,2005-04-11T07:51:37.085000Z,I05468A11,4.31,0.1,Slab,S,0,81,77,25,simulps,-41.6702,174.523,-41.2011,174.9547,5947427.6,2636809.75,5998793,2673916,1.3,1.3,63.37,71.05,62.9,70.58,-99999,-99999,0,32.13,31.51,nu,468A,D,190,Q1,0.9,Q3,50,Q3,0,-99999,-99999,0,0.6,30,1.02,30,Ristau2013,0.004424787,0.004647554,0.005604403,0.009836603,0.017709217,0.008280154,0.009065094,0.006209967,0.010007921,0.007706828,0.006215875,0.00482839,0.004893568,0.001397495,-9999,-9999,-9999,-9999,-9999,-9999,-9999,-9999,0.004362,0.0013
2388847,2005-04-11T07:51:37.085000Z,I05642G21,4.31,0.1,Slab,S,0,81,77,25,simulps,-41.6702,174.523,-41.235,174.9172,5947427.6,2636809.75,5995098,2670688,1.3,1.3,58.49,66.73,58.02,66.26,-99999,-99999,0,32.13,31.51,nu,642G,C,350,Q1,0.35,Q2,50,Q3,0,-99999,-99999,0,0.6,42,1.02,42,Ristau2013,0.007550385,0.008863224,0.013789118,0.030751077,0.022938203,0.009354195,0.008775428,0.007481427,0.004799481,0.005226619,0.003048371,0.004448408,0.002401109,0.000490193,-9999,-9999,-9999,-9999,-9999,-9999,-9999,-9999,0.007018,0.000898
2499328,2005-12-13T08:09:47.911000Z,I05464A14,4.24,0.1,Slab,N,0,203,70,-9.70E+01,simulps,-41.0992,174.866,-41.2308,174.9135,6010272.19,2666724.27,5995572,2670389,1.2,1.2,15.17,35.53,14.63,35.16,-99999,-99999,0,32.13,31.74,nu,464A,D,210,Q3,1.2,Q3,170,Q3,0,-99999,-99999,0,0.6,50,1.02,50,Ristau2013,0.012817117,0.015742709,0.038074995,0.029500322,0.028108721,0.057809613,0.030254858,0.026037373,0.011006281,0.014411681,0.008554141,0.00869047,0.00305572,0.001793796,-9999,-9999,-9999,-9999,-9999,-9999,-9999,-9999,0.01263,0.00189
2499328,2005-12-13T08:09:47.911000Z,I05468A14,4.24,0.1,Slab,N,0,203,70,-9.70E+01,simulps,-41.0992,174.866,-41.2011,174.9547,6010272.19,2666724.27,5998793,2673916,1.2,1.2,13.55,34.88,13.07,34.55,-99999,-99999,0,32.13,31.74,nu,468A,D,190,Q1,0.9,Q3,50,Q3,0,-99999,-99999,0,0.5,50,0.85,50,Ristau2013,0.025308656,0.0262481,0.034764329,0.055182659,0.058489214,0.066011959,0.110511215,0.034368167,0.031539534,0.018805516,0.016537173,0.013778835,0.006047107,0.002831258,0.001438268,-9999,-9999,-9999,-9999,-9999,-9999,-9999,0.025036,0.004
2499328,2005-12-13T08:09:47.911000Z,I05602C03,4.24,0.1,Slab,N,0,203,70,-9.70E+01,simulps,-41.0992,174.866,-41.1903,174.928,6010272.19,2666724.27,6000041,2671703,1.2,1.2,11.38,34.11,10.89,33.77,-99999,-99999,0,32.13,31.74,nu,602C,B,1000,Q3,<0.1,Q3,0,Q3,0,-99999,-99999,0,0.6,50,1.02,50,Ristau2013,0.00651934,0.007475642,0.010867681,0.021424027,0.015163097,0.023043479,0.00885192,0.013686202,0.010184008,0.005535554,0.00544323,0.003221467,0.002077666,0.001500305,-9999,-9999,-9999,-9999,-9999,-9999,-9999,-9999,0.006249,0.001316
2499328,2005-12-13T08:09:47.911000Z,I05603B05,4.24,0.1,Slab,N,0,203,70,-9.70E+01,simulps,-41.0992,174.866,-41.2237,174.86,6010272.19,2666724.27,5996453,2665923,1.2,1.2,13.86,34.99,13.28,34.6,-99999,-99999,0,32.13,31.74,nu,603B,B,1000,Q3,<0.1,Q3,0,Q3,0,-99999,-99999,0,0.5,50,0.85,50,Ristau2013,0.004646586,0.00495892,0.007633843,0.007152992,0.009992672,0.011267088,0.016099894,0.012150125,0.007114308,0.003879655,0.004495425,0.001714361,0.002013315,0.00072955,0.000330848,-9999,-9999,-9999,-9999,-9999,-9999,-9999,0.00456,0.000972
2499328,2005-12-13T08:09:47.911000Z,I05651A01,4.24,0.1,Slab,N,0,203,70,-9.70E+01,simulps,-41.0992,174.866,-41.2047,174.9233,6010272.19,2666724.27,5998451,2671274,1.2,1.2,12.68,34.54,12.16,34.19,-99999,-99999,0,32.13,31.74,nu,651A,D,330,Q2,1,Q3,120,Q3,0,-99999,-99999,0,0.6,52,1.02,52,Ristau2013,0.0118437,0.015159943,0.024468313,0.037116653,0.026081586,0.025243665,0.022154828,0.02549539,0.008423769,0.006809811,0.004001235,0.003624519,0.002346019,0.001564121,-9999,-9999,-9999,-9999,-9999,-9999,-9999,-9999,0.011448,0.001297
2567873,2006-05-14T17:32:37.615999Z,I06464A04,4.54,0.1,Slab,S,0,219,82,-1.68E+02,simulps,-40.914,174.4445,-41.2308,174.9135,6031501.19,2631663.43,5995572,2670389,1.7,1.7,52.78,80.69,52.29,79.92,-99999,-99999,0,60.99,60.15,nu,464A,D,210,Q3,1.2,Q3,170,Q3,0,-99999,-99999,0,0.6,28,1.02,28,Ristau2013,0.002068919,0.00212355,0.00246497,0.003208755,0.003762442,0.007797091,0.007725103,0.007343911,0.00410705,0.003785271,0.003035771,0.002539522,0.001309552,0.000535727,-9999,-9999,-9999,-9999,-9999,-9999,-9999,-9999,0.002063,0.00054
2567873,2006-05-14T17:32:37.615999Z,I06465B06,4.54,0.1,Slab,S,0,219,82,-1.68E+02,simulps,-40.914,174.4445,-41.2058,174.9544,6031501.19,2631663.43,5998271,2673878,1.7,1.7,53.67,81.29,53.18,80.51,-99999,-99999,0,60.99,60.15,nu,DAVS,C,600,Q3,0.1,Q3,5,Q3,0,-99999,-99999,0,0.8,55,1.36,55,Ristau2013,0.002022976,0.003144683,0.00659106,0.00752519,0.00567967,0.005715418,0.005674,0.008165682,0.005719569,0.003791695,0.003980537,0.001949328,0.001469617,-9999,-9999,-9999,-9999,-9999,-9999,-9999,-9999,-9999,0.001955,0.000518
2567873,2006-05-14T17:32:37.615999Z,I06467A07,4.54,0.1,Slab,S,0,219,82,-1.68E+02,simulps,-40.914,174.4445,-41.2425,174.9024,6031501.19,2631663.43,5994293,2669430,1.7,1.7,52.98,80.82,52.48,80.04,-99999,-99999,0,60.99,60.15,nu,467A,D,218,Q3,1.5,Q3,200,Q3,0,-99999,-99999,0,0.5,40,0.85,40,Ristau2013,0.002911591,0.003051323,0.003143065,0.005079505,0.005314774,0.008542681,0.008001434,0.006942426,0.009170515,0.005233434,0.004235211,0.002502709,0.001760748,0.000485744,0.000332786,-9999,-9999,-9999,-9999,-9999,-9999,-9999,0.002867,0.000697
2567873,2006-05-14T17:32:37.615999Z,I06602C02,4.54,0.1,Slab,S,0,219,82,-1.68E+02,simulps,-40.914,174.4445,-41.1903,174.928,6031501.19,2631663.43,6000041,2671703,1.7,1.7,50.87,79.47,50.38,78.69,-99999,-99999,0,60.99,60.15,nu,602C,B,1000,Q3,<0.1,Q3,0,Q3,0,-99999,-99999,0,0.6,45,1.02,45,Ristau2013,0.003020287,0.003897455,0.010065285,0.010844012,0.007172889,0.004994454,0.002967188,0.004159004,0.005229616,0.00333225,0.002380907,0.001986035,0.001262971,0.000448878,-9999,-9999,-9999,-9999,-9999,-9999,-9999,-9999,0.002852,0.000373
2567873,2006-05-14T17:32:37.615999Z,I06605B05,4.54,0.1,Slab,S,0,219,82,-1.68E+02,simulps,-40.914,174.4445,-41.2074,174.9401,6031501.19,2631663.43,5998119,2672679,1.7,1.7,52.83,80.77,52.34,79.99,-99999,-99999,0,60.99,60.15,nu,FAIS,B,760,Q3,0.27,Q1,0,Q2,0,-99999,-99999,0,0.9,22,1.53,22,Ristau2013,0.002180475,0.002226534,0.002309926,0.002545979,0.002985183,0.005245768,0.008918912,0.005665469,0.002908385,0.002739731,0.00110318,0.001013607,0.000699628,-9999,-9999,-9999,-9999,-9999,-9999,-9999,-9999,-9999,0.002169,0.000444
2567873,2006-05-14T17:32:37.615999Z,I06642G10,4.54,0.1,Slab,S,0,219,82,-1.68E+02,simulps,-40.914,174.4445,-41.235,174.9172,6031501.19,2631663.43,5995098,2670688,1.7,1.7,53.33,81.05,52.83,80.27,-99999,-99999,0,60.99,60.15,nu,642G,C,350,Q1,0.35,Q2,50,Q3,0,-99999,-99999,0,1,40,1.7,40,Ristau2013,0.006056195,0.00625498,0.006416934,0.007601506,0.009311765,0.012997641,0.020710665,0.017188544,0.010109558,0.007517259,0.002530693,0.002286775,0.001729851,-9999,-9999,-9999,-9999,-9999,-9999,-9999,-9999,-9999,0.006035,0.001241
2567873,2006-05-14T17:32:37.615999Z,I06651A06,4.54,0.1,Slab,S,0,219,82,-1.68E+02,simulps,-40.914,174.4445,-41.2047,174.9233,6031501.19,2631663.43,5998451,2671274,1.7,1.7,51.54,79.89,51.05,79.1,-99999,-99999,0,60.99,60.15,nu,651A,D,330,Q2,1,Q3,120,Q3,0,-99999,-99999,0,0.6,52,1.02,52,Ristau2013,0.002375842,0.003351987,0.004738457,0.008647035,0.004888144,0.005268769,0.007320101,0.004506115,0.003910295,0.003306272,0.002583591,0.001700968,0.001354469,0.000808518,-9999,-9999,-9999,-9999,-9999,-9999,-9999,-9999,0.002306,0.000633
2609766,2006-08-13T04:29:25.493999Z,I06464A08,5.25,0.06,Slab,U,0,273,84,-4.60E+01,simulps,-41.7767,172.6507,-41.2308,174.9135,5936641.99,2480951.79,5995572,2670389,3.9,3.9,197.96,218.42,196.3,217.04,-99999,-99999,0,91.37,89.73,nu,464A,D,210,Q3,1.2,Q3,170,Q3,0,-99999,-99999,0,0.9,19,1.53,19,Ristau2013&HarvardCMT,0.002538119,0.002570636,0.002633646,0.002742748,0.003373205,0.007502836,0.007489767,0.004628374,0.005008103,0.004879059,0.00738189,0.006847574,0.004249333,-9999,-9999,-9999,-9999,-9999,-9999,-9999,-9999,-9999,0.002497,0.001152
2609766,2006-08-13T04:29:25.493999Z,I06465B11,5.25,0.06,Slab,U,0,273,84,-4.60E+01,simulps,-41.7767,172.6507,-41.2058,174.9544,5936641.99,2480951.79,5998271,2673878,3.9,3.9,202.1,222.19,200.44,220.8,-99999,-99999,0,91.37,89.73,nu,DAVS,C,600,Q3,0.1,Q3,5,Q3,0,-99999,-99999,0,0.8,24.5,1.36,24.5,Ristau2013&HarvardCMT,0.002316377,0.002407155,0.002623247,0.004131178,0.003988838,0.006745158,0.007184413,0.004373403,0.005347886,0.005778682,0.005384965,0.004601528,0.002377357,-9999,-9999,-9999,-9999,-9999,-9999,-9999,-9999,-9999,0.002317,0.000692
2609766,2006-08-13T04:29:25.493999Z,I06468A09,5.25,0.06,Slab,U,0,273,84,-4.60E+01,simulps,-41.7767,172.6507,-41.2011,174.9547,5936641.99,2480951.79,5998793,2673916,3.9,3.9,202.29,222.37,200.63,220.98,-99999,-99999,0,91.37,89.73,nu,468A,D,190,Q1,0.9,Q3,50,Q3,0,-99999,-99999,0,0.5,28,0.85,28,Ristau2013&HarvardCMT,0.00394317,0.003961528,0.00398996,0.005016288,0.005347777,0.007772331,0.012848817,0.0077748,0.010013029,0.010061243,0.010406824,0.012863208,0.005802969,0.002747783,0.001032989,-9999,-9999,-9999,-9999,-9999,-9999,-9999,0.003915,0.002014
2609766,2006-08-13T04:29:25.493999Z,I06651A10,5.25,0.06,Slab,U,0,273,84,-4.60E+01,simulps,-41.7767,172.6507,-41.2047,174.9233,5936641.99,2480951.79,5998451,2671274,3.9,3.9,199.68,219.98,198.02,218.59,-99999,-99999,0,91.37,89.73,nu,651A,D,330,Q2,1,Q3,120,Q3,0,-99999,-99999,0,0.6,35,1.02,35,Ristau2013&HarvardCMT,0.002013259,0.002292319,0.003404381,0.004797341,0.003735433,0.003127099,0.006083978,0.003009342,0.004368925,0.003180418,0.003446952,0.003766594,0.0031292,0.00089669,-9999,-9999,-9999,-9999,-9999,-9999,-9999,-9999,0.002009,0.000598
2625245,2006-09-15T11:43:18.788000Z,I06464A09,4.57,0.1,Slab,R,0,247,53,95,simulps,-40.943,174.4628,-41.2308,174.9135,6028255.79,2633153.62,5995572,2670389,1.8,1.8,49.5,71.38,48.84,70.83,-99999,-99999,0,51.37,50.75,nu,464A,D,210,Q3,1.2,Q3,170,Q3,0,-99999,-99999,0,0.6,50,1.02,50,Ristau2013,0.005906255,0.006514021,0.011640274,0.014308734,0.011061745,0.024552911,0.009786801,0.012669598,0.007116981,0.006886194,0.009472496,0.004801812,0.002519536,0.002474862,-9999,-9999,-9999,-9999,-9999,-9999,-9999,-9999,0.005627,0.001231
2625245,2006-09-15T11:43:18.788000Z,I06465B12,4.57,0.1,Slab,R,0,247,53,95,simulps,-40.943,174.4628,-41.2058,174.9544,6028255.79,2633153.62,5998271,2673878,1.8,1.8,50.51,72.1,49.83,71.53,-99999,-99999,0,51.37,50.75,nu,DAVS,C,600,Q3,0.1,Q3,5,Q3,0,-99999,-99999,0,0.6,55,1.02,55,Ristau2013,0.005135201,0.005899726,0.010526406,0.009372491,0.011621316,0.012275809,0.014347119,0.009445333,0.008606942,0.012571362,0.007370225,0.004749342,0.003147428,0.002545663,-9999,-9999,-9999,-9999,-9999,-9999,-9999,-9999,0.004975,0.001324
2625245,2006-09-15T11:43:18.788000Z,I06467A13,4.57,0.1,Slab,R,0,247,53,95,simulps,-40.943,174.4628,-41.2425,174.9024,6028255.79,2633153.62,5994293,2669430,1.8,1.8,49.66,71.48,49,70.94,-99999,-99999,0,51.37,50.75,nu,467A,D,218,Q3,1.5,Q3,200,Q3,0,-99999,-99999,0,0.6,45,1.02,45,Ristau2013,0.007826751,0.008510734,0.011847554,0.019107737,0.017000573,0.01948326,0.013339918,0.016415189,0.008790099,0.00645797,0.00745095,0.005766569,0.005382185,0.001913736,-9999,-9999,-9999,-9999,-9999,-9999,-9999,-9999,0.007688,0.00134
2625245,2006-09-15T11:43:18.788000Z,I06468A10,4.57,0.1,Slab,R,0,247,53,95,simulps,-40.943,174.4628,-41.2011,174.9547,6028255.79,2633153.62,5998793,2673916,1.8,1.8,50.23,71.9,49.55,71.33,-99999,-99999,0,51.37,50.75,nu,468A,D,190,Q1,0.9,Q3,50,Q3,0,-99999,-99999,0,0.6,45,1.02,45,Ristau2013,0.014560835,0.015629461,0.015572465,0.025200833,0.020199213,0.028133625,0.054883729,0.021509253,0.033523105,0.01634115,0.014916528,0.010215194,0.013331584,0.005485017,-9999,-9999,-9999,-9999,-9999,-9999,-9999,-9999,0.014312,0.00295
2625245,2006-09-15T11:43:18.788000Z,I06602C04,4.57,0.1,Slab,R,0,247,53,95,simulps,-40.943,174.4628,-41.1903,174.928,6028255.79,2633153.62,6000041,2671703,1.8,1.8,47.71,70.17,47.03,69.6,-99999,-99999,0,51.37,50.75,nu,602C,B,1000,Q3,<0.1,Q3,0,Q3,0,-99999,-99999,0,0.5,35,0.85,35,Ristau2013,0.006541456,0.007726477,0.013313144,0.030384862,0.024358063,0.009211275,0.006690262,0.007678961,0.008097034,0.008264992,0.00767651,0.004292103,0.004228445,0.002164504,0.000692062,-9999,-9999,-9999,-9999,-9999,-9999,-9999,0.006095,0.001485
2625245,2006-09-15T11:43:18.788000Z,I06605B14,4.57,0.1,Slab,R,0,247,53,95,simulps,-40.943,174.4628,-41.2074,174.9401,6028255.79,2633153.62,5998119,2672679,1.8,1.8,49.65,71.52,48.97,70.96,-99999,-99999,0,51.37,50.75,nu,FAIS,B,760,Q3,0.27,Q1,0,Q2,0,-99999,-99999,0,0.7,32,1.19,32,Ristau2013,0.003871619,0.004025496,0.004500401,0.007564105,0.006560235,0.014952115,0.012787126,0.006974493,0.008920863,0.007834674,0.004496182,0.002457441,0.001897251,0.001284058,-9999,-9999,-9999,-9999,-9999,-9999,-9999,-9999,0.00383,0.001115
2625245,2006-09-15T11:43:18.788000Z,I06651A11,4.57,0.1,Slab,R,0,247,53,95,simulps,-40.943,174.4628,-41.2047,174.9233,6028255.79,2633153.62,5998451,2671274,1.8,1.8,48.34,70.58,47.66,70.02,-99999,-99999,0,51.37,50.75,nu,651A,D,330,Q2,1,Q3,120,Q3,0,-99999,-99999,0,0.5,50,0.85,50,Ristau2013,0.006959732,0.008142014,0.017531819,0.022718237,0.017967409,0.009983214,0.013083175,0.016762997,0.008276018,0.007293709,0.005077349,0.005887891,0.005780168,0.004674979,0.002055219,-9999,-9999,-9999,-9999,-9999,-9999,-9999,0.006718,0.001508
2654849,2006-11-17T14:38:03.584000Z,I06464A12,4.72,0.1,Slab,U,0,320,81,44,simulps,-41.0427,174.3337,-41.2308,174.9135,6017363.83,2622110.49,5995572,2670389,2.1,2.1,52.87,92.65,52.02,91.65,-99999,-99999,0,76.01,75.11,nu,464A,D,210,Q3,1.2,Q3,170,Q3,0,-99999,-99999,0,0.7,50,1.19,50,Ristau2013,0.002938061,0.004091145,0.013731797,0.006994519,0.006909172,0.00981628,0.006078856,0.009698205,0.005304738,0.00807693,0.006701161,0.006669068,0.002853566,0.000827533,-9999,-9999,-9999,-9999,-9999,-9999,-9999,-9999,0.002762,0.001173
2654849,2006-11-17T14:38:03.584000Z,I06465B15,4.72,0.1,Slab,U,0,320,81,44,simulps,-41.0427,174.3337,-41.2058,174.9544,6017363.83,2622110.49,5998271,2673878,2.1,2.1,55.06,93.94,54.22,92.94,-99999,-99999,0,76.01,75.11,nu,DAVS,C,600,Q3,0.1,Q3,5,Q3,0,-99999,-99999,0,0.8,55,1.36,55,Ristau2013,0.002736991,0.00337066,0.007521049,0.007142806,0.006942411,0.005886468,0.00801905,0.005811299,0.00688323,0.004485049,0.004581442,0.002100215,0.001872185,-9999,-9999,-9999,-9999,-9999,-9999,-9999,-9999,-9999,0.00266,0.00069
2654849,2006-11-17T14:38:03.584000Z,I06605B20,4.72,0.1,Slab,U,0,320,81,44,simulps,-41.0427,174.3337,-41.2074,174.9401,6017363.83,2622110.49,5998119,2672679,2.1,2.1,54,93.35,53.15,92.35,-99999,-99999,0,76.01,75.11,nu,FAIS,B,760,Q3,0.27,Q1,0,Q2,0,-99999,-99999,0,1,50,1.7,50,Ristau2013,0.001847556,0.001934627,0.003477282,0.002723646,0.00316379,0.005928479,0.006163911,0.007001921,0.002551009,0.001939615,0.001803614,0.001556541,0.0006037,-9999,-9999,-9999,-9999,-9999,-9999,-9999,-9999,-9999,0.001832,0.000542
2654849,2006-11-17T14:38:03.584000Z,I06651A15,4.72,0.1,Slab,U,0,320,81,44,simulps,-41.0427,174.3337,-41.2047,174.9233,6017363.83,2622110.49,5998451,2671274,2.1,2.1,52.57,92.48,51.73,91.48,-99999,-99999,0,76.01,75.11,nu,651A,D,330,Q2,1,Q3,120,Q3,0,-99999,-99999,0,0.75,52,1.275,52,Ristau2013,0.00305974,0.004147487,0.0093658,0.015607187,0.006920169,0.005519824,0.005433997,0.007357162,0.004026715,0.005527377,0.003360799,0.00267832,0.001882848,0.000577007,-9999,-9999,-9999,-9999,-9999,-9999,-9999,-9999,0.002895,0.000779
2692934,2007-02-07T00:44:58.487000Z,I07465B02,4.2,0.1,Slab,N,0,210,66,-7.00E+01,simulps,-40.9987,174.4558,-41.2058,174.9544,6022085.12,2632461.37,5998271,2673878,1.2,1.2,47.7,72.49,47.32,72.09,-99999,-99999,0,54.5,54.09,nu,DAVS,C,600,Q3,0.1,Q3,5,Q3,0,-99999,-99999,0,0.9,50,1.53,50,Ristau2013,0.004141965,0.005075397,0.010347724,0.016099492,0.010607805,0.005725519,0.003700889,0.004815292,0.003372612,0.003646182,0.005071006,0.002215883,0.001650123,-9999,-9999,-9999,-9999,-9999,-9999,-9999,-9999,-9999,0.003988,0.000611
2692934,2007-02-07T00:44:58.487000Z,I07467A03,4.2,0.1,Slab,N,0,210,66,-7.00E+01,simulps,-40.9987,174.4558,-41.2425,174.9024,6022085.12,2632461.37,5994293,2669430,1.2,1.2,46.2,71.48,45.8,71.07,-99999,-99999,0,54.5,54.09,nu,467A,D,218,Q3,1.5,Q3,200,Q3,0,-99999,-99999,0,0.75,28,1.275,28,Ristau2013,0.003633453,0.004218057,0.006054788,0.015101086,0.011848355,0.008554704,0.005979492,0.004110764,0.004365513,0.003245592,0.004969109,0.003243057,0.004389596,0.001503578,-9999,-9999,-9999,-9999,-9999,-9999,-9999,-9999,0.003532,0.000945
2692934,2007-02-07T00:44:58.487000Z,I07468A01,4.2,0.1,Slab,N,0,210,66,-7.00E+01,simulps,-40.9987,174.4558,-41.2011,174.9547,6022085.12,2632461.37,5998793,2673916,1.2,1.2,47.47,72.33,47.09,71.93,-99999,-99999,0,54.5,54.09,nu,468A,D,190,Q1,0.9,Q3,50,Q3,0,-99999,-99999,0,0.6,45,1.02,45,Ristau2013,0.005831889,0.006616458,0.008287267,0.016220989,0.010262357,0.012094435,0.014092648,0.005738614,0.006174343,0.00803707,0.007127126,0.008724023,0.005939845,0.00236823,-9999,-9999,-9999,-9999,-9999,-9999,-9999,-9999,0.005696,0.001436
2692934,2007-02-07T00:44:58.487000Z,I07642G03,4.2,0.1,Slab,N,0,210,66,-7.00E+01,simulps,-40.9987,174.4558,-41.235,174.9172,6022085.12,2632461.37,5995098,2670688,1.2,1.2,46.73,71.84,46.34,71.42,-99999,-99999,0,54.5,54.09,nu,642G,C,350,Q1,0.35,Q2,50,Q3,0,-99999,-99999,0,0.7,43,1.19,43,Ristau2013,0.00657818,0.008107193,0.01289728,0.036010265,0.031705848,0.010020384,0.014919285,0.016103351,0.008288922,0.00564124,0.006258216,0.0055848,0.002714545,0.000930298,-9999,-9999,-9999,-9999,-9999,-9999,-9999,-9999,0.006073,0.001276
