CuspID,Origin_time,Record,Mw,MwUncert,TectClass,Mech,PreferredFaultPlane,Strike,Dip,Rake,Location,HypLat,HypLon,StationLat,StationLon,HypN,HypE,StationN,StationE,LENGTH_km,WIDTH_km,Repi_km,Rhyp_km,Rjb_km,Rrup_km,Rx_km,Ry_km,Rvol_km,HypDepth_km,ZTOR_km,HWFW,SiteCode,SiteClass1170,Vs30,Vs30Uncert,Tsite,TsiteUncert,Z1,Z1Uncertainty,Directivity,Pulse_or,Pulse_T,S_Trigger_Flag,fcButterHP,f_iniLP,fmin,fmax,References,f100.0000SA_RotD50,f50.0000SA_RotD50,f33.3333SA_RotD50,f25.0000SA_RotD50,f20.0000SA_RotD50,f13.3333SA_RotD50,f10.0000SA_RotD50,f6.6667SA_RotD50,f5.0000SA_RotD50,f4.0000SA_RotD50,f3.3333SA_RotD50,f2.5000SA_RotD50,f2.0000SA_RotD50,f1.3333SA_RotD50,f1.0000SA_RotD50,f0.6667SA_RotD50,f0.5000SA_RotD50,f0.3333SA_RotD50,f0.2500SA_RotD50,f0.2000SA_RotD50,f0.1333SA_RotD50,f0.1000SA_RotD50,f100.0000SA_RotD100,f50.0000SA_RotD100,f33.3333SA_RotD100,f25.0000SA_RotD100,f20.0000SA_RotD100,f13.3333SA_RotD100,f10.0000SA_RotD100,f6.6667SA_RotD100,f5.0000SA_RotD100,f4.0000SA_RotD100,f3.3333SA_RotD100,f2.5000SA_RotD100,f2.0000SA_RotD100,f1.3333SA_RotD100,f1.0000SA_RotD100,f0.6667SA_RotD100,f0.5000SA_RotD100,f0.3333SA_RotD100,f0.2500SA_RotD100,f0.2000SA_RotD100,f0.1333SA_RotD100,f0.1000SA_RotD100,PGA_RotD50,PGA_RotD100,PGV_RotD50,PGV_RotD100
771645,1995-11-24T06:18:56.622999Z,D5505A37,6.19,0.08,Crustal,O,1,176,46,44,geonet,-42.953,171.8188,-42.9489,171.5677,5805359.34,2413627.76,5805487,2393135,11.44,11.44,20.44,22,18.34,21,22.52,-1.56,0,7.26,5.1,hw,APPS,C,300,Q2,0.4,Q1,30,Q2,0,-99999,-99999,0,0.29,20,0.493,20,Gledhill_etal_2000,0.133680131,0.135204241,0.137654455,0.14210526,0.185766655,0.278388464,0.342094921,0.418815871,0.665151313,0.352790449,0.281323136,0.37896437,0.285655119,0.128137635,0.056885104,0.020323399,0.012114368,-99999,-99999,-99999,-99999,-99999,0.150135718,0.152601233,0.157161683,0.163862551,0.219946882,0.311310833,0.478611473,0.485626809,0.876537732,0.413162415,0.388633217,0.532247719,0.342066403,0.155083209,0.077029387,0.025068576,0.015589328,-99999,-99999,-99999,-99999,-99999,0.132025,0.149811,0.066529,0.086571
771645,1995-11-24T06:18:56.622999Z,D6051D01,6.19,0.08,Crustal,O,1,176,46,44,geonet,-42.953,171.8188,-41.7557,171.5998,5805359.34,2413627.76,5938069,2393545,11.44,11.44,134.35,134.42,128.36,128.45,12.86,-133.79,0,7.26,5.1,nu,WBCS,D,300,Q3,1.2,Q2,105,Q3,0,-99999,-99999,0,0.2,20,0.34,20,Gledhill_etal_2000,0.018579212,0.018700302,0.018863795,0.019261917,0.02267952,0.039556741,0.033975101,0.057114334,0.05417505,0.048453215,0.065612479,0.046744731,0.058168145,0.040914808,0.050153772,0.021270223,0.008971659,-99999,-99999,-99999,-99999,-99999,0.023430884,0.023610991,0.023937937,0.024374859,0.025682423,0.041435069,0.036020428,0.065540491,0.064946322,0.055948008,0.069791698,0.05020655,0.072774689,0.048772818,0.067230936,0.027991587,0.011323147,-99999,-99999,-99999,-99999,-99999,0.018493,0.023427,0.015306,0.017548
771645,1995-11-24T06:18:56.622999Z,D6129A01,6.19,0.08,Crustal,O,1,176,46,44,geonet,-42.953,171.8188,-41.7999,172.328,5805359.34,2413627.76,5933893,2454147,11.44,11.44,134.87,134.97,129.24,129.34,-47.3,-125.39,0,7.26,5.1,nu,MCAS,D,501,Q3,1.6,Q3,200,Q3,0,-99999,-99999,1,0.2,10,0.34,10,Gledhill_etal_2000,0.018072334,0.018099788,0.018171692,0.018245232,0.018344841,0.018677467,0.022175089,0.027896584,0.041909705,0.043267498,0.056717378,0.067805591,0.059526787,0.048349879,0.061704094,0.043132733,0.018539521,-99999,-99999,-99999,-99999,-99999,0.022487127,0.022534953,0.022594642,0.022642479,0.022754453,0.023189653,0.02736692,0.035772233,0.046163408,0.053394348,0.064075551,0.08405564,0.066053475,0.054454203,0.069472324,0.048408228,0.02357929,-99999,-99999,-99999,-99999,-99999,0.018047,0.022471,0.028369,0.03326
771645,1995-11-24T06:18:56.622999Z,K5112B01,6.19,0.08,Crustal,O,1,176,46,44,geonet,-42.953,171.8188,-43.1325,171.7693,5805359.34,2413627.76,5785358,2409884,11.44,11.44,20.36,21.83,14.58,16.61,7.21,19.69,0,7.26,5.1,nu,112B,C,667,Q3,0.36,Q3,60,Q3,0,-99999,-99999,1,0.25,20,0.425,20,Gledhill_etal_2000,0.137304481,0.13972697,0.144533288,0.153512857,0.189087121,0.329729973,0.48262335,0.481449542,0.39917257,0.600428202,0.32725629,0.162279656,0.155409858,0.056520605,0.036494007,0.044531219,0.019731451,-99999,-99999,-99999,-99999,-99999,0.155585274,0.158098512,0.16254066,0.170072724,0.214946265,0.401054163,0.601273158,0.556024519,0.476820403,0.737764231,0.349537328,0.188230677,0.219500846,0.079927638,0.042600025,0.058753507,0.024391093,-99999,-99999,-99999,-99999,-99999,0.136134,0.153001,0.051684,0.068418
1037562,1996-08-29T04:47:00.878000Z,D6042A01,5.25,0.15,Crustal,S,0,317,67,-2.00E+01,geonet,-42.4891,172.7921,-42.5232,172.8305,5857551.8,2492912.82,5853765,2496076,3.9,3.9,4.93,10.98,3.66,9.43,-99999,-99999,0,9.43,7.61,nu,HSES,D,280,Q3,0.9,Q1,85,Q3,0,-99999,-99999,0,0.2,18,0.34,18,HarvardCMT,0.237059465,0.237579663,0.239029005,0.240697001,0.242506381,0.274888414,0.416950683,0.493138602,0.445731847,0.458123768,0.536599005,0.607974631,0.433398562,0.510370044,0.464276816,0.151444046,0.074154621,-99999,-99999,-99999,-99999,-99999,0.27482598,0.27639214,0.279149585,0.283819447,0.293967543,0.364558655,0.559809071,0.610348758,0.493272022,0.500781136,0.61638029,0.742924976,0.472293577,0.598702336,0.564812263,0.203894514,0.092054838,-99999,-99999,-99999,-99999,-99999,0.236709,0.274839,0.238508,0.283921
1348340,1999-01-03T07:00:20.568000Z,D9131A03,5.22,0.15,Slab,N,1,211,80,-8.30E+01,nlloc,-41.0938,174.519,-40.9143,175.005,6011432.3,2637591.18,6030534,2678862,3.7,3.7,45.4,72.68,43.85,70.85,-25.21,-37.63,0,56.68,54.84,nu,PAPS,D,200,Q3,1.4,Q1,100,Q3,0,-99999,-99999,0,0.4,15,0.68,15,HarvardCMT,0.025661765,0.026006911,0.026696667,0.02766369,0.029148223,0.044254382,0.067595191,0.11598272,0.096999243,0.055120839,0.039976455,0.031431514,0.031663937,0.023911928,0.020118418,-99999,-99999,-99999,-99999,-99999,-99999,-99999,0.027298191,0.027628793,0.028215159,0.029070357,0.03035164,0.050877912,0.078323326,0.158199919,0.128904175,0.065046021,0.041426703,0.044201266,0.039673038,0.027637713,0.023707294,-99999,-99999,-99999,-99999,-99999,-99999,-99999,0.025641,0.027261,0.012535,0.014003
1348340,1999-01-03T07:00:20.568000Z,D9469A01,5.22,0.15,Slab,N,1,211,80,-8.30E+01,nlloc,-41.0938,174.519,-41.2117,174.9033,6011432.3,2637591.18,5997711,2669586,3.7,3.7,34.75,66.53,34.35,64.79,-34.17,-4.72,0,56.68,54.84,nu,LHES,D,240,Q3,1.16,Q3,280,Q3,0,-99999,-99999,0,0.35,12.5,0.595,12.5,HarvardCMT,0.018480566,0.018539491,0.018637604,0.01882538,0.019096986,0.0214012,0.030088317,0.035284355,0.047835538,0.042200883,0.047054109,0.042382533,0.038500499,0.025633466,0.018192283,0.006154165,-99999,-99999,-99999,-99999,-99999,-99999,0.026134798,0.026218509,0.026358241,0.026607618,0.027009025,0.030198976,0.037131908,0.047763113,0.058191412,0.055743928,0.057357694,0.059930529,0.053850737,0.035507595,0.020982272,0.00819178,-99999,-99999,-99999,-99999,-99999,-99999,0.018481,0.026135,0.01573,0.02148
1348340,1999-01-03T07:00:20.568000Z,D9643B07,5.22,0.15,Slab,N,1,211,80,-8.30E+01,nlloc,-41.0938,174.519,-41.1513,174.9794,6011432.3,2637591.18,6004275,2676112,3.7,3.7,39.09,68.98,38.4,67.25,-36.38,-13.7,0,56.68,54.84,nu,643B,B,1000,Q3,<0.1,Q3,1.50E+00,Q3,0,-99999,-99999,0,0.45,18,0.765,18,HarvardCMT,0.027609861,0.028229751,0.029332989,0.031250025,0.034616149,0.064874522,0.069754162,0.113057218,0.13112864,0.046288171,0.024696722,0.018586419,0.011105672,0.010777513,0.006340764,-99999,-99999,-99999,-99999,-99999,-99999,-99999,0.036236546,0.036654943,0.037379782,0.038513154,0.04055178,0.071047652,0.088794625,0.123766751,0.158439443,0.064395739,0.027975837,0.020150185,0.014458638,0.013064601,0.00822584,-99999,-99999,-99999,-99999,-99999,-99999,-99999,0.027619,0.036236,0.008702,0.010464
1348340,1999-01-03T07:00:20.568000Z,D9644C05,5.22,0.15,Slab,N,1,211,80,-8.30E+01,nlloc,-41.0938,174.519,-41.2187,174.8826,6011432.3,2637591.18,5996970,2667828,3.7,3.7,33.46,65.85,33.1,64.1,-33.04,-3.18,0,56.68,54.84,nu,644C,D,189,Q3,2,Q3,250,Q3,0,-99999,-99999,0,0.3,18,0.51,18,HarvardCMT,0.019755116,0.019861213,0.020040077,0.020446143,0.021302556,0.034953841,0.041649433,0.04125392,0.05709545,0.027370791,0.032527179,0.054347168,0.04900983,0.019817073,0.011606159,0.004852751,-99999,-99999,-99999,-99999,-99999,-99999,0.027197845,0.027263103,0.027405307,0.027584318,0.028461572,0.048814662,0.045232373,0.057875159,0.078552983,0.035799822,0.039010601,0.066632118,0.060481675,0.025431148,0.014547879,0.005781317,-99999,-99999,-99999,-99999,-99999,-99999,0.019756,0.027164,0.011757,0.016601
1348340,1999-01-03T07:00:20.568000Z,D9900C01,5.22,0.15,Slab,N,1,211,80,-8.30E+01,nlloc,-41.0938,174.519,-41.2891,174.7799,6011432.3,2637591.18,5989335,2659058,3.7,3.7,30.79,64.52,30.25,62.73,-29.46,7.88,0,56.68,54.84,nu,900C,D,250,Q3,0.8,Q3,60,Q3,0,-99999,-99999,0,0.52,10,0.884,10,HarvardCMT,0.017129928,0.017232347,0.017379603,0.017628047,0.017995966,0.019450065,0.031203714,0.057063073,0.055376112,0.049777847,0.04711874,0.040848371,0.035665532,0.016230337,0.007216786,-99999,-99999,-99999,-99999,-99999,-99999,-99999,0.02090765,0.021076717,0.02135651,0.021851271,0.022533133,0.025871687,0.040860868,0.073511635,0.071994843,0.056200423,0.051715725,0.052662735,0.049005202,0.02194995,0.010204735,-99999,-99999,-99999,-99999,-99999,-99999,-99999,0.017089,0.02082,0.011181,0.013802
1348340,1999-01-03T07:00:20.568000Z,G9713A02,5.22,0.15,Slab,N,1,211,80,-8.30E+01,nlloc,-41.0938,174.519,-41.1257,174.8392,6011432.3,2637591.18,6007373,2664412,3.7,3.7,27.06,62.84,26.34,61.02,-24.76,-10.33,0,56.68,54.84,nu,713A,D,210,Q3,0.6,Q3,40,Q3,0,-99999,-99999,0,0.6,12.5,1.02,12.5,HarvardCMT,0.020879154,0.021093843,0.021491235,0.022220682,0.023058703,0.028187064,0.039785373,0.067879565,0.06118264,0.04541379,0.047621746,0.038281797,0.064967981,0.048999915,-99999,-99999,-99999,-99999,-99999,-99999,-99999,-99999,0.028207024,0.028402011,0.02874067,0.02923272,0.02990398,0.033012453,0.048275981,0.089720724,0.083203891,0.049121689,0.060586186,0.040410504,0.070905169,0.058535601,-99999,-99999,-99999,-99999,-99999,-99999,-99999,-99999,0.020826,0.028155,0.012396,0.013872
1348340,1999-01-03T07:00:20.568000Z,I9467A03,5.22,0.15,Slab,N,1,211,80,-8.30E+01,nlloc,-41.0938,174.519,-41.2425,174.9024,6011432.3,2637591.18,5994293,2669430,3.7,3.7,36.1,67.24,35.77,65.51,-35.79,-1.71,0,56.68,54.84,nu,467A,D,218,Q3,1.5,Q3,200,Q3,0,-99999,-99999,0,0.35,18,0.595,18,HarvardCMT,0.015965676,0.016025363,0.016231772,0.016540352,0.01743457,0.030163887,0.025419647,0.034873097,0.058974858,0.029329448,0.03084586,0.044972038,0.053218824,0.031925704,0.021746796,0.007454666,-99999,-99999,-99999,-99999,-99999,-99999,0.022046344,0.022125381,0.022253708,0.022449876,0.023180908,0.036789506,0.03093954,0.037203935,0.066550789,0.03841867,0.039661059,0.060430334,0.068202449,0.042682709,0.029449396,0.00845743,-99999,-99999,-99999,-99999,-99999,-99999,0.015965,0.021979,0.016572,0.021891
1348340,1999-01-03T07:00:20.568000Z,I9468A01,5.22,0.15,Slab,N,1,211,80,-8.30E+01,nlloc,-41.0938,174.519,-41.2011,174.9547,6011432.3,2637591.18,5998793,2673916,3.7,3.7,38.38,68.5,37.91,66.79,-37.32,-7.87,0,56.68,54.84,nu,468A,D,190,Q1,0.9,Q3,50,Q3,0,-99999,-99999,0,0.3,20,0.51,20,HarvardCMT,0.034270841,0.035036574,0.036346881,0.038739574,0.045835851,0.078202861,0.109625183,0.099040177,0.142450194,0.072363517,0.072566546,0.064267801,0.039964204,0.042152637,0.049042628,0.010797981,-99999,-99999,-99999,-99999,-99999,-99999,0.037361047,0.038173759,0.039660616,0.042220931,0.049038459,0.085258241,0.155020187,0.13617925,0.178751188,0.083238656,0.080823839,0.07821262,0.047195547,0.052702029,0.056869284,0.013976369,-99999,-99999,-99999,-99999,-99999,-99999,0.033923,0.037196,0.017852,0.019378
1348340,1999-01-03T07:00:20.568000Z,I9602C01,5.22,0.15,Slab,N,1,211,80,-8.30E+01,nlloc,-41.0938,174.519,-41.1903,174.928,6011432.3,2637591.18,6000041,2671703,3.7,3.7,35.89,67.15,35.4,65.41,-34.78,-7.8,0,56.68,54.84,nu,602C,B,1000,Q3,<0.1,Q3,0,Q3,0,-99999,-99999,0,0.3,40,0.51,40,HarvardCMT,0.012075946,0.012302952,0.013107009,0.014788798,0.015893162,0.03166734,0.036634753,0.023870411,0.02805031,0.02212814,0.01833565,0.019189363,0.01740596,0.007402921,0.006867041,0.002629822,-99999,-99999,-99999,-99999,-99999,-99999,0.016508458,0.016706836,0.017430209,0.020574338,0.020358055,0.037590523,0.047889945,0.033616856,0.032595378,0.030214557,0.019275145,0.027045554,0.023137108,0.010318229,0.008858657,0.003679153,-99999,-99999,-99999,-99999,-99999,-99999,0.012032,0.01644,0.005437,0.007595
1348340,1999-01-03T07:00:20.568000Z,I9603B02,5.22,0.15,Slab,N,1,211,80,-8.30E+01,nlloc,-41.0938,174.519,-41.2237,174.86,6011432.3,2637591.18,5996453,2665923,3.7,3.7,31.99,65.12,31.66,63.36,-31.67,-1.75,0,56.68,54.84,nu,603B,B,1000,Q3,<0.1,Q3,0,Q3,0,-99999,-99999,0,0.19,55,0.323,55,HarvardCMT,0.007816727,0.008235726,0.008356753,0.010345741,0.010600419,0.015650135,0.016414682,0.027020804,0.021400532,0.013374213,0.009664633,0.011884486,0.010592419,0.009341036,0.005708326,0.002462325,0.001081384,0.000375283,-99999,-99999,-99999,-99999,0.00979598,0.010106925,0.010059931,0.012490271,0.011380173,0.017815881,0.020848256,0.037888957,0.026839365,0.014537116,0.011873624,0.013890065,0.012735651,0.013111635,0.007884616,0.003395938,0.001526419,0.000476752,-99999,-99999,-99999,-99999,0.00778,0.00974,0.004733,0.0053
1348340,1999-01-03T07:00:20.568000Z,I9605B22,5.22,0.15,Slab,N,1,211,80,-8.30E+01,nlloc,-41.0938,174.519,-41.2074,174.9401,6011432.3,2637591.18,5998119,2672679,3.7,3.7,37.45,68.03,37.01,66.31,-36.61,-6.66,0,56.68,54.84,nu,FAIS,B,760,Q3,0.27,Q1,0,Q2,0,-99999,-99999,0,0.3,45,0.51,45,HarvardCMT,0.011416298,0.011839474,0.012165259,0.01365462,0.017004998,0.018460964,0.034153769,0.037585845,0.027817137,0.020085221,0.021453846,0.024140854,0.016055818,0.00809435,0.004908581,0.002050881,-99999,-99999,-99999,-99999,-99999,-99999,0.013872269,0.014191686,0.014167867,0.01709033,0.021214,0.02104035,0.038139227,0.046656906,0.030824444,0.028309736,0.029196797,0.033495436,0.022437758,0.01103956,0.00610172,0.002322009,-99999,-99999,-99999,-99999,-99999,-99999,0.011282,0.013748,0.005969,0.008408
1348340,1999-01-03T07:00:20.568000Z,I9606B03,5.22,0.15,Slab,N,1,211,80,-8.30E+01,nlloc,-41.0938,174.519,-41.2333,174.9199,6011432.3,2637591.18,5995282,2670919,3.7,3.7,36.97,67.71,36.61,65.99,-36.56,-3.32,0,56.68,54.84,nu,606B,B,800,Q3,<0.1,Q3,0,Q3,0,-99999,-99999,0,0.18,52,0.306,52,HarvardCMT,0.012880962,0.01312514,0.013846628,0.021467618,0.021314602,0.03728013,0.034606172,0.030742274,0.022917682,0.017628828,0.018670993,0.013911495,0.009870217,0.005485483,0.002946891,0.000995931,0.000567123,0.000241941,-99999,-99999,-99999,-99999,0.017242584,0.01837635,0.017621031,0.024537541,0.024219866,0.046445083,0.041339464,0.037041079,0.026792969,0.024653579,0.024538963,0.018359043,0.013538475,0.007440157,0.004107986,0.001162528,0.000665529,0.000341627,-99999,-99999,-99999,-99999,0.012759,0.017084,0.004154,0.004607
1348340,1999-01-03T07:00:20.568000Z,I9640A06,5.22,0.15,Slab,N,1,211,80,-8.30E+01,nlloc,-41.0938,174.519,-41.235,174.9147,6011432.3,2637591.18,5995103,2670479,3.7,3.7,36.65,67.54,36.31,65.82,-36.28,-2.94,0,56.68,54.84,nu,640A,E,230,Q3,0.5,Q3,60,Q3,0,-99999,-99999,0,0.3,20,0.51,20,HarvardCMT,0.021830252,0.022163503,0.022720084,0.023367472,0.026162495,0.051724256,0.050500812,0.042870252,0.04805538,0.046003672,0.05270727,0.049875077,0.033998694,0.013680166,0.007482215,0.002439307,-99999,-99999,-99999,-99999,-99999,-99999,0.029033242,0.029401688,0.030036218,0.031111851,0.033013717,0.056796608,0.057751999,0.046010708,0.06044677,0.054685576,0.066413855,0.063782314,0.042798907,0.018935042,0.009979203,0.003274143,-99999,-99999,-99999,-99999,-99999,-99999,0.021522,0.029039,0.010105,0.014102
1348340,1999-01-03T07:00:20.568000Z,I9646B03,5.22,0.15,Slab,N,1,211,80,-8.30E+01,nlloc,-41.0938,174.519,-41.2574,174.9485,6011432.3,2637591.18,5992552,2673256,3.7,3.7,40.29,69.65,39.95,67.96,-39.97,-2.19,0,56.68,54.84,nu,WDAS,E,120,Q1,1.6,Q2,62,Q2,0,-99999,-99999,0,0.4,35,0.68,35,HarvardCMT,0.019622696,0.020077931,0.021331414,0.024068943,0.024813592,0.044821996,0.034871112,0.078714992,0.067126647,0.051491368,0.048553196,0.039128973,0.046187732,0.057475372,0.043638731,-99999,-99999,-99999,-99999,-99999,-99999,-99999,0.020569551,0.02090035,0.023074911,0.026487892,0.026719176,0.048006274,0.042501563,0.094358996,0.086460697,0.054760082,0.052545285,0.052309212,0.057149401,0.061657166,0.060140101,-99999,-99999,-99999,-99999,-99999,-99999,-99999,0.019566,0.020568,0.016838,0.020664
1348340,1999-01-03T07:00:20.568000Z,I9708A04,5.22,0.15,Slab,N,1,211,80,-8.30E+01,nlloc,-41.0938,174.519,-41.1314,174.8391,6011432.3,2637591.18,6006740,2664387,3.7,3.7,27.14,62.88,26.45,61.06,-25.06,-9.78,0,56.68,54.84,nu,POLS,C,250,Q2,0.4,Q1,25,Q2,0,-99999,-99999,0,0.25,20,0.425,20,HarvardCMT,0.015929419,0.016207332,0.016719126,0.017848835,0.021734205,0.043019571,0.032811975,0.062614103,0.040954707,0.049949601,0.050269361,0.021981299,0.023936921,0.015356939,0.006887464,0.00192666,0.000939903,-99999,-99999,-99999,-99999,-99999,0.020211622,0.02048268,0.020960609,0.022055542,0.024376314,0.053356793,0.040794444,0.078860495,0.053100972,0.067381794,0.064448523,0.025808399,0.028295058,0.021209858,0.008937069,0.002701481,0.001329253,-99999,-99999,-99999,-99999,-99999,0.015729,0.019999,0.007194,0.008358
1348340,1999-01-03T07:00:20.568000Z,I9918C01,5.22,0.15,Slab,N,1,211,80,-8.30E+01,nlloc,-41.0938,174.519,-41.284,174.7682,6011432.3,2637591.18,5989908,2658140,3.7,3.7,29.7,64.14,29.14,62.35,-28.37,7.87,0,56.68,54.84,nu,WEL,B,1000,Q3,0.3,Q1,0,Q2,0,-99999,-99999,0,0.35,35,0.595,35,HarvardCMT,0.018661643,0.019649819,0.023651566,0.026228484,0.032496659,0.059691332,0.06686372,0.077213746,0.051548652,0.027575428,0.019957491,0.01772423,0.015011057,0.005418358,0.005223519,0.002452137,-99999,-99999,-99999,-99999,-99999,-99999,0.022729455,0.023273684,0.026628318,0.031595617,0.042422785,0.078848187,0.078756348,0.103024965,0.067803852,0.038926863,0.026214536,0.024377064,0.020793627,0.00602617,0.005864473,0.002982525,-99999,-99999,-99999,-99999,-99999,-99999,0.018532,0.022602,0.006648,0.009403
1444773,1999-10-25T20:31:43.627000Z,D9014A02,6.02,0.15,Slab,O,0,158,54,35,nlloc,-38.5427,175.885,-39.4984,176.8761,6291620.32,2761553.77,6182359,2843283,9.4,9.4,136.47,204.75,133.03,201.69,-99999,-99999,0,152.66,148.68,nu,NCDS,E,162,Q3,1.25,Q2,110,Q3,0,-99999,-99999,1,0.25,14,0.425,14,HarvardCMT,0.037371288,0.037553624,0.037700128,0.037981998,0.038533416,0.045786985,0.066537199,0.113396238,0.183209934,0.160117759,0.084800683,0.064555978,0.053328509,0.140951008,0.041626335,0.016966859,0.012577268,-99999,-99999,-99999,-99999,-99999,0.048765285,0.049024154,0.049458417,0.050056921,0.05085291,0.061973344,0.08093996,0.155652672,0.225634886,0.202449896,0.106526997,0.072878341,0.06322276,0.195487433,0.054967445,0.022482273,0.016026189,-99999,-99999,-99999,-99999,-99999,0.037263,0.048479,0.027826,0.03757
1444773,1999-10-25T20:31:43.627000Z,D9027G06,6.02,0.15,Slab,O,0,158,54,35,nlloc,-38.5427,175.885,-39.4884,176.9189,6291620.32,2761553.77,6183307,2847012,9.4,9.4,137.97,205.77,134.56,202.73,-99999,-99999,0,152.66,148.68,nu,NAMS,C,268,Q3,0.4,Q3,20,Q3,0,-99999,-99999,1,0.25,12,0.425,12,HarvardCMT,0.017807776,0.017895139,0.01807608,0.018332696,0.018660462,0.020659397,0.031756859,0.050833644,0.087982316,0.065153122,0.041632044,0.039123859,0.031001948,0.023007678,0.010929066,0.011148905,0.007182399,-99999,-99999,-99999,-99999,-99999,0.020257754,0.020347915,0.020492872,0.020710395,0.021007871,0.022824465,0.038745977,0.070475648,0.11266198,0.073793797,0.046830207,0.048569868,0.041844194,0.032020354,0.014258426,0.015232315,0.007817333,-99999,-99999,-99999,-99999,-99999,0.017732,0.020169,0.011055,0.013032
