CuspID,Origin_time,Record,Mw,MwUncert,TectClass,Mech,PreferredFaultPlane,Strike,Dip,Rake,Location,HypLat,HypLon,StationLat,StationLon,HypN,HypE,StationN,StationE,LENGTH_km,WIDTH_km,Repi_km,Rhyp_km,Rjb_km,Rrup_km,Rx_km,Ry_km,Rvol_km,HypDepth_km,ZTOR_km,HWFW,SiteCode,SiteClass1170,Vs30,Vs30Uncert,Tsite,TsiteUncert,Z1,Z1Uncertainty,Directivity,Pulse_or,Pulse_T,S_Trigger_Flag,fcButterHP,f_iniLP,fmin,fmax,References,f100.0000SA_Vert,f50.0000SA_Vert,f33.3333SA_Vert,f25.0000SA_Vert,f20.0000SA_Vert,f13.3333SA_Vert,f10.0000SA_Vert,f6.6667SA_Vert,f5.0000SA_Vert,f4.0000SA_Vert,f3.3333SA_Vert,f2.5000SA_Vert,f2.0000SA_Vert,f1.3333SA_Vert,f1.0000SA_Vert,f0.6667SA_Vert,f0.5000SA_Vert,f0.3333SA_Vert,f0.2500SA_Vert,f0.2000SA_Vert,f0.1333SA_Vert,f0.1000SA_Vert,PGA,PGV
722185,1995-03-22T19:43:30.268000Z,I5468A06,5.83,0.15,Slab,S,0,27,64,30,nlloc,-41.0514,174.216,-41.2011,174.9547,6016538.56,2612205.51,5998793,2673916,7.6,7.6,64.07,106.94,61.31,104.29,-99999,-99999,0,85.51,82.13,nu,468A,D,190,Q1,0.9,Q3,50,Q3,0,-99999,-99999,0,0.2,42,0.34,42,HarvardCMT,0.040491668,0.041467646,0.054513659,0.050472295,0.059951333,0.069739424,0.10461792,0.114789275,0.079082398,0.043789684,0.036617378,0.06402713,0.059371313,0.025570207,0.018553768,0.003301637,0.002183357,-9999,-9999,-9999,-9999,-9999,0.040489,0.01632
722185,1995-03-22T19:43:30.268000Z,I5602C01,5.83,0.15,Slab,S,0,27,64,30,nlloc,-41.0514,174.216,-41.1903,174.928,6016538.56,2612205.51,6000041,2671703,7.6,7.6,61.61,105.49,58.84,102.81,-99999,-99999,0,85.51,82.13,nu,602C,B,1000,Q3,<0.1,Q3,0,Q3,0,-99999,-99999,0,0.2,55,0.34,55,HarvardCMT,0.012235104,0.015926797,0.030018192,0.040125123,0.028360783,0.022019011,0.02011833,0.020938044,0.016528965,0.016694276,0.02322854,0.011342198,0.009447794,0.006350505,0.007502901,0.003815425,0.002116124,-9999,-9999,-9999,-9999,-9999,0.011672,0.00504
722185,1995-03-22T19:43:30.268000Z,I5603B03,5.83,0.15,Slab,S,0,27,64,30,nlloc,-41.0514,174.216,-41.2237,174.86,6016538.56,2612205.51,5996453,2665923,7.6,7.6,57.23,102.97,54.52,100.24,-99999,-99999,0,85.51,82.13,nu,603B,B,1000,Q3,<0.1,Q3,0,Q3,0,-99999,-99999,0,0.2,40,0.34,40,HarvardCMT,0.010166553,0.010744648,0.020715164,0.023722948,0.024418978,0.025649682,0.024051789,0.036946152,0.020814612,0.01673426,0.016779816,0.008714699,0.008293297,0.006583203,0.004380262,0.003512327,0.001782063,-9999,-9999,-9999,-9999,-9999,0.010183,0.005198
722185,1995-03-22T19:43:30.268000Z,I5605B05,5.83,0.15,Slab,S,0,27,64,30,nlloc,-41.0514,174.216,-41.2074,174.9401,6016538.56,2612205.51,5998119,2672679,7.6,7.6,63.08,106.39,60.33,103.72,-99999,-99999,0,85.51,82.13,nu,FAIS,B,760,Q3,0.27,Q1,0,Q2,0,-99999,-99999,0,0.15,35,0.255,35,HarvardCMT,0.015127012,0.015419693,0.014958723,0.018669238,0.026341345,0.048250046,0.042648913,0.040662538,0.023187254,0.017122427,0.018149511,0.015840702,0.01219543,0.005124192,0.003344902,0.001416862,0.001976719,0.000533575,-9999,-9999,-9999,-9999,0.014995,0.00479
722185,1995-03-22T19:43:30.268000Z,I5606B07,5.83,0.15,Slab,S,0,27,64,30,nlloc,-41.0514,174.216,-41.2333,174.9199,6016538.56,2612205.51,5995282,2670919,7.6,7.6,62.31,105.88,59.59,103.21,-99999,-99999,0,85.51,82.13,nu,606B,B,800,Q3,<0.1,Q3,0,Q3,0,-99999,-99999,0,0.2,35,0.34,35,HarvardCMT,0.013168949,0.014949803,0.031656657,0.041848009,0.048858564,0.045687375,0.030272502,0.037228546,0.020476812,0.010122465,0.008107145,0.007909722,0.009288295,0.005254591,0.003088394,0.001688796,0.001396889,-9999,-9999,-9999,-9999,-9999,0.013038,0.003686
722185,1995-03-22T19:43:30.268000Z,I5642G18,5.83,0.15,Slab,S,0,27,64,30,nlloc,-41.0514,174.216,-41.235,174.9172,6016538.56,2612205.51,5995098,2670688,7.6,7.6,62.16,105.8,59.44,103.12,-99999,-99999,0,85.51,82.13,nu,642G,C,350,Q1,0.35,Q2,50,Q3,0,-99999,-99999,0,0.25,35,0.425,35,HarvardCMT,0.036429188,0.038185022,0.045865109,0.072925134,0.099666978,0.079313149,0.073054937,0.178908189,0.099773131,0.043425894,0.025449597,0.01944944,0.02507316,0.008685882,0.002879638,0.0022982,0.001542653,-9999,-9999,-9999,-9999,-9999,0.034516,0.01028
722185,1995-03-22T19:43:30.268000Z,I5642H18,5.83,0.15,Slab,S,0,27,64,30,nlloc,-41.0514,174.216,-41.235,174.9172,6016538.56,2612205.51,5995098,2670688,7.6,7.6,62.16,105.8,59.44,103.12,-99999,-99999,0,85.51,82.13,nu,642H,C,350,Q1,0.35,Q2,50,Q3,0,-99999,-99999,0,0.25,40,0.425,40,HarvardCMT,0.046451983,0.049111338,0.055284065,0.07701825,0.080069834,0.061686327,0.085074969,0.124174951,0.107943347,0.053519036,0.032471414,0.023414453,0.023986301,0.007956257,0.002846992,0.00216831,0.001573924,-9999,-9999,-9999,-9999,-9999,0.045912,0.01141
722185,1995-03-22T19:43:30.268000Z,I5708A04,5.83,0.15,Slab,S,0,27,64,30,nlloc,-41.0514,174.216,-41.1314,174.8391,6016538.56,2612205.51,6006740,2664387,7.6,7.6,52.97,100.66,50.14,97.89,-99999,-99999,0,85.51,82.13,nu,POLS,C,250,Q2,0.4,Q1,25,Q2,0,-99999,-99999,0,0.15,40,0.255,40,HarvardCMT,0.026205148,0.02941547,0.040414561,0.064031399,0.086605655,0.054878279,0.05032786,0.066430883,0.035482233,0.028682282,0.020129601,0.015246537,0.010476279,0.006932662,0.006715254,0.002138147,0.001470392,0.000469665,-9999,-9999,-9999,-9999,0.02632,0.00591
722185,1995-03-22T19:43:30.268000Z,I5711A01,5.83,0.15,Slab,S,0,27,64,30,nlloc,-41.0514,174.216,-41.2294,174.9042,6016538.56,2612205.51,5995739,2669619,7.6,7.6,60.94,105.08,58.22,102.39,-99999,-99999,0,85.51,82.13,nu,LRSS,D,230,Q3,1.4,Q3,175,Q3,0,-99999,-99999,0,0.25,20,0.425,20,HarvardCMT,0.019689183,0.02072534,0.02283065,0.027347842,0.052093494,0.075212752,0.047328809,0.036986242,0.02502452,0.022849025,0.017341362,0.022882019,0.0165367,0.01318517,0.012683938,0.006292087,0.003468371,-9999,-9999,-9999,-9999,-9999,0.018603,0.00903
722185,1995-03-22T19:43:30.268000Z,I5918B08,5.83,0.15,Slab,S,0,27,64,30,nlloc,-41.0514,174.216,-41.284,174.7682,6016538.56,2612205.51,5989908,2658140,7.6,7.6,52.97,100.77,50.33,97.95,-99999,-99999,0,85.51,82.13,nu,WEL,B,1000,Q3,0.3,Q1,0,Q2,0,-99999,-99999,0,0.25,30,0.425,30,HarvardCMT,0.034957749,0.035528813,0.038265829,0.049881626,0.05387549,0.084551718,0.093337352,0.140018138,0.046451603,0.029617072,0.033657485,0.024991716,0.014332663,0.008882069,0.004077379,0.003724918,0.002104348,-9999,-9999,-9999,-9999,-9999,0.034934,0.00765
771645,1995-11-24T06:18:56.622999Z,D5505A37,6.19,0.08,Crustal,O,1,176,46,44,geonet,-42.953,171.8188,-42.9489,171.5677,5805359.34,2413627.76,5805487,2393135,12,6,20.44,22,18.34,21,22.52,-1.56,0,7.26,5.1,hw,APPS,C,300,Q2,0.4,Q1,30,Q2,0,-99999,-99999,0,0.27,24.5,0.459,24.5,Gledhill_etal_2000,0.061140729,0.065817715,0.080301512,0.135072862,0.292746227,0.241676797,0.17197854,0.137403903,0.127192792,0.212244396,0.097247606,0.060835628,0.053354165,0.024910402,0.018871313,0.011584125,0.015259182,-9999,-9999,-9999,-9999,-9999,0.058981,0.02179
771645,1995-11-24T06:18:56.622999Z,D6051D01,6.19,0.08,Crustal,O,1,176,46,44,geonet,-42.953,171.8188,-41.7557,171.5998,5805359.34,2413627.76,5938069,2393545,12,6,134.35,134.42,128.36,128.45,12.86,-133.79,0,7.26,5.1,nu,WBCS,D,300,Q3,1.2,Q2,105,Q3,0,-99999,-99999,0,0.3,17,0.51,17,Gledhill_etal_2000,0.007818256,0.007851,0.007908755,0.00798983,0.008366827,0.017931943,0.015340001,0.018444667,0.027526396,0.016131876,0.014601853,0.017646304,0.017700412,0.01179604,0.014274464,0.007584442,-9999,-9999,-9999,-9999,-9999,-9999,0.007819,0.00681
1037562,1996-08-29T04:47:00.878000Z,D6042A01,5.25,0.15,Crustal,S,0,317,67,-2.00E+01,geonet,-42.4891,172.7921,-42.5232,172.8305,5857551.8,2492912.82,5853765,2496076,3.9,3.9,4.93,10.98,3.66,9.43,-99999,-99999,0,9.43,7.61,nu,HSES,D,280,Q3,0.9,Q1,85,Q3,0,-99999,-99999,0,0.25,18,0.425,18,HarvardCMT,0.084334593,0.08494827,0.08611993,0.088358391,0.094812183,0.116965046,0.098998818,0.204763267,0.104033835,0.098262209,0.127924517,0.290677036,0.196760334,0.124421331,0.100781237,0.027353394,0.010995059,-9999,-9999,-9999,-9999,-9999,0.084322,0.07365
1348340,1999-01-03T07:00:20.568000Z,D9131A03,5.22,0.15,Slab,N,1,211,80,-8.30E+01,nlloc,-41.0938,174.519,-40.9143,175.005,6011432.3,2637591.18,6030534,2678862,3.7,3.7,45.4,72.68,43.85,70.85,-25.21,-37.63,0,56.68,54.84,nu,PAPS,D,200,Q3,1.4,Q1,100,Q3,0,-99999,-99999,0,0.5,10,0.85,10,HarvardCMT,0.008079457,0.008181827,0.008357839,0.008617746,0.008967658,0.010647098,0.017397145,0.03251462,0.018770454,0.012187764,0.010434236,0.020420088,0.015943974,0.012372993,0.005215983,-9999,-9999,-9999,-9999,-9999,-9999,-9999,0.008033,0.00551
1348340,1999-01-03T07:00:20.568000Z,D9469A01,5.22,0.15,Slab,N,1,211,80,-8.30E+01,nlloc,-41.0938,174.519,-41.2117,174.9033,6011432.3,2637591.18,5997711,2669586,3.7,3.7,34.75,66.53,34.35,64.79,-34.17,-4.72,0,56.68,54.84,nu,LHES,D,240,Q3,1.16,Q3,280,Q3,0,-99999,-99999,0,0.6,29,1.02,29,HarvardCMT,0.008276081,0.009207325,0.011657376,0.027208647,0.021256124,0.022797871,0.016602047,0.021649599,0.016940255,0.00742851,0.008717783,0.009070511,0.007675595,0.012500859,-9999,-9999,-9999,-9999,-9999,-9999,-9999,-9999,0.008033,0.00384
1348340,1999-01-03T07:00:20.568000Z,D9643B07,5.22,0.15,Slab,N,1,211,80,-8.30E+01,nlloc,-41.0938,174.519,-41.1513,174.9794,6011432.3,2637591.18,6004275,2676112,3.7,3.7,39.09,68.98,38.4,67.25,-36.38,-13.7,0,56.68,54.84,nu,643B,B,1000,Q3,<0.1,Q3,1.50E+00,Q3,0,-99999,-99999,0,0.8,17,1.36,17,HarvardCMT,0.010148633,0.010501588,0.011141806,0.01228705,0.014545452,0.024706499,0.023315032,0.030043297,0.009616843,0.007613536,0.010255127,0.006255791,0.004005978,-9999,-9999,-9999,-9999,-9999,-9999,-9999,-9999,-9999,0.009776,0.00251
1348340,1999-01-03T07:00:20.568000Z,D9644C05,5.22,0.15,Slab,N,1,211,80,-8.30E+01,nlloc,-41.0938,174.519,-41.2187,174.8826,6011432.3,2637591.18,5996970,2667828,3.7,3.7,33.46,65.85,33.1,64.1,-33.04,-3.18,0,56.68,54.84,nu,644C,D,189,Q3,2,Q3,250,Q3,0,-99999,-99999,0,0.4,18,0.68,18,HarvardCMT,0.008455331,0.008809054,0.009505755,0.010859748,0.014447591,0.033262211,0.025909196,0.015017947,0.015068058,0.010815543,0.008085322,0.011003929,0.011858899,0.010778416,0.004583223,-9999,-9999,-9999,-9999,-9999,-9999,-9999,0.008471,0.00372
1348340,1999-01-03T07:00:20.568000Z,D9900C01,5.22,0.15,Slab,N,1,211,80,-8.30E+01,nlloc,-41.0938,174.519,-41.2891,174.7799,6011432.3,2637591.18,5989335,2659058,3.7,3.7,30.79,64.52,30.25,62.73,-29.46,7.88,0,56.68,54.84,nu,900C,D,250,Q3,0.8,Q3,60,Q3,0,-99999,-99999,0,0.6,26,1.02,26,HarvardCMT,0.0242292,0.025390514,0.027993288,0.036897374,0.028035103,0.054907742,0.065151661,0.041229567,0.019304853,0.015323715,0.015030365,0.016769145,0.013598149,0.00556622,-9999,-9999,-9999,-9999,-9999,-9999,-9999,-9999,0.023741,0.00673
1348340,1999-01-03T07:00:20.568000Z,G9713A02,5.22,0.15,Slab,N,1,211,80,-8.30E+01,nlloc,-41.0938,174.519,-41.1257,174.8392,6011432.3,2637591.18,6007373,2664412,3.7,3.7,27.06,62.84,26.34,61.02,-24.76,-10.33,0,56.68,54.84,nu,713A,D,210,Q3,0.6,Q3,40,Q3,0,-99999,-99999,0,0.7,42,1.19,42,HarvardCMT,0.026795875,0.031108154,0.044261583,0.054634508,0.051558266,0.050866617,0.055689529,0.032374282,0.031040449,0.036608615,0.025520414,0.016755897,0.014423449,0.011053976,-9999,-9999,-9999,-9999,-9999,-9999,-9999,-9999,0.026208,0.00727
1348340,1999-01-03T07:00:20.568000Z,I9467A03,5.22,0.15,Slab,N,1,211,80,-8.30E+01,nlloc,-41.0938,174.519,-41.2425,174.9024,6011432.3,2637591.18,5994293,2669430,3.7,3.7,36.1,67.24,35.77,65.51,-35.79,-1.71,0,56.68,54.84,nu,467A,D,218,Q3,1.5,Q3,200,Q3,0,-99999,-99999,0,0.25,35,0.425,35,HarvardCMT,0.014505877,0.015471746,0.018991078,0.027010072,0.030779358,0.040214827,0.029585041,0.015871761,0.012230449,0.011635833,0.010978908,0.009694255,0.011113461,0.007505112,0.004709415,0.001858494,0.0006958,-9999,-9999,-9999,-9999,-9999,0.013496,0.00331
1348340,1999-01-03T07:00:20.568000Z,I9468A01,5.22,0.15,Slab,N,1,211,80,-8.30E+01,nlloc,-41.0938,174.519,-41.2011,174.9547,6011432.3,2637591.18,5998793,2673916,3.7,3.7,38.38,68.5,37.91,66.79,-37.32,-7.87,0,56.68,54.84,nu,468A,D,190,Q1,0.9,Q3,50,Q3,0,-99999,-99999,0,0.45,35,0.765,35,HarvardCMT,0.020637347,0.021286022,0.023989693,0.031916448,0.02812048,0.043940451,0.076844819,0.037409392,0.039905544,0.028711988,0.026765263,0.050314393,0.023267997,0.01564376,0.010314794,-9999,-9999,-9999,-9999,-9999,-9999,-9999,0.020652,0.00721
1348340,1999-01-03T07:00:20.568000Z,I9602C01,5.22,0.15,Slab,N,1,211,80,-8.30E+01,nlloc,-41.0938,174.519,-41.1903,174.928,6011432.3,2637591.18,6000041,2671703,3.7,3.7,35.89,67.15,35.4,65.41,-34.78,-7.8,0,56.68,54.84,nu,602C,B,1000,Q3,<0.1,Q3,0,Q3,0,-99999,-99999,0,0.3,55,0.51,55,HarvardCMT,0.00893937,0.011125243,0.026093724,0.042644304,0.030789914,0.01049391,0.012267666,0.011181842,0.009257594,0.010153871,0.005870967,0.00950472,0.00823762,0.006200872,0.005582842,0.0016329,-9999,-9999,-9999,-9999,-9999,-9999,0.008522,0.003434
1348340,1999-01-03T07:00:20.568000Z,I9603B02,5.22,0.15,Slab,N,1,211,80,-8.30E+01,nlloc,-41.0938,174.519,-41.2237,174.86,6011432.3,2637591.18,5996453,2665923,3.7,3.7,31.99,65.12,31.66,63.36,-31.67,-1.75,0,56.68,54.84,nu,603B,B,1000,Q3,<0.1,Q3,0,Q3,0,-99999,-99999,0,0.25,58,0.425,58,HarvardCMT,0.013741753,0.016323439,0.016379699,0.025982808,0.026629907,0.031263476,0.01193375,0.009444874,0.010716708,0.005610059,0.005457011,0.006892718,0.005686915,0.004812123,0.002106429,0.001062857,0.000673202,-9999,-9999,-9999,-9999,-9999,0.013333,0.002565
1348340,1999-01-03T07:00:20.568000Z,I9605B22,5.22,0.15,Slab,N,1,211,80,-8.30E+01,nlloc,-41.0938,174.519,-41.2074,174.9401,6011432.3,2637591.18,5998119,2672679,3.7,3.7,37.45,68.03,37.01,66.31,-36.61,-6.66,0,56.68,54.84,nu,FAIS,B,760,Q3,0.27,Q1,0,Q2,0,-99999,-99999,0,0.32,50,0.544,50,HarvardCMT,0.006320091,0.006810031,0.008106717,0.007936807,0.011187602,0.02069455,0.020609369,0.014868295,0.012937788,0.007968034,0.005226573,0.00698538,0.004420694,0.002836025,0.002060692,0.000681506,-9999,-9999,-9999,-9999,-9999,-9999,0.006239,0.002579
1348340,1999-01-03T07:00:20.568000Z,I9606B03,5.22,0.15,Slab,N,1,211,80,-8.30E+01,nlloc,-41.0938,174.519,-41.2333,174.9199,6011432.3,2637591.18,5995282,2670919,3.7,3.7,36.97,67.71,36.61,65.99,-36.56,-3.32,0,56.68,54.84,nu,606B,B,800,Q3,<0.1,Q3,0,Q3,0,-99999,-99999,0,0.35,55,0.595,55,HarvardCMT,0.012049002,0.013143709,0.017055009,0.0292773,0.032472494,0.040377439,0.028105186,0.009773301,0.007162932,0.004803329,0.004524062,0.004182167,0.004347088,0.002824025,0.002198045,0.001535147,-9999,-9999,-9999,-9999,-9999,-9999,0.011886,0.002193
1348340,1999-01-03T07:00:20.568000Z,I9640A06,5.22,0.15,Slab,N,1,211,80,-8.30E+01,nlloc,-41.0938,174.519,-41.235,174.9147,6011432.3,2637591.18,5995103,2670479,3.7,3.7,36.65,67.54,36.31,65.82,-36.28,-2.94,0,56.68,54.84,nu,640A,E,230,Q3,0.5,Q3,60,Q3,0,-99999,-99999,0,0.4,40,0.68,40,HarvardCMT,0.020031049,0.022322871,0.023608012,0.042259621,0.046096389,0.05881666,0.038200384,0.048865466,0.037257803,0.019354666,0.010618434,0.008482237,0.007624952,0.002824885,0.001689734,-9999,-9999,-9999,-9999,-9999,-9999,-9999,0.019531,0.00495
1348340,1999-01-03T07:00:20.568000Z,I9646B03,5.22,0.15,Slab,N,1,211,80,-8.30E+01,nlloc,-41.0938,174.519,-41.2574,174.9485,6011432.3,2637591.18,5992552,2673256,3.7,3.7,40.29,69.65,39.95,67.96,-39.97,-2.19,0,56.68,54.84,nu,WDAS,E,120,Q1,1.6,Q2,62,Q2,0,-99999,-99999,0,0.3,30,0.51,30,HarvardCMT,0.044428563,0.047303102,0.052075156,0.075724782,0.080132301,0.084784235,0.132017333,0.063834175,0.028994768,0.032429385,0.021516272,0.02469451,0.02449756,0.011593633,0.006336553,0.001478176,-9999,-9999,-9999,-9999,-9999,-9999,0.044404,0.00754
1348340,1999-01-03T07:00:20.568000Z,I9708A04,5.22,0.15,Slab,N,1,211,80,-8.30E+01,nlloc,-41.0938,174.519,-41.1314,174.8391,6011432.3,2637591.18,6006740,2664387,3.7,3.7,27.14,62.88,26.45,61.06,-25.06,-9.78,0,56.68,54.84,nu,POLS,C,250,Q2,0.4,Q1,25,Q2,0,-99999,-99999,0,0.25,35,0.425,35,HarvardCMT,0.022121714,0.025333825,0.037448952,0.065190476,0.078426526,0.040095395,0.039655644,0.052262597,0.025108843,0.014130289,0.009799455,0.007812803,0.007105618,0.004558545,0.002603119,0.000895497,0.000450155,-9999,-9999,-9999,-9999,-9999,0.022059,0.003726
1348340,1999-01-03T07:00:20.568000Z,I9918C01,5.22,0.15,Slab,N,1,211,80,-8.30E+01,nlloc,-41.0938,174.519,-41.284,174.7682,6011432.3,2637591.18,5989908,2658140,3.7,3.7,29.7,64.14,29.14,62.35,-28.37,7.87,0,56.68,54.84,nu,WEL,B,1000,Q3,0.3,Q1,0,Q2,0,-99999,-99999,0,0.35,45,0.595,45,HarvardCMT,0.035078192,0.03774874,0.044619454,0.063227904,0.064078107,0.094022143,0.108146283,0.028470707,0.018009406,0.009551869,0.007780188,0.007757286,0.005946889,0.003626326,0.002580225,0.001019648,-9999,-9999,-9999,-9999,-9999,-9999,0.033588,0.00496
1444773,1999-10-25T20:31:43.627000Z,D9302A06,6.02,0.15,Slab,O,0,158,54,35,nlloc,-38.5427,175.885,-39.9338,175.053,6291620.32,2761553.77,6139282,2685450,9.4,9.4,170.47,228.71,166.35,225.48,-99999,-99999,0,152.66,148.68,nu,302A,D,250,Q2,0.8,Q3,80,Q3,0,-99999,-99999,0,0.5,16,0.85,16,HarvardCMT,0.007933425,0.008237823,0.00877762,0.009725966,0.011388634,0.025674652,0.026813542,0.0135882,0.016947825,0.011229525,0.012285576,0.010667457,0.00929803,0.004650082,0.002875984,-9999,-9999,-9999,-9999,-9999,-9999,-9999,0.007931,0.00279
1444773,1999-10-25T20:31:43.627000Z,I9025A06,6.02,0.15,Slab,O,0,158,54,35,nlloc,-38.5427,175.885,-39.5851,174.2742,6291620.32,2761553.77,6179245,2619477,9.4,9.4,181.03,236.96,177.21,234.15,-99999,-99999,0,152.66,148.68,nu,HWHS,C,210,Q2,0.6,Q2,12,Q2,0,-99999,-99999,0,0.2,15,0.34,15,HarvardCMT,0.004118288,0.004120391,0.004130487,0.004142395,0.004153563,0.004382891,0.004542442,0.009212579,0.011322678,0.009967293,0.007815002,0.006538154,0.0070779,0.006600645,0.003956565,0.0026579,0.002440486,-9999,-9999,-9999,-9999,-9999,0.004121,0.003521
1444773,1999-10-25T20:31:43.627000Z,I9467A11,6.02,0.15,Slab,O,0,158,54,35,nlloc,-38.5427,175.885,-41.2425,174.9024,6291620.32,2761553.77,5994293,2669430,9.4,9.4,311.68,346.69,307.53,343.17,-99999,-99999,0,152.66,148.68,nu,467A,D,218,Q3,1.5,Q3,200,Q3,0,-99999,-99999,0,0.32,30,0.544,30,HarvardCMT,0.00848384,0.009247796,0.011625564,0.027145623,0.02149911,0.022455074,0.01723788,0.010545378,0.015095873,0.019248645,0.013354137,0.016641669,0.01441461,0.008750202,0.008188613,0.001285402,-9999,-9999,-9999,-9999,-9999,-9999,0.008512,0.00562
1444773,1999-10-25T20:31:43.627000Z,I9468A07,6.02,0.15,Slab,O,0,158,54,35,nlloc,-38.5427,175.885,-41.2011,174.9547,6291620.32,2761553.77,5998793,2673916,9.4,9.4,306.07,341.66,301.92,338.15,-99999,-99999,0,152.66,148.68,nu,468A,D,190,Q1,0.9,Q3,50,Q3,0,-99999,-99999,0,0.7,33,1.19,33,HarvardCMT,0.01041873,0.010444074,0.013084679,0.021609462,0.017360672,0.02563359,0.017622052,0.01987688,0.018628162,0.017814758,0.023160915,0.035405918,0.02003225,0.015485123,-9999,-9999,-9999,-9999,-9999,-9999,-9999,-9999,0.010418,0.00565
1444773,1999-10-25T20:31:43.627000Z,I9605B42,6.02,0.15,Slab,O,0,158,54,35,nlloc,-38.5427,175.885,-41.2074,174.9401,6291620.32,2761553.77,5998119,2672679,9.4,9.4,307.07,342.58,302.92,339.07,-99999,-99999,0,152.66,148.68,nu,FAIS,B,760,Q3,0.27,Q1,0,Q2,0,-99999,-99999,0,0.3,35,0.51,35,HarvardCMT,0.004531225,0.00478792,0.005738725,0.005752898,0.008558286,0.009686626,0.005614753,0.007252783,0.010914374,0.009486083,0.006708452,0.006611025,0.005829238,0.003191019,0.002864138,0.000747797,-9999,-9999,-9999,-9999,-9999,-9999,0.004526,0.002239
1444773,1999-10-25T20:31:43.627000Z,I9918C30,6.02,0.15,Slab,O,0,158,54,35,nlloc,-38.5427,175.885,-41.284,174.7682,6291620.32,2761553.77,5989908,2658140,9.4,9.4,319.35,353.65,315.2,350.13,-99999,-99999,0,152.66,148.68,nu,WEL,B,1000,Q3,0.3,Q1,0,Q2,0,-99999,-99999,0,0.3,33,0.51,33,HarvardCMT,0.005875475,0.006307588,0.00797062,0.013781031,0.013868848,0.013480689,0.016470254,0.011156931,0.006375499,0.006821564,0.006190995,0.008557646,0.007725335,0.003322547,0.003066835,0.001111761,-9999,-9999,-9999,-9999,-9999,-9999,0.005867,0.001629
