CuspID,Origin_time,Record,Mw,MwUncert,TectClass,Mech,PreferredFaultPlane,Strike,Dip,Rake,Location,HypLat,HypLon,StationLat,StationLon,HypN,HypE,StationN,StationE,LENGTH_km,WIDTH_km,Repi_km,Rhyp_km,Rjb_km,Rrup_km,Rx_km,Ry_km,Rvol_km,HypDepth_km,ZTOR_km,HWFW,SiteCode,SiteClass1170,Vs30,Vs30Uncert,Tsite,TsiteUncert,Z1,Z1Uncertainty,Directivity,Pulse_or,Pulse_T,S_Trigger_Flag,fcButterHP,f_iniLP,fmin,fmax,References,f100.0000SA_RotD50,f50.0000SA_RotD50,f33.3333SA_RotD50,f25.0000SA_RotD50,f20.0000SA_RotD50,f13.3333SA_RotD50,f10.0000SA_RotD50,f6.6667SA_RotD50,f5.0000SA_RotD50,f4.0000SA_RotD50,f3.3333SA_RotD50,f2.5000SA_RotD50,f2.0000SA_RotD50,f1.3333SA_RotD50,f1.0000SA_RotD50,f0.6667SA_RotD50,f0.5000SA_RotD50,f0.3333SA_RotD50,f0.2500SA_RotD50,f0.2000SA_RotD50,f0.1333SA_RotD50,f0.1000SA_RotD50,f100.0000SA_RotD100,f50.0000SA_RotD100,f33.3333SA_RotD100,f25.0000SA_RotD100,f20.0000SA_RotD100,f13.3333SA_RotD100,f10.0000SA_RotD100,f6.6667SA_RotD100,f5.0000SA_RotD100,f4.0000SA_RotD100,f3.3333SA_RotD100,f2.5000SA_RotD100,f2.0000SA_RotD100,f1.3333SA_RotD100,f1.0000SA_RotD100,f0.6667SA_RotD100,f0.5000SA_RotD100,f0.3333SA_RotD100,f0.2500SA_RotD100,f0.2000SA_RotD100,f0.1333SA_RotD100,f0.1000SA_RotD100,PGA_RotD50,PGA_RotD100,PGV_RotD50,PGV_RotD100
1553782,1971-08-13T14:42:41.636000Z,A71053A1,5.7,0.15,Crustal,S,1,242,83,207,special,-42.13,172.1,-42.3786,172.3329,5897058.69,2435589.3,5869623,2455066,6.51,6.51,33.64,34.99,33.13,33.79,-32.97,-4.32,0,9,5.77,fw,053A,C,391,Q3,0.27,Q3,20,Q3,0,-99999,-99999,1,0.4,18,0.68,18,Anderson_etal_1993&Dowrick_Rhoades_1998,0.0562376,0.056810462,0.058035771,0.060191379,0.064297901,0.156132768,0.138932012,0.206062633,0.248357483,0.287971846,0.254969248,0.158516908,0.079410489,0.144962938,0.059845646,-99999,-99999,-99999,-99999,-99999,-99999,-99999,0.070707421,0.071146509,0.071892121,0.07291361,0.073080426,0.162446293,0.187231607,0.277573339,0.281660471,0.358366799,0.327984559,0.221061654,0.085704127,0.198761166,0.082461387,-99999,-99999,-99999,-99999,-99999,-99999,-99999,0.056127,0.07071,0.042573,0.053299
1556608,1975-06-10T10:11:17.094000Z,K75301A2,5.62,0.15,Slab,N,1,250,56,257,special,-40.34,175.93,-40.3553,175.6152,6092087.55,2758882.27,6091232,2732094,5.9,5.9,26.73,46.53,23.88,44.21,10.02,25.47,0,38,35.54,nu,301A,D,341,Q3,0.7,Q2,60,Q3,0,-99999,-99999,1,0.4,19,0.68,19,Webb_Anderson_1998&Dowrick_Rhoades1998,0.037867715,0.038521279,0.039742287,0.041771167,0.045399699,0.092211173,0.144072411,0.162383532,0.198298844,0.094262859,0.098631174,0.093974275,0.075487006,0.03993695,0.052442561,-99999,-99999,-99999,-99999,-99999,-99999,-99999,0.043986438,0.044333424,0.044901434,0.045953223,0.050427936,0.10183513,0.182163305,0.19936905,0.218616649,0.109381511,0.115055434,0.122714312,0.097050548,0.052371601,0.07053673,-99999,-99999,-99999,-99999,-99999,-99999,-99999,0.037864,0.043987,0.023645,0.030684
1556608,1975-06-10T10:11:17.094000Z,K75340A1,5.62,0.15,Slab,N,1,250,56,257,special,-40.34,175.93,-40.3863,175.6165,6092087.55,2758882.27,6087788,2732102,5.9,5.9,27.06,46.71,24.14,44.26,6.78,26.64,0,38,35.54,nu,340A,D,283,Q3,0.96,Q3,90,Q3,0,-99999,-99999,1,0.65,18,1.105,18,Webb_Anderson_1998&Dowrick_Rhoades1998,0.049391781,0.049803882,0.050494018,0.05164692,0.054395507,0.137814596,0.161920163,0.140432328,0.292803622,0.248104638,0.320366533,0.099496548,0.098923144,0.031391473,-99999,-99999,-99999,-99999,-99999,-99999,-99999,-99999,0.063147447,0.063716035,0.064717136,0.066206311,0.066897766,0.173034145,0.183004403,0.177595841,0.401967525,0.280089632,0.424340314,0.113633285,0.113052544,0.041007279,-99999,-99999,-99999,-99999,-99999,-99999,-99999,-99999,0.049392,0.063153,0.024416,0.028186
1557438,1976-05-04T13:56:29.201000Z,A76080B1,6.51,0.15,Interface,O,1,48,47,130,special,-44.67,167.45,-44.6729,167.9264,5600506.59,2070223.23,5602634,2107939,22.44,22.44,37.67,39.08,27.88,31.04,31.31,29.45,0,10,1.79,nu,080B,C,210,Q3,0.57,Q3,30,Q3,0,-99999,-99999,1,0.2,29,0.34,29,Anderson_etal_1993&Dowrick_Rhoades_1998,0.08829366,0.089065721,0.091584597,0.11021915,0.133645157,0.140306256,0.238799436,0.221032102,0.176647328,0.241948525,0.338289558,0.410820432,0.537508323,0.168366734,0.156560972,0.050173626,0.027838831,-99999,-99999,-99999,-99999,-99999,0.098438378,0.098917871,0.100856943,0.12704816,0.148953745,0.169325202,0.307146478,0.253192425,0.248450731,0.310598532,0.373365461,0.504709885,0.755751452,0.219403044,0.210382199,0.061959093,0.034610611,-99999,-99999,-99999,-99999,-99999,0.087882,0.098438,0.089847,0.115009
1557438,1976-05-04T13:56:29.201000Z,K76070A1,6.51,0.15,Interface,O,1,48,47,130,special,-44.67,167.45,-45.4167,167.7191,5600506.59,2070223.23,5519112,2096857,22.44,22.44,85.68,86.25,77.38,79.21,85.96,-34.67,0,10,1.79,nu,TAFS,D,298,Q3,1.4,Q3,200,Q3,0,-99999,-99999,1,0.28,11,0.476,11,Anderson_etal_1993&Dowrick_Rhoades_1998,0.02440988,0.024520939,0.024615793,0.024815229,0.025108238,0.027582842,0.0957525,0.099789539,0.086559112,0.07590852,0.110355576,0.069541334,0.071119481,0.10570103,0.057602695,0.082753432,0.038302357,-99999,-99999,-99999,-99999,-99999,0.029524619,0.029613664,0.029758741,0.029968891,0.030214132,0.032115473,0.11271604,0.118441,0.098328006,0.096759005,0.148098928,0.081885347,0.076092376,0.137781974,0.062680412,0.101181799,0.050294861,-99999,-99999,-99999,-99999,-99999,0.024409,0.029457,0.031912,0.037482
1557438,1976-05-04T13:56:29.201000Z,K76089A1,6.51,0.15,Interface,O,1,48,47,130,special,-44.67,167.45,-44.6946,169.143,5600506.59,2070223.23,5605452,2204373,22.44,22.44,133.87,134.63,124.04,125.19,93.74,103,0,10,1.79,nu,WNPS,D,330,Q3,2.1,Q3,300,Q3,0,-99999,-99999,1,0.25,15,0.425,15,Anderson_etal_1993&Dowrick_Rhoades_1998,0.031049993,0.031169162,0.03126308,0.031445481,0.031932932,0.043895673,0.070188366,0.086932499,0.106451575,0.131087498,0.099995223,0.07728051,0.119622962,0.13760129,0.11066044,0.086505441,0.045490241,-99999,-99999,-99999,-99999,-99999,0.039762217,0.039897164,0.04014541,0.040535699,0.041051764,0.056863067,0.090212897,0.115550856,0.12960629,0.147595794,0.134782127,0.108210246,0.149081587,0.152553196,0.134015467,0.100893849,0.052848527,-99999,-99999,-99999,-99999,-99999,0.031017,0.039762,0.04426,0.048661
1558224,1977-01-18T05:41:48.207000Z,A77048C1,6.02,0.15,Slab,R,1,213,68,251,special,-41.73,174.3,-41.5138,173.9572,5941084.19,2618142.66,5965463,2589883,9.4,9.4,37.28,50.49,35.45,48.97,38.74,-5.05,0,34,29.64,nu,048C,D,235,Q3,0.9,Q3,64,Q3,0,-99999,-99999,1,0.4,13,0.68,13,Webb_Anderson_1998&Dowrick_Rhoades1998,0.036996587,0.037131632,0.037312347,0.037659824,0.038162616,0.044784001,0.061416797,0.063491529,0.132786106,0.230751749,0.285309576,0.103915198,0.12757834,0.074454199,0.075906806,-99999,-99999,-99999,-99999,-99999,-99999,-99999,0.041507949,0.04170599,0.042095045,0.042585801,0.043280974,0.047561587,0.06977198,0.06636612,0.151573178,0.2900576,0.379754868,0.115476959,0.165693332,0.097273329,0.102423834,-99999,-99999,-99999,-99999,-99999,-99999,-99999,0.036924,0.041508,0.022251,0.027174
1558224,1977-01-18T05:41:48.207000Z,A77601A1,6.02,0.15,Slab,R,1,213,68,251,special,-41.73,174.3,-41.2263,174.8719,5941084.19,2618142.66,5996147,2666912,9.4,9.4,73.53,81.03,68.88,76.33,-9.15,-72.74,0,34,29.64,nu,601A,D,161,Q3,2.3,Q3,297,Q3,0,-99999,-99999,1,0.4,20,0.68,20,Webb_Anderson_1998&Dowrick_Rhoades1998,0.043813504,0.044110545,0.04464573,0.045368247,0.04706776,0.06099003,0.101305045,0.10053341,0.135337322,0.213920604,0.124828997,0.088368602,0.156230303,0.095486967,0.050279777,-99999,-99999,-99999,-99999,-99999,-99999,-99999,0.055785721,0.05617093,0.056932047,0.058118082,0.060058519,0.070930316,0.115293253,0.109859294,0.188140329,0.267549898,0.152008611,0.103764727,0.213800326,0.127117778,0.059372942,-99999,-99999,-99999,-99999,-99999,-99999,-99999,0.043685,0.055421,0.023094,0.026097
1558224,1977-01-18T05:41:48.207000Z,A77902A1,6.02,0.15,Slab,R,1,213,68,251,special,-41.73,174.3,-41.2776,174.7793,5941084.19,2618142.66,5990617,2659034,9.4,9.4,64.22,72.68,59.54,67.99,-5.56,-63.81,0,34,29.64,nu,902A,D,275,Q2,1.25,Q2,1.32E+02,Q2,0,-99999,-99999,1,0.5,20,0.85,20,Webb_Anderson_1998&Dowrick_Rhoades1998,0.081953324,0.082491377,0.083171539,0.084582239,0.098997225,0.114935856,0.264958776,0.289216937,0.37116841,0.496378087,0.284820652,0.217467426,0.232486548,0.111649207,0.057950483,-99999,-99999,-99999,-99999,-99999,-99999,-99999,0.112010312,0.112444222,0.113384852,0.115283085,0.135296368,0.126708589,0.308916011,0.316735045,0.406074293,0.591042771,0.390419055,0.303273869,0.289884425,0.15659244,0.070028237,-99999,-99999,-99999,-99999,-99999,-99999,-99999,0.081898,0.112007,0.047444,0.060139
1558224,1977-01-18T05:41:48.207000Z,A77907A1,6.02,0.15,Slab,R,1,213,68,251,special,-41.73,174.3,-41.2788,174.7785,5941084.19,2618142.66,5990481,2658964,9.4,9.4,64.07,72.55,59.39,67.86,-5.57,-63.66,0,34,29.64,nu,907A,D,250,Q2,1.2,Q2,116,Q2,0,-99999,-99999,1,0.47,18,0.799,18,Webb_Anderson_1998&Dowrick_Rhoades1998,0.079748008,0.079999487,0.080364044,0.080880156,0.082074317,0.113973888,0.274581917,0.207429974,0.329864144,0.343936083,0.277062621,0.32255203,0.250375016,0.099847081,0.040834628,-99999,-99999,-99999,-99999,-99999,-99999,-99999,0.088848204,0.089086041,0.089509281,0.090110171,0.091319699,0.126767621,0.318535502,0.257426168,0.457184172,0.421675,0.32210294,0.365621758,0.314992524,0.115735359,0.050757178,-99999,-99999,-99999,-99999,-99999,-99999,-99999,0.079581,0.088573,0.052515,0.058943
1558224,1977-01-18T05:41:48.207000Z,A77911A1,6.02,0.15,Slab,R,1,213,68,251,special,-41.73,174.3,-41.2886,174.7769,5941084.19,2618142.66,5989396,2658808,9.4,9.4,63.13,71.72,58.46,67.03,-6.03,-62.67,0,34,29.64,nu,911A,C,358,Q2,0.29,Q2,1.85E+01,Q2,0,-99999,-99999,1,0.6,19,1.02,19,Webb_Anderson_1998&Dowrick_Rhoades1998,0.060043465,0.060279791,0.060663078,0.061193643,0.062802781,0.078528103,0.118372497,0.100737858,0.257804336,0.337218352,0.252408858,0.204831062,0.115111345,0.040640989,-99999,-99999,-99999,-99999,-99999,-99999,-99999,-99999,0.075263954,0.075520154,0.075996309,0.076682086,0.078177992,0.089191147,0.152382263,0.12510663,0.317521084,0.428147325,0.320136067,0.280671891,0.158501875,0.042799763,-99999,-99999,-99999,-99999,-99999,-99999,-99999,-99999,0.060043,0.074911,0.030987,0.042595
1558224,1977-01-18T05:41:48.207000Z,A77912A1,6.02,0.15,Slab,R,1,213,68,251,special,-41.73,174.3,-41.3264,174.809,5941084.19,2618142.66,5985141,2661416,9.4,9.4,61.72,70.5,57.11,65.8,-10.54,-60.52,0,34,29.64,nu,WNAS,D,239,Q2,0.78,Q2,64,Q2,0,-99999,-99999,0,0.45,24.5,0.765,24.5,Webb_Anderson_1998&Dowrick_Rhoades1998,0.052680848,0.053499127,0.056777595,0.065035506,0.075835835,0.117185701,0.335566843,0.287761303,0.297055064,0.172334649,0.162885436,0.067709105,0.090238175,0.150658329,0.042145647,-99999,-99999,-99999,-99999,-99999,-99999,-99999,0.067640262,0.068724343,0.070809436,0.076946689,0.087990507,0.134630041,0.414081476,0.391155485,0.408830263,0.214696744,0.199679419,0.089216788,0.113034484,0.202764363,0.057842709,-99999,-99999,-99999,-99999,-99999,-99999,-99999,0.052681,0.067417,0.023664,0.029786
1558224,1977-01-18T05:41:48.207000Z,A77913A1,6.02,0.15,Slab,R,1,213,68,251,special,-41.73,174.3,-41.2875,174.7727,5941084.19,2618142.66,5989525,2658459,9.4,9.4,63.01,71.61,58.34,66.93,-5.67,-62.58,0,34,29.64,nu,913A,B,1000,Q3,<0.1,Q3,2,Q2,0,-99999,-99999,1,0.35,21,0.595,21,Webb_Anderson_1998&Dowrick_Rhoades1998,0.052360134,0.053169706,0.054643063,0.05724342,0.067427943,0.085721822,0.180872268,0.194199065,0.288356723,0.362793892,0.24059584,0.08411984,0.075488264,0.026134333,0.022791761,0.012059711,-99999,-99999,-99999,-99999,-99999,-99999,0.070580855,0.071107008,0.071999221,0.073351523,0.081437862,0.099042428,0.209658424,0.227328836,0.31412796,0.426447821,0.302381201,0.111065843,0.07926669,0.035597289,0.031894359,0.016919043,-99999,-99999,-99999,-99999,-99999,-99999,0.052221,0.070372,0.02514,0.032603
1558224,1977-01-18T05:41:48.207000Z,A77914A1,6.02,0.15,Slab,R,1,213,68,251,special,-41.73,174.3,-41.295,174.7735,5941084.19,2618142.66,5988691,2658509,9.4,9.4,62.4,76.37,57.73,71.7,-6.16,-61.91,0,34,29.64,nu,914B,D,282,Q2,0.61,Q2,4.65E+01,Q2,0,-99999,-99999,1,0.7,24.5,1.19,24.5,Webb_Anderson_1998&Dowrick_Rhoades1998,0.069260002,0.069569652,0.07035229,0.07564859,0.078447997,0.155210135,0.297793595,0.26553198,0.418112047,0.25178566,0.274155329,0.156058507,0.174998179,0.065831008,-99999,-99999,-99999,-99999,-99999,-99999,-99999,-99999,0.092105114,0.092329182,0.092641827,0.098439107,0.108205931,0.181183383,0.35561991,0.317256047,0.462774379,0.283463875,0.315457237,0.182178409,0.199786856,0.080033813,-99999,-99999,-99999,-99999,-99999,-99999,-99999,-99999,0.068777,0.092105,0.039386,0.043406
1558224,1977-01-18T05:41:48.207000Z,A77916A1,6.02,0.15,Slab,R,1,213,68,251,special,-41.73,174.3,-41.2941,174.7757,5941084.19,2618142.66,5988787,2658695,9.4,9.4,62.59,71.26,57.93,66.57,-6.27,-62.09,0,34,29.64,nu,916A,D,291,Q2,0.8,Q2,8.54E+01,Q2,0,-99999,-99999,1,0.55,17,0.935,17,Webb_Anderson_1998&Dowrick_Rhoades1998,0.047510291,0.04792091,0.048613779,0.049703793,0.051317813,0.108544115,0.139726786,0.157817313,0.235777752,0.176538682,0.237588955,0.144605,0.103147094,0.07543788,0.040741162,-99999,-99999,-99999,-99999,-99999,-99999,-99999,0.05943133,0.059971336,0.060844764,0.062173979,0.063761904,0.128978482,0.159953133,0.167869353,0.282994083,0.208612972,0.277246591,0.189367517,0.12620396,0.088112243,0.047049405,-99999,-99999,-99999,-99999,-99999,-99999,-99999,0.047512,0.059028,0.027303,0.035633
1561001,1980-06-23T16:45:19.942000Z,K80087C1,5.49,0.15,Slab,R,1,49,87,101,nlloc,-39.8738,175.576,-39.7171,175.1382,6144762.72,2730330.66,6163158,2693314,5.1,5.1,41.27,96.17,40.35,93.78,-38.03,-15.87,0,86.8,84.25,nu,087C,C,425,Q3,0.33,Q3,30,Q3,0,-99999,-99999,1,0.7,18,1.19,18,HarvardCMT,0.097379094,0.097957887,0.098596709,0.099932662,0.102091213,0.1461045,0.219609912,0.207966793,0.39892254,0.465551623,0.400019705,0.711268756,0.371410395,0.107072093,-99999,-99999,-99999,-99999,-99999,-99999,-99999,-99999,0.109992211,0.11036288,0.110853295,0.111465763,0.111321608,0.159410265,0.284788175,0.226393107,0.507325919,0.588318992,0.459009698,0.899248943,0.450072907,0.120429163,-99999,-99999,-99999,-99999,-99999,-99999,-99999,-99999,0.096925,0.109994,0.059819,0.06454
1561256,1980-10-05T15:32:49.243000Z,S80027C1,5.66,0.15,Slab,N,0,235,45,-5.20E+01,geonet,-39.72,176.87,-39.5046,176.896,6157802.95,2841693.87,6181602,2844964,6.2,6.2,24.06,38.47,21.18,36.39,-99999,-99999,0,30,27.61,nu,027C,E,150,Q3,1.7,Q3,200,Q3,0,-99999,-99999,1,0.43,19,0.731,19,HarvardCMT,0.13678401,0.137434827,0.13832399,0.139318014,0.144910193,0.210724571,0.260954682,0.650922988,0.645827702,0.591311483,0.751875967,0.310217902,0.258509139,0.159146901,0.10196889,-99999,-99999,-99999,-99999,-99999,-99999,-99999,0.156753063,0.157432387,0.158491851,0.159883795,0.161574241,0.246372693,0.329168021,0.781255915,0.76759194,0.768003545,0.854328932,0.431579795,0.310307166,0.222002432,0.140798174,-99999,-99999,-99999,-99999,-99999,-99999,-99999,0.136702,0.155901,0.066808,0.091566
1563250,1982-09-02T15:58:54.183999Z,S82032A1,5.46,0.15,Slab,N,0,76,32,-3.80E+01,nlloc,-39.7432,176.995,-39.9425,176.5874,6154756.79,2852286.05,6134136,2816486,4.9,4.9,41.25,56.9,39.07,55.11,-99999,-99999,0,38.98,37.16,nu,032A,C,495,Q3,0.13,Q3,10,Q3,0,-99999,-99999,1,0.6,16,1.02,16,HarvardCMT,0.077403985,0.078099468,0.079257933,0.081103035,0.083766907,0.09509747,0.147422436,0.382359447,0.387066991,0.205794305,0.211031245,0.186237353,0.104241292,0.046312548,-99999,-99999,-99999,-99999,-99999,-99999,-99999,-99999,0.09155009,0.092010245,0.09276167,0.093740625,0.094786341,0.12295166,0.208470213,0.412922964,0.484777388,0.259104392,0.252805475,0.255901947,0.133930281,0.049956133,-99999,-99999,-99999,-99999,-99999,-99999,-99999,-99999,0.077398,0.091552,0.036493,0.047274
1567345,1985-07-19T14:33:59.829999Z,A86018A1,5.97,0.08,Slab,N,1,213,73,255,special,-38.72,177.3,-38.6665,178.0227,6267008.8,2883855.15,6269685,2946952,11,11,63,70.36,59.68,65.91,-49.85,-36.61,0,31,25.74,nu,GISS,D,138,Q2,1,Q1,40,Q3,0,-99999,-99999,1,0.46,11,0.782,11,Webb_Anderson_1998&Dowrick_Rhoades1998&HarvardCMT,0.077319123,0.077561811,0.07790199,0.078384889,0.079069227,0.081336356,0.117310385,0.189325391,0.372467326,0.294532062,0.369024616,0.374587657,0.222377027,0.236768799,0.303483313,-99999,-99999,-99999,-99999,-99999,-99999,-99999,0.094466277,0.094646653,0.094978293,0.095399436,0.095963888,0.098215381,0.148445997,0.238298871,0.441822918,0.35389229,0.460179998,0.502029364,0.236294838,0.255820218,0.367947507,-99999,-99999,-99999,-99999,-99999,-99999,-99999,0.077059,0.09437,0.067476,0.081824
16899,1988-06-03T23:27:54.351999Z,A88070A1,6.69,0.08,Slab,R,1,310,86,118,special,-45.1,167.17,-45.4167,167.7191,5551299.74,2051472.44,5519112,2096857,25,55,55.56,81.99,43.13,61.55,6.43,-55.46,0,60,32.57,nu,TAFS,D,298,Q3,1.4,Q3,200,Q3,0,-99999,-99999,1,0.2,22,0.34,22,Robinson_etal_2003&Dowrick_Rhoades1998&HarvardCMT&Reyners_etal1991,0.097903544,0.098284258,0.0989291,0.099579245,0.119166293,0.147355822,0.211349707,0.323766137,0.514031499,0.540766461,0.412037919,0.471886005,0.33320096,0.194089129,0.214501582,0.20060929,0.156358619,-99999,-99999,-99999,-99999,-99999,0.110203227,0.110647307,0.111391132,0.112526318,0.130902388,0.173366281,0.291427361,0.422604255,0.637214644,0.580482952,0.467278941,0.577878964,0.423044925,0.214293738,0.297936917,0.233846625,0.192075589,-99999,-99999,-99999,-99999,-99999,0.097738,0.110206,0.094318,0.104734
16899,1988-06-03T23:27:54.351999Z,A88089A1,6.69,0.08,Slab,R,1,310,86,118,special,-45.1,167.17,-44.6946,169.143,5551299.74,2051472.44,5605452,2204373,25,55,161.81,173.05,155.62,164.27,141.68,-82.32,0,60,32.57,nu,WNPS,D,330,Q3,2.1,Q3,300,Q3,0,-99999,-99999,1,0.21,18,0.357,18,Robinson_etal_2003&Dowrick_Rhoades1998&HarvardCMT&Reyners_etal1991,0.033997311,0.034210464,0.034603815,0.035190141,0.036209634,0.050233464,0.072999343,0.120222953,0.170052096,0.154641177,0.131163677,0.134957415,0.140999772,0.140757025,0.139368305,0.094946053,0.064718694,-99999,-99999,-99999,-99999,-99999,0.040687719,0.040986863,0.041486382,0.042188951,0.043473138,0.055465169,0.079027281,0.137120831,0.205263695,0.214141461,0.143884486,0.153535306,0.151371575,0.1604318,0.187133098,0.121103604,0.079108317,-99999,-99999,-99999,-99999,-99999,0.033813,0.040656,0.043268,0.047679
16899,1988-06-03T23:27:54.351999Z,A88118B1,6.69,0.08,Slab,R,1,310,86,118,special,-45.1,167.17,-45.0387,169.2193,5551299.74,2051472.44,5567539,2212164,25,55,161.07,172.37,152.52,161.6,117.65,-112.66,0,60,32.57,nu,118B,C,520,Q3,0.3,Q3,40,Q3,0,-99999,-99999,1,0.63,11,1.071,11,Robinson_etal_2003&Dowrick_Rhoades1998&HarvardCMT&Reyners_etal1991,0.053899264,0.054164837,0.054562641,0.055106809,0.055889023,0.060133836,0.08468687,0.132135759,0.202632705,0.355897062,0.199493385,0.381715838,0.188250882,0.045880263,-99999,-99999,-99999,-99999,-99999,-99999,-99999,-99999,0.06323686,0.063535412,0.064064241,0.0647775,0.06574242,0.069995117,0.109230567,0.159718824,0.273544467,0.469232185,0.252680111,0.495287142,0.253632631,0.058770308,-99999,-99999,-99999,-99999,-99999,-99999,-99999,-99999,0.053692,0.063231,0.03024,0.033502
53209,1989-05-31T05:54:48.402999Z,A89940A1,6.39,0.08,Interface,O,1,139,67,47,special,-45.27,166.88,-45.0322,168.6629,5530793.17,2030120.65,5566104,2168345,19.54,19.54,142.29,144.72,138.11,139.83,-124.55,64.03,0,24,17.1,nu,QTPS,D,350,Q3,0.95,Q1,90,Q3,0,-99999,-99999,1,0.55,10,0.935,10,Robinson_etal_2003&Dowrick_Rhoades1998&HarvardCMT,0.024586075,0.024717779,0.024967046,0.02528367,0.02573417,0.02753694,0.034905368,0.074770595,0.122024376,0.203894016,0.103568763,0.097072549,0.061856268,0.061993145,0.050498499,-99999,-99999,-99999,-99999,-99999,-99999,-99999,0.034489849,0.034711564,0.035012959,0.035472531,0.036100238,0.038618557,0.046809102,0.095811102,0.147900082,0.246821118,0.116745877,0.134655547,0.079479686,0.066468597,0.065303183,-99999,-99999,-99999,-99999,-99999,-99999,-99999,0.024587,0.034329,0.013138,0.014399
