CuspID,Origin_time,Record,Mw,MwUncert,TectClass,Mech,PreferredFaultPlane,Strike,Dip,Rake,Location,HypLat,HypLon,StationLat,StationLon,HypN,HypE,StationN,StationE,LENGTH_km,WIDTH_km,Repi_km,Rhyp_km,Rjb_km,Rrup_km,Rx_km,Ry_km,Rvol_km,HypDepth_km,ZTOR_km,HWFW,SiteCode,SiteClass1170,Vs30,Vs30Uncert,Tsite,TsiteUncert,Z1,Z1Uncertainty,Directivity,Pulse_or,Pulse_T,S_Trigger_Flag,fcButterHP,f_iniLP,fmin,fmax,References,f100.0000SA_Vert,f50.0000SA_Vert,f33.3333SA_Vert,f25.0000SA_Vert,f20.0000SA_Vert,f13.3333SA_Vert,f10.0000SA_Vert,f6.6667SA_Vert,f5.0000SA_Vert,f4.0000SA_Vert,f3.3333SA_Vert,f2.5000SA_Vert,f2.0000SA_Vert,f1.3333SA_Vert,f1.0000SA_Vert,f0.6667SA_Vert,f0.5000SA_Vert,f0.3333SA_Vert,f0.2500SA_Vert,f0.2000SA_Vert,f0.1333SA_Vert,f0.1000SA_Vert,PGA,PGV
1502698,2000-03-29T14:30:58.189000Z,D00469A01,5.25,0.15,Slab,N,0,54,14,-7.60E+01,nlloc,-41.0482,175.43,-41.2117,174.9033,6014768.04,2714246.82,5997711,2669586,3.9,3.9,47.71,56.71,45.9,55.04,-99999,-99999,0,30.49,29.31,nu,LHES,D,240,Q3,1.16,Q3,280,Q3,0,-99999,-99999,0,0.3,30,0.51,30,HarvardCMT,0.009099119,0.009285652,0.009933665,0.014458485,0.017005611,0.018266104,0.013814199,0.023242403,0.019957172,0.015448169,0.018865997,0.013290067,0.02085712,0.009598144,0.005248518,0.00397388,-9999,-9999,-9999,-9999,-9999,-9999,0.008848,0.00496
1502698,2000-03-29T14:30:58.189000Z,D00643B01,5.25,0.15,Slab,N,0,54,14,-7.60E+01,nlloc,-41.0482,175.43,-41.1513,174.9794,6014768.04,2714246.82,6004275,2676112,3.9,3.9,39.46,50,37.7,48.39,-99999,-99999,0,30.49,29.31,nu,643B,B,1000,Q3,<0.1,Q3,1.50E+00,Q3,0,-99999,-99999,0,1,20,1.7,20,HarvardCMT,0.018718628,0.018949572,0.019338979,0.01986777,0.028019022,0.034291224,0.050822634,0.034587768,0.038434998,0.042979553,0.026565986,0.013005472,0.013307399,-9999,-9999,-9999,-9999,-9999,-9999,-9999,-9999,-9999,0.018716,0.00675
1502698,2000-03-29T14:30:58.189000Z,D00644C01,5.25,0.15,Slab,N,0,54,14,-7.60E+01,nlloc,-41.0482,175.43,-41.2187,174.8826,6014768.04,2714246.82,5996970,2667828,3.9,3.9,49.61,58.32,47.8,56.64,-99999,-99999,0,30.49,29.31,nu,644C,D,189,Q3,2,Q3,250,Q3,0,-99999,-99999,0,0.4,15,0.68,15,HarvardCMT,0.015009733,0.015161692,0.015399447,0.015829604,0.016533438,0.029112654,0.031174376,0.031215767,0.043464501,0.056509678,0.039864675,0.056235225,0.022929829,0.007689358,0.006137696,-9999,-9999,-9999,-9999,-9999,-9999,-9999,0.015015,0.00875
1502698,2000-03-29T14:30:58.189000Z,I00467A02,5.25,0.15,Slab,N,0,54,14,-7.60E+01,nlloc,-41.0482,175.43,-41.2425,174.9024,6014768.04,2714246.82,5994293,2669430,3.9,3.9,49.18,57.95,47.34,56.25,-99999,-99999,0,30.49,29.31,nu,467A,D,218,Q3,1.5,Q3,200,Q3,0,-99999,-99999,0,0.2,42,0.34,42,HarvardCMT,0.013453163,0.014213346,0.0161184,0.035411701,0.02770581,0.035560225,0.036343517,0.029356768,0.029049167,0.029565544,0.020115371,0.034018842,0.022666079,0.008502769,0.003696527,0.002055125,0.00078341,-9999,-9999,-9999,-9999,-9999,0.012834,0.00532
1502698,2000-03-29T14:30:58.189000Z,I00468A03,5.25,0.15,Slab,N,0,54,14,-7.60E+01,nlloc,-41.0482,175.43,-41.2011,174.9547,6014768.04,2714246.82,5998793,2673916,3.9,3.9,43.29,53.03,41.47,51.37,-99999,-99999,0,30.49,29.31,nu,468A,D,190,Q1,0.9,Q3,50,Q3,0,-99999,-99999,0,0.3,38,0.51,38,HarvardCMT,0.029472415,0.031623771,0.045846684,0.043262913,0.050087683,0.073278454,0.144562835,0.081096442,0.058979039,0.061836433,0.03942185,0.050766721,0.028481942,0.012057112,0.006628658,0.002601192,-9999,-9999,-9999,-9999,-9999,-9999,0.029541,0.00722
1502698,2000-03-29T14:30:58.189000Z,I00603B01,5.25,0.15,Slab,N,0,54,14,-7.60E+01,nlloc,-41.0482,175.43,-41.2237,174.86,6014768.04,2714246.82,5996453,2665923,3.9,3.9,51.57,60.01,49.76,58.32,-99999,-99999,0,30.49,29.31,nu,603B,B,1000,Q3,<0.1,Q3,0,Q3,0,-99999,-99999,0,0.25,50,0.425,50,HarvardCMT,0.00579747,0.006343061,0.008202242,0.008255788,0.008768705,0.008540295,0.011103577,0.012657264,0.010480054,0.009474014,0.007725105,0.011629597,0.008697467,0.003423453,0.002388926,0.001568189,0.001121076,-9999,-9999,-9999,-9999,-9999,0.005739,0.002265
1502698,2000-03-29T14:30:58.189000Z,I00605B03,5.25,0.15,Slab,N,0,54,14,-7.60E+01,nlloc,-41.0482,175.43,-41.2074,174.9401,6014768.04,2714246.82,5998119,2672679,3.9,3.9,44.69,54.21,42.87,52.54,-99999,-99999,0,30.49,29.31,nu,FAIS,B,760,Q3,0.27,Q1,0,Q2,0,-99999,-99999,0,0.3,50,0.51,50,HarvardCMT,0.008843348,0.009267938,0.009870864,0.01193554,0.013274007,0.029752152,0.018075206,0.015870476,0.020289565,0.012715657,0.016162757,0.008071089,0.009199444,0.002571022,0.001650997,0.000989993,-9999,-9999,-9999,-9999,-9999,-9999,0.008767,0.002594
1502698,2000-03-29T14:30:58.189000Z,I00606B05,5.25,0.15,Slab,N,0,54,14,-7.60E+01,nlloc,-41.0482,175.43,-41.2333,174.9199,6014768.04,2714246.82,5995282,2670919,3.9,3.9,47.42,56.45,45.58,54.76,-99999,-99999,0,30.49,29.31,nu,606B,B,800,Q3,<0.1,Q3,0,Q3,0,-99999,-99999,0,0.35,55,0.595,55,HarvardCMT,0.01188469,0.01396189,0.014739115,0.020839567,0.031962767,0.035005044,0.040828727,0.02090774,0.034741787,0.018962815,0.021851003,0.013513194,0.006433591,0.001837814,0.001471868,0.001085169,-9999,-9999,-9999,-9999,-9999,-9999,0.011713,0.004126
1502698,2000-03-29T14:30:58.189000Z,I00640A06,5.25,0.15,Slab,N,0,54,14,-7.60E+01,nlloc,-41.0482,175.43,-41.235,174.9147,6014768.04,2714246.82,5995103,2670479,3.9,3.9,47.89,56.85,46.05,55.16,-99999,-99999,0,30.49,29.31,nu,640A,E,230,Q3,0.5,Q3,60,Q3,0,-99999,-99999,0,0.35,11,0.595,11,HarvardCMT,0.020205555,0.020420801,0.020787921,0.021281794,0.021970241,0.025031295,0.050371694,0.109487052,0.076569718,0.033717715,0.028139286,0.017683251,0.010003948,0.00292447,0.002205721,0.001210207,-9999,-9999,-9999,-9999,-9999,-9999,0.019959,0.00586
1502698,2000-03-29T14:30:58.189000Z,I00646B04,5.25,0.15,Slab,N,0,54,14,-7.60E+01,nlloc,-41.0482,175.43,-41.2574,174.9485,6014768.04,2714246.82,5992552,2673256,3.9,3.9,46.55,55.76,44.68,54.05,-99999,-99999,0,30.49,29.31,nu,WDAS,E,120,Q1,1.6,Q2,62,Q2,0,-99999,-99999,0,0.35,33,0.595,33,HarvardCMT,0.017439543,0.018250356,0.032583178,0.03788283,0.042729089,0.043050363,0.06684881,0.034437057,0.032271669,0.037462592,0.068450139,0.059620941,0.029665662,0.013268261,0.007343563,0.001594186,-9999,-9999,-9999,-9999,-9999,-9999,0.017431,0.00875
1502698,2000-03-29T14:30:58.189000Z,I00708A01,5.25,0.15,Slab,N,0,54,14,-7.60E+01,nlloc,-41.0482,175.43,-41.1314,174.8391,6014768.04,2714246.82,6006740,2664387,3.9,3.9,50.38,59,48.68,57.39,-99999,-99999,0,30.49,29.31,nu,POLS,C,250,Q2,0.4,Q1,25,Q2,0,-99999,-99999,0,0.3,55,0.51,55,HarvardCMT,0.010814013,0.01293918,0.021280193,0.034976859,0.045312733,0.021624125,0.019608332,0.026330374,0.017622221,0.014840104,0.019257776,0.008609943,0.006270724,0.006117727,0.003237264,0.001982883,-9999,-9999,-9999,-9999,-9999,-9999,0.010336,0.00381
1502698,2000-03-29T14:30:58.189000Z,I00918C06,5.25,0.15,Slab,N,0,54,14,-7.60E+01,nlloc,-41.0482,175.43,-41.284,174.7682,6014768.04,2714246.82,5989908,2658140,3.9,3.9,61.29,68.59,59.45,66.85,-99999,-99999,0,30.49,29.31,nu,WEL,B,1000,Q3,0.3,Q1,0,Q2,0,-99999,-99999,0,0.3,33,0.51,33,HarvardCMT,0.015996542,0.016535479,0.017613857,0.024501351,0.018109039,0.034748067,0.044194917,0.035109743,0.02968772,0.021642562,0.025270283,0.026031621,0.02666957,0.014226034,0.00462965,0.001996162,-9999,-9999,-9999,-9999,-9999,-9999,0.015994,0.00702
1597193,2000-08-08T10:31:18.725000Z,D00014A01,5.29,0.15,Slab,U,0,32,25,179,nlloc,-39.1704,176.298,-39.4984,176.8761,6220747.43,2794953.59,6182359,2843283,4.1,4.1,61.66,82.31,59.73,80.9,-99999,-99999,0,54.45,53.01,nu,NCDS,E,162,Q3,1.25,Q2,110,Q3,0,-99999,-99999,0,0.7,10,1.19,10,HarvardCMT,0.026668788,0.026839095,0.02712602,0.027562907,0.028147067,0.031168663,0.04012368,0.067724665,0.062894195,0.089297146,0.142902354,0.097114771,0.061729626,0.027281657,-9999,-9999,-9999,-9999,-9999,-9999,-9999,-9999,0.026667,0.01651
1597193,2000-08-08T10:31:18.725000Z,I00926A02,5.29,0.15,Slab,U,0,32,25,179,nlloc,-39.1704,176.298,-39.4883,176.9169,6220747.43,2794953.59,6183331,2846839,4.1,4.1,63.9,84.04,61.97,82.61,-99999,-99999,0,54.45,53.01,nu,926A,C,651,Q3,0.07,Q3,5,Q3,0,-99999,-99999,0,0.18,24.5,0.306,24.5,HarvardCMT,0.009520574,0.00968452,0.009964795,0.010580147,0.011433726,0.013990937,0.020897133,0.022673882,0.015553299,0.028164835,0.026385877,0.021571569,0.01628489,0.009824766,0.006362596,0.002437032,0.001920611,0.0005297,-9999,-9999,-9999,-9999,0.009521,0.00466
1803016,2001-10-15T03:49:37.441000Z,I01928B03,5.54,0.15,Interface,R,1,201,8,90,simulps,-39.6603,176.6415,-39.671,176.8801,6165248.02,2822390.46,6163197,2842795,7.3,7.3,20.46,34.77,16.83,32.34,-16.15,-5.4,0,28.06,27.55,fw,HNPS,D,425,Q3,0.8,Q3,300,Q3,0,-99999,-99999,0,0.25,32,0.425,32,HarvardCMT,0.04313336,0.047292902,0.057829874,0.075834415,0.05648428,0.076010671,0.085608537,0.05434585,0.041085713,0.043793865,0.044486807,0.052718545,0.050347235,0.026558713,0.014929921,0.017114275,0.00495422,-9999,-9999,-9999,-9999,-9999,0.043078,0.02063
2019057,2003-01-25T21:30:30.911999Z,I03640A03,5.22,0.15,Slab,N,0,252,51,-4.20E+01,simulps,-40.3372,176.1508,-41.235,174.9147,6091756.44,2777645.89,5995103,2670479,3.7,3.7,144.21,148.41,142.52,146.61,-99999,-99999,0,34.6,33.07,nu,640A,E,230,Q3,0.5,Q3,60,Q3,0,-99999,-99999,0,1,40,1.7,40,HarvardCMT,0.002401436,0.002652262,0.003318193,0.004919334,0.004757251,0.003887366,0.004627705,0.010840548,0.005084044,0.002988844,0.002165898,0.001623097,0.000872949,-9999,-9999,-9999,-9999,-9999,-9999,-9999,-9999,-9999,0.002388,0.000622
2352986,2005-01-18T08:36:04.378000Z,I05464A03,5.18,0.06,Interface,R,1,265,30,-1.69E+02,nlloc,-41.4433,175.737,-41.2308,174.9135,5970144.9,2738676.33,5995572,2670389,4.9,4.9,72.7,73.81,70.34,71.54,33.38,65.81,0,11.74,10.53,nu,464A,D,210,Q3,1.2,Q3,170,Q3,0,-99999,-99999,0,0.6,20,1.02,20,Ristau2013&HarvardCMT,0.007748799,0.007761145,0.007821962,0.008345776,0.009187858,0.026566569,0.018955353,0.013518448,0.01312618,0.016622122,0.015135656,0.024277479,0.031202845,0.007661573,-9999,-9999,-9999,-9999,-9999,-9999,-9999,-9999,0.007737,0.00479
2352986,2005-01-18T08:36:04.378000Z,I05465B02,5.18,0.06,Interface,R,1,265,30,-1.69E+02,nlloc,-41.4433,175.737,-41.2058,174.9544,5970144.9,2738676.33,5998271,2673878,4.9,4.9,70.49,71.61,68.14,69.37,35.77,62.1,0,11.74,10.53,nu,DAVS,C,600,Q3,0.1,Q3,5,Q3,0,-99999,-99999,0,0.4,20,0.68,20,Ristau2013&HarvardCMT,0.007273588,0.007308403,0.007387383,0.007520147,0.007908192,0.008299183,0.008757636,0.011215318,0.010831821,0.013490749,0.021808908,0.011342107,0.0138211,0.006692533,0.002973574,-9999,-9999,-9999,-9999,-9999,-9999,-9999,0.007258,0.00385
2352986,2005-01-18T08:36:04.378000Z,I05467A03,5.18,0.06,Interface,R,1,265,30,-1.69E+02,nlloc,-41.4433,175.737,-41.2425,174.9024,5970144.9,2738676.33,5994293,2669430,4.9,4.9,73.17,74.27,70.8,71.99,32.19,66.88,0,11.74,10.53,nu,467A,D,218,Q3,1.5,Q3,200,Q3,0,-99999,-99999,0,0.4,20,0.68,20,Ristau2013&HarvardCMT,0.006505664,0.006623456,0.006790467,0.007055251,0.009486728,0.02112538,0.018709413,0.013150609,0.011831822,0.011341507,0.010146385,0.017262266,0.03273026,0.008678358,0.00233948,-9999,-9999,-9999,-9999,-9999,-9999,-9999,0.006483,0.00448
2352986,2005-01-18T08:36:04.378000Z,I05468A02,5.18,0.06,Interface,R,1,265,30,-1.69E+02,nlloc,-41.4433,175.737,-41.2011,174.9547,5970144.9,2738676.33,5998793,2673916,4.9,4.9,70.66,71.78,68.32,69.54,36.28,62.02,0,11.74,10.53,nu,468A,D,190,Q1,0.9,Q3,50,Q3,0,-99999,-99999,0,0.5,20,0.85,20,Ristau2013&HarvardCMT,0.008269022,0.008368329,0.008575906,0.009048592,0.011366237,0.016336201,0.023146291,0.029032105,0.018523,0.014502134,0.013525347,0.024291197,0.04079922,0.014959374,0.005609177,-9999,-9999,-9999,-9999,-9999,-9999,-9999,0.008247,0.00683
2352986,2005-01-18T08:36:04.378000Z,I05642G03,5.18,0.06,Interface,R,1,265,30,-1.69E+02,nlloc,-41.4433,175.737,-41.235,174.9172,5970144.9,2738676.33,5995098,2670688,4.9,4.9,72.26,73.37,69.89,71.1,32.89,65.55,0,11.74,10.53,nu,642G,C,350,Q1,0.35,Q2,50,Q3,0,-99999,-99999,0,0.6,30,1.02,30,Ristau2013&HarvardCMT,0.008921454,0.0093015,0.010071629,0.01273124,0.013891325,0.028165266,0.010799836,0.016409573,0.010436547,0.018920039,0.012571807,0.012517756,0.01035054,0.004631071,-9999,-9999,-9999,-9999,-9999,-9999,-9999,-9999,0.008685,0.003533
2354133,2005-01-20T18:56:31.199999Z,D05644C03,5.31,0.06,Slab,N,1,70,48,-7.50E+01,simulps,-41.0967,175.0648,-41.2187,174.8826,6010174.62,2683429.55,5996970,2667828,4,3,20.42,37.43,18.52,36.19,8.08,-19.18,0,31.36,30.25,nu,644C,D,189,Q3,2,Q3,250,Q3,0,-99999,-99999,0,0.45,20,0.765,20,ReynersBannister2007&Ristau2013&HarvardCMT,0.050695665,0.051510287,0.052919792,0.055398124,0.063802557,0.092701346,0.13529545,0.121221075,0.112216445,0.100231301,0.06511604,0.071316555,0.055297658,0.016344638,0.011534318,-9999,-9999,-9999,-9999,-9999,-9999,-9999,0.049664,0.01637
2354133,2005-01-20T18:56:31.199999Z,I05464A05,5.31,0.06,Slab,N,1,70,48,-7.50E+01,simulps,-41.0967,175.0648,-41.2308,174.9135,6010174.62,2683429.55,5995572,2670389,4,3,19.57,36.98,17.76,35.84,10.27,-17.25,0,31.36,30.25,nu,464A,D,210,Q3,1.2,Q3,170,Q3,0,-99999,-99999,0,0.35,60,0.595,60,ReynersBannister2007&Ristau2013&HarvardCMT,0.06009165,0.06356859,0.077147951,0.091529861,0.112112014,0.184624699,0.193047415,0.101455303,0.06748474,0.059508384,0.060254816,0.103705093,0.051972415,0.014472569,0.007729946,0.003214343,-9999,-9999,-9999,-9999,-9999,-9999,0.059633,0.01624
2354133,2005-01-20T18:56:31.199999Z,I05465B04,5.31,0.06,Slab,N,1,70,48,-7.50E+01,simulps,-41.0967,175.0648,-41.2058,174.9544,6010174.62,2683429.55,5998271,2673878,4,3,15.26,34.89,13.49,33.84,8.92,-13.05,0,31.36,30.25,nu,DAVS,C,600,Q3,0.1,Q3,5,Q3,0,-99999,-99999,0,0.23,30,0.391,30,ReynersBannister2007&Ristau2013&HarvardCMT,0.043078191,0.045956462,0.062595949,0.122262501,0.101807351,0.103586901,0.118869912,0.092334241,0.087904457,0.135831902,0.072602112,0.047625155,0.06359124,0.013360071,0.007096953,0.002808137,0.001820896,-9999,-9999,-9999,-9999,-9999,0.043048,0.01554
2354133,2005-01-20T18:56:31.199999Z,I05467A05,5.31,0.06,Slab,N,1,70,48,-7.50E+01,simulps,-41.0967,175.0648,-41.2425,174.9024,6010174.62,2683429.55,5994293,2669430,4,3,21.16,37.84,19.36,36.69,11.14,-18.59,0,31.36,30.25,nu,467A,D,218,Q3,1.5,Q3,200,Q3,0,-99999,-99999,0,0.25,55,0.425,55,ReynersBannister2007&Ristau2013&HarvardCMT,0.057755664,0.063732962,0.081693826,0.129748309,0.135943612,0.188638518,0.203337567,0.124818787,0.072913818,0.058845629,0.056457025,0.084135214,0.053943956,0.017881286,0.014250914,0.002798288,0.001816387,-9999,-9999,-9999,-9999,-9999,0.056911,0.01729
2354133,2005-01-20T18:56:31.199999Z,I05468A04,5.31,0.06,Slab,N,1,70,48,-7.50E+01,simulps,-41.0967,175.0648,-41.2011,174.9547,6010174.62,2683429.55,5998793,2673916,4,3,14.83,34.7,13.05,33.64,8.45,-12.83,0,31.36,30.25,nu,468A,D,190,Q1,0.9,Q3,50,Q3,0,-99999,-99999,0,0.3,35,0.51,35,ReynersBannister2007&Ristau2013&HarvardCMT,0.088493671,0.096904887,0.126389473,0.176240795,0.210271967,0.158836174,0.265357142,0.172263008,0.165971787,0.147456186,0.093584779,0.101523592,0.132003409,0.027681014,0.016801075,0.004229015,-9999,-9999,-9999,-9999,-9999,-9999,0.082579,0.02711
2354133,2005-01-20T18:56:31.199999Z,I05642G05,5.31,0.06,Slab,N,1,70,48,-7.50E+01,simulps,-41.0967,175.0648,-41.235,174.9172,6010174.62,2683429.55,5995098,2670688,4,3,19.73,37.06,17.94,35.95,10.81,-17.13,0,31.36,30.25,nu,642G,C,350,Q1,0.35,Q2,50,Q3,0,-99999,-99999,0,0.2,55,0.34,55,ReynersBannister2007&Ristau2013&HarvardCMT,0.057716537,0.067372098,0.085904798,0.15812999,0.162735961,0.115646011,0.137253731,0.20359724,0.106153025,0.092479718,0.134947048,0.078657654,0.053357711,0.011360367,0.005503587,0.003311837,0.001555906,-9999,-9999,-9999,-9999,-9999,0.056983,0.01832
2359081,2005-01-31T17:31:53.470999Z,I05464A10,5.1,0.06,Interface,R,1,267,38,164,nlloc,-41.4249,175.709,-41.2308,174.9135,5972260.68,2736400.47,5995572,2670389,4.4,4.4,69.85,71.26,67.7,69.22,28.48,64.7,0,13.32,11.96,nu,464A,D,210,Q3,1.2,Q3,170,Q3,0,-99999,-99999,0,0.47,24.5,0.799,24.5,Ristau2013&HarvardCMT,0.011634461,0.011710197,0.011820615,0.012178489,0.012644177,0.014996083,0.016631336,0.017533419,0.024645131,0.026579829,0.030782127,0.031228896,0.01111473,0.008423681,0.005671685,-9999,-9999,-9999,-9999,-9999,-9999,-9999,0.011611,0.00662
2359081,2005-01-31T17:31:53.470999Z,I05465B13,5.1,0.06,Interface,R,1,267,38,164,nlloc,-41.4249,175.709,-41.2058,174.9544,5972260.68,2736400.47,5998271,2673878,4.4,4.4,67.57,69.02,65.44,67.01,30.99,61.08,0,13.32,11.96,nu,DAVS,C,600,Q3,0.1,Q3,5,Q3,0,-99999,-99999,0,0.25,24.5,0.425,24.5,Ristau2013&HarvardCMT,0.007958074,0.008001266,0.008066796,0.008342287,0.00939392,0.010095733,0.010459832,0.016765023,0.016035201,0.02058741,0.031335222,0.028901263,0.00951205,0.007566641,0.004752412,0.001116307,0.00067533,-9999,-9999,-9999,-9999,-9999,0.007951,0.0048
2359081,2005-01-31T17:31:53.470999Z,I05467A10,5.1,0.06,Interface,R,1,267,38,164,nlloc,-41.4249,175.709,-41.2425,174.9024,5972260.68,2736400.47,5994293,2669430,4.4,4.4,70.34,71.75,68.19,69.69,27.25,65.73,0,13.32,11.96,nu,467A,D,218,Q3,1.5,Q3,200,Q3,0,-99999,-99999,0,0.25,28,0.425,28,Ristau2013&HarvardCMT,0.005042722,0.005181499,0.005541759,0.007878199,0.008655081,0.011397521,0.032063572,0.011291013,0.011024662,0.00918862,0.008208996,0.006152461,0.006515463,0.004928521,0.003998324,0.000818539,0.000571594,-9999,-9999,-9999,-9999,-9999,0.005046,0.00215
2359081,2005-01-31T17:31:53.470999Z,I05468A09,5.1,0.06,Interface,R,1,267,38,164,nlloc,-41.4249,175.709,-41.2011,174.9547,5972260.68,2736400.47,5998793,2673916,4.4,4.4,67.74,69.18,65.61,67.17,31.51,61.01,0,13.32,11.96,nu,468A,D,190,Q1,0.9,Q3,50,Q3,0,-99999,-99999,0,0.3,55,0.51,55,Ristau2013&HarvardCMT,0.014598306,0.016834202,0.018698464,0.015944863,0.018648004,0.016755725,0.024712052,0.025506413,0.021943703,0.028939352,0.036801364,0.042160552,0.02300582,0.015405314,0.012657986,0.002033435,-9999,-9999,-9999,-9999,-9999,-9999,0.014343,0.00807
2359081,2005-01-31T17:31:53.470999Z,I05642G14,5.1,0.06,Interface,R,1,267,38,164,nlloc,-41.4249,175.709,-41.235,174.9172,5972260.68,2736400.47,5995098,2670688,4.4,4.4,69.41,70.83,67.26,68.79,27.99,64.43,0,13.32,11.96,nu,642G,C,350,Q1,0.35,Q2,50,Q3,0,-99999,-99999,0,0.5,31,0.85,31,Ristau2013&HarvardCMT,0.011428594,0.011520992,0.011691842,0.012401917,0.01200217,0.014685244,0.019302618,0.046007377,0.025346962,0.017375822,0.014375993,0.020138411,0.007234413,0.003172289,0.002267521,-9999,-9999,-9999,-9999,-9999,-9999,-9999,0.011397,0.00376
2359081,2005-01-31T17:31:53.470999Z,I05646B11,5.1,0.06,Interface,R,1,267,38,164,nlloc,-41.4249,175.709,-41.2574,174.9485,5972260.68,2736400.47,5992552,2673256,4.4,4.4,66.17,67.67,64.01,65.62,25.31,62,0,13.32,11.96,nu,WDAS,E,120,Q1,1.6,Q2,62,Q2,0,-99999,-99999,0,0.25,25,0.425,25,Ristau2013&HarvardCMT,0.007775941,0.00779908,0.007792036,0.007972022,0.009105819,0.010928059,0.015507001,0.015137654,0.025467631,0.024354392,0.030310632,0.035130927,0.014658768,0.015033942,0.00667568,0.001354609,0.000787569,-9999,-9999,-9999,-9999,-9999,0.007768,0.00625
2366369,2005-02-17T21:31:09.762000Z,D05302A02,4.62,0.1,Crustal,R,0,43,70,77,simulps,-39.894,174.6308,-39.9338,175.053,6144453.04,2649466.16,6139282,2685450,1.9,1.9,36.27,48.28,35.52,47.6,-99999,-99999,0,31.75,31.12,nu,302A,D,250,Q2,0.8,Q3,80,Q3,0,-99999,-99999,0,0.7,24.5,1.19,24.5,Ristau2013,0.017504604,0.018042468,0.018956837,0.022981363,0.028437075,0.065826908,0.048424446,0.043762645,0.026897758,0.019868742,0.019927669,0.018153799,0.013691745,0.003385022,-9999,-9999,-9999,-9999,-9999,-9999,-9999,-9999,0.016758,0.00387
2376455,2005-03-13T15:08:13.134000Z,I05467A13,5.36,0.06,Slab,U,0,317,86,-6.70E+01,simulps,-40.1015,173.5983,-41.2425,174.9024,6122550.1,2561016.88,5994293,2669430,4.4,4.4,167.9,225.73,165.79,224.16,-99999,-99999,0,150.82,149.29,nu,467A,D,218,Q3,1.5,Q3,200,Q3,0,-99999,-99999,0,0.25,30,0.425,30,Ristau2013&HarvardCMT,0.0049074,0.005163406,0.005897949,0.007943567,0.007600381,0.007843354,0.007681443,0.012395604,0.020334844,0.009635002,0.013795818,0.013424903,0.012043743,0.002821713,0.001590249,0.00071627,0.000334273,-9999,-9999,-9999,-9999,-9999,0.004903,0.00238
