CuspID,Origin_time,Record,Mw,MwUncert,TectClass,Mech,PreferredFaultPlane,Strike,Dip,Rake,Location,HypLat,HypLon,StationLat,StationLon,HypN,HypE,StationN,StationE,LENGTH_km,WIDTH_km,Repi_km,Rhyp_km,Rjb_km,Rrup_km,Rx_km,Ry_km,Rvol_km,HypDepth_km,ZTOR_km,HWFW,SiteCode,SiteClass1170,Vs30,Vs30Uncert,Tsite,TsiteUncert,Z1,Z1Uncertainty,Directivity,Pulse_or,Pulse_T,S_Trigger_Flag,fcButterHP,f_iniLP,fmin,fmax,References,f100.0000SA_RotD50,f50.0000SA_RotD50,f33.3333SA_RotD50,f25.0000SA_RotD50,f20.0000SA_RotD50,f13.3333SA_RotD50,f10.0000SA_RotD50,f6.6667SA_RotD50,f5.0000SA_RotD50,f4.0000SA_RotD50,f3.3333SA_RotD50,f2.5000SA_RotD50,f2.0000SA_RotD50,f1.3333SA_RotD50,f1.0000SA_RotD50,f0.6667SA_RotD50,f0.5000SA_RotD50,f0.3333SA_RotD50,f0.2500SA_RotD50,f0.2000SA_RotD50,f0.1333SA_RotD50,f0.1000SA_RotD50,f100.0000SA_RotD100,f50.0000SA_RotD100,f33.3333SA_RotD100,f25.0000SA_RotD100,f20.0000SA_RotD100,f13.3333SA_RotD100,f10.0000SA_RotD100,f6.6667SA_RotD100,f5.0000SA_RotD100,f4.0000SA_RotD100,f3.3333SA_RotD100,f2.5000SA_RotD100,f2.0000SA_RotD100,f1.3333SA_RotD100,f1.0000SA_RotD100,f0.6667SA_RotD100,f0.5000SA_RotD100,f0.3333SA_RotD100,f0.2500SA_RotD100,f0.2000SA_RotD100,f0.1333SA_RotD100,f0.1000SA_RotD100,PGA_RotD50,PGA_RotD100,PGV_RotD50,PGV_RotD100
339342,1992-05-27T22:30:35.064000Z,D92707A1,5.9,0.08,Slab,S,1,117,85,21,special,-41.63,173.62,-41.1391,174.8502,5952812.98,2561652.09,6005867,2665298,8.2,8.2,116.24,134.35,113.89,131.28,-93.97,68.26,0,67,62.92,nu,707A,C,570,Q3,0.15,Q3,10,Q3,0,-99999,-99999,0,0.5,21,0.85,21,Webb_Anderson_1998&Dowrick_Rhoades1998&HarvardCMT,0.022463636,0.022608691,0.022971175,0.023312807,0.02366007,0.027824286,0.031536271,0.030689622,0.026190227,0.022201185,0.019454174,0.016388602,0.011858836,0.004453962,0.00229931,-99999,-99999,-99999,-99999,-99999,-99999,-99999,0.027059189,0.027364453,0.027884591,0.028549899,0.029093185,0.032945423,0.037050061,0.035519433,0.030148633,0.026533509,0.025963009,0.022189207,0.015409722,0.006133922,0.002899879,-99999,-99999,-99999,-99999,-99999,-99999,-99999,0.022265,0.027107,0.007825,0.010582
339342,1992-05-27T22:30:35.064000Z,D92918B5,5.9,0.08,Slab,S,1,117,85,21,special,-41.63,173.62,-41.284,174.7682,5952812.98,2561652.09,5989908,2658140,8.2,8.2,103.13,123.26,100.44,119.93,-76.5,69.13,0,67,62.92,nu,WEL,B,1000,Q3,0.3,Q1,0,Q2,0,-99999,-99999,0,0.4,18,0.68,18,Webb_Anderson_1998&Dowrick_Rhoades1998&HarvardCMT,0.020401125,0.020484883,0.020627166,0.020859185,0.021218815,0.022560934,0.023770884,0.029806243,0.032790347,0.032389489,0.029628872,0.024428398,0.014709978,0.007029281,0.004686904,-99999,-99999,-99999,-99999,-99999,-99999,-99999,0.025827776,0.026026508,0.026300778,0.026602275,0.02695249,0.027107673,0.031812333,0.038168605,0.040218175,0.041125501,0.037576871,0.031467792,0.018533151,0.008615341,0.0061841,-99999,-99999,-99999,-99999,-99999,-99999,-99999,0.020406,0.02579,0.01161,0.014177
339342,1992-05-27T22:30:35.064000Z,D92935B2,5.9,0.08,Slab,S,1,117,85,21,special,-41.63,173.62,-41.2108,174.9047,5952812.98,2561652.09,5997808,2669699,8.2,8.2,116.82,134.86,114.21,131.66,-88.79,75.84,0,67,62.92,nu,935A,D,240,Q3,1.2,Q3,275,Q3,0,-99999,-99999,0,0.35,16,0.595,16,Webb_Anderson_1998&Dowrick_Rhoades1998&HarvardCMT,0.018491143,0.018580047,0.018851038,0.019518367,0.020323192,0.022927472,0.025674933,0.028016079,0.028524554,0.030217961,0.028780455,0.020966898,0.015156142,0.008121183,0.005541958,0.003404748,-99999,-99999,-99999,-99999,-99999,-99999,0.022407599,0.022685443,0.023116124,0.023725325,0.024445281,0.026525609,0.030880889,0.033128125,0.034093969,0.036487114,0.032473128,0.026971202,0.018884542,0.009995725,0.007838322,0.003911634,-99999,-99999,-99999,-99999,-99999,-99999,0.018451,0.022359,0.01207,0.013051
339342,1992-05-27T22:30:35.064000Z,K92934B1,5.9,0.08,Slab,S,1,117,85,21,special,-41.63,173.62,-41.2436,174.908,5952812.98,2561652.09,5994160,2669897,8.2,8.2,115.64,133.85,112.94,130.58,-85.63,77.68,0,67,62.92,nu,934B,D,180,Q1,1.1,Q3,100,Q3,0,-99999,-99999,1,0.4,16,0.68,16,Webb_Anderson_1998&Dowrick_Rhoades1998&HarvardCMT,0.025407079,0.025489355,0.025641971,0.025954159,0.026366074,0.027512946,0.029730872,0.034032694,0.033654895,0.033615005,0.032762118,0.035784996,0.03408996,0.01641359,0.009583087,-99999,-99999,-99999,-99999,-99999,-99999,-99999,0.03561955,0.03576816,0.035997871,0.036367853,0.036878846,0.038315588,0.03970653,0.047086628,0.045213792,0.041570662,0.043561709,0.045820629,0.042709315,0.020391604,0.012786827,-99999,-99999,-99999,-99999,-99999,-99999,-99999,0.025401,0.035412,0.017923,0.022841
338849,1992-06-21T17:43:09.086000Z,K92028A1,6.25,0.08,Crustal,N,1,32,41,246,special,-37.67,176.86,-38.0079,177.284,6385179.66,2850645.07,6346024,2886230,12.26,12.26,52.9,53.06,48.15,48.79,55.55,-14.35,25,4,0.01,nu,028A,D,210,Q3,1,Q3,75,Q3,0,-99999,-99999,1,0.2,15,0.34,15,Webb_Anderson_1998&Dowrick_Rhoades1998&HarvardCMT,0.031139508,0.03137158,0.03180374,0.032496036,0.03336804,0.038759133,0.041941082,0.042742414,0.042381155,0.039504327,0.038402227,0.037276118,0.037637385,0.031533414,0.027169384,0.020725664,0.017538151,-99999,-99999,-99999,-99999,-99999,0.033802014,0.034024974,0.034505986,0.035263376,0.036455954,0.041884289,0.044653465,0.045930069,0.050092736,0.045522504,0.04037163,0.040669208,0.044029302,0.034971107,0.029400889,0.022982982,0.021071376,-99999,-99999,-99999,-99999,-99999,0.031059,0.033848,0.042707,0.059619
338849,1992-06-21T17:43:09.086000Z,A92930A1,6.25,0.08,Crustal,N,1,32,41,246,special,-37.67,176.86,-37.9885,176.8294,6385179.66,2850645.07,6349976,2846440,12.26,12.26,35.52,35.68,29.64,30.05,19.71,-32.08,30,4,0.01,nu,930A,E,150,Q3,>2,Q3,300,Q3,0,-99999,-99999,1,0.15,12,0.255,12,Webb_Anderson_1998&Dowrick_Rhoades1998&HarvardCMT,0.041399323,0.04145978,0.041585121,0.041769108,0.042003749,0.042816803,0.045026687,0.045450912,0.045938781,0.047968245,0.047280402,0.051346896,0.05680665,0.052434209,0.049122144,0.036513913,0.025221096,0.019442547,-99999,-99999,-99999,-99999,0.052084522,0.052171885,0.052330408,0.052600762,0.052922137,0.053983839,0.055080245,0.057330104,0.055367958,0.058343716,0.06111199,0.066167608,0.067673741,0.055217745,0.055472482,0.042276496,0.026857116,0.02349038,-99999,-99999,-99999,-99999,0.041386,0.051907,0.084975,0.103354
435226,1993-04-11T06:59:48.228000Z,A93032A1,5.68,0.08,Interface,O,1,198,15,52,special,-39.74,176.52,-39.9425,176.5874,6156829.5,2811622.89,6134136,2816486,8.63,8.63,23.24,34.95,18.95,31.74,-7.47,20.08,0,26,24.88,nu,032A,C,495,Q3,0.13,Q3,10,Q3,0,-99999,-99999,1,0.4,10,0.68,10,Webb_Anderson_1998&Dowrick_Rhoades1998&HarvardCMT,0.158464512,0.158834642,0.159413134,0.160228261,0.161312019,0.165085897,0.172078274,0.203200369,0.223745501,0.226864797,0.230727729,0.221171646,0.200071998,0.136978747,0.092980359,-99999,-99999,-99999,-99999,-99999,-99999,-99999,0.185033289,0.185362386,0.185887146,0.186838096,0.187889644,0.190823692,0.193198184,0.226083818,0.264577038,0.276748176,0.276777541,0.262888038,0.237099703,0.159635835,0.10050948,-99999,-99999,-99999,-99999,-99999,-99999,-99999,0.158186,0.185064,0.131958,0.175139
435226,1993-04-11T06:59:48.228000Z,D93014A2,5.68,0.08,Interface,O,1,198,15,52,special,-39.74,176.52,-39.4984,176.8761,6156829.5,2811622.89,6182359,2843283,8.63,8.63,40.64,48.27,36.38,44.35,-18.05,-34.06,0,26,24.88,nu,NCDS,E,162,Q3,1.25,Q2,110,Q3,0,-99999,-99999,0,0.24,12,0.408,12,Webb_Anderson_1998&Dowrick_Rhoades1998&HarvardCMT,0.032481104,0.032723428,0.033299265,0.033998801,0.03503165,0.038825447,0.041692553,0.044043361,0.044279792,0.041415348,0.037836971,0.035221404,0.02901091,0.02094938,0.014616545,0.006527981,0.003441214,-99999,-99999,-99999,-99999,-99999,0.039502485,0.03965872,0.040033905,0.040511703,0.041085132,0.043229104,0.045903266,0.048914371,0.051365337,0.049331926,0.04658898,0.044449438,0.034889623,0.025421298,0.017266493,0.007944958,0.004588537,-99999,-99999,-99999,-99999,-99999,0.032393,0.039539,0.021884,0.02309
435226,1993-04-11T06:59:48.228000Z,D93015A1,5.68,0.08,Interface,O,1,198,15,52,special,-39.74,176.52,-39.4891,176.8982,6156829.5,2811622.89,6183313,2845228,8.63,8.63,42.76,50.1,38.49,46.14,-19.61,-35.57,0,26,24.88,nu,015A,B,1000,Q3,<0.1,Q3,0,Q3,0,-99999,-99999,0,0.5,12,0.85,12,Webb_Anderson_1998&Dowrick_Rhoades1998&HarvardCMT,0.016458972,0.016546841,0.016677194,0.016915195,0.017263228,0.018301355,0.019542838,0.01963385,0.021533263,0.023401554,0.024167276,0.020509431,0.015781107,0.006792621,0.004759784,-99999,-99999,-99999,-99999,-99999,-99999,-99999,0.017761488,0.017865652,0.018057304,0.018385712,0.018766811,0.019797657,0.020757877,0.023395522,0.025346581,0.027803106,0.028833199,0.025496188,0.017433563,0.007726136,0.005778282,-99999,-99999,-99999,-99999,-99999,-99999,-99999,0.016392,0.017773,0.009443,0.011342
435226,1993-04-11T06:59:48.228000Z,D93029A2,5.68,0.08,Interface,O,1,198,15,52,special,-39.74,176.52,-39.6458,176.8429,6156829.5,2811622.89,6166127,2839726,8.63,8.63,29.55,39.41,25.33,35.69,-19.69,-17.53,0,26,24.88,nu,HCDS,D,182,Q2,>2,Q3,1000,Q3,0,-99999,-99999,0,0.2,15,0.34,15,Webb_Anderson_1998&Dowrick_Rhoades1998&HarvardCMT,0.029062548,0.029329245,0.029708983,0.030421151,0.031306411,0.034001236,0.035049199,0.03911451,0.038378571,0.044041653,0.041524641,0.035806276,0.024296576,0.020993609,0.01516262,0.006959541,0.005843383,-99999,-99999,-99999,-99999,-99999,0.034617537,0.034705419,0.034840336,0.035050128,0.035373643,0.03696688,0.038088928,0.050804929,0.049590942,0.046715202,0.056515881,0.048196065,0.032653958,0.027554502,0.018302869,0.008387037,0.007065822,-99999,-99999,-99999,-99999,-99999,0.02904,0.034619,0.026152,0.030611
471730,1993-08-10T00:51:55.033000Z,A93070A1,6.89,0.08,Interface,R,1,41,41,107,nlloc,-45.3625,166.649,-45.4167,167.7191,5519161.25,2012843.95,5519112,2096857,34.75,34.75,83.78,85.7,74.67,77.26,68.91,55.08,0,16.72,11.96,nu,TAFS,D,298,Q3,1.4,Q3,200,Q3,0,-99999,-99999,1,0.2,19,0.34,19,Robinson_etal_2003&Dowrick_Rhoades1998&HarvardCMT,0.063867754,0.064393136,0.065490309,0.066854477,0.06815181,0.077184647,0.086989643,0.091091624,0.084621086,0.075956574,0.062649134,0.057058278,0.051487714,0.044558433,0.037462843,0.031993801,0.022678727,-99999,-99999,-99999,-99999,-99999,0.085590434,0.086456362,0.087832136,0.089761131,0.092639349,0.102985366,0.109264463,0.12130959,0.111518665,0.102504963,0.086153704,0.067483529,0.060222778,0.048689148,0.05165658,0.036532589,0.030334738,-99999,-99999,-99999,-99999,-99999,0.063904,0.085534,0.06115,0.07679
471730,1993-08-10T00:51:55.033000Z,A93940A1,6.89,0.08,Interface,R,1,41,41,107,nlloc,-45.3625,166.649,-45.0322,168.6629,5519161.25,2012843.95,5566104,2168345,34.75,34.75,162.01,163.32,150.75,152.25,92.03,137.45,0,16.72,11.96,nu,QTPS,D,350,Q3,0.95,Q1,90,Q3,0,-99999,-99999,1,0.5,10,0.85,10,Robinson_etal_2003&Dowrick_Rhoades1998&HarvardCMT,0.035840352,0.035971018,0.036200299,0.036502049,0.036937766,0.038573136,0.041063315,0.048702562,0.057334971,0.057459851,0.054137121,0.043366175,0.033407074,0.025538334,0.014714304,-99999,-99999,-99999,-99999,-99999,-99999,-99999,0.040276283,0.040511776,0.040855331,0.041309221,0.041874532,0.044196098,0.047613619,0.053666692,0.060970573,0.062203969,0.057361087,0.050355716,0.036383338,0.031613328,0.017480738,-99999,-99999,-99999,-99999,-99999,-99999,-99999,0.035774,0.040236,0.023354,0.02647
471730,1993-08-10T00:51:55.033000Z,D93044A2s,6.89,0.08,Interface,R,1,41,41,107,nlloc,-45.3625,166.649,-45.8986,170.5097,5519161.25,2012843.95,5475848,2316608,34.75,34.75,306.03,307.29,297.73,299.13,263.14,166.6,0,16.72,11.96,nu,SKFS,D,140,Q2,0.8,Q3,25,Q3,0,-99999,-99999,1,0.25,10,0.425,10,Robinson_etal_2003&Dowrick_Rhoades1998&HarvardCMT,0.014960819,0.014979215,0.015009617,0.015073571,0.015174101,0.015636519,0.016263159,0.016966737,0.018669821,0.018559392,0.018863079,0.0210191,0.022566465,0.021944299,0.013416828,0.006398869,0.003556948,-99999,-99999,-99999,-99999,-99999,0.016287645,0.016308532,0.016332514,0.016357333,0.016389678,0.016510555,0.016825278,0.020030507,0.020691066,0.02213331,0.022959891,0.023485729,0.024782335,0.025640042,0.017921774,0.008033983,0.004232459,-99999,-99999,-99999,-99999,-99999,0.014949,0.016283,0.018465,0.019737
471730,1993-08-10T00:51:55.033000Z,D93054A6,6.89,0.08,Interface,R,1,41,41,107,nlloc,-45.3625,166.649,-43.883,169.0441,5519161.25,2012843.95,5695156,2192230,34.75,34.75,250.97,251.86,238.02,238.93,25.39,250.51,0,16.72,11.96,nu,HDWS,D,210,Q3,0.87,Q1,100,Q3,0,-99999,-99999,0,0.35,14,0.595,14,Robinson_etal_2003&Dowrick_Rhoades1998&HarvardCMT,0.030144462,0.030511906,0.031074328,0.031903578,0.033085604,0.038045067,0.043057279,0.049578274,0.039770651,0.036253725,0.035210961,0.028721457,0.024303534,0.024608124,0.016350514,0.006525914,-99999,-99999,-99999,-99999,-99999,-99999,0.035440035,0.035575579,0.035787405,0.036094093,0.036845798,0.041219629,0.04839509,0.056345432,0.04866799,0.047587162,0.044516216,0.03217548,0.03054152,0.030273358,0.017892798,0.009084694,-99999,-99999,-99999,-99999,-99999,-99999,0.029905,0.035416,0.021456,0.023931
471755,1993-08-10T09:46:38.453000Z,A93028A1,6.3,0.08,Slab,S,1,354,64,168,special,-38.55,177.92,-38.0079,177.284,6283090.62,2938734.07,6346024,2886230,30,15,81.95,90.77,69.76,78.95,-42.35,68.08,0,39,32.26,nu,028A,D,210,Q3,1,Q3,75,Q3,0,-99999,-99999,1,0.35,15,0.595,15,Reyners_et_al2010&Webb_Anderson_1998&Dowrick_Rhoades1998&HarvardCMT,0.061390924,0.061588954,0.061879941,0.062275545,0.062783502,0.065245386,0.069296706,0.071334033,0.086100901,0.090862125,0.089370555,0.089807696,0.078170423,0.047690301,0.036177006,0.02569599,-99999,-99999,-99999,-99999,-99999,-99999,0.069004571,0.06916105,0.069406382,0.069751041,0.070293501,0.072663671,0.082429316,0.091787133,0.118340941,0.110726175,0.101707436,0.110146139,0.092461291,0.052407208,0.043891393,0.030274576,-99999,-99999,-99999,-99999,-99999,-99999,0.061272,0.068831,0.052639,0.065922
471755,1993-08-10T09:46:38.453000Z,A93096A1,6.3,0.08,Slab,S,1,354,64,168,special,-38.55,177.92,-39.0342,177.4249,6283090.62,2938734.07,6231637,2892985,30,15,68.85,79.13,59.27,69.25,-47.59,-46.39,0,39,32.26,nu,WFSS,D,155,Q3,1.5,Q3,100,Q3,0,-99999,-99999,1,0.35,13,0.595,13,Reyners_et_al2010&Webb_Anderson_1998&Dowrick_Rhoades1998&HarvardCMT,0.043888859,0.04400695,0.044177685,0.044388753,0.044625169,0.046390991,0.049781949,0.056631176,0.061246834,0.066406844,0.068790992,0.063470299,0.054340982,0.045274985,0.042666531,0.025194449,-99999,-99999,-99999,-99999,-99999,-99999,0.056440431,0.056566683,0.05674855,0.057001343,0.057334349,0.058692467,0.060789406,0.06277909,0.068865837,0.074330173,0.080465593,0.077174548,0.064477319,0.054254213,0.048381812,0.028301473,-99999,-99999,-99999,-99999,-99999,-99999,0.043862,0.056459,0.046615,0.050072
471755,1993-08-10T09:46:38.453000Z,A93113A1,6.3,0.08,Slab,S,1,354,64,168,special,-38.55,177.92,-37.8735,177.5847,6283090.62,2938734.07,6359624,2913365,30,15,80.72,89.57,66.1,76.08,-13.94,78.77,0,39,32.26,nu,113A,C,522,Q3,0.15,Q3,10,Q3,0,-99999,-99999,1,0.42,13,0.714,13,Reyners_et_al2010&Webb_Anderson_1998&Dowrick_Rhoades1998&HarvardCMT,0.089813262,0.090289844,0.091014717,0.092034139,0.093431609,0.09888368,0.104479154,0.118724773,0.146195312,0.136721064,0.119501018,0.078078483,0.053140408,0.024606127,0.01743253,-99999,-99999,-99999,-99999,-99999,-99999,-99999,0.111039084,0.111336773,0.111944026,0.112843454,0.113923471,0.117861348,0.126765772,0.15126601,0.180936064,0.188266489,0.166075038,0.10863695,0.068714911,0.03066566,0.021965188,-99999,-99999,-99999,-99999,-99999,-99999,-99999,0.089493,0.110538,0.041559,0.054997
471755,1993-08-10T09:46:38.453000Z,D93014A4,6.3,0.08,Slab,S,1,354,64,168,special,-38.55,177.92,-39.4984,176.8761,6283090.62,2938734.07,6182359,2843283,30,15,138.75,144.15,129.07,134.18,-102.17,-90.2,0,39,32.26,nu,NCDS,E,162,Q3,1.25,Q2,110,Q3,0,-99999,-99999,0,0.25,10,0.425,10,Reyners_et_al2010&Webb_Anderson_1998&Dowrick_Rhoades1998&HarvardCMT,0.015073903,0.015163422,0.015297408,0.015483841,0.015714129,0.016644809,0.017377136,0.019331937,0.020822906,0.01941482,0.018273827,0.01607193,0.016318203,0.016354092,0.012509174,0.006708917,0.003519301,-99999,-99999,-99999,-99999,-99999,0.016771264,0.016847168,0.016959053,0.017106035,0.017295261,0.018101539,0.01907695,0.020885281,0.023115124,0.020894584,0.021508408,0.017091399,0.018766392,0.021543511,0.014966149,0.007146682,0.004389549,-99999,-99999,-99999,-99999,-99999,0.015065,0.016758,0.013876,0.016776
471755,1993-08-10T09:46:38.453000Z,D93016A1,6.3,0.08,Slab,S,1,354,64,168,special,-38.55,177.92,-38.6774,178.031,6283090.62,2938734.07,6268431,2947608,30,15,17.14,42.71,6.16,35.7,10.58,-15.51,0,39,32.26,nu,016A,C,480,Q3,0.15,Q3,10,Q3,0,-99999,-99999,0,0.3,21,0.51,21,Reyners_et_al2010&Webb_Anderson_1998&Dowrick_Rhoades1998&HarvardCMT,0.155820713,0.156621581,0.157860278,0.160195184,0.162829327,0.170933372,0.185789513,0.236325848,0.226589865,0.184121802,0.178422856,0.17000339,0.18107702,0.122695956,0.063137394,0.029271021,-99999,-99999,-99999,-99999,-99999,-99999,0.193073159,0.194193559,0.195905296,0.198555858,0.203015993,0.214867623,0.225843337,0.27377662,0.254506082,0.209889905,0.198611151,0.230034895,0.246967095,0.144149628,0.081775898,0.034727048,-99999,-99999,-99999,-99999,-99999,-99999,0.154414,0.193073,0.103709,0.140525
471755,1993-08-10T09:46:38.453000Z,D93017A1,6.3,0.08,Slab,S,1,354,64,168,special,-38.55,177.92,-38.6665,178.0227,6283090.62,2938734.07,6269685,2946952,30,15,15.73,42.06,5.22,35.18,10.06,-14.19,0,39,32.26,nu,GISS,D,138,Q2,1,Q1,40,Q3,0,-99999,-99999,0,0.25,30,0.425,30,Reyners_et_al2010&Webb_Anderson_1998&Dowrick_Rhoades1998&HarvardCMT,0.187028092,0.188440162,0.190992334,0.193088784,0.193325358,0.209914769,0.229336731,0.235533265,0.257328404,0.288078044,0.305564451,0.25065903,0.182724595,0.128672242,0.081694591,0.041979555,0.022099051,-99999,-99999,-99999,-99999,-99999,0.217105937,0.218025546,0.21861061,0.220727754,0.223536272,0.251187549,0.266041619,0.294098489,0.313908814,0.348300842,0.349205281,0.272070004,0.21959976,0.145648694,0.098242805,0.045745167,0.024803953,-99999,-99999,-99999,-99999,-99999,0.186203,0.217059,0.121691,0.144066
471755,1993-08-10T09:46:38.453000Z,D93021A3,6.3,0.08,Slab,S,1,354,64,168,special,-38.55,177.92,-38.4249,176.3157,6283090.62,2938734.07,6303375,2799556,30,15,140.32,146.04,135.79,140.25,-133.01,34.72,10,39,32.26,nu,021A,D,210,Q3,2,Q3,200,Q3,0,-99999,-99999,1,0.18,10,0.306,10,Reyners_et_al2010&Webb_Anderson_1998&Dowrick_Rhoades1998&HarvardCMT,0.026354414,0.026363629,0.026390399,0.026430402,0.026492076,0.026648978,0.026813578,0.027193624,0.027435173,0.027371712,0.02873015,0.031823596,0.033796333,0.03746637,0.041978763,0.038449828,0.018866013,0.00670897,-99999,-99999,-99999,-99999,0.028011834,0.028020249,0.028035845,0.028052479,0.028078418,0.028131883,0.028083679,0.029518295,0.031394871,0.032627143,0.034100543,0.034920653,0.03680539,0.041603835,0.047259805,0.041580849,0.023584663,0.008467385,-99999,-99999,-99999,-99999,0.026355,0.028006,0.056127,0.064898
608810,1994-06-18T03:25:13.819000Z,D4505A01,6.72,0.08,Crustal,R,1,221,47,112,geonet,-43.0078,171.4762,-42.9489,171.5677,5798820.69,2385786.14,5805487,2393135,21.06,21.06,9.91,11.12,2.02,4.12,2.92,-9.85,0,4.27,1,hw,APPS,C,300,Q2,0.4,Q1,30,Q2,0,-99999,-99999,0,0.11,40,0.187,40,Abercrombie_etal_2000&HarvardCMT,0.433705891,0.438792907,0.452977517,0.446409647,0.443015715,0.442412481,0.444518168,0.545810787,0.622335732,0.59695591,0.529120397,0.489957547,0.438875081,0.245233779,0.149936423,0.072635012,0.052229196,0.031274021,0.020379536,0.012578877,-99999,-99999,0.508980215,0.517929353,0.531139794,0.52768565,0.507754827,0.547671813,0.580895906,0.732002295,0.784149662,0.720277559,0.694488287,0.611399999,0.542028288,0.295249041,0.196279964,0.089597857,0.064475526,0.0337431,0.022445499,0.014545568,-99999,-99999,0.423633,0.509184,0.28269,0.316738
