CuspID,Origin_time,Record,Mw,MwUncert,TectClass,Mech,PreferredFaultPlane,Strike,Dip,Rake,Location,HypLat,HypLon,StationLat,StationLon,HypN,HypE,StationN,StationE,LENGTH_km,WIDTH_km,Repi_km,Rhyp_km,Rjb_km,Rrup_km,Rx_km,Ry_km,Rvol_km,HypDepth_km,ZTOR_km,HWFW,SiteCode,SiteClass1170,Vs30,Vs30Uncert,Tsite,TsiteUncert,Z1,Z1Uncertainty,Directivity,Pulse_or,Pulse_T,S_Trigger_Flag,fcButterHP,f_iniLP,fmin,fmax,References,f100.0000SA_RotD50,f50.0000SA_RotD50,f33.3333SA_RotD50,f25.0000SA_RotD50,f20.0000SA_RotD50,f13.3333SA_RotD50,f10.0000SA_RotD50,f6.6667SA_RotD50,f5.0000SA_RotD50,f4.0000SA_RotD50,f3.3333SA_RotD50,f2.5000SA_RotD50,f2.0000SA_RotD50,f1.3333SA_RotD50,f1.0000SA_RotD50,f0.6667SA_RotD50,f0.5000SA_RotD50,f0.3333SA_RotD50,f0.2500SA_RotD50,f0.2000SA_RotD50,f0.1333SA_RotD50,f0.1000SA_RotD50,f100.0000SA_RotD100,f50.0000SA_RotD100,f33.3333SA_RotD100,f25.0000SA_RotD100,f20.0000SA_RotD100,f13.3333SA_RotD100,f10.0000SA_RotD100,f6.6667SA_RotD100,f5.0000SA_RotD100,f4.0000SA_RotD100,f3.3333SA_RotD100,f2.5000SA_RotD100,f2.0000SA_RotD100,f1.3333SA_RotD100,f1.0000SA_RotD100,f0.6667SA_RotD100,f0.5000SA_RotD100,f0.3333SA_RotD100,f0.2500SA_RotD100,f0.2000SA_RotD100,f0.1333SA_RotD100,f0.1000SA_RotD100,PGA_RotD50,PGA_RotD100,PGV_RotD50,PGV_RotD100
722185,1995-03-22T19:43:30.268000Z,D5646A05,5.83,0.15,Slab,S,0,27,64,30,nlloc,-41.0514,174.216,-41.2574,174.9485,6016538.56,2612205.51,5992552,2673256,7.6,7.6,65.46,107.84,62.76,105.2,-99999,-99999,0,85.51,82.13,nu,WDAS,E,120,Q1,1.6,Q2,62,Q2,0,-99999,-99999,0,0.25,19,0.425,19,HarvardCMT,0.044270005,0.044722499,0.045312007,0.046204029,0.047219781,0.052136809,0.055038191,0.05728829,0.052474593,0.050755055,0.052106958,0.042884857,0.036341728,0.031382734,0.028545406,0.013345792,0.006406055,-99999,-99999,-99999,-99999,-99999,0.061414766,0.061977431,0.062710339,0.063534043,0.06468197,0.068108549,0.067905228,0.073434425,0.064817793,0.061180943,0.0576387,0.055376,0.045728883,0.04422863,0.035758635,0.017115158,0.008527726,-99999,-99999,-99999,-99999,-99999,0.044194,0.061457,0.031242,0.043211
722185,1995-03-22T19:43:30.268000Z,D5647D02,5.83,0.15,Slab,S,0,27,64,30,nlloc,-41.0514,174.216,-41.2875,174.7769,6016538.56,2612205.51,5989514,2658817,7.6,7.6,53.8,101.07,51.16,98.26,-99999,-99999,0,85.51,82.13,nu,647D,D,474,Q2,0.12,Q2,5.70E+00,Q2,0,-99999,-99999,0,0.3,18,0.51,18,HarvardCMT,0.043946393,0.044258762,0.044948839,0.045848261,0.047007706,0.051055918,0.055082422,0.062175539,0.062566975,0.0547216,0.050768081,0.035225728,0.024309699,0.011072297,0.006370085,0.003339757,-99999,-99999,-99999,-99999,-99999,-99999,0.053290685,0.053395058,0.053752862,0.054642308,0.05638206,0.06142521,0.062288182,0.074429196,0.084698426,0.075132859,0.067138938,0.045565103,0.026284927,0.01318979,0.006830992,0.00428363,-99999,-99999,-99999,-99999,-99999,-99999,0.044004,0.053275,0.021937,0.024439
722185,1995-03-22T19:43:30.268000Z,D5648A03,5.83,0.15,Slab,S,0,27,64,30,nlloc,-41.0514,174.216,-41.2775,174.7735,6016538.56,2612205.51,5990634,2658549,7.6,7.6,53.01,109.27,50.36,106.39,-99999,-99999,0,85.51,82.13,nu,921A,C,330,Q3,0.5,Q3,38,Q3,0,-99999,-99999,0,0.35,32,0.595,32,HarvardCMT,0.057738978,0.058553444,0.059424072,0.060089464,0.062048265,0.067138353,0.072535107,0.077454612,0.071532271,0.05956212,0.054136993,0.037126793,0.026227816,0.012191349,0.007427547,0.004409328,-99999,-99999,-99999,-99999,-99999,-99999,0.060626916,0.061172821,0.062638842,0.06400549,0.065037007,0.075464335,0.086873204,0.09512147,0.086668133,0.073539472,0.058255136,0.042799421,0.029481052,0.01521613,0.009588668,0.005311265,-99999,-99999,-99999,-99999,-99999,-99999,0.057084,0.060531,0.025057,0.029225
722185,1995-03-22T19:43:30.268000Z,D5707A02,5.83,0.15,Slab,S,0,27,64,30,nlloc,-41.0514,174.216,-41.1391,174.8502,6016538.56,2612205.51,6005867,2665298,7.6,7.6,54.03,101.23,51.21,98.48,-99999,-99999,0,85.51,82.13,nu,707A,C,570,Q3,0.15,Q3,10,Q3,0,-99999,-99999,0,0.25,20,0.425,20,HarvardCMT,0.032718002,0.033450783,0.034780545,0.036677456,0.038490259,0.040953963,0.043635282,0.032666448,0.022282043,0.018187678,0.015946122,0.012814243,0.011000857,0.006902183,0.004402064,0.002668377,0.001620676,-99999,-99999,-99999,-99999,-99999,0.038141731,0.038967664,0.040184945,0.041940066,0.044802465,0.051789892,0.051812688,0.038808597,0.02550198,0.020722881,0.019188492,0.017577088,0.014257855,0.008456332,0.005540212,0.003088575,0.001925821,-99999,-99999,-99999,-99999,-99999,0.032794,0.037966,0.009417,0.01102
722185,1995-03-22T19:43:30.268000Z,D5900C02,5.83,0.15,Slab,S,0,27,64,30,nlloc,-41.0514,174.216,-41.2891,174.7799,6016538.56,2612205.51,5989335,2659058,7.6,7.6,54.09,101.23,51.45,98.43,-99999,-99999,0,85.51,82.13,nu,900C,D,250,Q3,0.8,Q3,60,Q3,0,-99999,-99999,0,0.3,15,0.51,15,HarvardCMT,0.054873603,0.055119728,0.055539874,0.05615854,0.057041963,0.060881982,0.065703433,0.075474412,0.084040644,0.076458621,0.072049287,0.048761216,0.032584191,0.01792331,0.010655062,0.004762129,-99999,-99999,-99999,-99999,-99999,-99999,0.07027452,0.070640555,0.071236081,0.072158829,0.073573763,0.08162233,0.08942355,0.103690302,0.106911302,0.095571562,0.077088829,0.057004664,0.038174585,0.024437999,0.012702444,0.005350077,-99999,-99999,-99999,-99999,-99999,-99999,0.054898,0.07014,0.030361,0.034038
722185,1995-03-22T19:43:30.268000Z,D5935C03,5.83,0.15,Slab,S,0,27,64,30,nlloc,-41.0514,174.216,-41.2108,174.9047,6016538.56,2612205.51,5997808,2669699,7.6,7.6,60.34,104.73,57.6,102.04,-99999,-99999,0,85.51,82.13,nu,935A,D,240,Q3,1.2,Q3,275,Q3,0,-99999,-99999,0,0.25,24.5,0.425,24.5,HarvardCMT,0.038813897,0.038962279,0.039464914,0.039854667,0.040296076,0.042779265,0.04672605,0.051761691,0.051606042,0.049424375,0.047525616,0.042608669,0.035807987,0.019422158,0.012097043,0.006284217,0.003515653,-99999,-99999,-99999,-99999,-99999,0.042450697,0.042795489,0.043375475,0.044387861,0.045001783,0.049151789,0.05143591,0.057140536,0.059448968,0.055489015,0.052003655,0.05085001,0.04027822,0.023371274,0.016429267,0.008596537,0.004154376,-99999,-99999,-99999,-99999,-99999,0.038712,0.042452,0.023412,0.027531
722185,1995-03-22T19:43:30.268000Z,I5027F03,5.83,0.15,Slab,S,0,27,64,30,nlloc,-41.0514,174.216,-39.4884,176.9189,6016538.56,2612205.51,6183307,2847012,7.6,7.6,287.72,300.43,284.58,297.6,-99999,-99999,0,85.51,82.13,nu,NAMS,C,268,Q3,0.4,Q3,20,Q3,0,-99999,-99999,1,0.5,21,0.85,21,HarvardCMT,0.007502088,0.007525588,0.007572278,0.007645057,0.007736127,0.007868422,0.008068715,0.008965349,0.010037739,0.010666068,0.011380713,0.009924696,0.007197207,0.003493335,0.001765784,-99999,-99999,-99999,-99999,-99999,-99999,-99999,0.010085668,0.010119637,0.010174685,0.010267781,0.010404193,0.010785087,0.010877622,0.011717113,0.012550052,0.013740599,0.0150559,0.012922202,0.009551183,0.004781657,0.002328264,-99999,-99999,-99999,-99999,-99999,-99999,-99999,0.00749,0.010072,0.004646,0.005415
722185,1995-03-22T19:43:30.268000Z,I5467A07,5.83,0.15,Slab,S,0,27,64,30,nlloc,-41.0514,174.216,-41.2425,174.9024,6016538.56,2612205.51,5994293,2669430,7.6,7.6,61.27,105.27,58.57,102.59,-99999,-99999,0,85.51,82.13,nu,467A,D,218,Q3,1.5,Q3,200,Q3,0,-99999,-99999,0,0.19,28,0.323,28,HarvardCMT,0.037751126,0.038140084,0.038596641,0.039421884,0.040442798,0.043602769,0.047298869,0.054031585,0.046887772,0.034871953,0.028733378,0.028243217,0.027809927,0.017599453,0.01295321,0.008743136,0.004535784,0.001788292,-99999,-99999,-99999,-99999,0.043045897,0.043339446,0.043777161,0.04464317,0.045159874,0.047385696,0.055756873,0.059489359,0.051611538,0.037301625,0.034580211,0.03313554,0.030506514,0.020610864,0.01553556,0.009918848,0.00560477,0.002101801,-99999,-99999,-99999,-99999,0.037621,0.042592,0.02036,0.023217
722185,1995-03-22T19:43:30.268000Z,I5468A06,5.83,0.15,Slab,S,0,27,64,30,nlloc,-41.0514,174.216,-41.2011,174.9547,6016538.56,2612205.51,5998793,2673916,7.6,7.6,64.07,106.94,61.31,104.29,-99999,-99999,0,85.51,82.13,nu,468A,D,190,Q1,0.9,Q3,50,Q3,0,-99999,-99999,0,0.25,24,0.425,24,HarvardCMT,0.057189795,0.057725994,0.05832844,0.060501026,0.063539524,0.073611384,0.081352427,0.081957953,0.077541398,0.066338095,0.05690801,0.050099821,0.046336105,0.031222297,0.021948534,0.009157539,0.004553969,-99999,-99999,-99999,-99999,-99999,0.0744595,0.074956871,0.076086207,0.077797366,0.080231674,0.09088106,0.099152243,0.09440481,0.086886686,0.069291009,0.06369987,0.059942743,0.053363873,0.041846418,0.0294673,0.011151788,0.005583185,-99999,-99999,-99999,-99999,-99999,0.057084,0.07455,0.031492,0.037271
722185,1995-03-22T19:43:30.268000Z,I5602C01,5.83,0.15,Slab,S,0,27,64,30,nlloc,-41.0514,174.216,-41.1903,174.928,6016538.56,2612205.51,6000041,2671703,7.6,7.6,61.61,105.49,58.84,102.81,-99999,-99999,0,85.51,82.13,nu,602C,B,1000,Q3,<0.1,Q3,0,Q3,0,-99999,-99999,0,0.2,45,0.34,45,HarvardCMT,0.018152526,0.018506427,0.019085693,0.019443835,0.020618385,0.02436404,0.0230673,0.019061785,0.020283444,0.016959123,0.01549185,0.011435357,0.00921505,0.006097288,0.003754503,0.002426777,0.001673228,-99999,-99999,-99999,-99999,-99999,0.022751105,0.023018034,0.023578632,0.024455559,0.026228488,0.032990697,0.030165544,0.025678595,0.027812451,0.023150551,0.019831918,0.014019464,0.010710988,0.007000507,0.004475522,0.002861352,0.002161381,-99999,-99999,-99999,-99999,-99999,0.017965,0.022615,0.008932,0.011987
722185,1995-03-22T19:43:30.268000Z,I5603B03,5.83,0.15,Slab,S,0,27,64,30,nlloc,-41.0514,174.216,-41.2237,174.86,6016538.56,2612205.51,5996453,2665923,7.6,7.6,57.23,102.97,54.52,100.24,-99999,-99999,0,85.51,82.13,nu,603B,B,1000,Q3,<0.1,Q3,0,Q3,0,-99999,-99999,0,0.25,30,0.425,30,HarvardCMT,0.016762131,0.01699592,0.017463385,0.018198124,0.019699266,0.022490029,0.025247411,0.021777644,0.016531803,0.013645019,0.010963364,0.011224517,0.00923029,0.005810232,0.003955446,0.002707358,0.001971702,-99999,-99999,-99999,-99999,-99999,0.023705128,0.024035649,0.024694855,0.025733174,0.027657547,0.031711756,0.035706485,0.030169568,0.020537456,0.016129494,0.015045662,0.0127118,0.012255801,0.007783731,0.005436929,0.003547875,0.002720184,-99999,-99999,-99999,-99999,-99999,0.016751,0.023688,0.00872,0.011914
722185,1995-03-22T19:43:30.268000Z,I5605B05,5.83,0.15,Slab,S,0,27,64,30,nlloc,-41.0514,174.216,-41.2074,174.9401,6016538.56,2612205.51,5998119,2672679,7.6,7.6,63.08,106.39,60.33,103.72,-99999,-99999,0,85.51,82.13,nu,FAIS,B,760,Q3,0.27,Q1,0,Q2,0,-99999,-99999,0,0.15,32,0.255,32,HarvardCMT,0.03176461,0.032172711,0.032976349,0.033614684,0.034566597,0.036790113,0.039319605,0.042964501,0.033151766,0.028438103,0.024686186,0.022676259,0.017511624,0.007534299,0.00453862,0.002225243,0.001511241,0.000664415,-99999,-99999,-99999,-99999,0.037431591,0.037736103,0.038219525,0.039105205,0.040685197,0.043469477,0.043578638,0.046139908,0.043216253,0.034138248,0.031424636,0.029087656,0.023524439,0.010156628,0.004869727,0.002781263,0.001925171,0.000847632,-99999,-99999,-99999,-99999,0.03163,0.037414,0.013971,0.019442
722185,1995-03-22T19:43:30.268000Z,I5606B07,5.83,0.15,Slab,S,0,27,64,30,nlloc,-41.0514,174.216,-41.2333,174.9199,6016538.56,2612205.51,5995282,2670919,7.6,7.6,62.31,105.88,59.59,103.21,-99999,-99999,0,85.51,82.13,nu,606B,B,800,Q3,<0.1,Q3,0,Q3,0,-99999,-99999,0,0.25,35,0.425,35,HarvardCMT,0.03346335,0.03433343,0.03577609,0.036555571,0.038037227,0.043341421,0.043903857,0.040726901,0.028720219,0.01974415,0.014665029,0.009267221,0.006875911,0.00383965,0.002304482,0.001471784,0.001053378,-99999,-99999,-99999,-99999,-99999,0.03727671,0.038230647,0.039721132,0.041223004,0.043839406,0.050292902,0.051010377,0.045259621,0.030946927,0.022069265,0.017867966,0.012742149,0.008469009,0.00464168,0.003034714,0.001622547,0.001197355,-99999,-99999,-99999,-99999,-99999,0.032391,0.036712,0.008125,0.009724
722185,1995-03-22T19:43:30.268000Z,I5642G18,5.83,0.15,Slab,S,0,27,64,30,nlloc,-41.0514,174.216,-41.235,174.9172,6016538.56,2612205.51,5995098,2670688,7.6,7.6,62.16,105.8,59.44,103.12,-99999,-99999,0,85.51,82.13,nu,642G,C,350,Q1,0.35,Q2,50,Q3,0,-99999,-99999,0,0.25,35,0.425,35,HarvardCMT,0.074054525,0.075369482,0.077851305,0.081151438,0.085579541,0.092213597,0.096294472,0.101075028,0.074122726,0.059210879,0.045399486,0.029671627,0.021290675,0.009763161,0.005911407,0.002392722,0.001640005,-99999,-99999,-99999,-99999,-99999,0.083063847,0.084485689,0.086451613,0.089907251,0.096108986,0.109946744,0.118542646,0.10779811,0.084534705,0.065361181,0.049945292,0.035652216,0.023310602,0.01080879,0.006387796,0.002661297,0.001962594,-99999,-99999,-99999,-99999,-99999,0.073975,0.0828,0.018827,0.023045
722185,1995-03-22T19:43:30.268000Z,I5642H18,5.83,0.15,Slab,S,0,27,64,30,nlloc,-41.0514,174.216,-41.235,174.9172,6016538.56,2612205.51,5995098,2670688,7.6,7.6,62.16,105.8,59.44,103.12,-99999,-99999,0,85.51,82.13,nu,642H,C,350,Q1,0.35,Q2,50,Q3,0,-99999,-99999,0,0.25,35,0.425,35,HarvardCMT,0.053373239,0.054209849,0.055492235,0.057593468,0.060324418,0.065973317,0.068237772,0.072540478,0.06738547,0.057095556,0.049661524,0.035216087,0.024181191,0.010316829,0.005617331,0.002552202,0.001865381,-99999,-99999,-99999,-99999,-99999,0.069637205,0.070611788,0.072327736,0.07435989,0.077799442,0.087616732,0.094375525,0.082002077,0.072739394,0.06429066,0.054330845,0.038173345,0.027648991,0.011753526,0.006070424,0.002998408,0.002027007,-99999,-99999,-99999,-99999,-99999,0.053201,0.069069,0.020039,0.022652
722185,1995-03-22T19:43:30.268000Z,I5708A04,5.83,0.15,Slab,S,0,27,64,30,nlloc,-41.0514,174.216,-41.1314,174.8391,6016538.56,2612205.51,6006740,2664387,7.6,7.6,52.97,100.66,50.14,97.89,-99999,-99999,0,85.51,82.13,nu,POLS,C,250,Q2,0.4,Q1,25,Q2,0,-99999,-99999,0,0.15,30,0.255,30,HarvardCMT,0.039460209,0.039794629,0.040211315,0.040878478,0.04157297,0.043987985,0.05076454,0.052301344,0.045133957,0.044467455,0.04321292,0.032311233,0.024212381,0.012839346,0.007309789,0.004096447,0.002385866,0.001095733,-99999,-99999,-99999,-99999,0.044022977,0.044600602,0.046155889,0.048234016,0.049691433,0.053614976,0.056355707,0.057733033,0.055254602,0.054824272,0.050815737,0.039799595,0.026523282,0.013722211,0.008402575,0.004936068,0.003005714,0.001430158,-99999,-99999,-99999,-99999,0.039215,0.044089,0.018455,0.02399
722185,1995-03-22T19:43:30.268000Z,I5711A01,5.83,0.15,Slab,S,0,27,64,30,nlloc,-41.0514,174.216,-41.2294,174.9042,6016538.56,2612205.51,5995739,2669619,7.6,7.6,60.94,105.08,58.22,102.39,-99999,-99999,0,85.51,82.13,nu,LRSS,D,230,Q3,1.4,Q3,175,Q3,0,-99999,-99999,0,0.25,24.5,0.425,24.5,HarvardCMT,0.043161456,0.043581212,0.044161674,0.044754017,0.046200635,0.049241916,0.052295103,0.047554884,0.047246188,0.053399036,0.053973687,0.044839631,0.035368886,0.017113691,0.010069217,0.00600192,0.00429339,-99999,-99999,-99999,-99999,-99999,0.061048794,0.06141399,0.062310081,0.063295391,0.06531666,0.069633857,0.065009389,0.060926597,0.063629314,0.071341639,0.073289696,0.059437266,0.045007904,0.022544161,0.011498307,0.007609272,0.005889917,-99999,-99999,-99999,-99999,-99999,0.042852,0.06009,0.026957,0.036004
722185,1995-03-22T19:43:30.268000Z,I5918B08,5.83,0.15,Slab,S,0,27,64,30,nlloc,-41.0514,174.216,-41.284,174.7682,6016538.56,2612205.51,5989908,2658140,7.6,7.6,52.97,100.77,50.33,97.95,-99999,-99999,0,85.51,82.13,nu,WEL,B,1000,Q3,0.3,Q1,0,Q2,0,-99999,-99999,0,0.25,24.5,0.425,24.5,HarvardCMT,0.05850793,0.059261436,0.060227291,0.061454453,0.062856114,0.071461112,0.080814684,0.090843451,0.074772753,0.060066494,0.046421521,0.027525258,0.018289817,0.009268348,0.006382506,0.003935207,0.002436127,-99999,-99999,-99999,-99999,-99999,0.079275297,0.079745542,0.080673329,0.081967814,0.083679537,0.088566127,0.099020495,0.119464835,0.101094913,0.080977408,0.062578859,0.034733594,0.021536614,0.010541941,0.009018,0.0051017,0.003248729,-99999,-99999,-99999,-99999,-99999,0.058394,0.078329,0.02109,0.029719
722185,1995-03-22T19:43:30.268000Z,I5926A03,5.83,0.15,Slab,S,0,27,64,30,nlloc,-41.0514,174.216,-39.4883,176.9169,6016538.56,2612205.51,6183331,2846839,7.6,7.6,287.59,300.32,284.45,297.49,-99999,-99999,0,85.51,82.13,nu,926A,C,651,Q3,0.07,Q3,5,Q3,0,-99999,-99999,1,0.35,15,0.595,15,HarvardCMT,0.004262899,0.004275846,0.004299345,0.004328887,0.004364887,0.004680846,0.005075696,0.005350189,0.005608138,0.006109216,0.006289026,0.006114815,0.004208727,0.001664939,0.001055428,0.000474649,-99999,-99999,-99999,-99999,-99999,-99999,0.005462292,0.005490441,0.005549102,0.005631407,0.005743132,0.006091684,0.006582107,0.007514384,0.007762972,0.008095031,0.008173079,0.00798051,0.005280683,0.002327046,0.001456122,0.000581359,-99999,-99999,-99999,-99999,-99999,-99999,0.004257,0.005447,0.002834,0.003776
722185,1995-03-22T19:43:30.268000Z,K5046A01,5.83,0.15,Slab,S,0,27,64,30,nlloc,-41.0514,174.216,-41.2709,173.2837,6016538.56,2612205.51,5992838,2533754,7.6,7.6,81.77,118.44,78.66,114.68,-99999,-99999,0,85.51,82.13,nu,NCBS,D,210,Q3,0.7,Q2,50,Q3,0,-99999,-99999,1,0.7,14,1.19,14,HarvardCMT,0.039016471,0.039224324,0.039586122,0.040154381,0.040824447,0.043249974,0.044143067,0.047691573,0.050807449,0.050470639,0.048670878,0.039240763,0.026553387,0.016159803,-99999,-99999,-99999,-99999,-99999,-99999,-99999,-99999,0.04378763,0.043961644,0.044250667,0.044685017,0.045302921,0.047545616,0.052321381,0.056137235,0.055238274,0.056962941,0.054559483,0.046557551,0.035461156,0.020853365,-99999,-99999,-99999,-99999,-99999,-99999,-99999,-99999,0.038739,0.043798,0.018358,0.023447
722185,1995-03-22T19:43:30.268000Z,K5087A01,5.83,0.15,Slab,S,0,27,64,30,nlloc,-41.0514,174.216,-39.7163,175.1455,6016538.56,2612205.51,6163232,2693941,7.6,7.6,168.04,188.46,165.17,186.14,-99999,-99999,0,85.51,82.13,nu,087A,B,1000,Q3,<0.1,Q3,0,Q2,0,-99999,-99999,1,0.5,20,0.85,20,HarvardCMT,0.057434914,0.058284421,0.059311339,0.060599154,0.063064892,0.069504308,0.082044655,0.083560771,0.078824,0.071524063,0.06694196,0.052909488,0.033640476,0.014368403,0.009425386,-99999,-99999,-99999,-99999,-99999,-99999,-99999,0.075040224,0.075921142,0.077578016,0.079526658,0.081878812,0.083294051,0.099634274,0.101217395,0.100990797,0.092937454,0.088928486,0.07176448,0.045447156,0.016455388,0.011092118,-99999,-99999,-99999,-99999,-99999,-99999,-99999,0.057253,0.07431,0.025754,0.03317
722185,1995-03-22T19:43:30.268000Z,K5087C01,5.83,0.15,Slab,S,0,27,64,30,nlloc,-41.0514,174.216,-39.7171,175.1382,6016538.56,2612205.51,6163158,2693314,7.6,7.6,167.67,188.13,164.8,185.82,-99999,-99999,0,85.51,82.13,nu,087C,C,425,Q3,0.33,Q3,30,Q3,0,-99999,-99999,1,0.7,14,1.19,14,HarvardCMT,0.064504282,0.064723675,0.065133354,0.065692171,0.066480284,0.070600302,0.076125647,0.086383923,0.088503964,0.086519853,0.084990657,0.070173269,0.060004763,0.029369246,-99999,-99999,-99999,-99999,-99999,-99999,-99999,-99999,0.071409388,0.071695472,0.07209472,0.072637483,0.073421527,0.076839699,0.083093281,0.09650678,0.104432265,0.105774795,0.102889034,0.085952734,0.071727556,0.039811356,-99999,-99999,-99999,-99999,-99999,-99999,-99999,-99999,0.064436,0.071363,0.034959,0.043902
722185,1995-03-22T19:43:30.268000Z,K5608A01,5.83,0.15,Slab,S,0,27,64,30,nlloc,-41.0514,174.216,-41.2241,174.8794,6016538.56,2612205.51,5996377,2667546,7.6,7.6,58.78,103.83,56.06,101.12,-99999,-99999,0,85.51,82.13,nu,608A,D,200,Q2,2,Q2,250,Q3,0,-99999,-99999,1,0.4,11,0.68,11,HarvardCMT,0.029279523,0.029362088,0.029497975,0.02973912,0.030101781,0.031475546,0.03329495,0.036045977,0.035824962,0.033176749,0.032951394,0.034650351,0.035001729,0.022485062,0.014130422,-99999,-99999,-99999,-99999,-99999,-99999,-99999,0.036004416,0.036131504,0.036333964,0.036701662,0.037192976,0.038815978,0.041844559,0.047212622,0.044117687,0.041109625,0.041488022,0.043383627,0.045908523,0.028899775,0.017373484,-99999,-99999,-99999,-99999,-99999,-99999,-99999,0.029264,0.035812,0.024995,0.030959
