CuspID,Origin_time,Record,Mw,MwUncert,TectClass,Mech,PreferredFaultPlane,Strike,Dip,Rake,Location,HypLat,HypLon,StationLat,StationLon,HypN,HypE,StationN,StationE,LENGTH_km,WIDTH_km,Repi_km,Rhyp_km,Rjb_km,Rrup_km,Rx_km,Ry_km,Rvol_km,HypDepth_km,ZTOR_km,HWFW,SiteCode,SiteClass1170,Vs30,Vs30Uncert,Tsite,TsiteUncert,Z1,Z1Uncertainty,Directivity,Pulse_or,Pulse_T,S_Trigger_Flag,fcButterHP,f_iniLP,fmin,fmax,References,f100.0000SA_Vert,f50.0000SA_Vert,f33.3333SA_Vert,f25.0000SA_Vert,f20.0000SA_Vert,f13.3333SA_Vert,f10.0000SA_Vert,f6.6667SA_Vert,f5.0000SA_Vert,f4.0000SA_Vert,f3.3333SA_Vert,f2.5000SA_Vert,f2.0000SA_Vert,f1.3333SA_Vert,f1.0000SA_Vert,f0.6667SA_Vert,f0.5000SA_Vert,f0.3333SA_Vert,f0.2500SA_Vert,f0.2000SA_Vert,f0.1333SA_Vert,f0.1000SA_Vert,PGA,PGV
2019057,2003-01-25T21:30:30.911999Z,20030125_213031_WCDS,5.22,0.15,Slab,N,0,252,51,-4.20E+01,simulps,-40.3372,176.1508,-39.9336,175.048,6091756.44,2777645.89,6139305,2685024,3.7,3.7,103.94,109.72,102.63,108.34,-99999,-99999,0,34.6,33.07,nu,WCDS,D,250,Q3,1,Q1,100,Q3,0,-99999,-99999,0,0.17,50,0.289,50,HarvardCMT,0.00504528,0.005660528,0.011576309,0.009453427,0.011211858,0.00864218,0.011938822,0.014116218,0.011782284,0.010896888,0.012701436,0.015075994,0.012709268,0.00919722,0.003222397,0.001126711,0.000923532,0.000783502,-9999,-9999,-9999,-9999,0.004962,0.002333
2019057,2003-01-25T21:30:30.911999Z,20030125_213031_WDPS,5.22,0.15,Slab,N,0,252,51,-4.20E+01,simulps,-40.3372,176.1508,-40.3382,175.8698,6091756.44,2777645.89,6092451,2753774,3.7,3.7,23.82,42.12,22.42,40.49,-99999,-99999,0,34.6,33.07,nu,WDPS,D,270,Q3,1,Q3,100,Q3,0,-99999,-99999,0,0.12,55,0.204,55,HarvardCMT,0.025660526,0.037317886,0.059063843,0.05862484,0.065536381,0.05698064,0.072067595,0.04930547,0.057388438,0.044304018,0.049242717,0.028428192,0.027983357,0.008711969,0.006453554,0.003034311,0.001767682,0.000667281,0.000327493,-9999,-9999,-9999,0.024985,0.00844
2019057,2003-01-25T21:30:30.911999Z,20030125_213031_WPWS,5.22,0.15,Slab,N,0,252,51,-4.20E+01,simulps,-40.3372,176.1508,-39.9439,176.5843,6091756.44,2777645.89,6133991,2816218,3.7,3.7,57.19,66.92,55.48,65.5,-99999,-99999,0,34.6,33.07,nu,WPWS,C,270,Q3,0.4,Q3,20,Q3,0,-99999,-99999,0,0.2,42,0.34,42,HarvardCMT,0.00335418,0.003417982,0.003783955,0.004304532,0.004972761,0.00684467,0.008219915,0.011005935,0.013239461,0.009270757,0.010422772,0.005315296,0.005049426,0.00402647,0.00227338,0.000606795,0.00057482,-9999,-9999,-9999,-9999,-9999,0.003344,0.001869
2095626,2003-08-03T11:46:13.974000Z,20030803_114614_BFZ,5.16,0.15,Slab,N,0,241,28,-7.10E+01,simulps,-40.4658,175.9793,-40.6796,176.2462,6077982.79,2762600.17,6053448,2784398,3.5,3.5,32.76,63.13,31.58,61.91,-99999,-99999,0,53.64,52.44,nu,BFZ,B,1000,Q3,0.83,Q2,0,Q2,0,-99999,-99999,0,0.13,46,0.221,46,HarvardCMT,0.003473558,0.003605264,0.004834812,0.005376814,0.00494005,0.005311412,0.010598572,0.011705331,0.006231573,0.009950922,0.005787389,0.006087892,0.007440871,0.002858827,0.001731586,0.001317108,0.000593036,0.000203877,0.000138578,-9999,-9999,-9999,0.00345,0.002031
2095626,2003-08-03T11:46:13.974000Z,20030803_114614_CPFS,5.16,0.15,Slab,N,0,241,28,-7.10E+01,simulps,-40.4658,175.9793,-40.8988,176.221,6077982.79,2762600.17,6029214,2781323,3.5,3.5,52.27,74.88,50.96,73.62,-99999,-99999,0,53.64,52.44,nu,CPFS,C,350,Q3,0.33,Q1,10,Q2,0,-99999,-99999,0,0.15,30,0.255,30,HarvardCMT,0.003489881,0.003517697,0.003562412,0.003912432,0.004184148,0.005098409,0.00979155,0.008334609,0.009845492,0.00750071,0.00719263,0.004066424,0.004296006,0.004326848,0.004886264,0.002089695,0.000970501,0.000279857,-9999,-9999,-9999,-9999,0.003478,0.002655
2095626,2003-08-03T11:46:13.974000Z,20030803_114614_DVHS,5.16,0.15,Slab,N,0,241,28,-7.10E+01,simulps,-40.4658,175.9793,-40.2017,176.1014,6077982.79,2762600.17,6106936,2773970,3.5,3.5,31.14,62.2,29.47,61.01,-99999,-99999,0,53.64,52.44,nu,DVHS,C,360,Q3,0.58,Q3,55,Q3,0,-99999,-99999,0,0.25,55,0.425,55,HarvardCMT,0.030153993,0.033043261,0.03736958,0.053626919,0.074488839,0.086156237,0.078331683,0.055717517,0.073132391,0.081420262,0.077686593,0.072670774,0.081268699,0.029687667,0.01057055,0.003805726,0.001985936,-9999,-9999,-9999,-9999,-9999,0.029633,0.01449
2095626,2003-08-03T11:46:13.974000Z,20030803_114614_EKTS,5.16,0.15,Slab,N,0,241,28,-7.10E+01,simulps,-40.4658,175.9793,-40.6495,175.7088,6077982.79,2762600.17,6058336,2739041,3.5,3.5,30.65,62,28.92,60.58,-99999,-99999,0,53.64,52.44,nu,EKTS,C,800,Q3,0.1,Q1,6,Q3,0,-99999,-99999,0,0.31,50,0.527,50,HarvardCMT,0.022159468,0.03621085,0.053132369,0.106296997,0.081395851,0.062116191,0.031591851,0.019263106,0.020142874,0.021449648,0.01362584,0.013177897,0.006278933,0.003429047,0.001347277,0.000953027,-9999,-9999,-9999,-9999,-9999,-9999,0.021498,0.00256
2095626,2003-08-03T11:46:13.974000Z,20030803_114614_FAHS,5.16,0.15,Slab,N,0,241,28,-7.10E+01,simulps,-40.4658,175.9793,-40.2135,175.573,6077982.79,2762600.17,6107067,2728976,3.5,3.5,44.42,69.73,43.25,68.66,-99999,-99999,0,53.64,52.44,nu,FAHS,D,270,Q3,0.67,Q1,60,Q3,0,-99999,-99999,0,0.13,50,0.221,50,HarvardCMT,0.011786544,0.014573337,0.041557593,0.024718695,0.020074668,0.028796442,0.020320412,0.012656415,0.010899172,0.012895619,0.010800222,0.008335567,0.006485747,0.005603822,0.006685625,0.006061412,0.00305816,0.001245267,0.000618588,-9999,-9999,-9999,0.010673,0.0039
2095626,2003-08-03T11:46:13.974000Z,20030803_114614_KFHS,5.16,0.15,Slab,N,0,241,28,-7.10E+01,simulps,-40.4658,175.9793,-39.4334,176.467,6077982.79,2762600.17,6191022,2808405,3.5,3.5,122.1,133.41,120.42,131.86,-99999,-99999,0,53.64,52.44,nu,KFHS,C,760,Q3,1.25,Q2,10,Q3,0,-99999,-99999,0,0.3,50,0.51,50,HarvardCMT,0.005883224,0.006107621,0.00646112,0.006906158,0.007521752,0.008235543,0.012424396,0.018747894,0.015946049,0.010915905,0.009096013,0.005353417,0.004338509,0.001451702,0.000695013,0.000348704,-9999,-9999,-9999,-9999,-9999,-9999,0.005861,0.001502
2095626,2003-08-03T11:46:13.974000Z,20030803_114614_MNGS,5.16,0.15,Slab,N,0,241,28,-7.10E+01,simulps,-40.4658,175.9793,-39.8079,175.7909,6077982.79,2762600.17,6151518,2748932,3.5,3.5,74.89,92.23,73.48,90.99,-99999,-99999,0,53.64,52.44,nu,MNGS,D,270,Q3,0.8,Q2,80,Q3,0,-99999,-99999,0,0.33,47,0.561,47,HarvardCMT,0.014953239,0.017857252,0.024885366,0.036614416,0.037243516,0.043456988,0.033681456,0.039169032,0.034176058,0.040707885,0.033010214,0.032468589,0.033079742,0.018744216,0.007684878,0.001778206,-9999,-9999,-9999,-9999,-9999,-9999,0.014587,0.00647
2095626,2003-08-03T11:46:13.974000Z,20030803_114614_MRZ,5.16,0.15,Slab,N,0,241,28,-7.10E+01,simulps,-40.4658,175.9793,-40.6605,175.5785,6077982.79,2762600.17,6057434,2728040,3.5,3.5,40.19,67.27,38.48,65.79,-99999,-99999,0,53.64,52.44,nu,MRZ,B,800,Q3,0.33,Q2,0,Q1,0,-99999,-99999,0,0.2,50,0.34,50,HarvardCMT,0.005519477,0.006928685,0.012218593,0.011104935,0.026116065,0.007873552,0.006629427,0.006952884,0.006176351,0.00744739,0.006401007,0.00432485,0.003245815,0.001662431,0.001086978,0.000733089,0.000299048,-9999,-9999,-9999,-9999,-9999,0.005341,0.001042
2095626,2003-08-03T11:46:13.974000Z,20030803_114614_OTKS,5.16,0.15,Slab,N,0,241,28,-7.10E+01,simulps,-40.4658,175.9793,-40.7549,175.1438,6077982.79,2762600.17,6047957,2690990,3.5,3.5,77.5,94.38,75.84,92.78,-99999,-99999,0,53.64,52.44,nu,OTKS,D,210,Q3,2,Q1,180,Q3,0,-99999,-99999,0,0.45,39,0.765,39,HarvardCMT,0.003760542,0.003915274,0.005350076,0.008323748,0.011370783,0.008940509,0.008414683,0.010273252,0.006433862,0.004663021,0.002961878,0.002241472,0.002226105,0.001228426,0.001009617,-9999,-9999,-9999,-9999,-9999,-9999,-9999,0.003718,0.000939
2095626,2003-08-03T11:46:13.974000Z,20030803_114614_PGFS,5.16,0.15,Slab,N,0,241,28,-7.10E+01,simulps,-40.4658,175.9793,-40.3022,176.6118,6077982.79,2762600.17,6094139,2816941,3.5,3.5,56.57,78.06,54.95,76.67,-99999,-99999,0,53.64,52.44,nu,PGFS,D,210,Q3,0.67,Q1,50,Q3,0,-99999,-99999,0,0.18,25,0.306,25,HarvardCMT,0.021181762,0.021282786,0.021422061,0.021649747,0.021190339,0.022373348,0.026077322,0.032869873,0.059651706,0.090913575,0.055969638,0.036024966,0.031424815,0.013329357,0.010185884,0.002587241,0.001950032,0.00054189,-9999,-9999,-9999,-9999,0.021162,0.00995
2095626,2003-08-03T11:46:13.974000Z,20030803_114614_PNBS,5.16,0.15,Slab,N,0,241,28,-7.10E+01,simulps,-40.4658,175.9793,-40.3489,175.6076,6077982.79,2762600.17,6091952,2731469,3.5,3.5,34.05,63.61,32.81,62.47,-99999,-99999,0,53.64,52.44,nu,PNBS,D,270,Q3,0.7,Q3,60,Q3,0,-99999,-99999,0,0.13,43,0.221,43,HarvardCMT,0.01841661,0.024710148,0.063401626,0.068530001,0.039062395,0.020772598,0.034381164,0.030062027,0.017818406,0.035824798,0.025017741,0.014467039,0.012518715,0.008573169,0.007218882,0.006598271,0.003169178,0.001395931,0.00045514,-9999,-9999,-9999,0.017431,0.00475
2095626,2003-08-03T11:46:13.974000Z,20030803_114614_THPS,5.16,0.15,Slab,N,0,241,28,-7.10E+01,simulps,-40.4658,175.9793,-39.6768,175.8014,6077982.79,2762600.17,6166038,2750292,3.5,3.5,89.04,104.06,87.6,102.77,-99999,-99999,0,53.64,52.44,nu,THPS,D,270,Q3,1,Q3,80,Q3,0,-99999,-99999,0,0.3,40,0.51,40,HarvardCMT,0.010349272,0.0107142,0.012147574,0.016794664,0.013177744,0.020797082,0.033192192,0.033529817,0.021478787,0.015236944,0.015160218,0.011781545,0.008767045,0.004152345,0.003693345,0.001017806,-9999,-9999,-9999,-9999,-9999,-9999,0.010265,0.003147
2095626,2003-08-03T11:46:13.974000Z,20030803_114614_WAKS,5.16,0.15,Slab,N,0,241,28,-7.10E+01,simulps,-40.4658,175.9793,-39.7727,176.2517,6077982.79,2762600.17,6154073,2788506,3.5,3.5,80.47,96.88,78.82,95.44,-99999,-99999,0,53.64,52.44,nu,WAKS,C,555,Q3,0.1,Q3,6,Q3,0,-99999,-99999,0,0.3,30,0.51,30,HarvardCMT,0.020375601,0.020648262,0.021243088,0.023210868,0.023021902,0.039588997,0.0357397,0.048284129,0.051543814,0.050953921,0.055523739,0.028942187,0.028075632,0.007659466,0.005439076,0.001708857,-9999,-9999,-9999,-9999,-9999,-9999,0.020245,0.0077
2095626,2003-08-03T11:46:13.974000Z,20030803_114614_WBFS,5.16,0.15,Slab,N,0,241,28,-7.10E+01,simulps,-40.4658,175.9793,-40.4009,176.3111,6077982.79,2762600.17,6084187,2790992,3.5,3.5,29,61.12,27.41,59.85,-99999,-99999,0,53.64,52.44,nu,WBFS,B,800,Q3,<0.1,Q3,3,Q3,0,-99999,-99999,0,0.28,45,0.476,45,HarvardCMT,0.004994191,0.005192803,0.006751025,0.008265745,0.010721358,0.01864656,0.01540921,0.012100797,0.01288052,0.009254346,0.010483579,0.010279553,0.00675361,0.004963491,0.00369613,0.001552133,0.000853806,-9999,-9999,-9999,-9999,-9999,0.004954,0.001998
2095626,2003-08-03T11:46:13.974000Z,20030803_114614_WCDS,5.16,0.15,Slab,N,0,241,28,-7.10E+01,simulps,-40.4658,175.9793,-39.9336,175.048,6077982.79,2762600.17,6139305,2685024,3.5,3.5,98.78,112.5,97.62,111.28,-99999,-99999,0,53.64,52.44,nu,WCDS,D,250,Q3,1,Q1,100,Q3,0,-99999,-99999,0,0.3,45,0.51,45,HarvardCMT,0.005372108,0.00697263,0.017499844,0.012900777,0.01544998,0.016117098,0.010154214,0.010465935,0.007493026,0.007794241,0.00706402,0.003896662,0.005656824,0.002346185,0.000998765,0.000778292,-9999,-9999,-9999,-9999,-9999,-9999,0.005144,0.001389
2095626,2003-08-03T11:46:13.974000Z,20030803_114614_WDPS,5.16,0.15,Slab,N,0,241,28,-7.10E+01,simulps,-40.4658,175.9793,-40.3382,175.8698,6077982.79,2762600.17,6092451,2753774,3.5,3.5,16.95,56.34,15.73,55.33,-99999,-99999,0,53.64,52.44,nu,WDPS,D,270,Q3,1,Q3,100,Q3,0,-99999,-99999,0,0.32,50,0.544,50,HarvardCMT,0.031339275,0.038918602,0.04115779,0.072037716,0.07761556,0.110299021,0.049399638,0.032842276,0.046582219,0.038219476,0.025966313,0.022673113,0.026343185,0.013776632,0.009007919,0.002276177,-9999,-9999,-9999,-9999,-9999,-9999,0.029847,0.00631
2095626,2003-08-03T11:46:13.974000Z,20030803_114614_WPWS,5.16,0.15,Slab,N,0,241,28,-7.10E+01,simulps,-40.4658,175.9793,-39.9439,176.5843,6077982.79,2762600.17,6133991,2816218,3.5,3.5,77.51,94.36,75.78,92.84,-99999,-99999,0,53.64,52.44,nu,WPWS,C,270,Q3,0.4,Q3,20,Q3,0,-99999,-99999,0,0.28,44,0.476,44,HarvardCMT,0.004505329,0.004532668,0.004596379,0.005159558,0.005434179,0.010170547,0.010451761,0.010792399,0.014418425,0.010595246,0.016483497,0.009840826,0.007793555,0.003496082,0.002562386,0.000811289,0.000362322,-9999,-9999,-9999,-9999,-9999,0.004495,0.002125
2169849,2003-08-21T14:12:27.344999Z,20030821_141227_HDWS,6.05,0.1,Interface,R,1,12,23,72,simulps,-45.2837,166.7828,-43.883,169.0441,5528703.48,2022632.49,5695156,2192230,13.2,13.2,237.32,239.82,230.88,233.62,137.37,198.08,0,32.31,29.73,nu,HDWS,D,210,Q3,0.87,Q1,100,Q3,0,-99999,-99999,0,0.1,22,0.17,22,Ristau2013,0.006528801,0.006576069,0.006861341,0.007464086,0.010386039,0.022691854,0.016516062,0.012889304,0.019057749,0.015411819,0.016288481,0.014328421,0.007206902,0.004360674,0.003065971,0.000945961,0.001141012,0.000790596,0.000443896,0.000204009,-9999,-9999,0.006514,0.002708
2169849,2003-08-21T14:12:27.344999Z,20030821_141227_JCWJ,6.05,0.1,Interface,R,1,12,23,72,simulps,-45.2837,166.7828,-43.9723,168.6118,5528703.48,2022632.49,5683485,2158097,13.2,13.2,205.44,208.21,198.96,201.99,106.4,179.56,0,32.31,29.73,nu,JCWJ,B,1000,Q3,<0.1,Q3,2,Q3,0,-99999,-99999,0,0.17,35,0.289,35,Ristau2013,0.006443779,0.006664373,0.008094425,0.008551358,0.010536961,0.014941845,0.017139813,0.024131411,0.013342588,0.012984258,0.014322185,0.009232302,0.006683472,0.004171767,0.003278736,0.001640217,0.00170469,0.000358121,-9999,-9999,-9999,-9999,0.006402,0.003183
2169849,2003-08-21T14:12:27.344999Z,20030821_141227_MANS,6.05,0.1,Interface,R,1,12,23,72,simulps,-45.2837,166.7828,-45.5212,167.2781,5528703.48,2022632.49,5505204,2063228,13.2,13.2,46.83,57.11,40.7,53.7,50.68,-14.55,0,32.31,29.73,hw,MANS,A,1500,Q3,-1,Q3,0,Q3,0,-99999,-99999,0,0.12,38,0.204,38,Ristau2013,0.063234266,0.064227597,0.064602764,0.085384995,0.088602111,0.084471018,0.101873724,0.24300606,0.197737219,0.142749869,0.128114851,0.087687984,0.039969745,0.031499303,0.012599955,0.008479907,0.005558072,0.001620039,0.001087593,-9999,-9999,-9999,0.062742,0.02271
2169849,2003-08-21T14:12:27.344999Z,20030821_141227_MOSS,6.05,0.1,Interface,R,1,12,23,72,simulps,-45.2837,166.7828,-45.6678,168.2378,5528703.48,2022632.49,5493734,2138997,13.2,13.2,121.22,125.81,115.15,120.66,127.17,-10.01,0,32.31,29.73,nu,MOSS,C,400,Q3,0.4,Q3,40,Q3,0,-99999,-99999,0,0.15,50,0.255,50,Ristau2013,0.009123799,0.009888993,0.018513918,0.019217824,0.015969123,0.014794133,0.013265625,0.014679086,0.017687301,0.018346232,0.013247945,0.016453403,0.019337236,0.009967562,0.016251941,0.003464774,0.002050096,0.000780749,-9999,-9999,-9999,-9999,0.009017,0.005323
2169849,2003-08-21T14:12:27.344999Z,20030821_141227_QTPS,6.05,0.1,Interface,R,1,12,23,72,simulps,-45.2837,166.7828,-45.0322,168.6629,5528703.48,2022632.49,5566104,2168345,13.2,13.2,150.04,153.94,143.87,148.41,140.83,66.88,0,32.31,29.73,nu,QTPS,D,350,Q3,0.95,Q1,90,Q3,0,-99999,-99999,0,0.1,43,0.17,43,Ristau2013,0.017099684,0.017254879,0.017719752,0.017678629,0.0204845,0.031317306,0.035753241,0.044611532,0.052825313,0.065483481,0.051357138,0.030448631,0.037181141,0.011004576,0.013695889,0.002970291,0.00164484,0.000918438,0.000491077,0.000303442,-9999,-9999,0.017054,0.00884
2169849,2003-08-21T14:12:27.344999Z,20030821_141227_TAFS,6.05,0.1,Interface,R,1,12,23,72,simulps,-45.2837,166.7828,-45.4167,167.7191,5528703.48,2022632.49,5519112,2096857,13.2,13.2,74.64,81.61,68.58,77.2,80.68,6.05,0,32.31,29.73,nu,TAFS,D,298,Q3,1.4,Q3,200,Q3,0,-99999,-99999,0,0.08,50,0.136,50,Ristau2013,0.040028821,0.040135492,0.063825841,0.103212156,0.086232878,0.074318945,0.07876389,0.084183671,0.062890291,0.04553503,0.034427833,0.024272743,0.01953294,0.01902321,0.028849588,0.023015365,0.01526608,0.005102882,0.003425398,0.0018197,-9999,-9999,0.039725,0.016
2169849,2003-08-21T14:12:27.344999Z,20030821_141227_WNPS,6.05,0.1,Interface,R,1,12,23,72,simulps,-45.2837,166.7828,-44.6946,169.143,5528703.48,2022632.49,5605452,2204373,13.2,13.2,196.81,199.96,190.57,194.14,167.89,112.86,0,32.31,29.73,nu,WNPS,D,330,Q3,2.1,Q3,300,Q3,0,-99999,-99999,0,0.23,40,0.391,40,Ristau2013,0.005921686,0.005950883,0.006139153,0.006202637,0.006672021,0.012800676,0.012418554,0.011550633,0.012930699,0.00927214,0.011230393,0.011368582,0.013771713,0.014966847,0.019749917,0.013864061,0.005956005,-9999,-9999,-9999,-9999,-9999,0.005912,0.01009
2206498,2003-08-21T19:56:23.027999Z,20030821_195622_MANS,5.27,0.1,Interface,R,1,44,41,67,simulps,-45.2158,166.8107,-45.5212,167.2781,5536386.51,2024239.46,5505204,2063228,5.4,5.4,49.86,59.52,47.83,58.81,51.74,4.65,0,32.14,30.37,nu,MANS,A,1500,Q3,-1,Q3,0,Q3,0,-99999,-99999,0,0.4,35,0.68,35,Ristau2013,0.0047327,0.00486243,0.005866332,0.006892073,0.009368193,0.009469999,0.010143071,0.016972465,0.007866032,0.006803777,0.008193915,0.008744317,0.003573523,0.001091675,0.00069745,-9999,-9999,-9999,-9999,-9999,-9999,-9999,0.004679,0.001712
2206498,2003-08-21T19:56:23.027999Z,20030821_195622_TAFS,5.27,0.1,Interface,R,1,44,41,67,simulps,-45.2158,166.8107,-45.4167,167.7191,5536386.51,2024239.46,5519112,2096857,5.4,5.4,74.46,81.36,72.25,79.84,66.27,38.02,0,32.14,30.37,nu,TAFS,D,298,Q3,1.4,Q3,200,Q3,0,-99999,-99999,0,0.35,40,0.595,40,Ristau2013,0.004127556,0.00470437,0.01134611,0.014577789,0.012976156,0.009380547,0.008369404,0.009350385,0.00720676,0.00599537,0.003831554,0.004037141,0.003802567,0.00208539,0.001536726,0.001068585,-9999,-9999,-9999,-9999,-9999,-9999,0.004028,0.001312
2218435,2003-08-22T00:02:22.995000Z,20030822_000221_MANS,5.2,0.1,Interface,O,1,23,25,63,nlloc,-45.2185,167.009,-45.5212,167.2781,5537250.66,2039797.22,5505204,2063228,5,5,39.68,43.18,37.37,41.42,36.34,-20.34,0,16.72,15.67,hw,MANS,A,1500,Q3,-1,Q3,0,Q3,0,-99999,-99999,0,0.3,35,0.51,35,Ristau2013,0.00765828,0.007903716,0.008310706,0.009710677,0.011410331,0.011631333,0.023681216,0.016114744,0.017370602,0.012778164,0.008866228,0.008891307,0.004983241,0.005479461,0.001937073,0.001196625,-9999,-9999,-9999,-9999,-9999,-9999,0.007604,0.003417
2218435,2003-08-22T00:02:22.995000Z,20030822_000221_TAFS,5.2,0.1,Interface,O,1,23,25,63,nlloc,-45.2185,167.009,-45.4167,167.7191,5537250.66,2039797.22,5519112,2096857,5,5,59.74,62.22,57.49,60.36,61.86,5.6,0,16.72,15.67,nu,TAFS,D,298,Q3,1.4,Q3,200,Q3,0,-99999,-99999,0,0.3,40,0.51,40,Ristau2013,0.004462434,0.005096075,0.011304528,0.016187707,0.013183825,0.008380812,0.006884404,0.006283891,0.014189579,0.00481598,0.005909465,0.004873485,0.005056697,0.007303659,0.006716705,0.004252665,-9999,-9999,-9999,-9999,-9999,-9999,0.00433,0.002944
2254800,2003-08-22T15:29:33.165999Z,20030822_152933_MANS,4.98,0.1,Interface,R,1,52,43,79,simulps,-45.1538,166.8993,-45.5212,167.2781,5543781.06,2030670.83,5505204,2063228,3.9,3.9,50.45,63.5,49.04,63.2,51.85,1.9,0,38.26,36.95,nu,MANS,A,1500,Q3,-1,Q3,0,Q3,0,-99999,-99999,0,0.4,30,0.68,30,Ristau2013,0.004240247,0.004396981,0.004915046,0.00568784,0.007058636,0.008824569,0.00951816,0.015652848,0.010418331,0.008341379,0.005620798,0.004927007,0.003031287,0.001011499,0.000401718,-9999,-9999,-9999,-9999,-9999,-9999,-9999,0.004207,0.001434
2254800,2003-08-22T15:29:33.165999Z,20030822_152933_TAFS,4.98,0.1,Interface,R,1,52,43,79,simulps,-45.1538,166.8993,-45.4167,167.7191,5543781.06,2030670.83,5519112,2096857,3.9,3.9,70.48,80.44,68.92,79.47,61.6,36.97,0,38.26,36.95,nu,TAFS,D,298,Q3,1.4,Q3,200,Q3,0,-99999,-99999,0,0.5,55,0.85,55,Ristau2013,0.004914856,0.005526408,0.006918285,0.008106575,0.008808167,0.013681088,0.010419348,0.015648795,0.00864955,0.006169053,0.004515226,0.002814058,0.002544729,0.002231626,0.001532038,-9999,-9999,-9999,-9999,-9999,-9999,-9999,0.004679,0.000906
2281164,2003-08-23T09:13:54.753000Z,20030823_091354_DCZ,5.51,0.1,Interface,R,1,80,40,122,simulps,-45.3183,166.8238,-45.4647,167.1535,5525105.49,2026131.01,5510775,2053118,7.1,7.1,30.46,45.62,27.22,43.77,21.52,24.09,0,33.81,31.53,nu,DCZ,A,1500,Q3,-1,Q1,0,Q1,0,-99999,-99999,0,0.4,43,0.68,43,Ristau2013,0.030360468,0.042756738,0.088923313,0.095554501,0.092024964,0.02617662,0.015625094,0.010884941,0.011159327,0.0093427,0.00570396,0.006417481,0.005937486,0.006028037,0.002203998,-9999,-9999,-9999,-9999,-9999,-9999,-9999,0.02843,0.002719
