CuspID,Origin_time,Record,Mw,MwUncert,TectClass,Mech,PreferredFaultPlane,Strike,Dip,Rake,Location,HypLat,HypLon,StationLat,StationLon,HypN,HypE,StationN,StationE,LENGTH_km,WIDTH_km,Repi_km,Rhyp_km,Rjb_km,Rrup_km,Rx_km,Ry_km,Rvol_km,HypDepth_km,ZTOR_km,HWFW,SiteCode,SiteClass1170,Vs30,Vs30Uncert,Tsite,TsiteUncert,Z1,Z1Uncertainty,Directivity,Pulse_or,Pulse_T,S_Trigger_Flag,fcButterHP,f_iniLP,fmin,fmax,References,f100.0000SA_RotD50,f50.0000SA_RotD50,f33.3333SA_RotD50,f25.0000SA_RotD50,f20.0000SA_RotD50,f13.3333SA_RotD50,f10.0000SA_RotD50,f6.6667SA_RotD50,f5.0000SA_RotD50,f4.0000SA_RotD50,f3.3333SA_RotD50,f2.5000SA_RotD50,f2.0000SA_RotD50,f1.3333SA_RotD50,f1.0000SA_RotD50,f0.6667SA_RotD50,f0.5000SA_RotD50,f0.3333SA_RotD50,f0.2500SA_RotD50,f0.2000SA_RotD50,f0.1333SA_RotD50,f0.1000SA_RotD50,f100.0000SA_RotD100,f50.0000SA_RotD100,f33.3333SA_RotD100,f25.0000SA_RotD100,f20.0000SA_RotD100,f13.3333SA_RotD100,f10.0000SA_RotD100,f6.6667SA_RotD100,f5.0000SA_RotD100,f4.0000SA_RotD100,f3.3333SA_RotD100,f2.5000SA_RotD100,f2.0000SA_RotD100,f1.3333SA_RotD100,f1.0000SA_RotD100,f0.6667SA_RotD100,f0.5000SA_RotD100,f0.3333SA_RotD100,f0.2500SA_RotD100,f0.2000SA_RotD100,f0.1333SA_RotD100,f0.1000SA_RotD100,PGA_RotD50,PGA_RotD100,PGV_RotD50,PGV_RotD100
771645,1995-11-24T06:18:56.622999Z,D5505A37,6.19,0.08,Crustal,O,1,176,46,44,geonet,-42.953,171.8188,-42.9489,171.5677,5805359.34,2413627.76,5805487,2393135,11.44,11.44,20.44,22,18.34,21,22.52,-1.56,0,7.26,5.1,hw,APPS,C,300,Q2,0.4,Q1,30,Q2,0,-99999,-99999,0,0.29,20,0.493,20,Gledhill_etal_2000,0.133423584,0.134250678,0.135823317,0.138174408,0.140227968,0.144688198,0.151622057,0.162073763,0.150303099,0.122088665,0.107672286,0.080682806,0.070148765,0.04638008,0.025788295,0.011144749,0.005695321,-99999,-99999,-99999,-99999,-99999,0.150404671,0.152310604,0.154322221,0.157373077,0.1618157,0.167986054,0.173567718,0.188540895,0.165859428,0.140790966,0.118560546,0.10039503,0.080465073,0.050636908,0.028820038,0.014495838,0.007590971,-99999,-99999,-99999,-99999,-99999,0.132025,0.149811,0.066529,0.086571
771645,1995-11-24T06:18:56.622999Z,D6051D01,6.19,0.08,Crustal,O,1,176,46,44,geonet,-42.953,171.8188,-41.7557,171.5998,5805359.34,2413627.76,5938069,2393545,11.44,11.44,134.35,134.42,128.36,128.45,12.86,-133.79,0,7.26,5.1,nu,WBCS,D,300,Q3,1.2,Q2,105,Q3,0,-99999,-99999,0,0.2,20,0.34,20,Gledhill_etal_2000,0.018582692,0.018630465,0.018740108,0.01890543,0.019024163,0.019539211,0.020052343,0.019200123,0.019234383,0.01963458,0.01943816,0.018293323,0.016738738,0.012217517,0.009152001,0.005118993,0.003283061,-99999,-99999,-99999,-99999,-99999,0.023442591,0.023553666,0.02367924,0.023955976,0.024332864,0.025784046,0.026640235,0.024946013,0.024754524,0.023631645,0.021614988,0.019477772,0.018560214,0.014991965,0.01142349,0.006519801,0.004009982,-99999,-99999,-99999,-99999,-99999,0.018493,0.023427,0.015306,0.017548
771645,1995-11-24T06:18:56.622999Z,D6129A01,6.19,0.08,Crustal,O,1,176,46,44,geonet,-42.953,171.8188,-41.7999,172.328,5805359.34,2413627.76,5933893,2454147,11.44,11.44,134.87,134.97,129.24,129.34,-47.3,-125.39,0,7.26,5.1,nu,MCAS,D,501,Q3,1.6,Q3,200,Q3,0,-99999,-99999,1,0.2,10,0.34,10,Gledhill_etal_2000,0.018073129,0.018095764,0.01813336,0.018194693,0.018276466,0.018563942,0.019104806,0.020188908,0.020198072,0.020368043,0.019949104,0.019547665,0.019231053,0.018324937,0.016530053,0.011216505,0.007338509,-99999,-99999,-99999,-99999,-99999,0.022481885,0.022512804,0.022547461,0.022584663,0.022651038,0.02282895,0.022950072,0.023921123,0.024645262,0.024274251,0.023365654,0.021990891,0.022317276,0.023152229,0.021624175,0.013367716,0.008326159,-99999,-99999,-99999,-99999,-99999,0.018047,0.022471,0.028369,0.03326
771645,1995-11-24T06:18:56.622999Z,K5112B01,6.19,0.08,Crustal,O,1,176,46,44,geonet,-42.953,171.8188,-43.1325,171.7693,5805359.34,2413627.76,5785358,2409884,11.44,11.44,20.36,21.83,14.58,16.61,7.21,19.69,0,7.26,5.1,nu,112B,C,667,Q3,0.36,Q3,60,Q3,0,-99999,-99999,1,0.25,20,0.425,20,Gledhill_etal_2000,0.137132893,0.138726581,0.14162119,0.144210305,0.148550568,0.156803036,0.160950222,0.161245255,0.143080048,0.113163311,0.089108546,0.060365394,0.04089804,0.023368205,0.01631524,0.010137845,0.006788386,-99999,-99999,-99999,-99999,-99999,0.155244542,0.156159992,0.159022147,0.161561631,0.163386009,0.167998158,0.170406176,0.175668172,0.162285318,0.127827264,0.094068592,0.079179189,0.057370617,0.029948222,0.01933193,0.013984301,0.008497563,-99999,-99999,-99999,-99999,-99999,0.136134,0.153001,0.051684,0.068418
1037562,1996-08-29T04:47:00.878000Z,D6042A01,5.25,0.15,Crustal,S,0,317,67,-2.00E+01,geonet,-42.4891,172.7921,-42.5232,172.8305,5857551.8,2492912.82,5853765,2496076,3.9,3.9,4.93,10.98,3.66,9.43,-99999,-99999,0,9.43,7.61,nu,HSES,D,280,Q3,0.9,Q1,85,Q3,0,-99999,-99999,0,0.2,18,0.34,18,HarvardCMT,0.237059449,0.237281349,0.237608962,0.238814774,0.239462116,0.238903386,0.245429834,0.256441892,0.249177757,0.24659045,0.256524713,0.24519103,0.222404408,0.181371059,0.15209216,0.08025164,0.046571057,-99999,-99999,-99999,-99999,-99999,0.274400911,0.275379808,0.277097576,0.278312864,0.280038246,0.280003759,0.280995687,0.277267295,0.28143701,0.281338504,0.274397423,0.261286254,0.236840434,0.200860172,0.1615343,0.093979056,0.055444621,-99999,-99999,-99999,-99999,-99999,0.236709,0.274839,0.238508,0.283921
1348340,1999-01-03T07:00:20.568000Z,D9131A03,5.22,0.15,Slab,N,1,211,80,-8.30E+01,nlloc,-41.0938,174.519,-40.9143,175.005,6011432.3,2637591.18,6030534,2678862,3.7,3.7,45.4,72.68,43.85,70.85,-25.21,-37.63,0,56.68,54.84,nu,PAPS,D,200,Q3,1.4,Q1,100,Q3,0,-99999,-99999,0,0.4,15,0.68,15,HarvardCMT,0.025595847,0.025898493,0.026339649,0.026893162,0.02769917,0.03002794,0.031644248,0.030204187,0.024741093,0.019341124,0.014838009,0.010672625,0.009187041,0.007923168,0.005865547,-99999,-99999,-99999,-99999,-99999,-99999,-99999,0.027340769,0.027602182,0.027898383,0.028309952,0.028953237,0.031714331,0.03395,0.031813889,0.026327478,0.022056794,0.01819684,0.013258783,0.0101017,0.008713219,0.007206246,-99999,-99999,-99999,-99999,-99999,-99999,-99999,0.025641,0.027261,0.012535,0.014003
1348340,1999-01-03T07:00:20.568000Z,D9469A01,5.22,0.15,Slab,N,1,211,80,-8.30E+01,nlloc,-41.0938,174.519,-41.2117,174.9033,6011432.3,2637591.18,5997711,2669586,3.7,3.7,34.75,66.53,34.35,64.79,-34.17,-4.72,0,56.68,54.84,nu,LHES,D,240,Q3,1.16,Q3,280,Q3,0,-99999,-99999,0,0.35,12.5,0.595,12.5,HarvardCMT,0.018467473,0.018498894,0.01854864,0.018574719,0.018603194,0.018381149,0.018618301,0.019876904,0.020669258,0.020915473,0.020668951,0.019156224,0.0169408,0.011264544,0.007312455,0.00328431,-99999,-99999,-99999,-99999,-99999,-99999,0.026116005,0.026146888,0.026231704,0.026262039,0.026309016,0.02599231,0.025851528,0.027827932,0.029111561,0.029560377,0.029207424,0.027085203,0.023928169,0.015920196,0.010342452,0.004633774,-99999,-99999,-99999,-99999,-99999,-99999,0.018481,0.026135,0.01573,0.02148
1348340,1999-01-03T07:00:20.568000Z,D9643B07,5.22,0.15,Slab,N,1,211,80,-8.30E+01,nlloc,-41.0938,174.519,-41.1513,174.9794,6011432.3,2637591.18,6004275,2676112,3.7,3.7,39.09,68.98,38.4,67.25,-36.38,-13.7,0,56.68,54.84,nu,643B,B,1000,Q3,<0.1,Q3,1.50E+00,Q3,0,-99999,-99999,0,0.45,18,0.765,18,HarvardCMT,0.027436472,0.028003412,0.028847276,0.029905279,0.031392467,0.034339132,0.034258306,0.031425004,0.026678304,0.019937834,0.01452036,0.00878732,0.006611414,0.004282594,0.002680776,-99999,-99999,-99999,-99999,-99999,-99999,-99999,0.036165455,0.036303614,0.03684546,0.037349272,0.037746131,0.03934784,0.041640256,0.042771923,0.037214505,0.028015544,0.020506242,0.012142741,0.007602937,0.005615023,0.003445369,-99999,-99999,-99999,-99999,-99999,-99999,-99999,0.027619,0.036236,0.008702,0.010464
1348340,1999-01-03T07:00:20.568000Z,D9644C05,5.22,0.15,Slab,N,1,211,80,-8.30E+01,nlloc,-41.0938,174.519,-41.2187,174.8826,6011432.3,2637591.18,5996970,2667828,3.7,3.7,33.46,65.85,33.1,64.1,-33.04,-3.18,0,56.68,54.84,nu,644C,D,189,Q3,2,Q3,250,Q3,0,-99999,-99999,0,0.3,18,0.51,18,HarvardCMT,0.019722211,0.019795435,0.019885042,0.01991033,0.01986753,0.020890183,0.022337382,0.024227751,0.022573085,0.020304242,0.019180047,0.017385575,0.014963734,0.00893841,0.005642944,0.002795221,-99999,-99999,-99999,-99999,-99999,-99999,0.027186848,0.027238948,0.027260531,0.027237205,0.027244023,0.029435212,0.031525549,0.033916955,0.03182064,0.028711157,0.027008163,0.024132806,0.020029526,0.011015905,0.007663043,0.003837346,-99999,-99999,-99999,-99999,-99999,-99999,0.019756,0.027164,0.011757,0.016601
1348340,1999-01-03T07:00:20.568000Z,D9900C01,5.22,0.15,Slab,N,1,211,80,-8.30E+01,nlloc,-41.0938,174.519,-41.2891,174.7799,6011432.3,2637591.18,5989335,2659058,3.7,3.7,30.79,64.52,30.25,62.73,-29.46,7.88,0,56.68,54.84,nu,900C,D,250,Q3,0.8,Q3,60,Q3,0,-99999,-99999,0,0.52,10,0.884,10,HarvardCMT,0.017107602,0.017166253,0.017288929,0.017431187,0.017585724,0.01822851,0.018924886,0.018655985,0.019482051,0.020223438,0.019906858,0.016228753,0.011955648,0.005963548,0.003736908,-99999,-99999,-99999,-99999,-99999,-99999,-99999,0.020878937,0.021032298,0.021194643,0.021369623,0.021686505,0.022252732,0.021816048,0.020113426,0.0219431,0.022542743,0.021643948,0.019093398,0.014090145,0.008144141,0.005271795,-99999,-99999,-99999,-99999,-99999,-99999,-99999,0.017089,0.02082,0.011181,0.013802
1348340,1999-01-03T07:00:20.568000Z,G9713A02,5.22,0.15,Slab,N,1,211,80,-8.30E+01,nlloc,-41.0938,174.519,-41.1257,174.8392,6011432.3,2637591.18,6007373,2664412,3.7,3.7,27.06,62.84,26.34,61.02,-24.76,-10.33,0,56.68,54.84,nu,713A,D,210,Q3,0.6,Q3,40,Q3,0,-99999,-99999,0,0.6,12.5,1.02,12.5,HarvardCMT,0.020863393,0.021005616,0.021258145,0.021598334,0.022208942,0.023750678,0.025188532,0.024545309,0.02179474,0.017554181,0.016298677,0.015847064,0.014777522,0.010192867,-99999,-99999,-99999,-99999,-99999,-99999,-99999,-99999,0.028176355,0.028323262,0.028545576,0.028882147,0.029332391,0.031122764,0.032833928,0.030905251,0.027327939,0.024215104,0.021966899,0.01945098,0.016641368,0.011432686,-99999,-99999,-99999,-99999,-99999,-99999,-99999,-99999,0.020826,0.028155,0.012396,0.013872
1348340,1999-01-03T07:00:20.568000Z,I9467A03,5.22,0.15,Slab,N,1,211,80,-8.30E+01,nlloc,-41.0938,174.519,-41.2425,174.9024,6011432.3,2637591.18,5994293,2669430,3.7,3.7,36.1,67.24,35.77,65.51,-35.79,-1.71,0,56.68,54.84,nu,467A,D,218,Q3,1.5,Q3,200,Q3,0,-99999,-99999,0,0.35,18,0.595,18,HarvardCMT,0.015966264,0.016008086,0.016113056,0.016253731,0.016618158,0.017348595,0.017644725,0.019523367,0.01997166,0.018999231,0.019118185,0.019181598,0.017591906,0.012131677,0.008009706,0.003735413,-99999,-99999,-99999,-99999,-99999,-99999,0.022025168,0.022086923,0.022222199,0.022451458,0.022793469,0.024002458,0.024909413,0.026217908,0.026464847,0.026054053,0.026391571,0.026744694,0.024719793,0.016108566,0.011211841,0.005249773,-99999,-99999,-99999,-99999,-99999,-99999,0.015965,0.021979,0.016572,0.021891
1348340,1999-01-03T07:00:20.568000Z,I9468A01,5.22,0.15,Slab,N,1,211,80,-8.30E+01,nlloc,-41.0938,174.519,-41.2011,174.9547,6011432.3,2637591.18,5998793,2673916,3.7,3.7,38.38,68.5,37.91,66.79,-37.32,-7.87,0,56.68,54.84,nu,468A,D,190,Q1,0.9,Q3,50,Q3,0,-99999,-99999,0,0.3,20,0.51,20,HarvardCMT,0.034303005,0.034806793,0.035481941,0.036714681,0.037537823,0.038263707,0.039048864,0.037496829,0.030395201,0.02689869,0.024417121,0.020373907,0.020190297,0.014509161,0.010731701,0.005053785,-99999,-99999,-99999,-99999,-99999,-99999,0.037454031,0.037983672,0.038584268,0.039737954,0.040788379,0.043961084,0.044504465,0.041251213,0.033954522,0.028676506,0.029489077,0.027891726,0.023795366,0.016454652,0.012418104,0.006092908,-99999,-99999,-99999,-99999,-99999,-99999,0.033923,0.037196,0.017852,0.019378
1348340,1999-01-03T07:00:20.568000Z,I9602C01,5.22,0.15,Slab,N,1,211,80,-8.30E+01,nlloc,-41.0938,174.519,-41.1903,174.928,6011432.3,2637591.18,6000041,2671703,3.7,3.7,35.89,67.15,35.4,65.41,-34.78,-7.8,0,56.68,54.84,nu,602C,B,1000,Q3,<0.1,Q3,0,Q3,0,-99999,-99999,0,0.3,40,0.51,40,HarvardCMT,0.012072067,0.012213456,0.012537496,0.012951597,0.013360624,0.013515565,0.013157454,0.011947031,0.010037495,0.008710242,0.007866727,0.007306947,0.006480875,0.004258328,0.002553521,0.001163571,-99999,-99999,-99999,-99999,-99999,-99999,0.016470453,0.016632092,0.016924194,0.017479681,0.018116369,0.018716804,0.018033874,0.016187414,0.013993273,0.011763981,0.010494369,0.009590026,0.008994723,0.006016919,0.003605801,0.00153233,-99999,-99999,-99999,-99999,-99999,-99999,0.012032,0.01644,0.005437,0.007595
1348340,1999-01-03T07:00:20.568000Z,I9603B02,5.22,0.15,Slab,N,1,211,80,-8.30E+01,nlloc,-41.0938,174.519,-41.2237,174.86,6011432.3,2637591.18,5996453,2665923,3.7,3.7,31.99,65.12,31.66,63.36,-31.67,-1.75,0,56.68,54.84,nu,603B,B,1000,Q3,<0.1,Q3,0,Q3,0,-99999,-99999,0,0.19,55,0.323,55,HarvardCMT,0.007803229,0.007917162,0.008021956,0.008146708,0.008409081,0.008973606,0.00924789,0.009015388,0.007341895,0.00603565,0.005504177,0.005409473,0.004996901,0.003428425,0.002481936,0.001239518,0.00073747,0.000313278,-99999,-99999,-99999,-99999,0.009773845,0.009831198,0.009844773,0.00988452,0.009869245,0.010235446,0.010715765,0.010865983,0.00930024,0.007801455,0.007386372,0.007007337,0.00627937,0.004690746,0.003259683,0.001747532,0.000941763,0.00041323,-99999,-99999,-99999,-99999,0.00778,0.00974,0.004733,0.0053
1348340,1999-01-03T07:00:20.568000Z,I9605B22,5.22,0.15,Slab,N,1,211,80,-8.30E+01,nlloc,-41.0938,174.519,-41.2074,174.9401,6011432.3,2637591.18,5998119,2672679,3.7,3.7,37.45,68.03,37.01,66.31,-36.61,-6.66,0,56.68,54.84,nu,FAIS,B,760,Q3,0.27,Q1,0,Q2,0,-99999,-99999,0,0.3,45,0.51,45,HarvardCMT,0.011382716,0.011589755,0.011815501,0.011984881,0.012232031,0.013072664,0.01301096,0.011326032,0.009616126,0.008783074,0.008878977,0.008761235,0.007462967,0.004467764,0.00257935,0.001151129,-99999,-99999,-99999,-99999,-99999,-99999,0.013844897,0.014025244,0.014314393,0.014924986,0.015448598,0.015261427,0.014175596,0.013169605,0.011809215,0.011802915,0.012551595,0.012388607,0.010549436,0.006269302,0.003640159,0.001550484,-99999,-99999,-99999,-99999,-99999,-99999,0.011282,0.013748,0.005969,0.008408
1348340,1999-01-03T07:00:20.568000Z,I9606B03,5.22,0.15,Slab,N,1,211,80,-8.30E+01,nlloc,-41.0938,174.519,-41.2333,174.9199,6011432.3,2637591.18,5995282,2670919,3.7,3.7,36.97,67.71,36.61,65.99,-36.56,-3.32,0,56.68,54.84,nu,606B,B,800,Q3,<0.1,Q3,0,Q3,0,-99999,-99999,0,0.18,52,0.306,52,HarvardCMT,0.012803133,0.013077205,0.01346715,0.014063346,0.014503392,0.01360389,0.011619424,0.010451931,0.008922906,0.007641633,0.006411132,0.005048027,0.003855297,0.002682059,0.001716321,0.000717955,0.000404273,0.000204816,-99999,-99999,-99999,-99999,0.017188379,0.017538058,0.017956469,0.018760898,0.019468811,0.018869026,0.016346018,0.013288698,0.011206585,0.009282405,0.008438633,0.00681908,0.005307731,0.003770785,0.002396539,0.000953888,0.000543534,0.000287908,-99999,-99999,-99999,-99999,0.012759,0.017084,0.004154,0.004607
1348340,1999-01-03T07:00:20.568000Z,I9640A06,5.22,0.15,Slab,N,1,211,80,-8.30E+01,nlloc,-41.0938,174.519,-41.235,174.9147,6011432.3,2637591.18,5995103,2670479,3.7,3.7,36.65,67.54,36.31,65.82,-36.28,-2.94,0,56.68,54.84,nu,640A,E,230,Q3,0.5,Q3,60,Q3,0,-99999,-99999,0,0.3,20,0.51,20,HarvardCMT,0.021753609,0.021989866,0.022415377,0.022922717,0.023547988,0.024763355,0.02431034,0.022623337,0.021421626,0.020767779,0.020513966,0.018213977,0.014071565,0.006637853,0.004338597,0.001971068,-99999,-99999,-99999,-99999,-99999,-99999,0.028944344,0.029286809,0.029715069,0.030213843,0.031132935,0.032249653,0.031877836,0.027553859,0.023854436,0.023475156,0.024929208,0.023305181,0.018555242,0.009017599,0.005852228,0.00258825,-99999,-99999,-99999,-99999,-99999,-99999,0.021522,0.029039,0.010105,0.014102
1348340,1999-01-03T07:00:20.568000Z,I9646B03,5.22,0.15,Slab,N,1,211,80,-8.30E+01,nlloc,-41.0938,174.519,-41.2574,174.9485,6011432.3,2637591.18,5992552,2673256,3.7,3.7,40.29,69.65,39.95,67.96,-39.97,-2.19,0,56.68,54.84,nu,WDAS,E,120,Q1,1.6,Q2,62,Q2,0,-99999,-99999,0,0.4,35,0.68,35,HarvardCMT,0.019614352,0.019895961,0.020306339,0.020974095,0.02156167,0.022563747,0.022534734,0.021799994,0.020934535,0.01919091,0.018025346,0.015104263,0.015136658,0.01410736,0.012446885,-99999,-99999,-99999,-99999,-99999,-99999,-99999,0.020532633,0.020676384,0.021100807,0.0219677,0.022930918,0.024383652,0.023919209,0.024343527,0.023143443,0.022095359,0.021561539,0.02035214,0.01822312,0.016572603,0.014855738,-99999,-99999,-99999,-99999,-99999,-99999,-99999,0.019566,0.020568,0.016838,0.020664
1348340,1999-01-03T07:00:20.568000Z,I9708A04,5.22,0.15,Slab,N,1,211,80,-8.30E+01,nlloc,-41.0938,174.519,-41.1314,174.8391,6011432.3,2637591.18,6006740,2664387,3.7,3.7,27.14,62.88,26.45,61.06,-25.06,-9.78,0,56.68,54.84,nu,POLS,C,250,Q2,0.4,Q1,25,Q2,0,-99999,-99999,0,0.25,20,0.425,20,HarvardCMT,0.015879548,0.016105353,0.016465315,0.016882737,0.017477516,0.018027845,0.018049385,0.016294588,0.014652583,0.012933031,0.011205717,0.008579694,0.00728524,0.00454246,0.002911538,0.001325737,0.000756023,-99999,-99999,-99999,-99999,-99999,0.020194759,0.020377398,0.02070962,0.021373483,0.022151411,0.023554329,0.02401658,0.021648484,0.019274844,0.0182072,0.015752773,0.009821155,0.008633271,0.006385654,0.003806487,0.001873697,0.001068024,-99999,-99999,-99999,-99999,-99999,0.015729,0.019999,0.007194,0.008358
1348340,1999-01-03T07:00:20.568000Z,I9918C01,5.22,0.15,Slab,N,1,211,80,-8.30E+01,nlloc,-41.0938,174.519,-41.284,174.7682,6011432.3,2637591.18,5989908,2658140,3.7,3.7,29.7,64.14,29.14,62.35,-28.37,7.87,0,56.68,54.84,nu,WEL,B,1000,Q3,0.3,Q1,0,Q2,0,-99999,-99999,0,0.35,35,0.595,35,HarvardCMT,0.018637801,0.018853457,0.019359106,0.020447029,0.021993827,0.022406189,0.019515219,0.019490136,0.016034021,0.01187397,0.009470624,0.006794147,0.005141774,0.003047679,0.002036142,0.000975477,-99999,-99999,-99999,-99999,-99999,-99999,0.022692355,0.022981207,0.023348928,0.023845077,0.024435727,0.02513823,0.026504276,0.026940211,0.020822468,0.01636351,0.013367119,0.009607275,0.007249256,0.004232622,0.002823574,0.001180591,-99999,-99999,-99999,-99999,-99999,-99999,0.018532,0.022602,0.006648,0.009403
1444773,1999-10-25T20:31:43.627000Z,D9014A02,6.02,0.15,Slab,O,0,158,54,35,nlloc,-38.5427,175.885,-39.4984,176.8761,6291620.32,2761553.77,6182359,2843283,9.4,9.4,136.47,204.75,133.03,201.69,-99999,-99999,0,152.66,148.68,nu,NCDS,E,162,Q3,1.25,Q2,110,Q3,0,-99999,-99999,1,0.25,14,0.425,14,HarvardCMT,0.037323398,0.037455807,0.037593239,0.037776639,0.037988709,0.039164996,0.040964957,0.042886659,0.042414666,0.039911913,0.036003072,0.03007849,0.025760815,0.021834384,0.01581796,0.008048299,0.00450629,-99999,-99999,-99999,-99999,-99999,0.048685172,0.048884412,0.049206242,0.04957367,0.050025715,0.051820374,0.052715248,0.052202626,0.050293852,0.047866104,0.044030374,0.034155058,0.032375573,0.029594827,0.02073625,0.010533597,0.006209371,-99999,-99999,-99999,-99999,-99999,0.037263,0.048479,0.027826,0.03757
1444773,1999-10-25T20:31:43.627000Z,D9027G06,6.02,0.15,Slab,O,0,158,54,35,nlloc,-38.5427,175.885,-39.4884,176.9189,6291620.32,2761553.77,6183307,2847012,9.4,9.4,137.97,205.77,134.56,202.73,-99999,-99999,0,152.66,148.68,nu,NAMS,C,268,Q3,0.4,Q3,20,Q3,0,-99999,-99999,1,0.25,12,0.425,12,HarvardCMT,0.017784365,0.017855908,0.017976469,0.018109906,0.018292233,0.018910379,0.019765125,0.021865181,0.020852155,0.017812953,0.015391824,0.014632819,0.013188245,0.007875951,0.00535545,0.003135939,0.002197686,-99999,-99999,-99999,-99999,-99999,0.02023607,0.020292136,0.020420858,0.02058519,0.020810323,0.021723099,0.022944176,0.02490832,0.024411143,0.021721782,0.019500896,0.017053832,0.014542894,0.009921799,0.006553082,0.004217312,0.002611904,-99999,-99999,-99999,-99999,-99999,0.017732,0.020169,0.011055,0.013032
