CuspID,Origin_time,Record,Mw,MwUncert,TectClass,Mech,PreferredFaultPlane,Strike,Dip,Rake,Location,HypLat,HypLon,StationLat,StationLon,HypN,HypE,StationN,StationE,LENGTH_km,WIDTH_km,Repi_km,Rhyp_km,Rjb_km,Rrup_km,Rx_km,Ry_km,Rvol_km,HypDepth_km,ZTOR_km,HWFW,SiteCode,SiteClass1170,Vs30,Vs30Uncert,Tsite,TsiteUncert,Z1,Z1Uncertainty,Directivity,Pulse_or,Pulse_T,S_Trigger_Flag,fcButterHP,f_iniLP,fmin,fmax,References,f100.0000SA_GeoMean,f50.0000SA_GeoMean,f33.3333SA_GeoMean,f25.0000SA_GeoMean,f20.0000SA_GeoMean,f13.3333SA_GeoMean,f10.0000SA_GeoMean,f6.6667SA_GeoMean,f5.0000SA_GeoMean,f4.0000SA_GeoMean,f3.3333SA_GeoMean,f2.5000SA_GeoMean,f2.0000SA_GeoMean,f1.3333SA_GeoMean,f1.0000SA_GeoMean,f0.6667SA_GeoMean,f0.5000SA_GeoMean,f0.3333SA_GeoMean,f0.2500SA_GeoMean,f0.2000SA_GeoMean,f0.1333SA_GeoMean,f0.1000SA_GeoMean,PGA_Geomean,PGV_Geomean
435226,1993-04-11T06:59:48.228000Z,D93029A2,5.68,0.08,Interface,O,1,198,15,52,special,-39.74,176.52,-39.6458,176.8429,6156829.5,2811622.89,6166127,2839726,8.63,8.63,29.55,39.41,25.33,35.69,-19.69,-17.53,0,26,24.88,nu,HCDS,D,182,Q2,>2,Q3,1000,Q3,0,-99999,-99999,0,0.2,15,0.34,15,Webb_Anderson_1998&Dowrick_Rhoades1998&HarvardCMT,0.029193682,0.029434886,0.029858302,0.030532621,0.031693098,0.042651368,0.044962094,0.069290051,0.098290344,0.084169564,0.093205172,0.071351344,0.037249838,0.057217429,0.030049342,0.013851148,0.012860344,-99999,-99999,-99999,-99999,-99999,0.029097,0.025429
471730,1993-08-10T00:51:55.033000Z,A93070A1,6.89,0.08,Interface,R,1,41,41,107,nlloc,-45.3625,166.649,-45.4167,167.7191,5519161.25,2012843.95,5519112,2096857,34.75,34.75,83.78,85.7,74.67,77.26,68.91,55.08,0,16.72,11.96,nu,TAFS,D,298,Q3,1.4,Q3,200,Q3,0,-99999,-99999,1,0.2,19,0.34,19,Robinson_etal_2003&Dowrick_Rhoades1998&HarvardCMT,0.068361967,0.069063719,0.070288411,0.072297098,0.075141908,0.111764384,0.139214899,0.197298427,0.161715516,0.1508033,0.136230615,0.12922548,0.075630325,0.079623022,0.073909573,0.075642089,0.049983257,-99999,-99999,-99999,-99999,-99999,0.067918,0.061761
471730,1993-08-10T00:51:55.033000Z,A93940A1,6.89,0.08,Interface,R,1,41,41,107,nlloc,-45.3625,166.649,-45.0322,168.6629,5519161.25,2012843.95,5566104,2168345,34.75,34.75,162.01,163.32,150.75,152.25,92.03,137.45,0,16.72,11.96,nu,QTPS,D,350,Q3,0.95,Q1,90,Q3,0,-99999,-99999,1,0.5,10,0.85,10,Robinson_etal_2003&Dowrick_Rhoades1998&HarvardCMT,0.037603632,0.037795854,0.038113629,0.038560067,0.039172573,0.041609074,0.046930407,0.069605129,0.106435447,0.110040286,0.111682758,0.087238189,0.07406077,0.0553658,0.027409241,-99999,-99999,-99999,-99999,-99999,-99999,-99999,0.037599,0.02395
471730,1993-08-10T00:51:55.033000Z,D93044A2s,6.89,0.08,Interface,R,1,41,41,107,nlloc,-45.3625,166.649,-45.8986,170.5097,5519161.25,2012843.95,5475848,2316608,34.75,34.75,306.03,307.29,297.73,299.13,263.14,166.6,0,16.72,11.96,nu,SKFS,D,140,Q2,0.8,Q3,25,Q3,0,-99999,-99999,1,0.25,10,0.425,10,Robinson_etal_2003&Dowrick_Rhoades1998&HarvardCMT,0.015708387,0.01573549,0.015780035,0.01584368,0.015911535,0.016254424,0.016655973,0.024022937,0.027523195,0.03705216,0.037550636,0.034889603,0.049274951,0.060968022,0.030250034,0.014521599,0.006568936,-99999,-99999,-99999,-99999,-99999,0.015697,0.018665
471730,1993-08-10T00:51:55.033000Z,D93054A6,6.89,0.08,Interface,R,1,41,41,107,nlloc,-45.3625,166.649,-43.883,169.0441,5519161.25,2012843.95,5695156,2192230,34.75,34.75,250.97,251.86,238.02,238.93,25.39,250.51,0,16.72,11.96,nu,HDWS,D,210,Q3,0.87,Q1,100,Q3,0,-99999,-99999,0,0.35,14,0.595,14,Robinson_etal_2003&Dowrick_Rhoades1998&HarvardCMT,0.032457911,0.032604002,0.032837763,0.033480238,0.034982376,0.048102832,0.057498303,0.105329415,0.069760325,0.065195048,0.076503991,0.042181901,0.037269663,0.065879213,0.028407502,0.012033026,-99999,-99999,-99999,-99999,-99999,-99999,0.032369,0.021186
471755,1993-08-10T09:46:38.453000Z,A93028A1,6.3,0.08,Slab,S,1,354,64,168,special,-38.55,177.92,-38.0079,177.284,6283090.62,2938734.07,6346024,2886230,30,15,81.95,90.77,69.76,78.95,-42.35,68.08,0,39,32.26,nu,028A,D,210,Q3,1,Q3,75,Q3,0,-99999,-99999,1,0.35,15,0.595,15,Reyners_et_al2010&Webb_Anderson_1998&Dowrick_Rhoades1998&HarvardCMT,0.052203229,0.052393008,0.052682079,0.053126409,0.053709346,0.063255823,0.083794095,0.10875061,0.181271848,0.1503493,0.139684369,0.156188486,0.230049642,0.093132449,0.085655133,0.056998653,-99999,-99999,-99999,-99999,-99999,-99999,0.052197,0.049176
471755,1993-08-10T09:46:38.453000Z,A93096A1,6.3,0.08,Slab,S,1,354,64,168,special,-38.55,177.92,-39.0342,177.4249,6283090.62,2938734.07,6231637,2892985,30,15,68.85,79.13,59.27,69.25,-47.59,-46.39,0,39,32.26,nu,WFSS,D,155,Q3,1.5,Q3,100,Q3,0,-99999,-99999,1,0.35,13,0.595,13,Reyners_et_al2010&Webb_Anderson_1998&Dowrick_Rhoades1998&HarvardCMT,0.047808264,0.047969942,0.048217705,0.048572422,0.049041323,0.053121801,0.055974452,0.0735914,0.093996404,0.095391569,0.121941427,0.150387312,0.12631075,0.09284795,0.100124797,0.064117812,-99999,-99999,-99999,-99999,-99999,-99999,0.047769,0.048776
471755,1993-08-10T09:46:38.453000Z,A93113A1,6.3,0.08,Slab,S,1,354,64,168,special,-38.55,177.92,-37.8735,177.5847,6283090.62,2938734.07,6359624,2913365,30,15,80.72,89.57,66.1,76.08,-13.94,78.77,0,39,32.26,nu,113A,C,522,Q3,0.15,Q3,10,Q3,0,-99999,-99999,1,0.42,13,0.714,13,Reyners_et_al2010&Webb_Anderson_1998&Dowrick_Rhoades1998&HarvardCMT,0.093437563,0.093879709,0.094603295,0.095624714,0.096980813,0.100615969,0.12041928,0.163084402,0.334237894,0.36194953,0.266610196,0.160685437,0.107420445,0.040683681,0.026578827,-99999,-99999,-99999,-99999,-99999,-99999,-99999,0.092748,0.045719
471755,1993-08-10T09:46:38.453000Z,D93014A4,6.3,0.08,Slab,S,1,354,64,168,special,-38.55,177.92,-39.4984,176.8761,6283090.62,2938734.07,6182359,2843283,30,15,138.75,144.15,129.07,134.18,-102.17,-90.2,0,39,32.26,nu,NCDS,E,162,Q3,1.25,Q2,110,Q3,0,-99999,-99999,0,0.25,10,0.425,10,Reyners_et_al2010&Webb_Anderson_1998&Dowrick_Rhoades1998&HarvardCMT,0.015429273,0.015503664,0.015630399,0.015803805,0.016070175,0.017276285,0.026249253,0.041840726,0.04677954,0.039889276,0.039933179,0.034992867,0.030102382,0.046256629,0.026290246,0.014965306,0.007376103,-99999,-99999,-99999,-99999,-99999,0.01538,0.01426
471755,1993-08-10T09:46:38.453000Z,D93016A1,6.3,0.08,Slab,S,1,354,64,168,special,-38.55,177.92,-38.6774,178.031,6283090.62,2938734.07,6268431,2947608,30,15,17.14,42.71,6.16,35.7,10.58,-15.51,0,39,32.26,nu,016A,C,480,Q3,0.15,Q3,10,Q3,0,-99999,-99999,0,0.3,21,0.51,21,Reyners_et_al2010&Webb_Anderson_1998&Dowrick_Rhoades1998&HarvardCMT,0.160036842,0.161008436,0.162572834,0.164924765,0.171129589,0.200220564,0.255174976,0.459428224,0.466202639,0.399743284,0.346519151,0.324463271,0.402327667,0.269507875,0.135826561,0.04486051,-99999,-99999,-99999,-99999,-99999,-99999,0.159373,0.105029
471755,1993-08-10T09:46:38.453000Z,D93017A1,6.3,0.08,Slab,S,1,354,64,168,special,-38.55,177.92,-38.6665,178.0227,6283090.62,2938734.07,6269685,2946952,30,15,15.73,42.06,5.22,35.18,10.06,-14.19,0,39,32.26,nu,GISS,D,138,Q2,1,Q1,40,Q3,0,-99999,-99999,0,0.25,30,0.425,30,Reyners_et_al2010&Webb_Anderson_1998&Dowrick_Rhoades1998&HarvardCMT,0.181534778,0.182984195,0.188243589,0.208299298,0.212560543,0.245312928,0.267045023,0.416833257,0.420483694,0.499997407,0.695105794,0.559034986,0.32944111,0.273682332,0.209145244,0.065543357,0.030827117,-99999,-99999,-99999,-99999,-99999,0.181011,0.130961
471755,1993-08-10T09:46:38.453000Z,D93021A3,6.3,0.08,Slab,S,1,354,64,168,special,-38.55,177.92,-38.4249,176.3157,6283090.62,2938734.07,6303375,2799556,30,15,140.32,146.04,135.79,140.25,-133.01,34.72,10,39,32.26,nu,021A,D,210,Q3,2,Q3,200,Q3,0,-99999,-99999,1,0.18,10,0.306,10,Reyners_et_al2010&Webb_Anderson_1998&Dowrick_Rhoades1998&HarvardCMT,0.025322249,0.025333436,0.025346411,0.025371885,0.025394205,0.02551731,0.025674025,0.028487433,0.038563272,0.040257075,0.038268137,0.046330653,0.05287336,0.059049623,0.090350653,0.107930655,0.030609413,0.011081077,-99999,-99999,-99999,-99999,0.025321,0.056775
608810,1994-06-18T03:25:13.819000Z,D4505A01,6.72,0.08,Crustal,R,1,221,47,112,geonet,-43.0078,171.4762,-42.9489,171.5677,5798820.69,2385786.14,5805487,2393135,21.06,21.06,9.91,11.12,2.02,4.12,2.92,-9.85,0,4.27,1,hw,APPS,C,300,Q2,0.4,Q1,30,Q2,0,-99999,-99999,0,0.11,40,0.187,40,Abercrombie_etal_2000&HarvardCMT,0.391637312,0.396005627,0.451034379,0.441985343,0.46814059,0.611821673,0.746536466,0.951914379,1.220182764,1.227253607,0.854818712,0.963708082,1.074531225,0.381113825,0.233244743,0.136770651,0.096919053,0.050920115,0.03322693,0.018185342,-99999,-99999,0.391757,0.272389
608810,1994-06-18T03:25:13.819000Z,D94042A1,6.72,0.08,Crustal,R,1,221,47,112,geonet,-43.0078,171.4762,-42.5232,172.8305,5798820.69,2385786.14,5853765,2496076,21.06,21.06,122.98,123.31,115.46,115.74,-43.1,-113.82,0,4.27,1,nu,HSES,D,280,Q3,0.9,Q1,85,Q3,0,-99999,-99999,1,0.25,10,0.425,10,Abercrombie_etal_2000&HarvardCMT,0.014277786,0.01428937,0.014316257,0.014349682,0.014383814,0.014556939,0.015065621,0.016523769,0.016989737,0.02086959,0.026450491,0.02637289,0.03338569,0.046863946,0.025880229,0.013538957,0.013547274,-99999,-99999,-99999,-99999,-99999,0.014278,0.017197
608810,1994-06-18T03:25:13.819000Z,D94044A1b,6.72,0.08,Crustal,R,1,221,47,112,geonet,-43.0078,171.4762,-45.8986,170.5097,5798820.69,2385786.14,5475848,2316608,21.06,21.06,330.46,330.33,323.2,323.05,-155.59,289.14,0,4.27,1,nu,SKFS,D,140,Q2,0.8,Q3,25,Q3,0,-99999,-99999,1,0.2,10,0.34,10,Abercrombie_etal_2000&HarvardCMT,0.014308421,0.014331859,0.014337418,0.014367862,0.014413096,0.014571247,0.015327507,0.016408304,0.017678578,0.020881088,0.023897812,0.024481565,0.036965023,0.062794467,0.035478087,0.012946201,0.006439553,-99999,-99999,-99999,-99999,-99999,0.014309,0.018849
608810,1994-06-18T03:25:13.819000Z,D94051D1,6.72,0.08,Crustal,R,1,221,47,112,geonet,-43.0078,171.4762,-41.7557,171.5998,5798820.69,2385786.14,5938069,2393545,21.06,21.06,139.6,139.53,132.84,132.84,89.59,-110.18,0,4.27,1,nu,WBCS,D,300,Q3,1.2,Q2,105,Q3,0,-99999,-99999,0,0.25,20,0.425,20,Abercrombie_etal_2000&HarvardCMT,0.045400044,0.045629072,0.046114138,0.04709688,0.050416219,0.068017504,0.080419082,0.094090564,0.103265068,0.093667219,0.102892231,0.104222668,0.113154268,0.130343855,0.078895522,0.039954841,0.032989054,-99999,-99999,-99999,-99999,-99999,0.045364,0.041878
608810,1994-06-18T03:25:13.819000Z,D94054A3,6.72,0.08,Crustal,R,1,221,47,112,geonet,-43.0078,171.4762,-43.883,169.0441,5798820.69,2385786.14,5695156,2192230,21.06,21.06,219.12,219.61,211.53,212.02,82.16,205.22,0,4.27,1,nu,HDWS,D,210,Q3,0.87,Q1,100,Q3,0,-99999,-99999,1,0.3,11,0.51,11,Abercrombie_etal_2000&HarvardCMT,0.015814168,0.015901303,0.016039627,0.016250245,0.016541062,0.017972478,0.023743515,0.035013406,0.030386858,0.043587304,0.044992397,0.03704346,0.037524495,0.02704925,0.016748367,0.009910615,-99999,-99999,-99999,-99999,-99999,-99999,0.015775,0.013391
608810,1994-06-18T03:25:13.819000Z,D94129A2,6.72,0.08,Crustal,R,1,221,47,112,geonet,-43.0078,171.4762,-41.7999,172.328,5798820.69,2385786.14,5933893,2454147,21.06,21.06,151.43,151.45,143.62,143.66,41.11,-146.79,0,4.27,1,nu,MCAS,D,501,Q3,1.6,Q3,200,Q3,0,-99999,-99999,0,0.1,13,0.17,13,Abercrombie_etal_2000&HarvardCMT,0.028615628,0.028753112,0.028975567,0.029302248,0.029799987,0.034085287,0.038489835,0.064021728,0.062563186,0.070280534,0.065035333,0.077570767,0.069572299,0.048725058,0.059236304,0.024301691,0.028071005,0.008807434,0.004706744,0.004106003,-99999,-99999,0.028419,0.025051
608810,1994-06-18T03:25:13.819000Z,K94112A1,6.72,0.08,Crustal,R,1,221,47,112,geonet,-43.0078,171.4762,-43.1325,171.7693,5798820.69,2385786.14,5785358,2409884,21.06,21.06,27.55,28.04,23.3,23.35,-22.93,-5.65,0,4.27,1,fw,112B,C,667,Q3,0.36,Q3,60,Q3,0,-99999,-99999,1,0.35,18,0.595,18,Abercrombie_etal_2000&HarvardCMT,0.132493776,0.133318661,0.134825626,0.137343075,0.142138555,0.167552137,0.258319291,0.317613484,0.354010886,0.3968519,0.341442326,0.246912184,0.198603695,0.114565859,0.080942762,0.041291417,-99999,-99999,-99999,-99999,-99999,-99999,0.132308,0.08893
697172,1994-12-15T11:20:17.858000Z,K5113A01,6.31,0.15,Crustal,S,0,194,77,-1.61E+02,geonet,-37.1987,177.528,-37.8735,177.5847,6434683.68,2912134.85,6359624,2913365,13.1,13.1,75.2,76.03,70.88,72.17,-99999,-99999,10,12,5.68,nu,113A,C,522,Q3,0.15,Q3,10,Q3,0,-99999,-99999,1,0.5,11,0.85,11,HarvardCMT,0.085103528,0.085604393,0.086403835,0.087575623,0.089138948,0.095011149,0.115309834,0.164427091,0.295229049,0.333075151,0.170792733,0.154248829,0.069926677,0.027715368,0.019970844,-99999,-99999,-99999,-99999,-99999,-99999,-99999,0.084702,0.038992
731516,1995-02-05T22:51:04.665000Z,D5016A02,7.09,0.15,Crustal,N,0,215,58,-9.00E+01,geonet,-37.6496,179.4886,-38.6774,178.031,6374193.93,3082358.22,6268431,2947608,32.2,32.2,171.17,171.73,155.42,156.01,-99999,-99999,0,12,1.73,nu,016A,C,480,Q3,0.15,Q3,10,Q3,0,-99999,-99999,0,0.35,14,0.595,14,HarvardCMT,0.020998081,0.021083509,0.021230391,0.021455282,0.02178822,0.023807882,0.027421935,0.04001608,0.039039234,0.036543301,0.045869901,0.052018834,0.053180704,0.046379256,0.025748226,0.0105202,-99999,-99999,-99999,-99999,-99999,-99999,0.020983,0.013193
731516,1995-02-05T22:51:04.665000Z,D5017A02,7.09,0.15,Crustal,N,0,215,58,-9.00E+01,geonet,-37.6496,179.4886,-38.6665,178.0227,6374193.93,3082358.22,6269685,2946952,32.2,32.2,170.91,171.47,155.18,155.77,-99999,-99999,0,12,1.73,nu,GISS,D,138,Q2,1,Q1,40,Q3,0,-99999,-99999,0,0.18,12,0.306,12,HarvardCMT,0.023159625,0.023229706,0.02335125,0.023519549,0.02376144,0.025050052,0.030101496,0.035338779,0.053443913,0.049441303,0.047701966,0.04955815,0.054506126,0.076000811,0.047124031,0.014955231,0.00801291,0.003486888,-99999,-99999,-99999,-99999,0.023148,0.023837
731516,1995-02-05T22:51:04.665000Z,D5709A03,7.09,0.15,Crustal,N,0,215,58,-9.00E+01,geonet,-37.6496,179.4886,-38.6257,177.9216,6374193.93,3082358.22,6274694,2938413,32.2,32.2,174.82,175.4,159.22,159.85,-99999,-99999,0,12,1.73,nu,GWTS,D,245,Q3,1.5,Q3,125,Q3,0,-99999,-99999,0,0.15,10,0.255,10,HarvardCMT,0.021200661,0.021242398,0.021292106,0.021386774,0.021504511,0.02199061,0.023842687,0.025964252,0.033304066,0.038815889,0.044895136,0.045046716,0.048376992,0.063817915,0.050768575,0.059959495,0.041705387,0.021007005,-99999,-99999,-99999,-99999,0.0212,0.044324
731516,1995-02-05T22:51:04.665000Z,D5712A03,7.09,0.15,Crustal,N,0,215,58,-9.00E+01,geonet,-37.6496,179.4886,-37.9615,176.9855,6374193.93,3082358.22,6352382,2860270,32.2,32.2,222.62,223.48,209.17,210.15,-99999,-99999,0,12,1.73,nu,WKHS,D,210,Q3,0.71,Q2,100,Q3,0,-99999,-99999,0,0.25,12,0.425,12,HarvardCMT,0.01601676,0.016045398,0.016098565,0.016177859,0.01645717,0.018316619,0.022324888,0.032879882,0.03115988,0.032557983,0.038559692,0.042532842,0.056178709,0.034731436,0.018141328,0.009050728,0.005403451,-99999,-99999,-99999,-99999,-99999,0.015991,0.014281
731516,1995-02-05T22:51:04.665000Z,K5113A02,7.09,0.15,Crustal,N,0,215,58,-9.00E+01,geonet,-37.6496,179.4886,-37.8735,177.5847,6374193.93,3082358.22,6359624,2913365,32.2,32.2,169.2,170.05,155.84,156.86,-99999,-99999,0,12,1.73,nu,113A,C,522,Q3,0.15,Q3,10,Q3,0,-99999,-99999,1,0.4,11,0.68,11,HarvardCMT,0.036115364,0.036292502,0.036591827,0.0370126,0.037589449,0.039612145,0.047449727,0.081321355,0.167696312,0.170106565,0.121289733,0.072825897,0.041930676,0.023157201,0.015591323,-99999,-99999,-99999,-99999,-99999,-99999,-99999,0.036058,0.015949
721911,1995-02-10T01:44:56.764000Z,D5016A04,6.49,0.15,Crustal,N,0,220,41,-7.80E+01,fdsn,-38.1086,178.6757,-38.6774,178.031,6344659.25,3005555.26,6268431,2947608,16.2,16.2,84.6,96.52,87.77,88.47,-99999,-99999,0,12,6.26,nu,016A,C,480,Q3,0.15,Q3,10,Q3,0,-99999,-99999,1,0.3,10,0.51,10,HarvardCMT,0.012243025,0.012272627,0.012323693,0.012395719,0.012484768,0.012837402,0.01563014,0.023381581,0.031927468,0.029753717,0.03912462,0.038537618,0.046671055,0.030100324,0.020908939,0.011299278,-99999,-99999,-99999,-99999,-99999,-99999,0.012242,0.010994
721911,1995-02-10T01:44:56.764000Z,D5017A03,6.49,0.15,Crustal,N,0,220,41,-7.80E+01,fdsn,-38.1086,178.6757,-38.6665,178.0227,6344659.25,3005555.26,6269685,2946952,16.2,16.2,84.19,95.91,87.18,87.87,-99999,-99999,0,12,6.26,nu,GISS,D,138,Q2,1,Q1,40,Q3,0,-99999,-99999,1,0.2,10,0.34,10,HarvardCMT,0.015372152,0.015399571,0.01544487,0.015516628,0.015610083,0.015988809,0.01832524,0.026973001,0.035342691,0.041672664,0.041798021,0.036436107,0.047692151,0.041622557,0.034219089,0.014418671,0.007143363,-99999,-99999,-99999,-99999,-99999,0.015343,0.015968
722185,1995-03-22T19:43:30.268000Z,D5040A01,5.83,0.15,Slab,S,0,27,64,30,nlloc,-41.0514,174.216,-41.5763,175.2269,6016538.56,2612205.51,5956588,2695679,7.6,7.6,102.64,133.7,100.01,131.33,-99999,-99999,0,85.51,82.13,nu,040A,B,770,Q3,0.08,Q3,7,Q3,0,-99999,-99999,1,0.25,22,0.425,22,HarvardCMT,0.023833067,0.024527338,0.025855664,0.029132147,0.040350094,0.048734949,0.058098608,0.056470423,0.047806792,0.045257517,0.032001492,0.017251187,0.015725302,0.007603098,0.004947408,0.002936968,0.002171522,-99999,-99999,-99999,-99999,-99999,0.023685,0.006814
722185,1995-03-22T19:43:30.268000Z,D5050A02,5.83,0.15,Slab,S,0,27,64,30,nlloc,-41.0514,174.216,-41.1247,173.0095,6016538.56,2612205.51,6009109,2510784,7.6,7.6,101.44,132.87,98.42,129.2,-99999,-99999,0,85.51,82.13,nu,MOTS,D,300,Q3,1.27,Q3,300,Q3,0,-99999,-99999,0,0.3,25,0.51,25,HarvardCMT,0.074352653,0.07557125,0.07794347,0.083270384,0.103027209,0.164784467,0.183607857,0.174826377,0.27553891,0.297633585,0.242421568,0.170578992,0.090688915,0.026334868,0.014000456,0.012499246,-99999,-99999,-99999,-99999,-99999,-99999,0.074039,0.034916
722185,1995-03-22T19:43:30.268000Z,D5056A02,5.83,0.15,Slab,S,0,27,64,30,nlloc,-41.0514,174.216,-41.2758,173.2851,6016538.56,2612205.51,5992292,2533876,7.6,7.6,81.82,118.48,78.7,114.72,-99999,-99999,0,85.51,82.13,nu,056A,B,450,Q3,0.07,Q3,5,Q3,0,-99999,-99999,0,0.3,15,0.51,15,HarvardCMT,0.207992037,0.209488005,0.212039652,0.21590016,0.221684347,0.262398963,0.297637475,0.471162133,0.448849495,0.635939655,0.573330764,0.222634668,0.127214027,0.080902394,0.025020294,0.014319991,-99999,-99999,-99999,-99999,-99999,-99999,0.207167,0.087296
722185,1995-03-22T19:43:30.268000Z,D5129A01,5.83,0.15,Slab,S,0,27,64,30,nlloc,-41.0514,174.216,-41.7999,172.328,6016538.56,2612205.51,5933893,2454147,7.6,7.6,178.06,197.87,174.9,194.27,-99999,-99999,0,85.51,82.13,nu,MCAS,D,501,Q3,1.6,Q3,200,Q3,0,-99999,-99999,0,0.3,17,0.51,17,HarvardCMT,0.034287056,0.034619199,0.035183318,0.036014153,0.037290618,0.047716237,0.071263814,0.087421023,0.130163283,0.095001109,0.070154718,0.062102098,0.04749036,0.027042701,0.029655922,0.012757679,-99999,-99999,-99999,-99999,-99999,-99999,0.034279,0.02064
722185,1995-03-22T19:43:30.268000Z,D5130B01,5.83,0.15,Slab,S,0,27,64,30,nlloc,-41.0514,174.216,-41.6696,173.2029,6016538.56,2612205.51,5948576,2526890,7.6,7.6,108.97,138.82,105.86,135.11,-99999,-99999,0,85.51,82.13,nu,130B,D,367,Q3,0.85,Q3,100,Q3,0,-99999,-99999,1,0.4,24,0.68,24,HarvardCMT,0.020945679,0.021786329,0.023329932,0.027277212,0.046925044,0.06931066,0.070926397,0.048254797,0.036516506,0.035927374,0.028470648,0.023490216,0.014230245,0.009496163,0.005160534,-99999,-99999,-99999,-99999,-99999,-99999,-99999,0.020046,0.006426
722185,1995-03-22T19:43:30.268000Z,D5131A06,5.83,0.15,Slab,S,0,27,64,30,nlloc,-41.0514,174.216,-40.9143,175.005,6016538.56,2612205.51,6030534,2678862,7.6,7.6,67.96,109.33,64.87,106.63,-99999,-99999,0,85.51,82.13,nu,PAPS,D,200,Q3,1.4,Q1,100,Q3,0,-99999,-99999,0,0.45,18,0.765,18,HarvardCMT,0.060761412,0.061946071,0.064033849,0.067546142,0.074733377,0.110421332,0.149278695,0.18069507,0.145697134,0.136076689,0.099706411,0.087143111,0.059796175,0.032229133,0.023925026,-99999,-99999,-99999,-99999,-99999,-99999,-99999,0.060774,0.019545
