CuspID,Origin_time,Record,Mw,MwUncert,TectClass,Mech,PreferredFaultPlane,Strike,Dip,Rake,Location,HypLat,HypLon,StationLat,StationLon,HypN,HypE,StationN,StationE,LENGTH_km,WIDTH_km,Repi_km,Rhyp_km,Rjb_km,Rrup_km,Rx_km,Ry_km,Rvol_km,HypDepth_km,ZTOR_km,HWFW,SiteCode,SiteClass1170,Vs30,Vs30Uncert,Tsite,TsiteUncert,Z1,Z1Uncertainty,Directivity,Pulse_or,Pulse_T,S_Trigger_Flag,fcButterHP,f_iniLP,fmin,fmax,References,f100.0000SA_RotD50,f50.0000SA_RotD50,f33.3333SA_RotD50,f25.0000SA_RotD50,f20.0000SA_RotD50,f13.3333SA_RotD50,f10.0000SA_RotD50,f6.6667SA_RotD50,f5.0000SA_RotD50,f4.0000SA_RotD50,f3.3333SA_RotD50,f2.5000SA_RotD50,f2.0000SA_RotD50,f1.3333SA_RotD50,f1.0000SA_RotD50,f0.6667SA_RotD50,f0.5000SA_RotD50,f0.3333SA_RotD50,f0.2500SA_RotD50,f0.2000SA_RotD50,f0.1333SA_RotD50,f0.1000SA_RotD50,f100.0000SA_RotD100,f50.0000SA_RotD100,f33.3333SA_RotD100,f25.0000SA_RotD100,f20.0000SA_RotD100,f13.3333SA_RotD100,f10.0000SA_RotD100,f6.6667SA_RotD100,f5.0000SA_RotD100,f4.0000SA_RotD100,f3.3333SA_RotD100,f2.5000SA_RotD100,f2.0000SA_RotD100,f1.3333SA_RotD100,f1.0000SA_RotD100,f0.6667SA_RotD100,f0.5000SA_RotD100,f0.3333SA_RotD100,f0.2500SA_RotD100,f0.2000SA_RotD100,f0.1333SA_RotD100,f0.1000SA_RotD100,PGA_RotD50,PGA_RotD100,PGV_RotD50,PGV_RotD100
339342,1992-05-27T22:30:35.064000Z,D92707A1,5.9,0.08,Slab,S,1,117,85,21,special,-41.63,173.62,-41.1391,174.8502,5952812.98,2561652.09,6005867,2665298,8.2,8.2,116.24,134.35,113.89,131.28,-93.97,68.26,0,67,62.92,nu,707A,C,570,Q3,0.15,Q3,10,Q3,0,-99999,-99999,0,0.5,21,0.85,21,Webb_Anderson_1998&Dowrick_Rhoades1998&HarvardCMT,0.022426106,0.022600709,0.022835549,0.023059415,0.023508874,0.025524739,0.02681113,0.024966394,0.021287574,0.0177599,0.014991093,0.011991188,0.009073554,0.003808854,0.002058739,-99999,-99999,-99999,-99999,-99999,-99999,-99999,0.027032156,0.02731072,0.027654324,0.028013529,0.02855571,0.030432887,0.031588722,0.029107202,0.025012204,0.021392849,0.019974844,0.016280459,0.011176156,0.005242011,0.00258088,-99999,-99999,-99999,-99999,-99999,-99999,-99999,0.022265,0.027107,0.007825,0.010582
339342,1992-05-27T22:30:35.064000Z,D92918B5,5.9,0.08,Slab,S,1,117,85,21,special,-41.63,173.62,-41.284,174.7682,5952812.98,2561652.09,5989908,2658140,8.2,8.2,103.13,123.26,100.44,119.93,-76.5,69.13,0,67,62.92,nu,WEL,B,1000,Q3,0.3,Q1,0,Q2,0,-99999,-99999,0,0.4,18,0.68,18,Webb_Anderson_1998&Dowrick_Rhoades1998&HarvardCMT,0.020390571,0.020448065,0.020580203,0.020783712,0.021033252,0.021859371,0.022939181,0.025384032,0.024758117,0.024248452,0.022388662,0.016889101,0.011357573,0.005741368,0.003913043,-99999,-99999,-99999,-99999,-99999,-99999,-99999,0.025835952,0.025983126,0.026131085,0.026342001,0.026531376,0.027071569,0.029180938,0.031387141,0.030877834,0.030768511,0.028227952,0.021092897,0.013626099,0.007233338,0.004690619,-99999,-99999,-99999,-99999,-99999,-99999,-99999,0.020406,0.02579,0.01161,0.014177
339342,1992-05-27T22:30:35.064000Z,D92935B2,5.9,0.08,Slab,S,1,117,85,21,special,-41.63,173.62,-41.2108,174.9047,5952812.98,2561652.09,5997808,2669699,8.2,8.2,116.82,134.86,114.21,131.66,-88.79,75.84,0,67,62.92,nu,935A,D,240,Q3,1.2,Q3,275,Q3,0,-99999,-99999,0,0.35,16,0.595,16,Webb_Anderson_1998&Dowrick_Rhoades1998&HarvardCMT,0.01848305,0.01856829,0.01871625,0.019062808,0.019440566,0.020333861,0.022246418,0.023304447,0.022911265,0.021821326,0.01982843,0.014594584,0.010867274,0.006475396,0.004705495,0.002786824,-99999,-99999,-99999,-99999,-99999,-99999,0.022417748,0.02263314,0.022904772,0.023291192,0.023858236,0.025217283,0.026897522,0.02665884,0.0268166,0.025716973,0.02349387,0.019281966,0.013356305,0.007644001,0.006257442,0.003169151,-99999,-99999,-99999,-99999,-99999,-99999,0.018451,0.022359,0.01207,0.013051
339342,1992-05-27T22:30:35.064000Z,K92934B1,5.9,0.08,Slab,S,1,117,85,21,special,-41.63,173.62,-41.2436,174.908,5952812.98,2561652.09,5994160,2669897,8.2,8.2,115.64,133.85,112.94,130.58,-85.63,77.68,0,67,62.92,nu,934B,D,180,Q1,1.1,Q3,100,Q3,0,-99999,-99999,1,0.4,16,0.68,16,Webb_Anderson_1998&Dowrick_Rhoades1998&HarvardCMT,0.025403764,0.025454723,0.025571674,0.025799534,0.026016714,0.026732484,0.027666252,0.029777331,0.029525518,0.028505853,0.027228848,0.025548764,0.023073494,0.01342822,0.008228343,-99999,-99999,-99999,-99999,-99999,-99999,-99999,0.035604761,0.035687104,0.03589569,0.036187353,0.036474371,0.037403025,0.038488634,0.040689,0.039109565,0.037106609,0.03633632,0.033738228,0.02947456,0.016128813,0.01082822,-99999,-99999,-99999,-99999,-99999,-99999,-99999,0.025401,0.035412,0.017923,0.022841
338849,1992-06-21T17:43:09.086000Z,K92028A1,6.25,0.08,Crustal,N,1,32,41,246,special,-37.67,176.86,-38.0079,177.284,6385179.66,2850645.07,6346024,2886230,12.26,12.26,52.9,53.06,48.15,48.79,55.55,-14.35,25,4,0.01,nu,028A,D,210,Q3,1,Q3,75,Q3,0,-99999,-99999,1,0.2,15,0.34,15,Webb_Anderson_1998&Dowrick_Rhoades1998&HarvardCMT,0.031132607,0.031300136,0.031570179,0.032095557,0.032620828,0.034699511,0.035279212,0.034783292,0.034322367,0.033249807,0.031967941,0.028492483,0.027859793,0.02303861,0.019855231,0.01527819,0.01245389,-99999,-99999,-99999,-99999,-99999,0.033753296,0.034018579,0.034401493,0.034941323,0.035647278,0.03823488,0.03910664,0.037810726,0.038166452,0.03633758,0.033590247,0.033787959,0.033473854,0.024808308,0.022469821,0.01670627,0.015326192,-99999,-99999,-99999,-99999,-99999,0.031059,0.033848,0.042707,0.059619
338849,1992-06-21T17:43:09.086000Z,A92930A1,6.25,0.08,Crustal,N,1,32,41,246,special,-37.67,176.86,-37.9885,176.8294,6385179.66,2850645.07,6349976,2846440,12.26,12.26,35.52,35.68,29.64,30.05,19.71,-32.08,30,4,0.01,nu,930A,E,150,Q3,>2,Q3,300,Q3,0,-99999,-99999,1,0.15,12,0.255,12,Webb_Anderson_1998&Dowrick_Rhoades1998&HarvardCMT,0.041385917,0.041450602,0.041551394,0.041669212,0.041813271,0.042343983,0.043081789,0.042565255,0.042585094,0.041676435,0.043271166,0.045565393,0.046717186,0.044003068,0.040877854,0.029713496,0.020566365,0.015191581,-99999,-99999,-99999,-99999,0.05207024,0.052116924,0.052275478,0.052425234,0.052585298,0.053008882,0.052848123,0.053296817,0.05293457,0.053977226,0.056157441,0.057929099,0.056568509,0.047799674,0.04483692,0.032975134,0.023217389,0.017875924,-99999,-99999,-99999,-99999,0.041386,0.051907,0.084975,0.103354
435226,1993-04-11T06:59:48.228000Z,A93032A1,5.68,0.08,Interface,O,1,198,15,52,special,-39.74,176.52,-39.9425,176.5874,6156829.5,2811622.89,6134136,2816486,8.63,8.63,23.24,34.95,18.95,31.74,-7.47,20.08,0,26,24.88,nu,032A,C,495,Q3,0.13,Q3,10,Q3,0,-99999,-99999,1,0.4,10,0.68,10,Webb_Anderson_1998&Dowrick_Rhoades1998&HarvardCMT,0.15845468,0.158717389,0.159096228,0.159812347,0.160789722,0.164036951,0.169381109,0.185933779,0.194636237,0.193521588,0.188661608,0.171383076,0.149755432,0.105563289,0.074293034,-99999,-99999,-99999,-99999,-99999,-99999,-99999,0.184982313,0.185133585,0.185731922,0.186333054,0.186884398,0.188877285,0.191215677,0.20044181,0.215576358,0.217565431,0.212037885,0.194583713,0.173206604,0.113291176,0.080457336,-99999,-99999,-99999,-99999,-99999,-99999,-99999,0.158186,0.185064,0.131958,0.175139
435226,1993-04-11T06:59:48.228000Z,D93014A2,5.68,0.08,Interface,O,1,198,15,52,special,-39.74,176.52,-39.4984,176.8761,6156829.5,2811622.89,6182359,2843283,8.63,8.63,40.64,48.27,36.38,44.35,-18.05,-34.06,0,26,24.88,nu,NCDS,E,162,Q3,1.25,Q2,110,Q3,0,-99999,-99999,0,0.24,12,0.408,12,Webb_Anderson_1998&Dowrick_Rhoades1998&HarvardCMT,0.032447407,0.032685581,0.033029228,0.033640435,0.034216371,0.036193019,0.037531543,0.03492994,0.033834396,0.030317679,0.028755062,0.028078403,0.022377424,0.016640916,0.011398607,0.005275503,0.003001073,-99999,-99999,-99999,-99999,-99999,0.039464551,0.039651335,0.039917421,0.040199869,0.040582181,0.041744898,0.042560817,0.043867149,0.043515509,0.041148662,0.038201087,0.031257715,0.02761027,0.02010365,0.013486365,0.006069579,0.004032103,-99999,-99999,-99999,-99999,-99999,0.032393,0.039539,0.021884,0.02309
435226,1993-04-11T06:59:48.228000Z,D93015A1,5.68,0.08,Interface,O,1,198,15,52,special,-39.74,176.52,-39.4891,176.8982,6156829.5,2811622.89,6183313,2845228,8.63,8.63,42.76,50.1,38.49,46.14,-19.61,-35.57,0,26,24.88,nu,015A,B,1000,Q3,<0.1,Q3,0,Q3,0,-99999,-99999,0,0.5,12,0.85,12,Webb_Anderson_1998&Dowrick_Rhoades1998&HarvardCMT,0.016457203,0.01651655,0.016625514,0.016766495,0.016984414,0.017476368,0.017859228,0.017613501,0.017393883,0.017923295,0.017752527,0.014470956,0.01134584,0.005507013,0.003759983,-99999,-99999,-99999,-99999,-99999,-99999,-99999,0.017743769,0.017804555,0.017991406,0.018172905,0.018362828,0.018876457,0.019447772,0.02071998,0.021279134,0.021074128,0.020439412,0.017346402,0.012358123,0.006616624,0.004517175,-99999,-99999,-99999,-99999,-99999,-99999,-99999,0.016392,0.017773,0.009443,0.011342
435226,1993-04-11T06:59:48.228000Z,D93029A2,5.68,0.08,Interface,O,1,198,15,52,special,-39.74,176.52,-39.6458,176.8429,6156829.5,2811622.89,6166127,2839726,8.63,8.63,29.55,39.41,25.33,35.69,-19.69,-17.53,0,26,24.88,nu,HCDS,D,182,Q2,>2,Q3,1000,Q3,0,-99999,-99999,0,0.2,15,0.34,15,Webb_Anderson_1998&Dowrick_Rhoades1998&HarvardCMT,0.029062672,0.029257472,0.029537893,0.029881103,0.030508277,0.031974966,0.032540126,0.033612916,0.032455537,0.031845416,0.031666346,0.026328051,0.020173265,0.015342807,0.011417103,0.005603011,0.004491563,-99999,-99999,-99999,-99999,-99999,0.034622348,0.034696296,0.034802926,0.0349606,0.035190895,0.036110569,0.036958111,0.038662006,0.038835988,0.040917259,0.042421084,0.036297528,0.028514527,0.019900062,0.013279965,0.006862523,0.005689167,-99999,-99999,-99999,-99999,-99999,0.02904,0.034619,0.026152,0.030611
471730,1993-08-10T00:51:55.033000Z,A93070A1,6.89,0.08,Interface,R,1,41,41,107,nlloc,-45.3625,166.649,-45.4167,167.7191,5519161.25,2012843.95,5519112,2096857,34.75,34.75,83.78,85.7,74.67,77.26,68.91,55.08,0,16.72,11.96,nu,TAFS,D,298,Q3,1.4,Q3,200,Q3,0,-99999,-99999,1,0.2,19,0.34,19,Robinson_etal_2003&Dowrick_Rhoades1998&HarvardCMT,0.063796061,0.064273438,0.064958756,0.065868708,0.066998157,0.070328267,0.073759046,0.074086428,0.066697036,0.057538656,0.051069657,0.044526254,0.039264666,0.032884981,0.028904743,0.022971149,0.016893088,-99999,-99999,-99999,-99999,-99999,0.085560038,0.086165859,0.086950051,0.088681555,0.090597695,0.095302426,0.098800095,0.098455708,0.088759209,0.077045823,0.063564225,0.052582615,0.046546936,0.043059599,0.040669814,0.027381835,0.022441498,-99999,-99999,-99999,-99999,-99999,0.063904,0.085534,0.06115,0.07679
471730,1993-08-10T00:51:55.033000Z,A93940A1,6.89,0.08,Interface,R,1,41,41,107,nlloc,-45.3625,166.649,-45.0322,168.6629,5519161.25,2012843.95,5566104,2168345,34.75,34.75,162.01,163.32,150.75,152.25,92.03,137.45,0,16.72,11.96,nu,QTPS,D,350,Q3,0.95,Q1,90,Q3,0,-99999,-99999,1,0.5,10,0.85,10,Robinson_etal_2003&Dowrick_Rhoades1998&HarvardCMT,0.035829259,0.035946166,0.036079297,0.03632156,0.036668849,0.03783759,0.039426898,0.043167006,0.044783869,0.042434873,0.039043405,0.030751332,0.025213319,0.018481636,0.01113447,-99999,-99999,-99999,-99999,-99999,-99999,-99999,0.040283027,0.040461111,0.040678001,0.04099499,0.04149367,0.042930675,0.044577998,0.046696388,0.047065377,0.045433636,0.041845079,0.033117155,0.02906835,0.022793478,0.013511226,-99999,-99999,-99999,-99999,-99999,-99999,-99999,0.035774,0.040236,0.023354,0.02647
471730,1993-08-10T00:51:55.033000Z,D93044A2s,6.89,0.08,Interface,R,1,41,41,107,nlloc,-45.3625,166.649,-45.8986,170.5097,5519161.25,2012843.95,5475848,2316608,34.75,34.75,306.03,307.29,297.73,299.13,263.14,166.6,0,16.72,11.96,nu,SKFS,D,140,Q2,0.8,Q3,25,Q3,0,-99999,-99999,1,0.25,10,0.425,10,Robinson_etal_2003&Dowrick_Rhoades1998&HarvardCMT,0.014960392,0.014977751,0.015001289,0.015041488,0.015113032,0.015452998,0.015780796,0.016252565,0.016522725,0.016274799,0.016399165,0.017446169,0.018022511,0.015432241,0.010078111,0.005363708,0.003163219,-99999,-99999,-99999,-99999,-99999,0.01628909,0.016305177,0.016319712,0.016334348,0.016364939,0.016441387,0.016575112,0.017889302,0.017938785,0.018311871,0.018658061,0.018883238,0.019141553,0.018052096,0.013213059,0.006609331,0.003608589,-99999,-99999,-99999,-99999,-99999,0.014949,0.016283,0.018465,0.019737
471730,1993-08-10T00:51:55.033000Z,D93054A6,6.89,0.08,Interface,R,1,41,41,107,nlloc,-45.3625,166.649,-43.883,169.0441,5519161.25,2012843.95,5695156,2192230,34.75,34.75,250.97,251.86,238.02,238.93,25.39,250.51,0,16.72,11.96,nu,HDWS,D,210,Q3,0.87,Q1,100,Q3,0,-99999,-99999,0,0.35,14,0.595,14,Robinson_etal_2003&Dowrick_Rhoades1998&HarvardCMT,0.030148906,0.030411822,0.030821598,0.031482446,0.0323312,0.034912827,0.036717929,0.036174992,0.030694832,0.028570984,0.027366063,0.023800569,0.020125849,0.017085596,0.012114907,0.005261234,-99999,-99999,-99999,-99999,-99999,-99999,0.035447418,0.035567022,0.035736033,0.035978655,0.036340457,0.038112364,0.040171037,0.041581711,0.040902698,0.038530616,0.034842899,0.027148081,0.0243391,0.01995892,0.013207782,0.006332252,-99999,-99999,-99999,-99999,-99999,-99999,0.029905,0.035416,0.021456,0.023931
471755,1993-08-10T09:46:38.453000Z,A93028A1,6.3,0.08,Slab,S,1,354,64,168,special,-38.55,177.92,-38.0079,177.284,6283090.62,2938734.07,6346024,2886230,30,15,81.95,90.77,69.76,78.95,-42.35,68.08,0,39,32.26,nu,028A,D,210,Q3,1,Q3,75,Q3,0,-99999,-99999,1,0.35,15,0.595,15,Reyners_et_al2010&Webb_Anderson_1998&Dowrick_Rhoades1998&HarvardCMT,0.06138667,0.061522362,0.061703295,0.062061614,0.062497827,0.064127829,0.066130617,0.069226401,0.074749941,0.075058415,0.072414101,0.065353032,0.055167009,0.03612042,0.026974051,0.017188287,-99999,-99999,-99999,-99999,-99999,-99999,0.068992587,0.069092007,0.069279102,0.069605117,0.069991275,0.07130857,0.076092639,0.083404342,0.089533321,0.085848654,0.083679482,0.079147128,0.06452469,0.04199204,0.033089054,0.022591417,-99999,-99999,-99999,-99999,-99999,-99999,0.061272,0.068831,0.052639,0.065922
471755,1993-08-10T09:46:38.453000Z,A93096A1,6.3,0.08,Slab,S,1,354,64,168,special,-38.55,177.92,-39.0342,177.4249,6283090.62,2938734.07,6231637,2892985,30,15,68.85,79.13,59.27,69.25,-47.59,-46.39,0,39,32.26,nu,WFSS,D,155,Q3,1.5,Q3,100,Q3,0,-99999,-99999,1,0.35,13,0.595,13,Reyners_et_al2010&Webb_Anderson_1998&Dowrick_Rhoades1998&HarvardCMT,0.043894066,0.043988596,0.04409731,0.044222984,0.044428641,0.045177178,0.047365488,0.050758157,0.052027889,0.052442624,0.050893676,0.046164517,0.043481313,0.032943311,0.030297132,0.018331438,-99999,-99999,-99999,-99999,-99999,-99999,0.056446979,0.056547818,0.056682604,0.05685111,0.057106797,0.057994658,0.058918317,0.060625435,0.063323727,0.064890172,0.064561201,0.057300594,0.050241001,0.039548797,0.032928182,0.019826967,-99999,-99999,-99999,-99999,-99999,-99999,0.043862,0.056459,0.046615,0.050072
471755,1993-08-10T09:46:38.453000Z,A93113A1,6.3,0.08,Slab,S,1,354,64,168,special,-38.55,177.92,-37.8735,177.5847,6283090.62,2938734.07,6359624,2913365,30,15,80.72,89.57,66.1,76.08,-13.94,78.77,0,39,32.26,nu,113A,C,522,Q3,0.15,Q3,10,Q3,0,-99999,-99999,1,0.42,13,0.714,13,Reyners_et_al2010&Webb_Anderson_1998&Dowrick_Rhoades1998&HarvardCMT,0.089806766,0.090141216,0.090687338,0.091447455,0.092528362,0.095750199,0.099128329,0.106566957,0.110373781,0.098426103,0.08571961,0.057472585,0.040692948,0.020935349,0.014476694,-99999,-99999,-99999,-99999,-99999,-99999,-99999,0.110974794,0.111249367,0.111800975,0.112436364,0.113167021,0.116428016,0.121792609,0.133101301,0.139331766,0.135386739,0.120167623,0.07907496,0.053490122,0.024847884,0.017766828,-99999,-99999,-99999,-99999,-99999,-99999,-99999,0.089493,0.110538,0.041559,0.054997
471755,1993-08-10T09:46:38.453000Z,D93014A4,6.3,0.08,Slab,S,1,354,64,168,special,-38.55,177.92,-39.4984,176.8761,6283090.62,2938734.07,6182359,2843283,30,15,138.75,144.15,129.07,134.18,-102.17,-90.2,0,39,32.26,nu,NCDS,E,162,Q3,1.25,Q2,110,Q3,0,-99999,-99999,0,0.25,10,0.425,10,Reyners_et_al2010&Webb_Anderson_1998&Dowrick_Rhoades1998&HarvardCMT,0.015070569,0.015142711,0.015234385,0.01536636,0.015540317,0.016005374,0.016293721,0.016858144,0.01672924,0.01574354,0.014547739,0.013377224,0.013095253,0.01177986,0.009143054,0.005059745,0.002800595,-99999,-99999,-99999,-99999,-99999,0.016773376,0.016830944,0.016901352,0.017005198,0.017169164,0.01764218,0.018073995,0.018919492,0.018899602,0.017339014,0.015872302,0.014920968,0.01563436,0.014869238,0.010574282,0.005241177,0.003298837,-99999,-99999,-99999,-99999,-99999,0.015065,0.016758,0.013876,0.016776
471755,1993-08-10T09:46:38.453000Z,D93016A1,6.3,0.08,Slab,S,1,354,64,168,special,-38.55,177.92,-38.6774,178.031,6283090.62,2938734.07,6268431,2947608,30,15,17.14,42.71,6.16,35.7,10.58,-15.51,0,39,32.26,nu,016A,C,480,Q3,0.15,Q3,10,Q3,0,-99999,-99999,0,0.3,21,0.51,21,Reyners_et_al2010&Webb_Anderson_1998&Dowrick_Rhoades1998&HarvardCMT,0.155712531,0.156115262,0.157479569,0.15902398,0.160442097,0.166412033,0.172889095,0.188436702,0.170266544,0.153851244,0.150320634,0.130388255,0.135084706,0.089237159,0.048775776,0.024414746,-99999,-99999,-99999,-99999,-99999,-99999,0.192974023,0.193615406,0.195086634,0.197379008,0.199792905,0.206325182,0.212419654,0.22210156,0.206048199,0.180369477,0.164483365,0.178685801,0.173083691,0.108376689,0.063918449,0.030492987,-99999,-99999,-99999,-99999,-99999,-99999,0.154414,0.193073,0.103709,0.140525
471755,1993-08-10T09:46:38.453000Z,D93017A1,6.3,0.08,Slab,S,1,354,64,168,special,-38.55,177.92,-38.6665,178.0227,6283090.62,2938734.07,6269685,2946952,30,15,15.73,42.06,5.22,35.18,10.06,-14.19,0,39,32.26,nu,GISS,D,138,Q2,1,Q1,40,Q3,0,-99999,-99999,0,0.25,30,0.425,30,Reyners_et_al2010&Webb_Anderson_1998&Dowrick_Rhoades1998&HarvardCMT,0.18691821,0.18749265,0.188896129,0.188547857,0.189882704,0.199366756,0.207481428,0.20667654,0.215658783,0.224512611,0.21865397,0.181447319,0.142657989,0.098524338,0.063085109,0.033807269,0.019157085,-99999,-99999,-99999,-99999,-99999,0.217124383,0.217757902,0.218343128,0.219873646,0.222971015,0.236950362,0.247072566,0.258218047,0.26456617,0.266351321,0.254164217,0.199413067,0.162450491,0.103338418,0.069833695,0.03683601,0.021551862,-99999,-99999,-99999,-99999,-99999,0.186203,0.217059,0.121691,0.144066
471755,1993-08-10T09:46:38.453000Z,D93021A3,6.3,0.08,Slab,S,1,354,64,168,special,-38.55,177.92,-38.4249,176.3157,6283090.62,2938734.07,6303375,2799556,30,15,140.32,146.04,135.79,140.25,-133.01,34.72,10,39,32.26,nu,021A,D,210,Q3,2,Q3,200,Q3,0,-99999,-99999,1,0.18,10,0.306,10,Reyners_et_al2010&Webb_Anderson_1998&Dowrick_Rhoades1998&HarvardCMT,0.02635347,0.026361605,0.026381223,0.026403594,0.026443963,0.026552554,0.026677693,0.026820467,0.026839667,0.027029263,0.027520188,0.028808777,0.030116842,0.031398488,0.031610178,0.025822637,0.015127891,0.005987816,-99999,-99999,-99999,-99999,0.028011099,0.028016317,0.02802729,0.028042528,0.028056483,0.028092551,0.028125962,0.028648569,0.029255228,0.029837744,0.030396639,0.031478048,0.032451723,0.035627926,0.036289574,0.028428541,0.018095851,0.007699404,-99999,-99999,-99999,-99999,0.026355,0.028006,0.056127,0.064898
608810,1994-06-18T03:25:13.819000Z,D4505A01,6.72,0.08,Crustal,R,1,221,47,112,geonet,-43.0078,171.4762,-42.9489,171.5677,5798820.69,2385786.14,5805487,2393135,21.06,21.06,9.91,11.12,2.02,4.12,2.92,-9.85,0,4.27,1,hw,APPS,C,300,Q2,0.4,Q1,30,Q2,0,-99999,-99999,0,0.11,40,0.187,40,Abercrombie_etal_2000&HarvardCMT,0.432129444,0.436100613,0.440853354,0.434607029,0.428860078,0.424722696,0.420872236,0.45577255,0.488247337,0.466779267,0.426772593,0.357450807,0.313826895,0.195975391,0.124655427,0.063920343,0.044823596,0.024630189,0.016298278,0.010359197,-99999,-99999,0.50810513,0.51237913,0.516120448,0.510565074,0.498185426,0.507423167,0.545087725,0.608405019,0.613203963,0.574669239,0.539528748,0.489433825,0.419007692,0.248253756,0.160511241,0.072077496,0.053195364,0.030276988,0.019297625,0.012743688,-99999,-99999,0.423633,0.509184,0.28269,0.316738
