CuspID,Origin_time,Record,Mw,MwUncert,TectClass,Mech,PreferredFaultPlane,Strike,Dip,Rake,Location,HypLat,HypLon,StationLat,StationLon,HypN,HypE,StationN,StationE,LENGTH_km,WIDTH_km,Repi_km,Rhyp_km,Rjb_km,Rrup_km,Rx_km,Ry_km,Rvol_km,HypDepth_km,ZTOR_km,HWFW,SiteCode,SiteClass1170,Vs30,Vs30Uncert,Tsite,TsiteUncert,Z1,Z1Uncertainty,Directivity,Pulse_or,Pulse_T,S_Trigger_Flag,fcButterHP,f_iniLP,fmin,fmax,References,f100.0000SA_RotD50,f50.0000SA_RotD50,f33.3333SA_RotD50,f25.0000SA_RotD50,f20.0000SA_RotD50,f13.3333SA_RotD50,f10.0000SA_RotD50,f6.6667SA_RotD50,f5.0000SA_RotD50,f4.0000SA_RotD50,f3.3333SA_RotD50,f2.5000SA_RotD50,f2.0000SA_RotD50,f1.3333SA_RotD50,f1.0000SA_RotD50,f0.6667SA_RotD50,f0.5000SA_RotD50,f0.3333SA_RotD50,f0.2500SA_RotD50,f0.2000SA_RotD50,f0.1333SA_RotD50,f0.1000SA_RotD50,f100.0000SA_RotD100,f50.0000SA_RotD100,f33.3333SA_RotD100,f25.0000SA_RotD100,f20.0000SA_RotD100,f13.3333SA_RotD100,f10.0000SA_RotD100,f6.6667SA_RotD100,f5.0000SA_RotD100,f4.0000SA_RotD100,f3.3333SA_RotD100,f2.5000SA_RotD100,f2.0000SA_RotD100,f1.3333SA_RotD100,f1.0000SA_RotD100,f0.6667SA_RotD100,f0.5000SA_RotD100,f0.3333SA_RotD100,f0.2500SA_RotD100,f0.2000SA_RotD100,f0.1333SA_RotD100,f0.1000SA_RotD100,PGA_RotD50,PGA_RotD100,PGV_RotD50,PGV_RotD100
241414,1991-07-12T04:42:23.301999Z,D91302A4,5.3,0.15,Slab,S,1,135,57,25,geonet,-39.3052,175.9748,-39.9338,175.053,6206777.74,2766544.08,6139282,2685450,4.1,4.1,105.45,126.78,104.32,126.64,106.19,-9.62,0,70.28,68.56,nu,302A,D,250,Q2,0.8,Q3,80,Q3,0,-99999,-99999,1,0.3,12,0.51,12,HarvardCMT,0.017615619,0.017670264,0.017762637,0.017840661,0.018030077,0.01851021,0.020153211,0.021152411,0.022643129,0.024782637,0.025029151,0.022692024,0.019997745,0.013345564,0.008983477,0.004736642,-99999,-99999,-99999,-99999,-99999,-99999,0.019820775,0.019907108,0.020033727,0.020188975,0.020375768,0.021046974,0.02207319,0.022984873,0.024535075,0.027204323,0.028316559,0.02834141,0.023829148,0.016505023,0.012320426,0.006334665,-99999,-99999,-99999,-99999,-99999,-99999,0.01761,0.019802,0.015326,0.018936
255338,1991-09-08T13:50:30.989999Z,A92087A4,5.61,0.15,Slab,R,1,95,70,108,geonet,-40.2442,175.1672,-39.7163,175.1455,6104594.2,2694363.31,6163232,2693941,5.9,5.9,58.73,104.69,57.7,101.84,-57.37,-5.53,0,86.69,83.93,nu,087A,B,1000,Q3,<0.1,Q3,0,Q2,0,-99999,-99999,1,0.6,27,1.02,27,HarvardCMT,0.142619041,0.14542578,0.150719274,0.160273682,0.165446485,0.179188208,0.193983478,0.214605942,0.155231393,0.137342319,0.115129644,0.100773661,0.064385656,0.025762849,-99999,-99999,-99999,-99999,-99999,-99999,-99999,-99999,0.165935674,0.16858021,0.173740987,0.18058911,0.190359448,0.197770544,0.220432007,0.262659602,0.189842917,0.165102491,0.14262962,0.107761106,0.076970808,0.03078222,-99999,-99999,-99999,-99999,-99999,-99999,-99999,-99999,0.138426,0.165445,0.052495,0.059593
255338,1991-09-08T13:50:30.989999Z,D91302A5,5.61,0.15,Slab,R,1,95,70,108,geonet,-40.2442,175.1672,-39.9338,175.053,6104594.2,2694363.31,6139282,2685450,5.9,5.9,35.86,93.81,34.54,90.88,-32.78,-11.9,0,86.69,83.93,nu,302A,D,250,Q2,0.8,Q3,80,Q3,0,-99999,-99999,0,0.35,20,0.595,20,HarvardCMT,0.099068673,0.09986363,0.101406755,0.10485731,0.112150756,0.116808338,0.135864322,0.123087421,0.126385111,0.121050942,0.108000798,0.093971017,0.076680831,0.048045404,0.029588209,0.009889437,-99999,-99999,-99999,-99999,-99999,-99999,0.102825056,0.104181281,0.107526393,0.113978216,0.124101968,0.144889578,0.153788839,0.148306893,0.174596725,0.171197777,0.142563145,0.122061648,0.101068123,0.050566755,0.033123288,0.012469378,-99999,-99999,-99999,-99999,-99999,-99999,0.098958,0.102989,0.049331,0.058808
255338,1991-09-08T13:50:30.989999Z,D91467A2,5.61,0.15,Slab,R,1,95,70,108,geonet,-40.2442,175.1672,-41.2425,174.9024,6104594.2,2694363.31,5994293,2669430,5.9,5.9,113.22,142.49,112.16,141.58,113.06,-15.23,0,86.69,83.93,nu,467A,D,218,Q3,1.5,Q3,200,Q3,0,-99999,-99999,1,0.25,15,0.425,15,HarvardCMT,0.025401963,0.025586208,0.025865087,0.026232715,0.026722396,0.02860774,0.032200566,0.03296979,0.035154492,0.032579103,0.032474932,0.035072161,0.032432537,0.021073242,0.010135146,0.004654908,0.002327601,-99999,-99999,-99999,-99999,-99999,0.028940008,0.029158018,0.029499713,0.029980692,0.030752273,0.03232937,0.036040479,0.039829753,0.045599159,0.040683726,0.040516458,0.042697795,0.041693586,0.026363432,0.013775084,0.005434962,0.002544209,-99999,-99999,-99999,-99999,-99999,0.025376,0.028816,0.019351,0.021977
255338,1991-09-08T13:50:30.989999Z,D91468A2,5.61,0.15,Slab,R,1,95,70,108,geonet,-40.2442,175.1672,-41.2011,174.9547,6104594.2,2694363.31,5998793,2673916,5.9,5.9,107.9,138.3,106.86,137.35,108.18,-11.15,0,86.69,83.93,nu,468A,D,190,Q1,0.9,Q3,50,Q3,0,-99999,-99999,0,0.45,13,0.765,13,HarvardCMT,0.041241934,0.041646108,0.042195382,0.042838833,0.043818428,0.049515261,0.058419422,0.05803597,0.060320913,0.057035922,0.055820604,0.049217778,0.041336184,0.0232262,0.016252659,-99999,-99999,-99999,-99999,-99999,-99999,-99999,0.05642839,0.056897264,0.057668394,0.058844798,0.060536453,0.069200466,0.081589769,0.081698746,0.084842644,0.068976421,0.060663805,0.063900475,0.050208875,0.02867174,0.018715301,-99999,-99999,-99999,-99999,-99999,-99999,-99999,0.041167,0.056406,0.028165,0.036325
255338,1991-09-08T13:50:30.989999Z,D91606B1,5.61,0.15,Slab,R,1,95,70,108,geonet,-40.2442,175.1672,-41.2333,174.9199,6104594.2,2694363.31,5995282,2670919,5.9,5.9,111.94,141.47,110.88,140.55,111.94,-13.83,0,86.69,83.93,nu,606B,B,800,Q3,<0.1,Q3,0,Q3,0,-99999,-99999,0,0.45,26,0.765,26,HarvardCMT,0.018282328,0.018468492,0.018768352,0.019248742,0.020114448,0.022530354,0.022245225,0.021078425,0.024503814,0.026768948,0.024781124,0.018588767,0.012618651,0.006215484,0.003518928,-99999,-99999,-99999,-99999,-99999,-99999,-99999,0.022049537,0.022403683,0.022890408,0.02316146,0.023608322,0.024942707,0.025430132,0.024924565,0.030817313,0.032797748,0.031649627,0.023906259,0.016445509,0.007929433,0.004772948,-99999,-99999,-99999,-99999,-99999,-99999,-99999,0.018079,0.022062,0.00858,0.011222
255338,1991-09-08T13:50:30.989999Z,D91642E7,5.61,0.15,Slab,R,1,95,70,108,geonet,-40.2442,175.1672,-41.2341,174.918,6104594.2,2694363.31,5995197,2670758,5.9,5.9,112.06,141.57,111,140.65,112.04,-13.98,0,86.69,83.93,nu,642E,C,350,Q1,0.35,Q2,50,Q3,0,-99999,-99999,0,0.5,12,0.85,12,HarvardCMT,0.049747941,0.049858418,0.05002294,0.050276706,0.050634691,0.051679269,0.05210537,0.061815782,0.075375807,0.080938588,0.085022036,0.068858825,0.041540781,0.017833285,0.009287511,-99999,-99999,-99999,-99999,-99999,-99999,-99999,0.060226081,0.060409695,0.060736988,0.061155335,0.061663818,0.063504195,0.066065927,0.076400503,0.092238437,0.100124439,0.101913598,0.075928277,0.044901477,0.019512943,0.010131536,-99999,-99999,-99999,-99999,-99999,-99999,-99999,0.049631,0.060112,0.028527,0.031818
255338,1991-09-08T13:50:30.989999Z,D91644C3,5.61,0.15,Slab,R,1,95,70,108,geonet,-40.2442,175.1672,-41.2187,174.8826,6104594.2,2694363.31,5996970,2667828,5.9,5.9,110.98,140.72,109.9,139.76,110.53,-17.05,0,86.69,83.93,nu,644C,D,189,Q3,2,Q3,250,Q3,0,-99999,-99999,0,0.35,15,0.595,15,HarvardCMT,0.022105097,0.022267643,0.022519959,0.022829327,0.02334657,0.0255027,0.027942091,0.031724975,0.03197741,0.030728499,0.031472747,0.030113753,0.022896055,0.010289553,0.005980355,0.003213068,-99999,-99999,-99999,-99999,-99999,-99999,0.02533001,0.025475042,0.025691061,0.02588321,0.026037296,0.028812628,0.03029244,0.033864247,0.033954469,0.035394297,0.037037667,0.033083461,0.02432546,0.011246131,0.007413843,0.003869202,-99999,-99999,-99999,-99999,-99999,-99999,0.022024,0.025364,0.012054,0.01511
255338,1991-09-08T13:50:30.989999Z,D91646A2,5.61,0.15,Slab,R,1,95,70,108,geonet,-40.2442,175.1672,-41.2574,174.9485,6104594.2,2694363.31,5992552,2673256,5.9,5.9,114.16,143.28,113.12,142.4,114.46,-11.26,0,86.69,83.93,nu,WDAS,E,120,Q1,1.6,Q2,62,Q2,0,-99999,-99999,0,0.35,18,0.595,18,HarvardCMT,0.051314885,0.051557435,0.052071506,0.052863177,0.054044465,0.056468619,0.059246936,0.06638386,0.068776998,0.070648502,0.071636835,0.055897626,0.041337389,0.022995483,0.01682378,0.008077108,-99999,-99999,-99999,-99999,-99999,-99999,0.055340064,0.055558153,0.056032249,0.05678379,0.058084661,0.063659912,0.068902788,0.074619626,0.077052289,0.085818937,0.08629721,0.066146442,0.047059567,0.025950274,0.022461418,0.010754786,-99999,-99999,-99999,-99999,-99999,-99999,0.051233,0.055137,0.027295,0.029666
255338,1991-09-08T13:50:30.989999Z,D91705B3,5.61,0.15,Slab,R,1,95,70,108,geonet,-40.2442,175.1672,-41.1391,174.8502,6104594.2,2694363.31,6005867,2665298,5.9,5.9,103.03,134.58,101.9,133.49,101.89,-20.35,0,86.69,83.93,nu,707A,C,570,Q3,0.15,Q3,10,Q3,0,-99999,-99999,0,0.5,15,0.85,15,HarvardCMT,0.033751917,0.034026696,0.03441491,0.03500557,0.035851841,0.036940126,0.040340582,0.044391044,0.052182853,0.050916133,0.044435864,0.030865922,0.01856453,0.00831814,0.005028922,-99999,-99999,-99999,-99999,-99999,-99999,-99999,0.039212444,0.039323132,0.039655283,0.039941105,0.040293296,0.043095728,0.051577151,0.059131585,0.070425094,0.064832784,0.054047339,0.03914068,0.024728215,0.010357022,0.006557955,-99999,-99999,-99999,-99999,-99999,-99999,-99999,0.033595,0.039242,0.013553,0.018716
255338,1991-09-08T13:50:30.989999Z,D91706A2,5.61,0.15,Slab,R,1,95,70,108,geonet,-40.2442,175.1672,-41.1288,174.8382,6104594.2,2694363.31,6007032,2664315,5.9,5.9,102.2,133.93,101.05,132.82,100.81,-21.43,0,86.69,83.93,nu,706A,C,210,Q3,0.5,Q2,30,Q3,0,-99999,-99999,0,0.35,12,0.595,12,HarvardCMT,0.074956729,0.075272924,0.075838067,0.076592631,0.077759947,0.08353382,0.091444312,0.105299488,0.103901805,0.097027435,0.098760508,0.093159167,0.059594186,0.030065357,0.014323934,0.006080301,-99999,-99999,-99999,-99999,-99999,-99999,0.089337519,0.089681225,0.09021379,0.090977085,0.092227199,0.096973625,0.102854489,0.127289379,0.13223827,0.118778088,0.133881564,0.12046258,0.084276008,0.034276922,0.017119605,0.008031073,-99999,-99999,-99999,-99999,-99999,-99999,0.074799,0.089337,0.037786,0.048001
255338,1991-09-08T13:50:30.989999Z,D91900B7,5.61,0.15,Slab,R,1,95,70,108,geonet,-40.2442,175.1672,-41.2921,174.779,6104594.2,2694363.31,5989003,2658976,5.9,5.9,121.02,148.76,119.87,147.84,119.24,-25.18,0,86.69,83.93,nu,941A,D,272,Q2,0.85,Q2,9.85E+01,Q2,0,-99999,-99999,0,0.45,12,0.765,12,HarvardCMT,0.03602512,0.036123162,0.036261935,0.036509407,0.036801231,0.037439661,0.038991137,0.045936383,0.052497306,0.056132004,0.054955635,0.04686353,0.041488987,0.022468541,0.013805933,-99999,-99999,-99999,-99999,-99999,-99999,-99999,0.050790416,0.050983277,0.05123834,0.051543266,0.05193644,0.052951358,0.052640858,0.062237245,0.073136012,0.078118582,0.074052986,0.065023146,0.058573752,0.028874617,0.019206017,-99999,-99999,-99999,-99999,-99999,-99999,-99999,0.035998,0.05075,0.022835,0.030844
255338,1991-09-08T13:50:30.989999Z,D91918B7,5.61,0.15,Slab,R,1,95,70,108,geonet,-40.2442,175.1672,-41.284,174.7682,6104594.2,2694363.31,5989908,2658140,5.9,5.9,120.4,148.34,119.25,147.39,118.41,-26.09,0,86.69,83.93,nu,WEL,B,1000,Q3,0.3,Q1,0,Q2,0,-99999,-99999,0,0.5,18,0.85,18,HarvardCMT,0.041830822,0.042050543,0.042409475,0.042984015,0.043893501,0.046968187,0.050557506,0.057846819,0.065656962,0.065452312,0.052353246,0.030868965,0.018032255,0.008063138,0.0040975,-99999,-99999,-99999,-99999,-99999,-99999,-99999,0.057560149,0.057836688,0.058420639,0.059399326,0.060854651,0.065096955,0.068883902,0.078132206,0.09220519,0.088642398,0.069357847,0.041284476,0.024845165,0.011344162,0.005514862,-99999,-99999,-99999,-99999,-99999,-99999,-99999,0.041816,0.05761,0.016822,0.023348
255338,1991-09-08T13:50:30.989999Z,D91935B3,5.61,0.15,Slab,R,1,95,70,108,geonet,-40.2442,175.1672,-41.2108,174.9047,6104594.2,2694363.31,5997808,2669699,5.9,5.9,109.73,139.74,108.66,138.78,109.53,-15.26,0,86.69,83.93,nu,935A,D,240,Q3,1.2,Q3,275,Q3,0,-99999,-99999,1,0.45,15,0.765,15,HarvardCMT,0.035504385,0.035593936,0.035710239,0.035863133,0.03592987,0.037392626,0.042116896,0.048138525,0.058041231,0.063579025,0.060320299,0.046679353,0.034918571,0.014757901,0.008179531,-99999,-99999,-99999,-99999,-99999,-99999,-99999,0.050143331,0.050239819,0.050348373,0.050501735,0.050534951,0.052529772,0.059007178,0.068066273,0.080289125,0.088611029,0.084957594,0.060995501,0.038312339,0.016709217,0.008986159,-99999,-99999,-99999,-99999,-99999,-99999,-99999,0.035455,0.050141,0.022492,0.028499
255338,1991-09-08T13:50:30.989999Z,K91102A3,5.61,0.15,Slab,R,1,95,70,108,geonet,-40.2442,175.1672,-39.4637,175.5669,6104594.2,2694363.31,6190285,2730871,5.9,5.9,93.25,127.72,91.95,125.06,-87.54,28.9,0,86.69,83.93,nu,102A,C,555,Q3,0.15,Q3,12,Q3,0,-99999,-99999,1,0.5,18,0.85,18,HarvardCMT,0.045303309,0.045944692,0.046678272,0.048081685,0.049544224,0.053966528,0.059117841,0.0677593,0.061358733,0.049235034,0.040282376,0.025378392,0.01701647,0.009799839,0.006458527,-99999,-99999,-99999,-99999,-99999,-99999,-99999,0.051648795,0.052589018,0.054129811,0.056158598,0.058489608,0.068115257,0.077205737,0.072385922,0.070921848,0.058886027,0.047093787,0.03183386,0.022371761,0.011275906,0.008403732,-99999,-99999,-99999,-99999,-99999,-99999,-99999,0.044941,0.051243,0.015324,0.0173
314805,1992-03-30T07:02:51.226999Z,D92505A1,5.5,0.15,Crustal,R,1,205,76,77,nlloc,-43.0605,171.212,-42.9489,171.5677,5792540.97,2364375.65,5805487,2393135,5.17,5.17,31.47,32.08,29.52,30.01,-19.97,-23.89,0,5.12,2.61,nu,APPS,C,300,Q2,0.4,Q1,30,Q2,0,-99999,-99999,0,0.6,20,1.02,20,HarvardCMT,0.026725182,0.027025825,0.027475161,0.028344787,0.030285183,0.033201057,0.034202438,0.041019974,0.038211672,0.033354841,0.036551477,0.033156202,0.022623405,0.011172174,-99999,-99999,-99999,-99999,-99999,-99999,-99999,-99999,0.031032369,0.031132656,0.031404404,0.031672294,0.03216461,0.035187225,0.037164322,0.042694039,0.043567943,0.044186094,0.043553561,0.041583554,0.029050185,0.012757233,-99999,-99999,-99999,-99999,-99999,-99999,-99999,-99999,0.026526,0.031057,0.016402,0.018266
339342,1992-05-27T22:30:35.064000Z,D92129A2,5.9,0.08,Slab,S,1,117,85,21,special,-41.63,173.62,-41.7999,172.328,5952812.98,2561652.09,5933893,2454147,8.2,8.2,108.89,128.17,105.65,124.79,66.02,-87.2,0,67,62.92,nu,MCAS,D,501,Q3,1.6,Q3,200,Q3,0,-99999,-99999,0,0.23,19,0.391,19,Webb_Anderson_1998&Dowrick_Rhoades1998&HarvardCMT,0.028733736,0.029165769,0.029787422,0.030523955,0.031940998,0.034283269,0.033804129,0.031647807,0.033184283,0.033325001,0.035258285,0.030038385,0.021737831,0.014572086,0.009537778,0.005630578,0.003861504,-99999,-99999,-99999,-99999,-99999,0.032364433,0.032616823,0.033040815,0.033812365,0.035202516,0.038505191,0.03851828,0.037281494,0.037462264,0.036380531,0.038826872,0.031750586,0.023889468,0.01794284,0.012159558,0.006503239,0.004653404,-99999,-99999,-99999,-99999,-99999,0.028644,0.032355,0.016475,0.019402
339342,1992-05-27T22:30:35.064000Z,D92467A3,5.9,0.08,Slab,S,1,117,85,21,special,-41.63,173.62,-41.2425,174.9024,5952812.98,2561652.09,5994293,2669430,8.2,8.2,115.26,133.52,112.56,130.25,-85.53,77.2,0,67,62.92,nu,467A,D,218,Q3,1.5,Q3,200,Q3,0,-99999,-99999,0,0.35,14,0.595,14,Webb_Anderson_1998&Dowrick_Rhoades1998&HarvardCMT,0.031674622,0.031784815,0.032006383,0.032225915,0.032643151,0.033337738,0.034530631,0.038474231,0.04100395,0.042417445,0.036912011,0.039722186,0.037387761,0.016862269,0.010033074,0.005560623,-99999,-99999,-99999,-99999,-99999,-99999,0.03481387,0.034947803,0.035257978,0.03572161,0.036403263,0.039240112,0.039889291,0.039953022,0.044889628,0.045440696,0.044360963,0.044787568,0.044188792,0.019759693,0.012336835,0.006237,-99999,-99999,-99999,-99999,-99999,-99999,0.031627,0.034838,0.01937,0.02218
339342,1992-05-27T22:30:35.064000Z,D92468A6,5.9,0.08,Slab,S,1,117,85,21,special,-41.63,173.62,-41.2011,174.9547,5952812.98,2561652.09,5998793,2673916,8.2,8.2,121.08,138.59,118.45,135.4,-91.58,79.15,0,67,62.92,nu,468A,D,190,Q1,0.9,Q3,50,Q3,0,-99999,-99999,0,0.4,19,0.68,19,Webb_Anderson_1998&Dowrick_Rhoades1998&HarvardCMT,0.030554774,0.030742972,0.030988156,0.031367292,0.032052858,0.034917422,0.03931011,0.041653994,0.040830956,0.040636745,0.03926195,0.036944203,0.026069447,0.013607885,0.011083072,-99999,-99999,-99999,-99999,-99999,-99999,-99999,0.03562272,0.035781651,0.036177991,0.036680501,0.037409021,0.039743141,0.04300156,0.046207204,0.045825293,0.044346893,0.043550951,0.040618295,0.031776531,0.018744599,0.014076897,-99999,-99999,-99999,-99999,-99999,-99999,-99999,0.030491,0.035661,0.016906,0.020622
339342,1992-05-27T22:30:35.064000Z,D92644C3,5.9,0.08,Slab,S,1,117,85,21,special,-41.63,173.62,-41.2187,174.8826,5952812.98,2561652.09,5996970,2667828,8.2,8.2,114.77,133.09,112.16,129.87,-87.19,74.56,0,67,62.92,nu,644C,D,189,Q3,2,Q3,250,Q3,0,-99999,-99999,0,0.25,12,0.425,12,Webb_Anderson_1998&Dowrick_Rhoades1998&HarvardCMT,0.021867381,0.021953221,0.022099563,0.022296082,0.022559435,0.02329152,0.02519843,0.029014776,0.029406237,0.031087403,0.030088192,0.028721817,0.027876319,0.013904867,0.007794712,0.003858428,0.00252518,-99999,-99999,-99999,-99999,-99999,0.025534935,0.025650835,0.025861129,0.02623451,0.02679911,0.029631033,0.032405587,0.035515075,0.034936342,0.03578065,0.034630516,0.036932067,0.032316255,0.017135937,0.00903423,0.004874587,0.003362792,-99999,-99999,-99999,-99999,-99999,0.021789,0.025551,0.015829,0.019203
339342,1992-05-27T22:30:35.064000Z,D92646A5,5.9,0.08,Slab,S,1,117,85,21,special,-41.63,173.62,-41.2574,174.9485,5952812.98,2561652.09,5992552,2673256,8.2,8.2,118.23,136.15,115.45,132.85,-85.72,81.4,0,67,62.92,nu,WDAS,E,120,Q1,1.6,Q2,62,Q2,0,-99999,-99999,0,0.5,16,0.85,16,Webb_Anderson_1998&Dowrick_Rhoades1998&HarvardCMT,0.027542898,0.027722854,0.027966983,0.028398624,0.028962211,0.030443048,0.030525653,0.02944655,0.033740772,0.038705019,0.040067385,0.030972924,0.027779482,0.019793016,0.021552939,-99999,-99999,-99999,-99999,-99999,-99999,-99999,0.03183023,0.03194949,0.032164866,0.032580964,0.033132583,0.034157065,0.033323156,0.032352068,0.037144623,0.042993686,0.044821017,0.034730942,0.029574029,0.025162225,0.024327642,-99999,-99999,-99999,-99999,-99999,-99999,-99999,0.027296,0.031602,0.020955,0.023387
339342,1992-05-27T22:30:35.064000Z,D92647A1,5.9,0.08,Slab,S,1,117,85,21,special,-41.63,173.62,-41.2871,174.778,5952812.98,2561652.09,5989560,2658904,8.2,8.2,103.76,123.68,101.04,120.35,-76.54,69.97,0,67,62.92,nu,647A,C,474,Q2,0.12,Q2,5.70E+00,Q2,0,-99999,-99999,0,0.4,19,0.68,19,Webb_Anderson_1998&Dowrick_Rhoades1998&HarvardCMT,0.019831878,0.020113804,0.020521685,0.02103409,0.021761121,0.022301942,0.023522632,0.025122888,0.024573416,0.025203794,0.027732985,0.023122188,0.015829366,0.00680204,0.005288651,-99999,-99999,-99999,-99999,-99999,-99999,-99999,0.024828791,0.024996848,0.025263143,0.025663146,0.026451231,0.029054352,0.028118843,0.029867402,0.029436573,0.030725332,0.030330935,0.030688394,0.022385022,0.009317345,0.00725001,-99999,-99999,-99999,-99999,-99999,-99999,-99999,0.01987,0.024677,0.010584,0.014771
339342,1992-05-27T22:30:35.064000Z,D92706A2,5.9,0.08,Slab,S,1,117,85,21,special,-41.63,173.62,-41.1288,174.8382,5952812.98,2561652.09,6007032,2664315,8.2,8.2,115.91,134.05,113.6,131,-94.56,66.86,0,67,62.92,nu,706A,C,210,Q3,0.5,Q2,30,Q3,0,-99999,-99999,0,0.45,12,0.765,12,Webb_Anderson_1998&Dowrick_Rhoades1998&HarvardCMT,0.030389777,0.030600458,0.03091632,0.031282006,0.031713901,0.033513371,0.035908357,0.039228826,0.046711833,0.048006824,0.038886255,0.034612099,0.026909994,0.014959388,0.009803755,-99999,-99999,-99999,-99999,-99999,-99999,-99999,0.033411461,0.033619777,0.033932101,0.034466109,0.035206167,0.037731784,0.038850481,0.043232495,0.05089415,0.052691109,0.046680419,0.0395955,0.029674981,0.01690809,0.01120044,-99999,-99999,-99999,-99999,-99999,-99999,-99999,0.030306,0.033412,0.017727,0.019672
