CuspID,Origin_time,Record,Mw,MwUncert,TectClass,Mech,PreferredFaultPlane,Strike,Dip,Rake,Location,HypLat,HypLon,StationLat,StationLon,HypN,HypE,StationN,StationE,LENGTH_km,WIDTH_km,Repi_km,Rhyp_km,Rjb_km,Rrup_km,Rx_km,Ry_km,Rvol_km,HypDepth_km,ZTOR_km,HWFW,SiteCode,SiteClass1170,Vs30,Vs30Uncert,Tsite,TsiteUncert,Z1,Z1Uncertainty,Directivity,Pulse_or,Pulse_T,S_Trigger_Flag,fcButterHP,f_iniLP,fmin,fmax,References,f100.0000SA_GeoMean,f50.0000SA_GeoMean,f33.3333SA_GeoMean,f25.0000SA_GeoMean,f20.0000SA_GeoMean,f13.3333SA_GeoMean,f10.0000SA_GeoMean,f6.6667SA_GeoMean,f5.0000SA_GeoMean,f4.0000SA_GeoMean,f3.3333SA_GeoMean,f2.5000SA_GeoMean,f2.0000SA_GeoMean,f1.3333SA_GeoMean,f1.0000SA_GeoMean,f0.6667SA_GeoMean,f0.5000SA_GeoMean,f0.3333SA_GeoMean,f0.2500SA_GeoMean,f0.2000SA_GeoMean,f0.1333SA_GeoMean,f0.1000SA_GeoMean,PGA_Geomean,PGV_Geomean
2366369,2005-02-17T21:31:09.762000Z,D05302A02,4.62,0.1,Crustal,R,0,43,70,77,simulps,-39.894,174.6308,-39.9338,175.053,6144453.04,2649466.16,6139282,2685450,1.9,1.9,36.27,48.28,35.52,47.6,-99999,-99999,0,31.75,31.12,nu,302A,D,250,Q2,0.8,Q3,80,Q3,0,-99999,-99999,0,0.6,20,1.02,20,Ristau2013,0.026151712,0.026550444,0.027303214,0.028940594,0.038857428,0.036601478,0.051674106,0.068541364,0.059849718,0.054037318,0.063601296,0.052693608,0.032435349,0.012208486,-99999,-99999,-99999,-99999,-99999,-99999,-99999,-99999,0.026021,0.014267
2376455,2005-03-13T15:08:13.134000Z,I05464A11,5.36,0.06,Slab,U,0,317,86,-6.70E+01,simulps,-40.1015,173.5983,-41.2308,174.9135,6122550.1,2561016.88,5995572,2670389,4.4,4.4,167.54,225.47,165.43,223.9,-99999,-99999,0,150.82,149.29,nu,464A,D,210,Q3,1.2,Q3,170,Q3,0,-99999,-99999,1,0.3,18,0.51,18,Ristau2013&HarvardCMT,0.014317141,0.014417339,0.014738614,0.01527922,0.016190933,0.021694541,0.029651647,0.031179142,0.036425343,0.029007866,0.047431241,0.040016344,0.025335411,0.007786843,0.005037426,0.002136356,-99999,-99999,-99999,-99999,-99999,-99999,0.014291,0.007429
2376455,2005-03-13T15:08:13.134000Z,I05467A13,5.36,0.06,Slab,U,0,317,86,-6.70E+01,simulps,-40.1015,173.5983,-41.2425,174.9024,6122550.1,2561016.88,5994293,2669430,4.4,4.4,167.9,225.73,165.79,224.16,-99999,-99999,0,150.82,149.29,nu,467A,D,218,Q3,1.5,Q3,200,Q3,0,-99999,-99999,0,0.35,13,0.595,13,Ristau2013&HarvardCMT,0.015821099,0.015930433,0.016120375,0.016376792,0.016717101,0.019647522,0.021130966,0.036563752,0.073155,0.027231325,0.028137684,0.03809355,0.031801313,0.010254205,0.006325138,0.003719351,-99999,-99999,-99999,-99999,-99999,-99999,0.015817,0.008761
2376455,2005-03-13T15:08:13.134000Z,I05468A10,5.36,0.06,Slab,U,0,317,86,-6.70E+01,simulps,-40.1015,173.5983,-41.2011,174.9547,6122550.1,2561016.88,5998793,2673916,4.4,4.4,167.45,225.41,165.34,223.85,-99999,-99999,0,150.82,149.29,nu,468A,D,190,Q1,0.9,Q3,50,Q3,0,-99999,-99999,1,0.5,21,0.85,21,Ristau2013&HarvardCMT,0.01984639,0.019931815,0.020086632,0.020829253,0.023116077,0.024813562,0.035610137,0.051489424,0.078466232,0.054179146,0.050608102,0.043540988,0.035178454,0.012470576,0.012726336,-99999,-99999,-99999,-99999,-99999,-99999,-99999,0.019794,0.010066
2376455,2005-03-13T15:08:13.134000Z,I05603B01,5.36,0.06,Slab,U,0,317,86,-6.70E+01,simulps,-40.1015,173.5983,-41.2237,174.86,6122550.1,2561016.88,5996453,2665923,4.4,4.4,164,222.83,161.89,221.28,-99999,-99999,0,150.82,149.29,nu,603B,B,1000,Q3,<0.1,Q3,0,Q3,0,-99999,-99999,1,0.4,15,0.68,15,Ristau2013&HarvardCMT,0.013407145,0.013511372,0.013721103,0.014021429,0.014510532,0.014989641,0.018375272,0.031083892,0.0558072,0.024713479,0.024146687,0.017079091,0.008320387,0.002859167,0.00182202,-99999,-99999,-99999,-99999,-99999,-99999,-99999,0.013374,0.005102
2376455,2005-03-13T15:08:13.134000Z,I05642G18,5.36,0.06,Slab,U,0,317,86,-6.70E+01,simulps,-40.1015,173.5983,-41.235,174.9172,6122550.1,2561016.88,5995098,2670688,4.4,4.4,168.1,225.88,165.99,224.31,-99999,-99999,0,150.82,149.29,nu,642G,C,350,Q1,0.35,Q2,50,Q3,0,-99999,-99999,0,0.35,24.5,0.595,24.5,Ristau2013&HarvardCMT,0.023980819,0.024214595,0.02461828,0.025540146,0.025789577,0.029818397,0.037637569,0.083330804,0.079364784,0.038384697,0.048581909,0.037705515,0.019421779,0.004677065,0.002201973,0.000944827,-99999,-99999,-99999,-99999,-99999,-99999,0.023923,0.007707
2388847,2005-04-11T07:51:37.085000Z,I05464A12,4.31,0.1,Slab,S,0,81,77,25,simulps,-41.6702,174.523,-41.2308,174.9135,5947427.6,2636809.75,5995572,2670389,1.3,1.3,58.7,66.92,58.24,66.45,-99999,-99999,0,32.13,31.51,nu,464A,D,210,Q3,1.2,Q3,170,Q3,0,-99999,-99999,0,0.6,20,1.02,20,Ristau2013,0.00460639,0.004680221,0.004817167,0.005050142,0.005572201,0.009611791,0.010775564,0.011031623,0.009498837,0.012290408,0.012926016,0.014600919,0.007212202,0.002698904,-99999,-99999,-99999,-99999,-99999,-99999,-99999,-99999,0.004586,0.002604
2388847,2005-04-11T07:51:37.085000Z,I05467A14,4.31,0.1,Slab,S,0,81,77,25,simulps,-41.6702,174.523,-41.2425,174.9024,5947427.6,2636809.75,5994293,2669430,1.3,1.3,57.11,65.52,56.64,65.05,-99999,-99999,0,32.13,31.51,nu,467A,D,218,Q3,1.5,Q3,200,Q3,0,-99999,-99999,0,0.6,15,1.02,15,Ristau2013,0.00336325,0.003395376,0.003452199,0.003539772,0.003670367,0.005044662,0.007062988,0.00920606,0.011796469,0.005815082,0.004811112,0.008439746,0.006566281,0.002890425,-99999,-99999,-99999,-99999,-99999,-99999,-99999,-99999,0.003355,0.001835
2388847,2005-04-11T07:51:37.085000Z,I05468A11,4.31,0.1,Slab,S,0,81,77,25,simulps,-41.6702,174.523,-41.2011,174.9547,5947427.6,2636809.75,5998793,2673916,1.3,1.3,63.37,71.05,62.9,70.58,-99999,-99999,0,32.13,31.51,nu,468A,D,190,Q1,0.9,Q3,50,Q3,0,-99999,-99999,0,0.6,15,1.02,15,Ristau2013,0.005501692,0.005559623,0.005660939,0.005815578,0.006049876,0.008550687,0.009883838,0.011771004,0.013988465,0.015357394,0.016595866,0.011131746,0.010326367,0.005728681,-99999,-99999,-99999,-99999,-99999,-99999,-99999,-99999,0.005478,0.002615
2388847,2005-04-11T07:51:37.085000Z,I05642G21,4.31,0.1,Slab,S,0,81,77,25,simulps,-41.6702,174.523,-41.235,174.9172,5947427.6,2636809.75,5995098,2670688,1.3,1.3,58.49,66.73,58.02,66.26,-99999,-99999,0,32.13,31.51,nu,642G,C,350,Q1,0.35,Q2,50,Q3,0,-99999,-99999,0,0.6,28,1.02,28,Ristau2013,0.005689022,0.005756289,0.005894242,0.006090322,0.006711349,0.008053308,0.012137965,0.011531128,0.013303487,0.013708001,0.017121853,0.012410744,0.006360196,0.00183894,-99999,-99999,-99999,-99999,-99999,-99999,-99999,-99999,0.005664,0.00309
2499328,2005-12-13T08:09:47.911000Z,I05464A14,4.24,0.1,Slab,N,0,203,70,-9.70E+01,simulps,-41.0992,174.866,-41.2308,174.9135,6010272.19,2666724.27,5995572,2670389,1.2,1.2,15.17,35.53,14.63,35.16,-99999,-99999,0,32.13,31.74,nu,464A,D,210,Q3,1.2,Q3,170,Q3,0,-99999,-99999,0,0.35,20,0.595,20,Ristau2013,0.03236138,0.033129315,0.034517993,0.036745435,0.041421659,0.075695513,0.109588938,0.047606334,0.037045802,0.036949692,0.034732348,0.026697653,0.013462996,0.005087826,0.003503008,0.001006898,-99999,-99999,-99999,-99999,-99999,-99999,0.031953,0.008771
2499328,2005-12-13T08:09:47.911000Z,I05468A14,4.24,0.1,Slab,N,0,203,70,-9.70E+01,simulps,-41.0992,174.866,-41.2011,174.9547,6010272.19,2666724.27,5998793,2673916,1.2,1.2,13.55,34.88,13.07,34.55,-99999,-99999,0,32.13,31.74,nu,468A,D,190,Q1,0.9,Q3,50,Q3,0,-99999,-99999,0,0.4,40,0.68,40,Ristau2013,0.043157505,0.044540391,0.049696151,0.05752348,0.064477588,0.107303695,0.128299898,0.086434225,0.073136611,0.04532113,0.031634889,0.017103801,0.013941999,0.007590561,0.005274675,-99999,-99999,-99999,-99999,-99999,-99999,-99999,0.042878,0.010299
2499328,2005-12-13T08:09:47.911000Z,I05602C03,4.24,0.1,Slab,N,0,203,70,-9.70E+01,simulps,-41.0992,174.866,-41.1903,174.928,6010272.19,2666724.27,6000041,2671703,1.2,1.2,11.38,34.11,10.89,33.77,-99999,-99999,0,32.13,31.74,nu,602C,B,1000,Q3,<0.1,Q3,0,Q3,0,-99999,-99999,0,0.5,40,0.85,40,Ristau2013,0.013804725,0.014203789,0.015396283,0.016839658,0.019059532,0.046810182,0.048143279,0.029371706,0.023076619,0.0112568,0.010151172,0.005905589,0.003670292,0.001603181,0.000985978,-99999,-99999,-99999,-99999,-99999,-99999,-99999,0.01364,0.00303
2499328,2005-12-13T08:09:47.911000Z,I05603B05,4.24,0.1,Slab,N,0,203,70,-9.70E+01,simulps,-41.0992,174.866,-41.2237,174.86,6010272.19,2666724.27,5996453,2665923,1.2,1.2,13.86,34.99,13.28,34.6,-99999,-99999,0,32.13,31.74,nu,603B,B,1000,Q3,<0.1,Q3,0,Q3,0,-99999,-99999,0,0.6,24.5,1.02,24.5,Ristau2013,0.008447427,0.008601233,0.008932604,0.009964072,0.010976391,0.01850524,0.015927176,0.024704305,0.017411855,0.013308335,0.009995774,0.006410235,0.004000202,0.002175457,-99999,-99999,-99999,-99999,-99999,-99999,-99999,-99999,0.008397,0.002588
2499328,2005-12-13T08:09:47.911000Z,I05651A01,4.24,0.1,Slab,N,0,203,70,-9.70E+01,simulps,-41.0992,174.866,-41.2047,174.9233,6010272.19,2666724.27,5998451,2671274,1.2,1.2,12.68,34.54,12.16,34.19,-99999,-99999,0,32.13,31.74,nu,651A,D,330,Q2,1,Q3,120,Q3,0,-99999,-99999,0,0.33,30,0.561,30,Ristau2013,0.020663309,0.021046783,0.021608146,0.022626254,0.027140068,0.040546551,0.050949989,0.044350681,0.029725633,0.031702913,0.020616103,0.009189419,0.006565342,0.003485096,0.002534932,0.000669631,-99999,-99999,-99999,-99999,-99999,-99999,0.020495,0.004611
2567873,2006-05-14T17:32:37.615999Z,I06464A04,4.54,0.1,Slab,S,0,219,82,-1.68E+02,simulps,-40.914,174.4445,-41.2308,174.9135,6031501.19,2631663.43,5995572,2670389,1.7,1.7,52.78,80.69,52.29,79.92,-99999,-99999,0,60.99,60.15,nu,464A,D,210,Q3,1.2,Q3,170,Q3,0,-99999,-99999,0,0.6,20,1.02,20,Ristau2013,0.005953043,0.006076456,0.006298482,0.006664586,0.006973762,0.010025064,0.016043797,0.015689448,0.009849127,0.010681373,0.01158231,0.011695558,0.006776424,0.00231908,-99999,-99999,-99999,-99999,-99999,-99999,-99999,-99999,0.005879,0.002163
2567873,2006-05-14T17:32:37.615999Z,I06465B06,4.54,0.1,Slab,S,0,219,82,-1.68E+02,simulps,-40.914,174.4445,-41.2058,174.9544,6031501.19,2631663.43,5998271,2673878,1.7,1.7,53.67,81.29,53.18,80.51,-99999,-99999,0,60.99,60.15,nu,DAVS,C,600,Q3,0.1,Q3,5,Q3,0,-99999,-99999,0,0.8,20,1.36,20,Ristau2013,0.007217768,0.007337817,0.007550705,0.007879321,0.0088531,0.014295344,0.016829483,0.022278982,0.020577955,0.01301038,0.007755306,0.005379291,0.003996269,-99999,-99999,-99999,-99999,-99999,-99999,-99999,-99999,-99999,0.007179,0.001882
2567873,2006-05-14T17:32:37.615999Z,I06467A07,4.54,0.1,Slab,S,0,219,82,-1.68E+02,simulps,-40.914,174.4445,-41.2425,174.9024,6031501.19,2631663.43,5994293,2669430,1.7,1.7,52.98,80.82,52.48,80.04,-99999,-99999,0,60.99,60.15,nu,467A,D,218,Q3,1.5,Q3,200,Q3,0,-99999,-99999,0,0.67,18,1.139,18,Ristau2013,0.005181866,0.005220838,0.005310017,0.005512553,0.005905407,0.007829018,0.01076965,0.016652501,0.020316824,0.009719792,0.006929694,0.008181238,0.006032831,0.002066479,-99999,-99999,-99999,-99999,-99999,-99999,-99999,-99999,0.005165,0.002251
2567873,2006-05-14T17:32:37.615999Z,I06468A04,4.54,0.1,Slab,S,0,219,82,-1.68E+02,simulps,-40.914,174.4445,-41.2011,174.9547,6031501.19,2631663.43,5998793,2673916,1.7,1.7,53.37,81.09,52.89,80.31,-99999,-99999,0,60.99,60.15,nu,468A,D,190,Q1,0.9,Q3,50,Q3,0,-99999,-99999,1,0.65,20,1.105,20,Ristau2013,0.011809642,0.011988821,0.012340556,0.012911437,0.014593408,0.019553316,0.030519799,0.044195231,0.035900275,0.017014657,0.013872261,0.008575607,0.010532079,0.004434571,-99999,-99999,-99999,-99999,-99999,-99999,-99999,-99999,0.011713,0.003088
2567873,2006-05-14T17:32:37.615999Z,I06602C02,4.54,0.1,Slab,S,0,219,82,-1.68E+02,simulps,-40.914,174.4445,-41.1903,174.928,6031501.19,2631663.43,6000041,2671703,1.7,1.7,50.87,79.47,50.38,78.69,-99999,-99999,0,60.99,60.15,nu,602C,B,1000,Q3,<0.1,Q3,0,Q3,0,-99999,-99999,0,0.6,35,1.02,35,Ristau2013,0.00396146,0.004053194,0.004329614,0.004723032,0.005050582,0.011593026,0.009929721,0.009231008,0.010358864,0.011344693,0.006918415,0.002818485,0.002742018,0.000761377,-99999,-99999,-99999,-99999,-99999,-99999,-99999,-99999,0.003935,0.001329
2567873,2006-05-14T17:32:37.615999Z,I06605B05,4.54,0.1,Slab,S,0,219,82,-1.68E+02,simulps,-40.914,174.4445,-41.2074,174.9401,6031501.19,2631663.43,5998119,2672679,1.7,1.7,52.83,80.77,52.34,79.99,-99999,-99999,0,60.99,60.15,nu,FAIS,B,760,Q3,0.27,Q1,0,Q2,0,-99999,-99999,0,0.9,24.5,1.53,24.5,Ristau2013,0.004012148,0.004094243,0.004249817,0.004599843,0.005082151,0.007497321,0.01112244,0.01247463,0.010402509,0.0068346,0.003468596,0.001873383,0.002092794,-99999,-99999,-99999,-99999,-99999,-99999,-99999,-99999,-99999,0.00397,0.001084
2567873,2006-05-14T17:32:37.615999Z,I06642G10,4.54,0.1,Slab,S,0,219,82,-1.68E+02,simulps,-40.914,174.4445,-41.235,174.9172,6031501.19,2631663.43,5995098,2670688,1.7,1.7,53.33,81.05,52.83,80.27,-99999,-99999,0,60.99,60.15,nu,642G,C,350,Q1,0.35,Q2,50,Q3,0,-99999,-99999,0,0.9,20,1.53,20,Ristau2013,0.008812212,0.00893586,0.009167866,0.009491771,0.010615456,0.016499692,0.020553364,0.030181891,0.018721336,0.016073562,0.01119691,0.006907279,0.003547446,-99999,-99999,-99999,-99999,-99999,-99999,-99999,-99999,-99999,0.008772,0.002262
2567873,2006-05-14T17:32:37.615999Z,I06651A06,4.54,0.1,Slab,S,0,219,82,-1.68E+02,simulps,-40.914,174.4445,-41.2047,174.9233,6031501.19,2631663.43,5998451,2671274,1.7,1.7,51.54,79.89,51.05,79.1,-99999,-99999,0,60.99,60.15,nu,651A,D,330,Q2,1,Q3,120,Q3,0,-99999,-99999,0,0.6,18,1.02,18,Ristau2013,0.00394908,0.004014619,0.00413194,0.004317116,0.004602833,0.00953681,0.009529055,0.009698236,0.015131179,0.012076355,0.010781138,0.004408403,0.00272393,0.00151788,-99999,-99999,-99999,-99999,-99999,-99999,-99999,-99999,0.003929,0.001265
2599831,2006-07-23T00:37:38.848999Z,I06464A07,4.63,0.1,Slab,N,0,81,58,-7.10E+01,simulps,-40.5443,173.152,-41.2308,174.9135,6073547.81,2522866.67,5995572,2670389,1.9,1.9,166.59,249.3,165.79,248.52,-99999,-99999,0,185.22,184.53,nu,464A,D,210,Q3,1.2,Q3,170,Q3,0,-99999,-99999,1,0.7,18,1.19,18,Ristau2013,0.00476593,0.004855441,0.005020419,0.005297028,0.005838243,0.010517661,0.015159399,0.012141195,0.007123693,0.009155537,0.009027533,0.008964508,0.003747993,0.001036534,-99999,-99999,-99999,-99999,-99999,-99999,-99999,-99999,0.004728,0.00146
2599831,2006-07-23T00:37:38.848999Z,I06465B10,4.63,0.1,Slab,N,0,81,58,-7.10E+01,simulps,-40.5443,173.152,-41.2058,174.9544,6073547.81,2522866.67,5998271,2673878,1.9,1.9,168.44,250.57,167.64,249.78,-99999,-99999,0,185.22,184.53,nu,DAVS,C,600,Q3,0.1,Q3,5,Q3,0,-99999,-99999,1,0.9,20,1.53,20,Ristau2013,0.004604975,0.004767106,0.005121777,0.005899361,0.007938114,0.017178976,0.01194676,0.008219592,0.005223183,0.006080913,0.00633297,0.003000152,0.001319349,-99999,-99999,-99999,-99999,-99999,-99999,-99999,-99999,-99999,0.004565,0.000944
2599831,2006-07-23T00:37:38.848999Z,I06468A08,4.63,0.1,Slab,N,0,81,58,-7.10E+01,simulps,-40.5443,173.152,-41.2011,174.9547,6073547.81,2522866.67,5998793,2673916,1.9,1.9,168.24,250.43,167.44,249.64,-99999,-99999,0,185.22,184.53,nu,468A,D,190,Q1,0.9,Q3,50,Q3,0,-99999,-99999,1,0.7,20,1.19,20,Ristau2013,0.006620094,0.006752761,0.006997313,0.007429102,0.009043013,0.013612028,0.01716826,0.014063268,0.00958297,0.009930519,0.007299703,0.00434261,0.002011601,0.001249689,-99999,-99999,-99999,-99999,-99999,-99999,-99999,-99999,0.006587,0.001555
2609766,2006-08-13T04:29:25.493999Z,I06464A08,5.25,0.06,Slab,U,0,273,84,-4.60E+01,simulps,-41.7767,172.6507,-41.2308,174.9135,5936641.99,2480951.79,5995572,2670389,3.9,3.9,197.96,218.42,196.3,217.04,-99999,-99999,0,91.37,89.73,nu,464A,D,210,Q3,1.2,Q3,170,Q3,0,-99999,-99999,0,0.7,15,1.19,15,Ristau2013&HarvardCMT,0.008445211,0.008503294,0.008613339,0.008814622,0.009153371,0.012190418,0.016205814,0.011139843,0.01455665,0.020097669,0.026242368,0.02910057,0.012272933,0.004169547,-99999,-99999,-99999,-99999,-99999,-99999,-99999,-99999,0.00838,0.004402
2609766,2006-08-13T04:29:25.493999Z,I06465B11,5.25,0.06,Slab,U,0,273,84,-4.60E+01,simulps,-41.7767,172.6507,-41.2058,174.9544,5936641.99,2480951.79,5998271,2673878,3.9,3.9,202.1,222.19,200.44,220.8,-99999,-99999,0,91.37,89.73,nu,DAVS,C,600,Q3,0.1,Q3,5,Q3,0,-99999,-99999,0,0.7,21,1.19,21,Ristau2013&HarvardCMT,0.005147893,0.005203929,0.005305173,0.005501533,0.006010157,0.007401724,0.009173597,0.01127153,0.020933117,0.012544789,0.011356768,0.014490459,0.010603794,0.002380805,-99999,-99999,-99999,-99999,-99999,-99999,-99999,-99999,0.005093,0.00242
2609766,2006-08-13T04:29:25.493999Z,I06468A09,5.25,0.06,Slab,U,0,273,84,-4.60E+01,simulps,-41.7767,172.6507,-41.2011,174.9547,5936641.99,2480951.79,5998793,2673916,3.9,3.9,202.29,222.37,200.63,220.98,-99999,-99999,0,91.37,89.73,nu,468A,D,190,Q1,0.9,Q3,50,Q3,0,-99999,-99999,0,0.4,20,0.68,20,Ristau2013&HarvardCMT,0.006643665,0.006700373,0.006803012,0.00697307,0.007483416,0.008821186,0.012611988,0.013294997,0.029789298,0.017426527,0.01918848,0.018257119,0.013572819,0.005211776,0.004459526,-99999,-99999,-99999,-99999,-99999,-99999,-99999,0.006643,0.003294
2609766,2006-08-13T04:29:25.493999Z,I06651A10,5.25,0.06,Slab,U,0,273,84,-4.60E+01,simulps,-41.7767,172.6507,-41.2047,174.9233,5936641.99,2480951.79,5998451,2671274,3.9,3.9,199.68,219.98,198.02,218.59,-99999,-99999,0,91.37,89.73,nu,651A,D,330,Q2,1,Q3,120,Q3,0,-99999,-99999,0,0.6,18,1.02,18,Ristau2013&HarvardCMT,0.003855214,0.003886974,0.003943758,0.004042729,0.004289154,0.00515357,0.006009874,0.006512993,0.009929624,0.010683965,0.013111141,0.011948225,0.006872352,0.001730214,-99999,-99999,-99999,-99999,-99999,-99999,-99999,-99999,0.003856,0.001916
2625245,2006-09-15T11:43:18.788000Z,I06464A09,4.57,0.1,Slab,R,0,247,53,95,simulps,-40.943,174.4628,-41.2308,174.9135,6028255.79,2633153.62,5995572,2670389,1.8,1.8,49.5,71.38,48.84,70.83,-99999,-99999,0,51.37,50.75,nu,464A,D,210,Q3,1.2,Q3,170,Q3,0,-99999,-99999,0,0.5,18,0.85,18,Ristau2013,0.013708545,0.01383781,0.0140474,0.01437723,0.01485712,0.02380933,0.029294532,0.026700853,0.019102179,0.031905134,0.033296979,0.023550296,0.015989316,0.007547041,0.004076446,-99999,-99999,-99999,-99999,-99999,-99999,-99999,0.013668,0.005598
2625245,2006-09-15T11:43:18.788000Z,I06465B12,4.57,0.1,Slab,R,0,247,53,95,simulps,-40.943,174.4628,-41.2058,174.9544,6028255.79,2633153.62,5998271,2673878,1.8,1.8,50.51,72.1,49.83,71.53,-99999,-99999,0,51.37,50.75,nu,DAVS,C,600,Q3,0.1,Q3,5,Q3,0,-99999,-99999,0,0.6,20,1.02,20,Ristau2013,0.011813866,0.012080602,0.012563643,0.013421712,0.015606454,0.021162973,0.03231242,0.027635509,0.038575597,0.033474145,0.031215987,0.012133497,0.01343738,0.007306582,-99999,-99999,-99999,-99999,-99999,-99999,-99999,-99999,0.011703,0.004403
2625245,2006-09-15T11:43:18.788000Z,I06467A13,4.57,0.1,Slab,R,0,247,53,95,simulps,-40.943,174.4628,-41.2425,174.9024,6028255.79,2633153.62,5994293,2669430,1.8,1.8,49.66,71.48,49,70.94,-99999,-99999,0,51.37,50.75,nu,467A,D,218,Q3,1.5,Q3,200,Q3,0,-99999,-99999,0,0.6,17,1.02,17,Ristau2013,0.008464138,0.008509914,0.008585367,0.008689927,0.008795694,0.011593842,0.015710949,0.018946721,0.029320381,0.018155046,0.018784502,0.013109892,0.015149714,0.00716301,-99999,-99999,-99999,-99999,-99999,-99999,-99999,-99999,0.008452,0.004375
2625245,2006-09-15T11:43:18.788000Z,I06468A10,4.57,0.1,Slab,R,0,247,53,95,simulps,-40.943,174.4628,-41.2011,174.9547,6028255.79,2633153.62,5998793,2673916,1.8,1.8,50.23,71.9,49.55,71.33,-99999,-99999,0,51.37,50.75,nu,468A,D,190,Q1,0.9,Q3,50,Q3,0,-99999,-99999,0,0.5,18,0.85,18,Ristau2013,0.023323035,0.023696396,0.024377685,0.025459902,0.027324826,0.0473719,0.061793122,0.057036833,0.089299549,0.04578236,0.033486101,0.018333317,0.017307007,0.014671242,0.007520853,-99999,-99999,-99999,-99999,-99999,-99999,-99999,0.023228,0.008407
2625245,2006-09-15T11:43:18.788000Z,I06602C04,4.57,0.1,Slab,R,0,247,53,95,simulps,-40.943,174.4628,-41.1903,174.928,6028255.79,2633153.62,6000041,2671703,1.8,1.8,47.71,70.17,47.03,69.6,-99999,-99999,0,51.37,50.75,nu,602C,B,1000,Q3,<0.1,Q3,0,Q3,0,-99999,-99999,0,0.4,24.5,0.68,24.5,Ristau2013,0.007236724,0.007426294,0.007786038,0.008436067,0.009523483,0.022229891,0.016465041,0.013030339,0.012915189,0.024864138,0.018790176,0.010801531,0.009250279,0.002952775,0.00161086,-99999,-99999,-99999,-99999,-99999,-99999,-99999,0.007155,0.003085
