CuspID,Origin_time,Record,Mw,MwUncert,TectClass,Mech,PreferredFaultPlane,Strike,Dip,Rake,Location,HypLat,HypLon,StationLat,StationLon,HypN,HypE,StationN,StationE,LENGTH_km,WIDTH_km,Repi_km,Rhyp_km,Rjb_km,Rrup_km,Rx_km,Ry_km,Rvol_km,HypDepth_km,ZTOR_km,HWFW,SiteCode,SiteClass1170,Vs30,Vs30Uncert,Tsite,TsiteUncert,Z1,Z1Uncertainty,Directivity,Pulse_or,Pulse_T,S_Trigger_Flag,fcButterHP,f_iniLP,fmin,fmax,References,f100.0000SA_GeoMean,f50.0000SA_GeoMean,f33.3333SA_GeoMean,f25.0000SA_GeoMean,f20.0000SA_GeoMean,f13.3333SA_GeoMean,f10.0000SA_GeoMean,f6.6667SA_GeoMean,f5.0000SA_GeoMean,f4.0000SA_GeoMean,f3.3333SA_GeoMean,f2.5000SA_GeoMean,f2.0000SA_GeoMean,f1.3333SA_GeoMean,f1.0000SA_GeoMean,f0.6667SA_GeoMean,f0.5000SA_GeoMean,f0.3333SA_GeoMean,f0.2500SA_GeoMean,f0.2000SA_GeoMean,f0.1333SA_GeoMean,f0.1000SA_GeoMean,PGA_Geomean,PGV_Geomean
1553782,1971-08-13T14:42:41.636000Z,A71053A1,5.7,0.15,Crustal,S,1,242,83,207,special,-42.13,172.1,-42.3786,172.3329,5897058.69,2435589.3,5869623,2455066,6.51,6.51,33.64,34.99,33.13,33.79,-32.97,-4.32,0,9,5.77,fw,053A,C,391,Q3,0.27,Q3,20,Q3,0,-99999,-99999,1,0.4,18,0.68,18,Anderson_etal_1993&Dowrick_Rhoades_1998,0.057312787,0.057778482,0.058569497,0.060108836,0.063790505,0.092142157,0.111110822,0.133440401,0.173540996,0.18309742,0.142312987,0.112178897,0.064833902,0.081484707,0.043642511,-99999,-99999,-99999,-99999,-99999,-99999,-99999,0.057325,0.044926
1556608,1975-06-10T10:11:17.094000Z,K75301A2,5.62,0.15,Slab,N,1,250,56,257,special,-40.34,175.93,-40.3553,175.6152,6092087.55,2758882.27,6091232,2732094,5.9,5.9,26.73,46.53,23.88,44.21,10.02,25.47,0,38,35.54,nu,301A,D,341,Q3,0.7,Q2,60,Q3,0,-99999,-99999,1,0.4,19,0.68,19,Webb_Anderson_1998&Dowrick_Rhoades1998,0.038205611,0.038630987,0.039359096,0.040600151,0.043430714,0.063037301,0.092423213,0.098715161,0.118975221,0.070449332,0.061275778,0.058205436,0.043773523,0.031640665,0.027944625,-99999,-99999,-99999,-99999,-99999,-99999,-99999,0.03818,0.021695
1556608,1975-06-10T10:11:17.094000Z,K75340A1,5.62,0.15,Slab,N,1,250,56,257,special,-40.34,175.93,-40.3863,175.6165,6092087.55,2758882.27,6087788,2732102,5.9,5.9,27.06,46.71,24.14,44.26,6.78,26.64,0,38,35.54,nu,340A,D,283,Q3,0.96,Q3,90,Q3,0,-99999,-99999,1,0.65,18,1.105,18,Webb_Anderson_1998&Dowrick_Rhoades1998,0.054348642,0.054855326,0.055826102,0.057311922,0.059056149,0.095208725,0.102097828,0.110254954,0.182036543,0.136738276,0.148718555,0.069771677,0.070056244,0.024893306,-99999,-99999,-99999,-99999,-99999,-99999,-99999,-99999,0.054372,0.024764
1557438,1976-05-04T13:56:29.201000Z,A76080B1,6.51,0.15,Interface,O,1,48,47,130,special,-44.67,167.45,-44.6729,167.9264,5600506.59,2070223.23,5602634,2107939,22.44,22.44,37.67,39.08,27.88,31.04,31.31,29.45,0,10,1.79,nu,080B,C,210,Q3,0.57,Q3,30,Q3,0,-99999,-99999,1,0.2,29,0.34,29,Anderson_etal_1993&Dowrick_Rhoades_1998,0.088100162,0.088852822,0.091167132,0.095551584,0.101053774,0.104868697,0.125716095,0.170859508,0.139857029,0.156198061,0.22921606,0.224505341,0.317877608,0.1224091,0.10151845,0.038789228,0.021767687,-99999,-99999,-99999,-99999,-99999,0.087535,0.091316
1557438,1976-05-04T13:56:29.201000Z,K76070A1,6.51,0.15,Interface,O,1,48,47,130,special,-44.67,167.45,-45.4167,167.7191,5600506.59,2070223.23,5519112,2096857,22.44,22.44,85.68,86.25,77.38,79.21,85.96,-34.67,0,10,1.79,nu,TAFS,D,298,Q3,1.4,Q3,200,Q3,0,-99999,-99999,1,0.28,11,0.476,11,Anderson_etal_1993&Dowrick_Rhoades_1998,0.024420641,0.024512007,0.024630203,0.024820187,0.02507543,0.026400756,0.053411582,0.057979815,0.052477984,0.050478454,0.069105763,0.05453653,0.047897934,0.053689722,0.039757974,0.042756027,0.029538327,-99999,-99999,-99999,-99999,-99999,0.024408,0.030391
1557438,1976-05-04T13:56:29.201000Z,K76089A1,6.51,0.15,Interface,O,1,48,47,130,special,-44.67,167.45,-44.6946,169.143,5600506.59,2070223.23,5605452,2204373,22.44,22.44,133.87,134.63,124.04,125.19,93.74,103,0,10,1.79,nu,WNPS,D,330,Q3,2.1,Q3,300,Q3,0,-99999,-99999,1,0.25,15,0.425,15,Anderson_etal_1993&Dowrick_Rhoades_1998,0.034166687,0.034246931,0.034391094,0.03461068,0.034913245,0.040225936,0.047270594,0.055913352,0.069089142,0.096853191,0.065239926,0.057788556,0.056264692,0.08929956,0.069979357,0.060953045,0.029662143,-99999,-99999,-99999,-99999,-99999,0.034099,0.042642
1558224,1977-01-18T05:41:48.207000Z,A77048C1,6.02,0.15,Slab,R,1,213,68,251,special,-41.73,174.3,-41.5138,173.9572,5941084.19,2618142.66,5965463,2589883,9.4,9.4,37.28,50.49,35.45,48.97,38.74,-5.05,0,34,29.64,nu,048C,D,235,Q3,0.9,Q3,64,Q3,0,-99999,-99999,1,0.4,13,0.68,13,Webb_Anderson_1998&Dowrick_Rhoades1998,0.037077984,0.037210331,0.037440606,0.037756987,0.038202223,0.042425736,0.04758927,0.051514472,0.091255239,0.136284142,0.145006483,0.071027691,0.071207197,0.046808709,0.043506618,-99999,-99999,-99999,-99999,-99999,-99999,-99999,0.037001,0.021684
1558224,1977-01-18T05:41:48.207000Z,A77601A1,6.02,0.15,Slab,R,1,213,68,251,special,-41.73,174.3,-41.2263,174.8719,5941084.19,2618142.66,5996147,2666912,9.4,9.4,73.53,81.03,68.88,76.33,-9.15,-72.74,0,34,29.64,nu,601A,D,161,Q3,2.3,Q3,297,Q3,0,-99999,-99999,1,0.4,20,0.68,20,Webb_Anderson_1998&Dowrick_Rhoades1998,0.042838738,0.043132017,0.043630159,0.04454721,0.045087039,0.046959054,0.064627118,0.069396865,0.107539889,0.13864309,0.079369123,0.0691735,0.074625992,0.070907055,0.033406642,-99999,-99999,-99999,-99999,-99999,-99999,-99999,0.042719,0.02302
1558224,1977-01-18T05:41:48.207000Z,A77902A1,6.02,0.15,Slab,R,1,213,68,251,special,-41.73,174.3,-41.2776,174.7793,5941084.19,2618142.66,5990617,2659034,9.4,9.4,64.22,72.68,59.54,67.99,-5.56,-63.81,0,34,29.64,nu,902A,D,275,Q2,1.25,Q2,1.32E+02,Q2,0,-99999,-99999,1,0.5,20,0.85,20,Webb_Anderson_1998&Dowrick_Rhoades1998,0.081034965,0.081513697,0.08234961,0.084038777,0.089591413,0.095231059,0.144433909,0.222618717,0.232361697,0.293223462,0.221531417,0.174420516,0.137729102,0.084873138,0.035973246,-99999,-99999,-99999,-99999,-99999,-99999,-99999,0.080821,0.04649
1558224,1977-01-18T05:41:48.207000Z,A77907A1,6.02,0.15,Slab,R,1,213,68,251,special,-41.73,174.3,-41.2788,174.7785,5941084.19,2618142.66,5990481,2658964,9.4,9.4,64.07,72.55,59.39,67.86,-5.57,-63.66,0,34,29.64,nu,907A,D,250,Q2,1.2,Q2,116,Q2,0,-99999,-99999,1,0.47,18,0.799,18,Webb_Anderson_1998&Dowrick_Rhoades1998,0.085251234,0.085513729,0.085991332,0.086704114,0.087812004,0.099408172,0.135157153,0.155346776,0.213129116,0.246799506,0.22001815,0.236664981,0.141608527,0.081115923,0.032789078,-99999,-99999,-99999,-99999,-99999,-99999,-99999,0.085164,0.055986
1558224,1977-01-18T05:41:48.207000Z,A77911A1,6.02,0.15,Slab,R,1,213,68,251,special,-41.73,174.3,-41.2886,174.7769,5941084.19,2618142.66,5989396,2658808,9.4,9.4,63.13,71.72,58.46,67.03,-6.03,-62.67,0,34,29.64,nu,911A,C,358,Q2,0.29,Q2,1.85E+01,Q2,0,-99999,-99999,1,0.6,19,1.02,19,Webb_Anderson_1998&Dowrick_Rhoades1998,0.049484982,0.049799445,0.050321067,0.051138145,0.052659136,0.056747901,0.083619767,0.08575853,0.175513261,0.155334015,0.144546671,0.102567812,0.066510508,0.030502561,-99999,-99999,-99999,-99999,-99999,-99999,-99999,-99999,0.049465,0.027524
1558224,1977-01-18T05:41:48.207000Z,A77912A1,6.02,0.15,Slab,R,1,213,68,251,special,-41.73,174.3,-41.3264,174.809,5941084.19,2618142.66,5985141,2661416,9.4,9.4,61.72,70.5,57.11,65.8,-10.54,-60.52,0,34,29.64,nu,WNAS,D,239,Q2,0.78,Q2,64,Q2,0,-99999,-99999,0,0.45,24.5,0.765,24.5,Webb_Anderson_1998&Dowrick_Rhoades1998,0.054610642,0.055391297,0.056874527,0.060521146,0.069267984,0.101064166,0.221336543,0.146158704,0.137568017,0.120598019,0.107533221,0.05826334,0.062482811,0.061350282,0.030541388,-99999,-99999,-99999,-99999,-99999,-99999,-99999,0.054541,0.023974
1558224,1977-01-18T05:41:48.207000Z,A77913A1,6.02,0.15,Slab,R,1,213,68,251,special,-41.73,174.3,-41.2875,174.7727,5941084.19,2618142.66,5989525,2658459,9.4,9.4,63.01,71.61,58.34,66.93,-5.67,-62.58,0,34,29.64,nu,913A,B,1000,Q3,<0.1,Q3,2,Q2,0,-99999,-99999,1,0.35,21,0.595,21,Webb_Anderson_1998&Dowrick_Rhoades1998,0.06009707,0.060800852,0.06204239,0.06411849,0.067334053,0.083439996,0.127906482,0.127658549,0.185516425,0.194774237,0.137967729,0.068680812,0.05478516,0.023230463,0.014053432,0.006591265,-99999,-99999,-99999,-99999,-99999,-99999,0.059883,0.022493
1558224,1977-01-18T05:41:48.207000Z,A77914A1,6.02,0.15,Slab,R,1,213,68,251,special,-41.73,174.3,-41.295,174.7735,5941084.19,2618142.66,5988691,2658509,9.4,9.4,62.4,76.37,57.73,71.7,-6.16,-61.91,0,34,29.64,nu,914B,D,282,Q2,0.61,Q2,4.65E+01,Q2,0,-99999,-99999,1,0.7,24.5,1.19,24.5,Webb_Anderson_1998&Dowrick_Rhoades1998,0.068601965,0.069067164,0.069983001,0.072882976,0.074161225,0.102847004,0.156800741,0.189701875,0.269728621,0.180798815,0.159890214,0.110025669,0.096437688,0.047828161,-99999,-99999,-99999,-99999,-99999,-99999,-99999,-99999,0.068482,0.032892
1558224,1977-01-18T05:41:48.207000Z,A77916A1,6.02,0.15,Slab,R,1,213,68,251,special,-41.73,174.3,-41.2941,174.7757,5941084.19,2618142.66,5988787,2658695,9.4,9.4,62.59,71.26,57.93,66.57,-6.27,-62.09,0,34,29.64,nu,916A,D,291,Q2,0.8,Q2,8.54E+01,Q2,0,-99999,-99999,1,0.55,17,0.935,17,Webb_Anderson_1998&Dowrick_Rhoades1998,0.043315199,0.04377083,0.044534262,0.045711435,0.04813794,0.078204713,0.082334178,0.109371002,0.171371013,0.111537169,0.122664087,0.087561415,0.062629857,0.054045819,0.025532757,-99999,-99999,-99999,-99999,-99999,-99999,-99999,0.043319,0.02521
1561001,1980-06-23T16:45:19.942000Z,K80087C1,5.49,0.15,Slab,R,1,49,87,101,nlloc,-39.8738,175.576,-39.7171,175.1382,6144762.72,2730330.66,6163158,2693314,5.1,5.1,41.27,96.17,40.35,93.78,-38.03,-15.87,0,86.8,84.25,nu,087C,C,425,Q3,0.33,Q3,30,Q3,0,-99999,-99999,1,0.7,18,1.19,18,HarvardCMT,0.0959309,0.096273347,0.096830665,0.09780209,0.100263151,0.109943287,0.138142496,0.141076138,0.231636327,0.279882832,0.238173548,0.297477903,0.222054227,0.091301929,-99999,-99999,-99999,-99999,-99999,-99999,-99999,-99999,0.095901,0.061477
1561256,1980-10-05T15:32:49.243000Z,S80027C1,5.66,0.15,Slab,N,0,235,45,-5.20E+01,geonet,-39.72,176.87,-39.5046,176.896,6157802.95,2841693.87,6181602,2844964,6.2,6.2,24.06,38.47,21.18,36.39,-99999,-99999,0,30,27.61,nu,027C,E,150,Q3,1.7,Q3,200,Q3,0,-99999,-99999,1,0.43,19,0.731,19,HarvardCMT,0.120636218,0.121475978,0.123351096,0.127498566,0.131786891,0.159891762,0.204300494,0.462043011,0.388587155,0.361495591,0.437585486,0.240469333,0.157913568,0.100235429,0.060263752,-99999,-99999,-99999,-99999,-99999,-99999,-99999,0.120229,0.071402
1563250,1982-09-02T15:58:54.183999Z,S82032A1,5.46,0.15,Slab,N,0,76,32,-3.80E+01,nlloc,-39.7432,176.995,-39.9425,176.5874,6154756.79,2852286.05,6134136,2816486,4.9,4.9,41.25,56.9,39.07,55.11,-99999,-99999,0,38.98,37.16,nu,032A,C,495,Q3,0.13,Q3,10,Q3,0,-99999,-99999,1,0.6,16,1.02,16,HarvardCMT,0.079017495,0.079617259,0.080597472,0.081973513,0.083832562,0.10122592,0.13043733,0.24723175,0.239318158,0.144401499,0.155405477,0.123397442,0.077832675,0.034990042,-99999,-99999,-99999,-99999,-99999,-99999,-99999,-99999,0.078634,0.038762
1567345,1985-07-19T14:33:59.829999Z,A86018A1,5.97,0.08,Slab,N,1,213,73,255,special,-38.72,177.3,-38.6665,178.0227,6267008.8,2883855.15,6269685,2946952,11,11,63,70.36,59.68,65.91,-49.85,-36.61,0,31,25.74,nu,GISS,D,138,Q2,1,Q1,40,Q3,0,-99999,-99999,1,0.46,11,0.782,11,Webb_Anderson_1998&Dowrick_Rhoades1998&HarvardCMT,0.075810045,0.076088142,0.076549528,0.077206031,0.078096199,0.082087878,0.093669613,0.121681408,0.189634397,0.201439766,0.190016631,0.207660055,0.158179995,0.159015617,0.162554592,-99999,-99999,-99999,-99999,-99999,-99999,-99999,0.075816,0.069108
16899,1988-06-03T23:27:54.351999Z,A88070A1,6.69,0.08,Slab,R,1,310,86,118,special,-45.1,167.17,-45.4167,167.7191,5551299.74,2051472.44,5519112,2096857,25,55,55.56,81.99,43.13,61.55,6.43,-55.46,0,60,32.57,nu,TAFS,D,298,Q3,1.4,Q3,200,Q3,0,-99999,-99999,1,0.2,22,0.34,22,Robinson_etal_2003&Dowrick_Rhoades1998&HarvardCMT&Reyners_etal1991,0.100015666,0.100382595,0.100982716,0.101934093,0.106769432,0.115570485,0.152096747,0.200741109,0.280191167,0.272891696,0.2496949,0.217114605,0.176343171,0.119776834,0.148859226,0.119155081,0.095793803,-99999,-99999,-99999,-99999,-99999,0.100018,0.099545
16899,1988-06-03T23:27:54.351999Z,A88089A1,6.69,0.08,Slab,R,1,310,86,118,special,-45.1,167.17,-44.6946,169.143,5551299.74,2051472.44,5605452,2204373,25,55,161.81,173.05,155.62,164.27,141.68,-82.32,0,60,32.57,nu,WNPS,D,330,Q3,2.1,Q3,300,Q3,0,-99999,-99999,1,0.21,18,0.357,18,Robinson_etal_2003&Dowrick_Rhoades1998&HarvardCMT&Reyners_etal1991,0.036694078,0.036899985,0.037273323,0.037868274,0.039001111,0.042743828,0.050556454,0.076922762,0.101401602,0.107957358,0.083531951,0.076958054,0.071715591,0.078045961,0.081989081,0.05256697,0.033189086,-99999,-99999,-99999,-99999,-99999,0.036686,0.04584
16899,1988-06-03T23:27:54.351999Z,A88118B1,6.69,0.08,Slab,R,1,310,86,118,special,-45.1,167.17,-45.0387,169.2193,5551299.74,2051472.44,5567539,2212164,25,55,161.07,172.37,152.52,161.6,117.65,-112.66,0,60,32.57,nu,118B,C,520,Q3,0.3,Q3,40,Q3,0,-99999,-99999,1,0.63,11,1.071,11,Robinson_etal_2003&Dowrick_Rhoades1998&HarvardCMT&Reyners_etal1991,0.051095481,0.051407923,0.051891788,0.052593308,0.053544089,0.057367267,0.067255534,0.090024989,0.126007454,0.21338781,0.152494463,0.180344626,0.112241207,0.03640907,-99999,-99999,-99999,-99999,-99999,-99999,-99999,-99999,0.051068,0.03023
53209,1989-05-31T05:54:48.402999Z,A89940A1,6.39,0.08,Interface,O,1,139,67,47,special,-45.27,166.88,-45.0322,168.6629,5530793.17,2030120.65,5566104,2168345,19.54,19.54,142.29,144.72,138.11,139.83,-124.55,64.03,0,24,17.1,nu,QTPS,D,350,Q3,0.95,Q1,90,Q3,0,-99999,-99999,1,0.55,10,0.935,10,Robinson_etal_2003&Dowrick_Rhoades1998&HarvardCMT,0.028082593,0.028213777,0.028417476,0.028736938,0.02914709,0.030825779,0.035199272,0.054304671,0.082905494,0.11052514,0.065559125,0.056548784,0.038574552,0.030748943,0.023508462,-99999,-99999,-99999,-99999,-99999,-99999,-99999,0.027943,0.013714
62461,1989-08-08T07:59:06.546000Z,D89918B1,5.49,0.08,Slab,R,1,208,40,68,special,-40.12,174.3,-41.284,174.7682,6119840.44,2620805.44,5989908,2658140,5.1,5.1,135.31,175.65,133.03,173.12,-92.01,97.2,0,112,110.36,nu,WEL,B,1000,Q3,0.3,Q1,0,Q2,0,-99999,-99999,0,0.4,18,0.68,18,Webb_Anderson_1998&Dowrick_Rhoades1998&HarvardCMT,0.02477849,0.025083023,0.025597245,0.026470214,0.027940579,0.035170419,0.043624169,0.086187587,0.058050654,0.052921814,0.029233101,0.035891853,0.027521619,0.005951416,0.00530816,-99999,-99999,-99999,-99999,-99999,-99999,-99999,0.024528,0.008495
62461,1989-08-08T07:59:06.546000Z,D89935B1,5.49,0.08,Slab,R,1,208,40,68,special,-40.12,174.3,-41.2108,174.9047,6119840.44,2620805.44,5997808,2669699,5.1,5.1,131.58,172.71,129.35,170.17,-98.5,84.79,0,112,110.36,nu,935A,D,240,Q3,1.2,Q3,275,Q3,0,-99999,-99999,1,0.25,18,0.425,18,Webb_Anderson_1998&Dowrick_Rhoades1998&HarvardCMT,0.035943784,0.036176708,0.036612895,0.037266989,0.038268811,0.060116834,0.051767701,0.073057276,0.093199521,0.125428843,0.070367873,0.103725609,0.045111761,0.015844118,0.017799508,0.00657829,0.003119306,-99999,-99999,-99999,-99999,-99999,0.035938,0.016598
62461,1989-08-08T07:59:06.546000Z,K89087A2,5.49,0.08,Slab,R,1,208,40,68,special,-40.12,174.3,-39.7163,175.1455,6119840.44,2620805.44,6163232,2693941,5.1,5.1,84.94,140.65,82.53,138.32,-42.25,-72.65,0,112,110.36,nu,087A,B,1000,Q3,<0.1,Q3,0,Q2,0,-99999,-99999,1,0.64,25,1.088,25,Webb_Anderson_1998&Dowrick_Rhoades1998&HarvardCMT,0.098163702,0.100124437,0.103674776,0.112987753,0.124686205,0.174379675,0.236296986,0.231816962,0.272197225,0.188598064,0.11516014,0.099300769,0.048913479,0.032559949,-99999,-99999,-99999,-99999,-99999,-99999,-99999,-99999,0.095822,0.028167
100789,1990-02-19T05:34:36.673000Z,A90032A1,6.24,0.08,Slab,N,1,209,72,-1.12E+02,special,-40.38,176.22,-39.9425,176.5874,6086791.59,2783346.23,6134136,2816486,13,13,57.81,62.25,51.34,55.75,-4.02,-57.47,0,23,16.82,nu,032A,C,495,Q3,0.13,Q3,10,Q3,0,-99999,-99999,1,0.5,11,0.85,11,Robinson_1994&Dowrick_Rhoades1998&HarvardCMT,0.172472239,0.173094597,0.174099154,0.175489638,0.177357128,0.183805299,0.204982297,0.347312352,0.511910963,0.464797835,0.387868339,0.327830877,0.240763896,0.183028869,0.095268317,-99999,-99999,-99999,-99999,-99999,-99999,-99999,0.172275,0.106307
100789,1990-02-19T05:34:36.673000Z,A90033A1,6.24,0.08,Slab,N,1,209,72,-1.12E+02,special,-40.38,176.22,-40.2088,176.0985,6086791.59,2783346.23,6106160,2773698,13,13,21.65,31.73,18.06,27.95,19.84,-12.26,0,23,16.82,nu,033A,C,367,Q3,0.33,Q3,30,Q3,0,-99999,-99999,1,0.38,19,0.646,19,Robinson_1994&Dowrick_Rhoades1998&HarvardCMT,0.216406316,0.218650869,0.222475387,0.22856809,0.239700673,0.310418354,0.357972552,0.476245548,0.480176973,0.645399318,0.580938644,0.6610687,0.390786815,0.243013876,0.101458834,0.096317503,-99999,-99999,-99999,-99999,-99999,-99999,0.216035,0.12836
100789,1990-02-19T05:34:36.673000Z,A90102A1,6.24,0.08,Slab,N,1,209,72,-1.12E+02,special,-40.38,176.22,-39.4637,175.5669,6086791.59,2783346.23,6190285,2730871,13,13,116.11,118.43,112.17,114.97,98.08,-65.08,0,23,16.82,nu,102A,C,555,Q3,0.15,Q3,12,Q3,0,-99999,-99999,1,0.4,15,0.68,15,Robinson_1994&Dowrick_Rhoades1998&HarvardCMT,0.036444379,0.036611857,0.036905671,0.037365019,0.038037502,0.039666392,0.045917513,0.077220144,0.061598943,0.084544094,0.094062158,0.064463059,0.089473247,0.06247045,0.071901886,-99999,-99999,-99999,-99999,-99999,-99999,-99999,0.036423,0.029831
100789,1990-02-19T05:34:36.673000Z,A90120A1,6.24,0.08,Slab,N,1,209,72,-1.12E+02,special,-40.38,176.22,-40.335,175.8682,6086791.59,2783346.23,6092817,2753648,13,13,30.23,38.1,27.71,35.87,30.9,9.13,0,23,16.82,nu,120A,D,290,Q3,1.1,Q3,100,Q3,0,-99999,-99999,1,0.3,16,0.51,16,Robinson_1994&Dowrick_Rhoades1998&HarvardCMT,0.180138066,0.180671449,0.181535282,0.182786804,0.184504691,0.184955653,0.22092655,0.289907157,0.427150599,0.470623247,0.4826383,0.339923948,0.521063151,0.1396308,0.160399569,0.062206379,-99999,-99999,-99999,-99999,-99999,-99999,0.180152,0.146946
100789,1990-02-19T05:34:36.673000Z,A90301A1,6.24,0.08,Slab,N,1,209,72,-1.12E+02,special,-40.38,176.22,-40.3553,175.6152,6086791.59,2783346.23,6091232,2732094,13,13,51.31,56.37,48.28,54.13,48.99,20.96,0,23,16.82,nu,301A,D,341,Q3,0.7,Q2,60,Q3,0,-99999,-99999,1,0.15,12,0.255,12,Robinson_1994&Dowrick_Rhoades1998&HarvardCMT,0.045144946,0.045243718,0.045409502,0.045662215,0.046011566,0.047702256,0.055368502,0.069249841,0.083655807,0.075309743,0.106704551,0.105996347,0.073556272,0.091036649,0.083797893,0.029554071,0.024093223,0.010223255,-99999,-99999,-99999,-99999,0.045148,0.051563
100789,1990-02-19T05:34:36.673000Z,A90340A2,6.24,0.08,Slab,N,1,209,72,-1.12E+02,special,-40.38,176.22,-40.3863,175.6165,6086791.59,2783346.23,6087788,2732102,13,13,51.12,56.19,47.8,53.59,47.31,23.97,0,23,16.82,nu,340A,D,283,Q3,0.96,Q3,90,Q3,0,-99999,-99999,1,0.33,18,0.561,18,Robinson_1994&Dowrick_Rhoades1998&HarvardCMT,0.051228669,0.051680544,0.052514237,0.053920709,0.056645488,0.067005704,0.085310483,0.107128345,0.158559017,0.127367596,0.154567173,0.117701021,0.072900851,0.051336958,0.057783598,0.030149238,-99999,-99999,-99999,-99999,-99999,-99999,0.050993,0.037503
100789,1990-02-19T05:34:36.673000Z,D90029A2,6.24,0.08,Slab,N,1,209,72,-1.12E+02,special,-40.38,176.22,-39.6458,176.8429,6086791.59,2783346.23,6166127,2839726,13,13,97.36,100.01,90.89,93.52,-8.84,-96.72,0,23,16.82,nu,HCDS,D,182,Q2,>2,Q3,1000,Q3,0,-99999,-99999,0,0.17,11,0.289,11,Robinson_1994&Dowrick_Rhoades1998&HarvardCMT,0.040663865,0.04076399,0.040905951,0.041110408,0.041385091,0.042445716,0.045448037,0.057591794,0.0779858,0.077440753,0.100640093,0.116134583,0.091455129,0.093818066,0.071287363,0.038676017,0.021068409,0.009933901,-99999,-99999,-99999,-99999,0.040597,0.04647
