CuspID,Origin_time,Record,Mw,MwUncert,TectClass,Mech,PreferredFaultPlane,Strike,Dip,Rake,Location,HypLat,HypLon,StationLat,StationLon,HypN,HypE,StationN,StationE,LENGTH_km,WIDTH_km,Repi_km,Rhyp_km,Rjb_km,Rrup_km,Rx_km,Ry_km,Rvol_km,HypDepth_km,ZTOR_km,HWFW,SiteCode,SiteClass1170,Vs30,Vs30Uncert,Tsite,TsiteUncert,Z1,Z1Uncertainty,Directivity,Pulse_or,Pulse_T,S_Trigger_Flag,fcButterHP,f_iniLP,fmin,fmax,References,f100.0000SA_Vert,f50.0000SA_Vert,f33.3333SA_Vert,f25.0000SA_Vert,f20.0000SA_Vert,f13.3333SA_Vert,f10.0000SA_Vert,f6.6667SA_Vert,f5.0000SA_Vert,f4.0000SA_Vert,f3.3333SA_Vert,f2.5000SA_Vert,f2.0000SA_Vert,f1.3333SA_Vert,f1.0000SA_Vert,f0.6667SA_Vert,f0.5000SA_Vert,f0.3333SA_Vert,f0.2500SA_Vert,f0.2000SA_Vert,f0.1333SA_Vert,f0.1000SA_Vert,PGA,PGV
2281164,2003-08-23T09:13:54.753000Z,20030823_091354_MANS,5.51,0.1,Interface,R,1,80,40,122,simulps,-45.3183,166.8238,-45.5212,167.2781,5525105.49,2026131.01,5505204,2063228,7.1,7.1,42.02,54.16,38.78,52.06,28.76,33.08,0,33.81,31.53,nu,MANS,A,1500,Q3,-1,Q3,0,Q3,0,-99999,-99999,0,0.35,35,0.595,35,Ristau2013,0.009999859,0.010603605,0.012447164,0.013398839,0.015926588,0.030491255,0.036099696,0.020637029,0.011437809,0.01032568,0.011223967,0.012395218,0.00844886,0.006989383,0.002597571,0.000870626,-9999,-9999,-9999,-9999,-9999,-9999,0.009867,0.003585
2281164,2003-08-23T09:13:54.753000Z,20030823_091354_QTPS,5.51,0.1,Interface,R,1,80,40,122,simulps,-45.3183,166.8238,-45.0322,168.6629,5525105.49,2026131.01,5566104,2168345,7.1,7.1,147.62,151.89,144.09,148.36,-12.96,147.17,0,33.81,31.53,nu,QTPS,D,350,Q3,0.95,Q1,90,Q3,0,-99999,-99999,0,0.3,42,0.51,42,Ristau2013,0.005727416,0.005801545,0.005890332,0.006402359,0.007309595,0.010259252,0.012510956,0.017458862,0.019300767,0.022379899,0.015699309,0.009962646,0.008113904,0.00211266,0.000923347,0.000371814,-9999,-9999,-9999,-9999,-9999,-9999,0.005699,0.002371
2281164,2003-08-23T09:13:54.753000Z,20030823_091354_SECF,5.51,0.1,Interface,R,1,80,40,122,simulps,-45.3183,166.8238,-45.2207,166.8848,5525105.49,2026131.01,5536286,2030133,7.1,7.1,11.86,35.84,8.95,32.91,-7.6,5.88,0,33.81,31.53,fw,SECF,B,1000,Q3,<0.1,Q3,0,Q3,0,-99999,-99999,0,0.16,50,0.272,50,Ristau2013,0.02348838,0.030729344,0.046124442,0.053132544,0.046459943,0.061303759,0.043822732,0.020310754,0.015122345,0.010148134,0.008029735,0.008039736,0.0043575,0.004916044,0.001901355,0.000668968,0.000363979,0.000146733,-9999,-9999,-9999,-9999,0.022844,0.00353
2281164,2003-08-23T09:13:54.753000Z,20030823_091354_TAFS,5.51,0.1,Interface,R,1,80,40,122,simulps,-45.3183,166.8238,-45.4167,167.7191,5525105.49,2026131.01,5519112,2096857,7.1,7.1,70.79,78.72,67.3,75.62,20.9,68.61,0,33.81,31.53,nu,TAFS,D,298,Q3,1.4,Q3,200,Q3,0,-99999,-99999,0,0.2,45,0.34,45,Ristau2013,0.006621923,0.007851844,0.017800939,0.025481711,0.016862728,0.014914898,0.013791496,0.01730163,0.013650179,0.008657019,0.007008882,0.009195894,0.016784445,0.009455083,0.014811824,0.005448502,0.002816358,-9999,-9999,-9999,-9999,-9999,0.006432,0.005037
2105025,2003-08-24T14:46:52.582000Z,20030824_144652_DECF,4.93,0.1,Interface,R,1,53,29,84,simulps,-45.1792,166.903,-45.2026,166.9727,5540994.84,2031168.2,5538804,2036870,3.6,3.6,6.05,23.8,4.4,23.3,6.77,3.24,0,22.97,22.09,hw,DECF,A,1500,Q3,<0.1,Q3,0,Q3,0,-99999,-99999,0,0.3,37,0.51,37,Ristau2013,0.021491499,0.023750352,0.034624779,0.055782256,0.061979658,0.064295085,0.051616527,0.035479662,0.031337363,0.026788281,0.029629095,0.017813704,0.010292141,0.005329921,0.002066046,0.000979573,-9999,-9999,-9999,-9999,-9999,-9999,0.020989,0.00561
2105025,2003-08-24T14:46:52.582000Z,20030824_144652_SECF,4.93,0.1,Interface,R,1,53,29,84,simulps,-45.1792,166.903,-45.2207,166.8848,5540994.84,2031168.2,5536286,2030133,3.6,3.6,4.83,23.48,3.11,22.83,4.73,-3.66,0,22.97,22.09,nu,SECF,B,1000,Q3,<0.1,Q3,0,Q3,0,-99999,-99999,0,0.42,50,0.714,50,Ristau2013,0.027172603,0.041306367,0.089237004,0.081367768,0.049010966,0.063936249,0.039712187,0.026147137,0.011105721,0.009256539,0.006327665,0.006839435,0.003198584,0.002230666,0.001265772,-9999,-9999,-9999,-9999,-9999,-9999,-9999,0.024444,0.002901
2214737,2003-08-26T23:56:27.077999Z,20030826_235627_CSBF,5.43,0.06,Interface,R,1,40,45,122,simulps,-45.4668,166.5597,-45.2931,166.8693,5507053.54,2006780.18,5528171,2029522,6.5,6.5,30.96,37.66,27.74,34.85,6.14,30.8,0,21.33,19.04,nu,CSBF,A,1500,Q3,-1,Q3,0,Q3,0,-99999,-99999,0,0.14,56,0.238,56,Ristau2013&HarvardCMT,0.021086917,0.025368334,0.035331805,0.050493033,0.050013574,0.066885889,0.054601218,0.052584261,0.025916305,0.02112803,0.013883893,0.01575199,0.010672249,0.005547168,0.004943092,0.001845881,0.000973938,0.000442848,0.000303433,-9999,-9999,-9999,0.020459,0.00569
2214737,2003-08-26T23:56:27.077999Z,20030826_235627_DCZ,5.43,0.06,Interface,R,1,40,45,122,simulps,-45.4668,166.5597,-45.4647,167.1535,5507053.54,2006780.18,5510775,2053118,6.5,6.5,46.31,51.18,43.53,49.11,35.39,32.64,0,21.33,19.04,nu,DCZ,A,1500,Q3,-1,Q1,0,Q1,0,-99999,-99999,0,0.2,60,0.34,60,Ristau2013&HarvardCMT,0.014476288,0.020720185,0.059201771,0.050047843,0.039181777,0.022694473,0.026087315,0.018698454,0.022193031,0.01070584,0.004845898,0.006511924,0.005153429,0.002579125,0.002419042,0.002071512,0.001177927,-9999,-9999,-9999,-9999,-9999,0.013456,0.003306
2214737,2003-08-26T23:56:27.077999Z,20030826_235627_DECF,5.43,0.06,Interface,R,1,40,45,122,simulps,-45.4668,166.5597,-45.2026,166.9727,5507053.54,2006780.18,5538804,2036870,6.5,6.5,43.66,48.68,40.43,45.66,4.93,43.66,0,21.33,19.04,nu,DECF,A,1500,Q3,<0.1,Q3,0,Q3,0,-99999,-99999,0,0.15,50,0.255,50,Ristau2013&HarvardCMT,0.008341316,0.009390596,0.011266915,0.01664883,0.014089013,0.020845043,0.016541369,0.016566372,0.011344644,0.009923823,0.009616232,0.008127049,0.004467813,0.004449463,0.002485018,0.002182626,0.000899291,0.000310182,-9999,-9999,-9999,-9999,0.008104,0.002859
2214737,2003-08-26T23:56:27.077999Z,20030826_235627_MANS,5.43,0.06,Interface,R,1,40,45,122,simulps,-45.4668,166.5597,-45.5212,167.2781,5507053.54,2006780.18,5505204,2063228,6.5,6.5,56.32,60.46,53.65,58.46,46.72,34.87,0,21.33,19.04,nu,MANS,A,1500,Q3,-1,Q3,0,Q3,0,-99999,-99999,0,0.2,45,0.34,45,Ristau2013&HarvardCMT,0.002120225,0.002346954,0.003867374,0.005707117,0.006000944,0.007447848,0.007410932,0.005583628,0.003433721,0.002716174,0.002652095,0.002649532,0.002449151,0.001334759,0.001397434,0.000657212,0.000552963,-9999,-9999,-9999,-9999,-9999,0.002074,0.000978
2214737,2003-08-26T23:56:27.077999Z,20030826_235627_SECF,5.43,0.06,Interface,R,1,40,45,122,simulps,-45.4668,166.5597,-45.2207,166.8848,5507053.54,2006780.18,5536286,2030133,6.5,6.5,37.35,43.07,34.12,40.04,1.39,37.4,0,21.33,19.04,nu,SECF,B,1000,Q3,<0.1,Q3,0,Q3,0,-99999,-99999,0,0.15,55,0.255,55,Ristau2013&HarvardCMT,0.023371256,0.030168912,0.041154717,0.057708137,0.087138751,0.090979702,0.043402827,0.033182663,0.026180895,0.015344414,0.014453562,0.017614334,0.007469654,0.004933292,0.004253193,0.001504568,0.000955457,0.000427657,-9999,-9999,-9999,-9999,0.022824,0.00484
2214737,2003-08-26T23:56:27.077999Z,20030826_235627_TAFS,5.43,0.06,Interface,R,1,40,45,122,simulps,-45.4668,166.5597,-45.4167,167.7191,5507053.54,2006780.18,5519112,2096857,6.5,6.5,90.63,93.4,87.8,90.9,63.54,67.14,0,21.33,19.04,nu,TAFS,D,298,Q3,1.4,Q3,200,Q3,0,-99999,-99999,0,0.2,45,0.34,45,Ristau2013&HarvardCMT,0.007351335,0.008712708,0.012682976,0.015042603,0.020341966,0.013977736,0.016348664,0.01147262,0.009104411,0.009930713,0.007767852,0.003707186,0.003558434,0.003617171,0.005930868,0.003201379,0.00175692,-9999,-9999,-9999,-9999,-9999,0.00715,0.00309
2106314,2003-08-27T01:29:41.037999Z,20030827_012940_CSBF,5.12,0.1,Interface,R,1,42,48,70,simulps,-45.444,166.6615,-45.2931,166.8693,5510206.45,2014522.91,5528171,2029522,4.5,4.5,23.35,34.48,21.09,32.5,0.64,23.39,0,25.31,23.63,nu,CSBF,A,1500,Q3,-1,Q3,0,Q3,0,-99999,-99999,0,0.3,55,0.51,55,Ristau2013,0.010873463,0.012702932,0.015655024,0.020948736,0.022793536,0.03427957,0.032562243,0.015958178,0.007123516,0.008022032,0.005153081,0.003235157,0.003782137,0.003755552,0.001825764,0.000491201,-9999,-9999,-9999,-9999,-9999,-9999,0.010387,0.002183
2106314,2003-08-27T01:29:41.037999Z,20030827_012940_SECF,5.12,0.1,Interface,R,1,42,48,70,simulps,-45.444,166.6615,-45.2207,166.8848,5510206.45,2014522.91,5536286,2030133,4.5,4.5,30.36,39.56,28.12,37.42,-4.33,29.83,0,25.31,23.63,nu,SECF,B,1000,Q3,<0.1,Q3,0,Q3,0,-99999,-99999,0,0.46,55,0.782,55,Ristau2013,0.011216655,0.013109781,0.01787993,0.035016522,0.027354661,0.045131823,0.027744366,0.015353994,0.016322678,0.00819431,0.007022333,0.007414842,0.004381787,0.001677009,0.00086335,-9999,-9999,-9999,-9999,-9999,-9999,-9999,0.010968,0.002433
2204598,2003-08-27T01:42:54.293999Z,20030827_014254_CSBF,5.36,0.1,Interface,R,1,55,57,106,simulps,-45.2817,166.9242,-45.2931,166.8693,5529758.49,2033673.37,5528171,2029522,6,6,4.47,30.41,1.61,27.88,0.55,-4.31,0,30.07,27.57,nu,CSBF,A,1500,Q3,-1,Q3,0,Q3,0,-99999,-99999,0,0.25,50,0.425,50,Ristau2013,0.009610637,0.015262098,0.021240706,0.024344048,0.027729939,0.015299877,0.015981824,0.014969001,0.012502508,0.013998264,0.011921646,0.007851792,0.006673759,0.004962471,0.003598527,0.001991085,0.00094556,-9999,-9999,-9999,-9999,-9999,0.008787,0.002598
2204598,2003-08-27T01:42:54.293999Z,20030827_014254_DCZ,5.36,0.1,Interface,R,1,55,57,106,simulps,-45.2817,166.9242,-45.4647,167.1535,5529758.49,2033673.37,5510775,2053118,6,6,27.11,40.58,25.43,39.81,28.33,5.04,0,30.07,27.57,hw,DCZ,A,1500,Q3,-1,Q1,0,Q1,0,-99999,-99999,0,0.2,45,0.34,45,Ristau2013,0.015911281,0.020293492,0.058209829,0.069557622,0.043201834,0.034072494,0.021268651,0.013241801,0.016113708,0.014544095,0.010716475,0.005700094,0.003866096,0.003724471,0.001637112,0.001185786,0.000642323,-9999,-9999,-9999,-9999,-9999,0.015138,0.003282
2204598,2003-08-27T01:42:54.293999Z,20030827_014254_DECF,5.36,0.1,Interface,R,1,55,57,106,simulps,-45.2817,166.9242,-45.2026,166.9727,5529758.49,2033673.37,5538804,2036870,6,6,9.58,31.59,7.06,28.84,-3.95,7.81,0,30.07,27.57,nu,DECF,A,1500,Q3,<0.1,Q3,0,Q3,0,-99999,-99999,0,0.19,35,0.323,35,Ristau2013,0.027637792,0.028452518,0.031332728,0.038042555,0.06358957,0.073245243,0.055356466,0.061594351,0.036178299,0.026737482,0.037986949,0.030155599,0.037336289,0.022924371,0.010351829,0.005227012,0.002798098,0.000960523,-9999,-9999,-9999,-9999,0.027452,0.00833
2204598,2003-08-27T01:42:54.293999Z,20030827_014254_MANS,5.36,0.1,Interface,R,1,55,57,106,simulps,-45.2817,166.9242,-45.5212,167.2781,5529758.49,2033673.37,5505204,2063228,6,6,38.38,48.95,36.64,48.34,38.69,10.13,0,30.07,27.57,hw,MANS,A,1500,Q3,-1,Q3,0,Q3,0,-99999,-99999,0,0.4,36,0.68,36,Ristau2013,0.019601798,0.019874419,0.019690103,0.023483328,0.024324541,0.033737067,0.043457792,0.054351703,0.051680941,0.033739852,0.043308886,0.018040512,0.011803516,0.004858398,0.003375539,-9999,-9999,-9999,-9999,-9999,-9999,-9999,0.019501,0.00579
2204598,2003-08-27T01:42:54.293999Z,20030827_014254_MSZS,5.36,0.1,Interface,R,1,55,57,106,simulps,-45.2817,166.9242,-44.673,167.9255,5529758.49,2033673.37,5602613,2107875,6,6,103.85,108.25,100.9,105.27,-15.49,102.57,0,30.07,27.57,nu,MSZS,B,1200,Q3,0.33,Q2,3,Q2,0,-99999,-99999,0,0.3,52,0.51,52,Ristau2013,0.0016651,0.002049089,0.00201026,0.002941279,0.003951823,0.005168051,0.004967216,0.003155961,0.003681313,0.002011653,0.003265484,0.002537485,0.002835902,0.001666598,0.00133397,0.000718066,-9999,-9999,-9999,-9999,-9999,-9999,0.001628,0.001125
2204598,2003-08-27T01:42:54.293999Z,20030827_014254_QTPS,5.36,0.1,Interface,R,1,55,57,106,simulps,-45.2817,166.9242,-45.0322,168.6629,5529758.49,2033673.37,5566104,2168345,6,6,139.13,142.76,136.27,140.03,49.1,131.16,0,30.07,27.57,nu,QTPS,D,350,Q3,0.95,Q1,90,Q3,0,-99999,-99999,0,0.3,23,0.51,23,Ristau2013,0.003223282,0.003268131,0.00336033,0.003508147,0.004249531,0.005761818,0.008509348,0.009815295,0.007579859,0.007390385,0.009658058,0.004955623,0.004238601,0.002234829,0.001627663,0.000384677,-9999,-9999,-9999,-9999,-9999,-9999,0.003202,0.001462
2204598,2003-08-27T01:42:54.293999Z,20030827_014254_SECF,5.36,0.1,Interface,R,1,55,57,106,simulps,-45.2817,166.9242,-45.2207,166.8848,5529758.49,2033673.37,5536286,2030133,6,6,7.45,30.98,5.81,28.18,-5.75,0.84,0,30.07,27.57,fw,SECF,B,1000,Q3,<0.1,Q3,0,Q3,0,-99999,-99999,0,0.17,60,0.289,60,Ristau2013,0.019000462,0.02364388,0.042744415,0.039754884,0.042553099,0.079295724,0.035752051,0.059465841,0.025724511,0.020449147,0.016822904,0.014216162,0.014475149,0.009429383,0.004129684,0.00229224,0.000877152,0.00038885,-9999,-9999,-9999,-9999,0.018644,0.00521
2204598,2003-08-27T01:42:54.293999Z,20030827_014254_TAFS,5.36,0.1,Interface,R,1,55,57,106,simulps,-45.2817,166.9242,-45.4167,167.7191,5529758.49,2033673.37,5519112,2096857,6,6,63.91,70.87,61.52,68.99,46.59,45.65,0,30.07,27.57,nu,TAFS,D,298,Q3,1.4,Q3,200,Q3,0,-99999,-99999,0,0.16,43,0.272,43,Ristau2013,0.007967601,0.008808299,0.014423968,0.016682611,0.014990413,0.015168853,0.020243471,0.015448662,0.009310795,0.008552999,0.005314599,0.007583165,0.008314249,0.009740563,0.007927233,0.0108262,0.003448072,0.000876097,-9999,-9999,-9999,-9999,0.007808,0.005584
2110611,2003-09-04T08:40:44.759000Z,20030904_084044_CSBF,5.51,0.1,Interface,R,1,35,66,90,simulps,-45.1612,166.8108,-45.2931,166.8693,5542445.57,2023792.74,5528171,2029522,7.1,7.1,15.37,31.68,13.21,29.35,14.32,-8.41,0,27.68,24.44,hw,CSBF,A,1500,Q3,-1,Q3,0,Q3,0,-99999,-99999,0,0.29,35,0.493,35,HarvardCMT,0.033145797,0.036606736,0.068180402,0.086123907,0.093669696,0.063971017,0.082843332,0.089337842,0.025992918,0.018663442,0.014453119,0.020171068,0.019015141,0.007564643,0.00546398,0.004400081,0.002390849,-9999,-9999,-9999,-9999,-9999,0.031896,0.00813
2110611,2003-09-04T08:40:44.759000Z,20030904_084044_DCZ,5.51,0.1,Interface,R,1,35,66,90,simulps,-45.1612,166.8108,-45.4647,167.1535,5542445.57,2023792.74,5510775,2053118,7.1,7.1,43.09,51.31,41.51,50.58,43.63,-9.12,0,27.68,24.44,nu,DCZ,A,1500,Q3,-1,Q1,0,Q1,0,-99999,-99999,0,0.15,45,0.255,45,HarvardCMT,0.016135622,0.025683161,0.065895636,0.049133121,0.051770297,0.029638474,0.018606262,0.014145083,0.010224948,0.00617313,0.007000508,0.006365616,0.006506887,0.010382521,0.007100541,0.003772837,0.002380068,0.001154723,-9999,-9999,-9999,-9999,0.014801,0.00689
2110611,2003-09-04T08:40:44.759000Z,20030904_084044_DECF,5.51,0.1,Interface,R,1,35,66,90,simulps,-45.1612,166.8108,-45.2026,166.9727,5542445.57,2023792.74,5538804,2036870,7.1,7.1,13.5,30.86,11.81,28.61,14.24,4.52,0,27.68,24.44,hw,DECF,A,1500,Q3,<0.1,Q3,0,Q3,0,-99999,-99999,0,0.2,35,0.34,35,HarvardCMT,0.072106899,0.075780635,0.099685224,0.155235362,0.175256901,0.254363483,0.197302815,0.129633161,0.187510847,0.064735272,0.070862587,0.064001497,0.045644907,0.017638716,0.015207608,0.009257582,0.004323748,-9999,-9999,-9999,-9999,-9999,0.070296,0.01854
2110611,2003-09-04T08:40:44.759000Z,20030904_084044_MANS,5.51,0.1,Interface,R,1,35,66,90,simulps,-45.1612,166.8108,-45.5212,167.2781,5542445.57,2023792.74,5505204,2063228,7.1,7.1,54.19,61.01,52.68,60.61,55.11,-7.89,0,27.68,24.44,nu,MANS,A,1500,Q3,-1,Q3,0,Q3,0,-99999,-99999,0,0.17,40,0.289,40,HarvardCMT,0.009972045,0.010231048,0.011036475,0.016789885,0.014985326,0.027786293,0.023862597,0.022152173,0.012985657,0.012323635,0.007785484,0.011115685,0.012519499,0.013489526,0.006602274,0.004965043,0.002868995,0.001358065,-9999,-9999,-9999,-9999,0.009867,0.00637
2110611,2003-09-04T08:40:44.759000Z,20030904_084044_MSZS,5.51,0.1,Interface,R,1,35,66,90,simulps,-45.1612,166.8108,-44.673,167.9255,5542445.57,2023792.74,5602613,2107875,7.1,7.1,103.2,107.04,99.83,103.79,35.81,97.51,0,27.68,24.44,nu,MSZS,B,1200,Q3,0.33,Q2,3,Q2,0,-99999,-99999,0,0.17,58,0.289,58,HarvardCMT,0.006539796,0.007056457,0.007720937,0.009960993,0.01489286,0.01574626,0.02084146,0.011838327,0.013320401,0.011987337,0.012243323,0.010414195,0.006389797,0.007098456,0.004395507,0.002499051,0.000772535,0.00030545,-9999,-9999,-9999,-9999,0.006391,0.003707
2110611,2003-09-04T08:40:44.759000Z,20030904_084044_QTPS,5.51,0.1,Interface,R,1,35,66,90,simulps,-45.1612,166.8108,-45.0322,168.6629,5542445.57,2023792.74,5566104,2168345,7.1,7.1,146.08,149.13,143.41,146.68,106.28,102.29,0,27.68,24.44,nu,QTPS,D,350,Q3,0.95,Q1,90,Q3,0,-99999,-99999,0,0.19,36,0.323,36,HarvardCMT,0.007855187,0.007939772,0.008077619,0.0086631,0.009220526,0.014171185,0.018642845,0.025105408,0.021659802,0.020662611,0.016859873,0.021354683,0.015464559,0.006092593,0.002793343,0.001359222,0.000498392,0.000288758,-9999,-9999,-9999,-9999,0.007819,0.00452
2110611,2003-09-04T08:40:44.759000Z,20030904_084044_SECF,5.51,0.1,Interface,R,1,35,66,90,simulps,-45.1612,166.8108,-45.2207,166.8848,5542445.57,2023792.74,5536286,2030133,7.1,7.1,8.8,29.07,7.3,26.51,10.17,-1.41,0,27.68,24.44,hw,SECF,B,1000,Q3,<0.1,Q3,0,Q3,0,-99999,-99999,0,0.12,50,0.204,50,HarvardCMT,0.096597898,0.149559569,0.194252257,0.249381753,0.243288716,0.33157028,0.356910504,0.216203824,0.147309697,0.063178851,0.047910628,0.035316075,0.034320828,0.016488428,0.008447631,0.00544486,0.003905123,0.001348957,0.000838078,-9999,-9999,-9999,0.09526,0.01828
2110611,2003-09-04T08:40:44.759000Z,20030904_084044_TAFS,5.51,0.1,Interface,R,1,35,66,90,simulps,-45.1612,166.8108,-45.4167,167.7191,5542445.57,2023792.74,5519112,2096857,7.1,7.1,76.52,81.62,74.81,80.68,74.68,22.79,0,27.68,24.44,nu,TAFS,D,298,Q3,1.4,Q3,200,Q3,0,-99999,-99999,0,0.1,45,0.17,45,HarvardCMT,0.010677468,0.012243505,0.02611146,0.029900141,0.026637924,0.020200461,0.019628348,0.01846756,0.010695823,0.011998997,0.011298159,0.016124485,0.017958047,0.030056552,0.033846522,0.01773697,0.006925427,0.002315321,0.001094744,0.000675658,-9999,-9999,0.010367,0.01392
2122842,2003-09-29T18:22:31.544000Z,20030929_182232_ASHS,4.63,0.1,Crustal,R,0,260,49,86,simulps,-43.2585,172.958,-43.2744,172.5959,5772103.02,2506601.96,5770255,2477212,1.9,1.9,29.37,41,28.42,40.19,-99999,-99999,0,28.48,27.81,nu,ASHS,D,270,Q3,>2,Q3,650,Q3,0,-99999,-99999,0,0.26,40,0.442,40,Ristau2013,0.031468029,0.035121617,0.072251846,0.068680261,0.061923023,0.057169684,0.045124342,0.05493393,0.029831111,0.018986068,0.008996776,0.004227371,0.002858754,0.001514548,0.000669193,0.000380641,0.000147304,-9999,-9999,-9999,-9999,-9999,0.03055,0.00393
2122842,2003-09-29T18:22:31.544000Z,20030929_182232_CACS,4.63,0.1,Crustal,R,0,260,49,86,simulps,-43.2585,172.958,-43.4832,172.53,5772103.02,2506601.96,5747034,2471991,1.9,1.9,42.67,51.38,41.78,50.58,-99999,-99999,0,28.48,27.81,nu,CACS,D,435,Q1,6.3,Q2,610,Q3,0,-99999,-99999,0,0.24,55,0.408,55,Ristau2013,0.013109614,0.013492527,0.017200497,0.024534359,0.035090997,0.042436051,0.039022242,0.017300864,0.011937288,0.009500164,0.008477186,0.003781913,0.003712741,0.001143962,0.000671366,0.000354023,0.00018953,-9999,-9999,-9999,-9999,-9999,0.012885,0.00225
2122842,2003-09-29T18:22:31.544000Z,20030929_182232_CBGS,4.63,0.1,Crustal,R,0,260,49,86,simulps,-43.2585,172.958,-43.5293,172.6199,5772103.02,2506601.96,5741941,2479284,1.9,1.9,40.66,49.68,39.82,48.93,-99999,-99999,0,28.48,27.81,nu,CBGS,D,197,Q1,>2,Q3,540,Q3,0,-99999,-99999,0,0.6,40,1.02,40,Ristau2013,0.009045092,0.009689385,0.011530399,0.017585896,0.020101166,0.025515837,0.019835249,0.026906997,0.025009897,0.026394339,0.014558673,0.007118032,0.004569394,0.002154491,-9999,-9999,-9999,-9999,-9999,-9999,-9999,-9999,0.008828,0.0027
2122842,2003-09-29T18:22:31.544000Z,20030929_182232_CMHS,4.63,0.1,Crustal,R,0,260,49,86,simulps,-43.2585,172.958,-43.5656,172.6242,5772103.02,2506601.96,5737913,2479650,1.9,1.9,43.51,52.04,42.69,51.3,-99999,-99999,0,28.48,27.81,nu,CMHS,D,213,Q1,0.71,Q1,45,Q1,0,-99999,-99999,0,0.25,45,0.425,45,Ristau2013,0.032776884,0.040962074,0.074052219,0.089615922,0.095493336,0.063686997,0.041894109,0.052556094,0.049785614,0.054163344,0.049309217,0.022651749,0.006749864,0.00315383,0.001867704,0.000798553,0.000401972,-9999,-9999,-9999,-9999,-9999,0.029827,0.00752
