CuspID,Origin_time,Record,Mw,MwUncert,TectClass,Mech,PreferredFaultPlane,Strike,Dip,Rake,Location,HypLat,HypLon,StationLat,StationLon,HypN,HypE,StationN,StationE,LENGTH_km,WIDTH_km,Repi_km,Rhyp_km,Rjb_km,Rrup_km,Rx_km,Ry_km,Rvol_km,HypDepth_km,ZTOR_km,HWFW,SiteCode,SiteClass1170,Vs30,Vs30Uncert,Tsite,TsiteUncert,Z1,Z1Uncertainty,Directivity,Pulse_or,Pulse_T,S_Trigger_Flag,fcButterHP,f_iniLP,fmin,fmax,References,f100.0000SA_RotD50,f50.0000SA_RotD50,f33.3333SA_RotD50,f25.0000SA_RotD50,f20.0000SA_RotD50,f13.3333SA_RotD50,f10.0000SA_RotD50,f6.6667SA_RotD50,f5.0000SA_RotD50,f4.0000SA_RotD50,f3.3333SA_RotD50,f2.5000SA_RotD50,f2.0000SA_RotD50,f1.3333SA_RotD50,f1.0000SA_RotD50,f0.6667SA_RotD50,f0.5000SA_RotD50,f0.3333SA_RotD50,f0.2500SA_RotD50,f0.2000SA_RotD50,f0.1333SA_RotD50,f0.1000SA_RotD50,f100.0000SA_RotD100,f50.0000SA_RotD100,f33.3333SA_RotD100,f25.0000SA_RotD100,f20.0000SA_RotD100,f13.3333SA_RotD100,f10.0000SA_RotD100,f6.6667SA_RotD100,f5.0000SA_RotD100,f4.0000SA_RotD100,f3.3333SA_RotD100,f2.5000SA_RotD100,f2.0000SA_RotD100,f1.3333SA_RotD100,f1.0000SA_RotD100,f0.6667SA_RotD100,f0.5000SA_RotD100,f0.3333SA_RotD100,f0.2500SA_RotD100,f0.2000SA_RotD100,f0.1333SA_RotD100,f0.1000SA_RotD100,PGA_RotD50,PGA_RotD100,PGV_RotD50,PGV_RotD100
164529,1990-10-04T23:48:26.123000Z,D90606B5,5.57,0.15,Interface,O,1,190,21,58,special,-41.61,175.44,-41.2333,174.9199,5952370.8,2713346.37,5995282,2670919,7.6,7.6,60.3,61.9,58.15,59.96,51.33,-34.89,0,13.8,12.99,nu,606B,B,800,Q3,<0.1,Q3,0,Q3,0,-99999,-99999,0,0.4,12,0.68,12,HarvardCMT&Luo(1992),0.013750103,0.013859712,0.014094155,0.014423293,0.014893448,0.01787216,0.027075392,0.066465957,0.062013756,0.036474334,0.051520735,0.036970487,0.034940443,0.015288258,0.022365116,-99999,-99999,-99999,-99999,-99999,-99999,-99999,0.018028215,0.018199554,0.018530212,0.018970266,0.019613432,0.023691272,0.030441254,0.089195828,0.068324926,0.043450285,0.065670481,0.050057494,0.044200167,0.019055453,0.023935439,-99999,-99999,-99999,-99999,-99999,-99999,-99999,0.013701,0.018028,0.009334,0.010354
164529,1990-10-04T23:48:26.123000Z,D90642E8,5.57,0.15,Interface,O,1,190,21,58,special,-41.61,175.44,-41.2341,174.918,5952370.8,2713346.37,5995197,2670758,7.6,7.6,60.35,61.96,58.2,60.01,51.48,-34.78,0,13.8,12.99,nu,642E,C,350,Q1,0.35,Q2,50,Q3,0,-99999,-99999,0,0.4,13,0.68,13,HarvardCMT&Luo(1992),0.037692225,0.037899921,0.038140089,0.038600407,0.039099697,0.047801692,0.05262806,0.117050571,0.12280552,0.108880464,0.247968941,0.149404682,0.148897114,0.028897292,0.032819934,-99999,-99999,-99999,-99999,-99999,-99999,-99999,0.042374023,0.042578302,0.042879053,0.043348055,0.043984944,0.061190861,0.056735963,0.161487623,0.159994812,0.139406888,0.299050049,0.191071358,0.200575878,0.033370525,0.039541604,-99999,-99999,-99999,-99999,-99999,-99999,-99999,0.037615,0.042374,0.022462,0.02414
164529,1990-10-04T23:48:26.123000Z,D90900B5,5.57,0.15,Interface,O,1,190,21,58,special,-41.61,175.44,-41.2921,174.779,5952370.8,2713346.37,5989003,2658976,7.6,7.6,65.46,67,63.34,65.08,62.01,-26.63,0,13.8,12.99,nu,941A,D,272,Q2,0.85,Q2,9.85E+01,Q2,0,-99999,-99999,0,0.4,11.5,0.68,11.5,HarvardCMT&Luo(1992),0.022650086,0.022704782,0.022812698,0.023014189,0.023259308,0.024188042,0.029337129,0.06073952,0.063312846,0.064739447,0.085011981,0.086850032,0.098682608,0.080960903,0.059972109,-99999,-99999,-99999,-99999,-99999,-99999,-99999,0.025337937,0.025434831,0.025515625,0.025693044,0.025980079,0.027530068,0.034158841,0.072448227,0.067196238,0.075661198,0.095645315,0.098040179,0.133845191,0.098987511,0.075927409,-99999,-99999,-99999,-99999,-99999,-99999,-99999,0.02265,0.025338,0.022889,0.025328
164529,1990-10-04T23:48:26.123000Z,D90935B2,5.57,0.15,Interface,O,1,190,21,58,special,-41.61,175.44,-41.2108,174.9047,5952370.8,2713346.37,5997808,2669699,7.6,7.6,62.96,64.5,60.81,62.54,52.97,-37.17,0,13.8,12.99,nu,935A,D,240,Q3,1.2,Q3,275,Q3,0,-99999,-99999,0,0.4,15,0.68,15,HarvardCMT&Luo(1992),0.032911278,0.033095849,0.033434458,0.033972461,0.03481732,0.044563019,0.051866694,0.08352185,0.121895458,0.111562941,0.23006531,0.1109697,0.104663053,0.060565277,0.097781603,-99999,-99999,-99999,-99999,-99999,-99999,-99999,0.037518369,0.037657797,0.03789075,0.038315206,0.039029224,0.053682739,0.065918517,0.097246448,0.140251561,0.139377648,0.291497414,0.129992986,0.111472981,0.066940177,0.131070835,-99999,-99999,-99999,-99999,-99999,-99999,-99999,0.032746,0.037519,0.034941,0.042109
164529,1990-10-04T23:48:26.123000Z,D90941A5,5.57,0.15,Interface,O,1,190,21,58,special,-41.61,175.44,-41.2921,174.779,5952370.8,2713346.37,5989003,2658976,7.6,7.6,65.46,67,63.34,65.08,62.01,-26.63,0,13.8,12.99,nu,941A,D,272,Q2,0.85,Q2,9.85E+01,Q2,0,-99999,-99999,0,0.41,11,0.697,11,HarvardCMT&Luo(1992),0.022981989,0.023075183,0.023252354,0.02351058,0.023847528,0.025407085,0.031830327,0.066527488,0.052513405,0.067520481,0.093361544,0.096965029,0.058607601,0.07493926,0.042976253,-99999,-99999,-99999,-99999,-99999,-99999,-99999,0.031421411,0.031528123,0.031696905,0.031898659,0.03219157,0.03335545,0.034657953,0.080922596,0.061543541,0.092423178,0.105630749,0.134076847,0.073928474,0.085751826,0.052089531,-99999,-99999,-99999,-99999,-99999,-99999,-99999,0.022982,0.031422,0.021391,0.023599
160610,1990-10-06T02:41:12.583000Z,D90642EB,5.46,0.15,Interface,O,1,250,38,145,special,-41.61,175.43,-41.2341,174.918,5952394.08,2712513.04,5995197,2670758,6.7,6.7,59.75,61.46,58.1,60.11,56.08,24.6,0,14.2,12.97,nu,642E,C,350,Q1,0.35,Q2,50,Q3,0,-99999,-99999,0,0.6,11,1.02,11,HarvardCMT&Luo(1992),0.028071705,0.02818707,0.028331496,0.028563743,0.028804364,0.029918829,0.04282074,0.062530353,0.106662738,0.123243449,0.150495981,0.152790412,0.091928691,0.024412307,-99999,-99999,-99999,-99999,-99999,-99999,-99999,-99999,0.03010531,0.03025722,0.03052579,0.030896265,0.031421867,0.033731947,0.047982526,0.071813081,0.11608016,0.143969236,0.20344821,0.199502596,0.124568371,0.032595708,-99999,-99999,-99999,-99999,-99999,-99999,-99999,-99999,0.027979,0.030104,0.016174,0.019076
160610,1990-10-06T02:41:12.583000Z,D90900B6,5.46,0.15,Interface,O,1,250,38,145,special,-41.61,175.43,-41.2921,174.779,5952394.08,2712513.04,5989003,2658976,6.7,6.7,64.76,66.39,63.03,64.9,54.29,37.79,0,14.2,12.97,nu,941A,D,272,Q2,0.85,Q2,9.85E+01,Q2,0,-99999,-99999,0,0.4,10,0.68,10,HarvardCMT&Luo(1992),0.014070647,0.014101948,0.014160175,0.014236855,0.014326507,0.014667226,0.0218706,0.032094419,0.04153296,0.045258807,0.04547338,0.056544064,0.044861348,0.054250417,0.043619633,-99999,-99999,-99999,-99999,-99999,-99999,-99999,0.019033898,0.019079653,0.019131962,0.01924327,0.019333167,0.019678973,0.026534997,0.038191754,0.050550908,0.053964245,0.051703112,0.073475626,0.048236647,0.071509206,0.057514066,-99999,-99999,-99999,-99999,-99999,-99999,-99999,0.014052,0.019034,0.012221,0.01399
160610,1990-10-06T02:41:12.583000Z,D90935B3,5.46,0.15,Interface,O,1,250,38,145,special,-41.61,175.43,-41.2108,174.9047,5952394.08,2712513.04,5997808,2669699,6.7,6.7,62.37,64.01,60.72,62.65,58.89,24.7,0,14.2,12.97,nu,935A,D,240,Q3,1.2,Q3,275,Q3,0,-99999,-99999,0,0.3,15,0.51,15,HarvardCMT&Luo(1992),0.019814557,0.019917135,0.020018621,0.020207475,0.02046794,0.026162576,0.036725407,0.061769645,0.048714879,0.103719593,0.115591586,0.089821368,0.052185342,0.061132483,0.031766279,0.017847205,-99999,-99999,-99999,-99999,-99999,-99999,0.021461507,0.021568554,0.021709729,0.021950852,0.022206261,0.031741757,0.047503664,0.075577497,0.052256635,0.127366443,0.161610706,0.119618415,0.05773736,0.070943401,0.03986523,0.022569015,-99999,-99999,-99999,-99999,-99999,-99999,0.019813,0.021374,0.01878,0.023053
160610,1990-10-06T02:41:12.583000Z,D90941A6,5.46,0.15,Interface,O,1,250,38,145,special,-41.61,175.43,-41.2921,174.779,5952394.08,2712513.04,5989003,2658976,6.7,6.7,64.76,66.39,63.03,64.9,54.29,37.79,0,14.2,12.97,nu,941A,D,272,Q2,0.85,Q2,9.85E+01,Q2,0,-99999,-99999,0,0.35,12,0.595,12,HarvardCMT&Luo(1992),0.013388435,0.013427262,0.013503763,0.013621189,0.013754322,0.014108972,0.023523831,0.03366664,0.044239105,0.061077868,0.052346239,0.078076648,0.024751927,0.057379606,0.026341459,0.007657345,-99999,-99999,-99999,-99999,-99999,-99999,0.016518752,0.016583081,0.016694588,0.016897456,0.017103273,0.018581388,0.02853681,0.042307293,0.060552731,0.067885917,0.064225992,0.106075578,0.028906454,0.068055462,0.032188047,0.010008447,-99999,-99999,-99999,-99999,-99999,-99999,0.013333,0.016519,0.009242,0.010038
194283,1991-01-28T12:58:46.823000Z,A91051B1,5.76,0.08,Crustal,R,1,42,30,99,special,-41.89,171.58,-41.7557,171.5998,5923123.14,2392149.06,5938069,2393545,6.97,6.97,15.03,18.04,11.7,14.67,-5.94,12.04,0,10,8.26,nu,WBCS,D,300,Q3,1.2,Q2,105,Q3,0,-99999,-99999,1,0.4,27,0.68,27,Anderson_etal_1993&Dowrick_Rhoades1998&HarvardCMT,0.143896261,0.146075544,0.149230375,0.214950718,0.279745079,0.359074479,0.633935679,0.483524778,0.548461964,0.329333859,0.321886999,0.386857305,0.368643669,0.508729361,0.3446602,-99999,-99999,-99999,-99999,-99999,-99999,-99999,0.162973252,0.165524302,0.170870836,0.240694063,0.342615585,0.479808995,0.772038756,0.592264821,0.669963768,0.450711638,0.454784121,0.519792787,0.519531295,0.673688842,0.42756705,-99999,-99999,-99999,-99999,-99999,-99999,-99999,0.142879,0.161382,0.10733,0.128337
194283,1991-01-28T12:58:46.823000Z,A91083A1,5.76,0.08,Crustal,R,1,42,30,99,special,-41.89,171.58,-41.8311,171.6606,5923123.14,2392149.06,5929772,2398735,6.97,6.97,9.35,13.7,5.87,11.28,3.46,9.35,0,10,8.26,nu,083A,B,1200,Q3,<0.1,Q3,0,Q2,0,-99999,-99999,0,0.5,40,0.85,40,Anderson_etal_1993&Dowrick_Rhoades1998&HarvardCMT,0.202666384,0.223419327,0.570149816,0.545316737,0.640567844,0.94324344,0.580464224,0.426013791,0.365535949,0.177624927,0.183849,0.230243914,0.210987518,0.139312591,0.113304827,-99999,-99999,-99999,-99999,-99999,-99999,-99999,0.262540241,0.315949464,0.788149016,0.697185606,0.844318313,1.223002362,0.682262556,0.568502798,0.469715692,0.222767305,0.193783863,0.258866144,0.281500874,0.193892666,0.156159411,-99999,-99999,-99999,-99999,-99999,-99999,-99999,0.193315,0.234507,0.065445,0.081315
194283,1991-01-28T12:58:46.823000Z,A91090A1,5.76,0.08,Crustal,R,1,42,30,99,special,-41.89,171.58,-41.8553,171.9539,5923123.14,2392149.06,5927428,2423132,6.97,6.97,31.2,32.86,27.91,30.07,23.16,23.93,0,10,8.26,nu,090A,C,270,Q3,0.33,Q3,40,Q3,0,-99999,-99999,1,0.3,22,0.51,22,Anderson_etal_1993&Dowrick_Rhoades1998&HarvardCMT,0.083403337,0.084462502,0.086335567,0.089386497,0.107001531,0.154639997,0.181525971,0.284641698,0.335808253,0.269801361,0.187387806,0.239684065,0.286768255,0.125345007,0.078918461,0.037485869,-99999,-99999,-99999,-99999,-99999,-99999,0.115117104,0.116285056,0.118625182,0.122374911,0.150210994,0.211996586,0.215910545,0.366656212,0.457898018,0.357267639,0.206820566,0.284038555,0.35991812,0.136212897,0.110632205,0.048419433,-99999,-99999,-99999,-99999,-99999,-99999,0.08299,0.115127,0.061288,0.084013
194283,1991-01-28T12:58:46.823000Z,A91122A1,5.76,0.08,Crustal,R,1,42,30,99,special,-41.89,171.58,-41.8025,172.3248,5923123.14,2392149.06,5933606,2453884,6.97,6.97,62.46,63.44,59.16,60.33,41.88,49.1,0,10,8.26,nu,122A,D,500,Q3,1.6,Q3,250,Q3,0,-99999,-99999,1,0.4,40,0.68,40,Anderson_etal_1993&Dowrick_Rhoades1998&HarvardCMT,0.128705435,0.139501069,0.172836719,0.308964204,0.230187144,0.366542581,0.44940061,0.40606912,0.253772641,0.36239927,0.263619225,0.257222845,0.261077908,0.131528582,0.072451014,-99999,-99999,-99999,-99999,-99999,-99999,-99999,0.172512379,0.177167258,0.229529993,0.406026906,0.297052984,0.457854638,0.552166081,0.502630007,0.295986078,0.445226844,0.354070007,0.3382645,0.367446454,0.161097022,0.080850462,-99999,-99999,-99999,-99999,-99999,-99999,-99999,0.128037,0.172541,0.069375,0.08888
194283,1991-01-28T12:58:46.823000Z,D91042A3,5.76,0.08,Crustal,R,1,42,30,99,special,-41.89,171.58,-42.5232,172.8305,5923123.14,2392149.06,5853765,2496076,6.97,6.97,124.76,125.38,121.74,122.51,126.66,18,0,10,8.26,nu,HSES,D,280,Q3,0.9,Q1,85,Q3,0,-99999,-99999,1,0.2,11,0.34,11,Anderson_etal_1993&Dowrick_Rhoades1998&HarvardCMT,0.023586578,0.023662706,0.023758426,0.023951159,0.024162886,0.025188955,0.035417809,0.050525316,0.070107744,0.054465,0.100690849,0.073982556,0.132662188,0.088317713,0.043745253,0.012088746,0.007070784,-99999,-99999,-99999,-99999,-99999,0.026776265,0.026830271,0.026962308,0.027084031,0.027245142,0.028029955,0.038561692,0.058507519,0.081721193,0.063738344,0.120917924,0.10240393,0.183924756,0.113389578,0.059099988,0.014322822,0.009613134,-99999,-99999,-99999,-99999,-99999,0.023586,0.026774,0.023361,0.029622
201724,1991-01-28T18:00:53.158000Z,A91051B2,5.89,0.08,Crustal,S,1,48,77,11,special,-41.9,171.67,-41.7557,171.5998,5922133.85,2399635.78,5938069,2393545,8.1,8.1,17.07,20.86,15.62,17.84,-15.01,6.14,0,12,8.05,fw,WBCS,D,300,Q3,1.2,Q2,105,Q3,0,-99999,-99999,1,0.3,20,0.51,20,Anderson_etal_1993&Dowrick_Rhoades1998&HarvardCMT,0.147485306,0.150168877,0.154924911,0.161934998,0.200841527,0.429803367,0.943887919,0.55218646,0.430407058,0.400303105,0.428111408,0.250300004,0.282107325,0.308729808,0.171911522,0.118907919,-99999,-99999,-99999,-99999,-99999,-99999,0.1636051,0.165207576,0.167910316,0.171361147,0.240332808,0.548123703,1.219467483,0.748348522,0.459868766,0.543633176,0.605464445,0.281392467,0.329980153,0.41803819,0.217344162,0.141944498,-99999,-99999,-99999,-99999,-99999,-99999,0.146803,0.16229,0.090179,0.110719
201724,1991-01-28T18:00:53.158000Z,A91052A2,5.89,0.08,Crustal,S,1,48,77,11,special,-41.9,171.67,-42.1166,171.8604,5922133.85,2399635.78,5898305,2415760,8.1,8.1,28.77,31.24,27.75,30.62,29.41,-3.96,0,12,8.05,hw,052A,C,333,Q3,0.3,Q3,30,Q3,0,-99999,-99999,1,0.5,35,0.85,35,Anderson_etal_1993&Dowrick_Rhoades1998&HarvardCMT,0.173652067,0.179593107,0.244910903,0.402253691,0.654990776,0.732216337,1.184507528,0.520836188,0.558207654,0.331456947,0.351539837,0.120393362,0.110916295,0.075249811,0.055253553,-99999,-99999,-99999,-99999,-99999,-99999,-99999,0.182588588,0.193396149,0.275424296,0.454855089,0.812949787,0.911808935,1.503018131,0.667206025,0.628866461,0.375294643,0.405250675,0.135864474,0.141720851,0.105423137,0.073300063,-99999,-99999,-99999,-99999,-99999,-99999,-99999,0.172849,0.182562,0.048354,0.054283
201724,1991-01-28T18:00:53.158000Z,A91083A2,5.89,0.08,Crustal,S,1,48,77,11,special,-41.9,171.67,-41.8311,171.6606,5922133.85,2399635.78,5929772,2398735,8.1,8.1,7.7,14.26,5.85,10.38,-5.37,4.44,0,12,8.05,fw,083A,B,1200,Q3,<0.1,Q3,0,Q2,0,-99999,-99999,1,1,35,1.7,35,Anderson_etal_1993&Dowrick_Rhoades1998&HarvardCMT,0.143289459,0.153701078,0.26884749,0.44372346,0.432315219,0.846488678,0.523334258,0.54882895,0.341381507,0.20375042,0.180017703,0.115455474,0.06450873,-99999,-99999,-99999,-99999,-99999,-99999,-99999,-99999,-99999,0.20193979,0.216471941,0.321474286,0.51380745,0.554729912,1.030901935,0.630735452,0.593224663,0.364432257,0.273448222,0.237994269,0.148209282,0.081107267,-99999,-99999,-99999,-99999,-99999,-99999,-99999,-99999,-99999,0.14279,0.201932,0.029918,0.038692
201724,1991-01-28T18:00:53.158000Z,A91090A2,5.89,0.08,Crustal,S,1,48,77,11,special,-41.9,171.67,-41.8553,171.9539,5922133.85,2399635.78,5927428,2423132,8.1,8.1,24.03,26.94,20.56,23.59,12.7,21,0,12,8.05,nu,090A,C,270,Q3,0.33,Q3,40,Q3,0,-99999,-99999,1,0.3,20,0.51,20,Anderson_etal_1993&Dowrick_Rhoades1998&HarvardCMT,0.166896177,0.167444748,0.168442966,0.172171521,0.195604474,0.205029509,0.323863677,0.474854182,0.800752073,0.729131991,0.460852341,0.828405762,0.35883701,0.325410607,0.265004787,0.078870022,-99999,-99999,-99999,-99999,-99999,-99999,0.185593908,0.186059276,0.186888784,0.188088839,0.208419132,0.232357401,0.379390031,0.561936159,0.994608055,0.901688651,0.640434271,1.100180429,0.491655285,0.386709157,0.345796831,0.088881603,-99999,-99999,-99999,-99999,-99999,-99999,0.16676,0.185405,0.123361,0.148819
201724,1991-01-28T18:00:53.158000Z,A91122A2,5.89,0.08,Crustal,S,1,48,77,11,special,-41.9,171.67,-41.8025,172.3248,5922133.85,2399635.78,5933606,2453884,8.1,8.1,55.31,56.76,51.82,53.36,28.68,47.99,0,12,8.05,nu,122A,D,500,Q3,1.6,Q3,250,Q3,0,-99999,-99999,1,0.3,33,0.51,33,Anderson_etal_1993&Dowrick_Rhoades1998&HarvardCMT,0.260905733,0.293882867,0.441372948,0.815830262,0.669892346,0.558747297,0.955378013,1.358917134,0.677600188,0.534706518,0.559047133,0.325566321,0.309233044,0.259343815,0.129373686,0.066705393,-99999,-99999,-99999,-99999,-99999,-99999,0.31991248,0.339313579,0.529287389,1.097573158,0.922805821,0.64823617,1.15181846,1.691652595,0.940391124,0.701255681,0.668825942,0.441193415,0.422978479,0.308994045,0.151612295,0.092897015,-99999,-99999,-99999,-99999,-99999,-99999,0.259538,0.310917,0.0751,0.09991
201724,1991-01-28T18:00:53.158000Z,D91042A4,5.89,0.08,Crustal,S,1,48,77,11,special,-41.9,171.67,-42.5232,172.8305,5922133.85,2399635.78,5853765,2496076,8.1,8.1,118.06,118.86,116.84,117.93,116.25,25.92,0,12,8.05,nu,HSES,D,280,Q3,0.9,Q1,85,Q3,0,-99999,-99999,0,0.3,12,0.51,12,Anderson_etal_1993&Dowrick_Rhoades1998&HarvardCMT,0.02722363,0.027275948,0.027360395,0.027495548,0.027664923,0.028665736,0.037294697,0.061012619,0.075810698,0.087178128,0.109429601,0.090667553,0.102889281,0.158007734,0.060344336,0.027893961,-99999,-99999,-99999,-99999,-99999,-99999,0.030577497,0.030624369,0.030634028,0.030669392,0.030935486,0.032483584,0.042118043,0.069921019,0.096860886,0.106977578,0.143688824,0.107926419,0.126717308,0.223321187,0.078075166,0.038775469,-99999,-99999,-99999,-99999,-99999,-99999,0.027216,0.030578,0.029481,0.035726
201354,1991-02-15T10:48:09.669000Z,A91051B3,5.42,0.15,Crustal,R,0,213,37,90,geonet,-42.0386,171.5897,-41.7557,171.5998,5906631.78,2393229.54,5938069,2393545,4.7,4.7,31.47,32.19,29.3,30.05,-99999,-99999,0,6.92,5.27,nu,WBCS,D,300,Q3,1.2,Q2,105,Q3,0,-99999,-99999,1,0.3,22,0.51,22,HarvardCMT,0.097941502,0.099349071,0.101780341,0.113458523,0.187207767,0.56056722,0.405961417,0.466891649,0.278819568,0.18738363,0.188203903,0.175344735,0.178849247,0.203940772,0.078137699,0.084068703,-99999,-99999,-99999,-99999,-99999,-99999,0.119161575,0.122521881,0.128443065,0.137142644,0.248316584,0.726595195,0.549800409,0.608458267,0.366831072,0.215622081,0.224506906,0.188699179,0.199864337,0.253027145,0.091719027,0.107013597,-99999,-99999,-99999,-99999,-99999,-99999,0.09661,0.119132,0.037472,0.047378
201354,1991-02-15T10:48:09.669000Z,A91052A3,5.42,0.15,Crustal,R,0,213,37,90,geonet,-42.0386,171.5897,-42.1166,171.8604,5906631.78,2393229.54,5898305,2415760,4.7,4.7,23.97,25.04,22.28,23.52,-99999,-99999,0,6.92,5.27,nu,052A,C,333,Q3,0.3,Q3,30,Q3,0,-99999,-99999,0,0.5,32,0.85,32,HarvardCMT,0.159575564,0.163412264,0.185216395,0.315433787,0.537291391,0.541483787,0.669985936,0.559385385,0.507592747,0.412432745,0.205791345,0.138740609,0.092735289,0.071694367,0.047224749,-99999,-99999,-99999,-99999,-99999,-99999,-99999,0.191395556,0.194723069,0.207381882,0.338557361,0.691700123,0.606338969,0.798230847,0.740527399,0.608791508,0.484160687,0.264067323,0.14914344,0.121900753,0.091546598,0.060154269,-99999,-99999,-99999,-99999,-99999,-99999,-99999,0.159601,0.19139,0.046705,0.056129
201354,1991-02-15T10:48:09.669000Z,A91090A3,5.42,0.15,Crustal,R,0,213,37,90,geonet,-42.0386,171.5897,-41.8553,171.9539,5906631.78,2393229.54,5927428,2423132,4.7,4.7,36.37,37.09,34.1,34.84,-99999,-99999,0,6.92,5.27,nu,090A,C,270,Q3,0.33,Q3,40,Q3,0,-99999,-99999,1,0.45,13,0.765,13,HarvardCMT,0.080308746,0.080722054,0.081379583,0.082367812,0.08375139,0.087114836,0.101352177,0.187383325,0.218930592,0.297223016,0.258395858,0.182338007,0.14986941,0.073859192,0.033185371,-99999,-99999,-99999,-99999,-99999,-99999,-99999,0.107716154,0.108175679,0.109015273,0.110125761,0.111650626,0.118752119,0.133449059,0.246145759,0.299845068,0.387863788,0.316658911,0.196736888,0.182627539,0.094991736,0.042240454,-99999,-99999,-99999,-99999,-99999,-99999,-99999,0.080027,0.10772,0.042587,0.057742
