CuspID,Origin_time,Record,Mw,MwUncert,TectClass,Mech,PreferredFaultPlane,Strike,Dip,Rake,Location,HypLat,HypLon,StationLat,StationLon,HypN,HypE,StationN,StationE,LENGTH_km,WIDTH_km,Repi_km,Rhyp_km,Rjb_km,Rrup_km,Rx_km,Ry_km,Rvol_km,HypDepth_km,ZTOR_km,HWFW,SiteCode,SiteClass1170,Vs30,Vs30Uncert,Tsite,TsiteUncert,Z1,Z1Uncertainty,Directivity,Pulse_or,Pulse_T,S_Trigger_Flag,fcButterHP,f_iniLP,fmin,fmax,References,f100.0000SA_RotD50,f50.0000SA_RotD50,f33.3333SA_RotD50,f25.0000SA_RotD50,f20.0000SA_RotD50,f13.3333SA_RotD50,f10.0000SA_RotD50,f6.6667SA_RotD50,f5.0000SA_RotD50,f4.0000SA_RotD50,f3.3333SA_RotD50,f2.5000SA_RotD50,f2.0000SA_RotD50,f1.3333SA_RotD50,f1.0000SA_RotD50,f0.6667SA_RotD50,f0.5000SA_RotD50,f0.3333SA_RotD50,f0.2500SA_RotD50,f0.2000SA_RotD50,f0.1333SA_RotD50,f0.1000SA_RotD50,f100.0000SA_RotD100,f50.0000SA_RotD100,f33.3333SA_RotD100,f25.0000SA_RotD100,f20.0000SA_RotD100,f13.3333SA_RotD100,f10.0000SA_RotD100,f6.6667SA_RotD100,f5.0000SA_RotD100,f4.0000SA_RotD100,f3.3333SA_RotD100,f2.5000SA_RotD100,f2.0000SA_RotD100,f1.3333SA_RotD100,f1.0000SA_RotD100,f0.6667SA_RotD100,f0.5000SA_RotD100,f0.3333SA_RotD100,f0.2500SA_RotD100,f0.2000SA_RotD100,f0.1333SA_RotD100,f0.1000SA_RotD100,PGA_RotD50,PGA_RotD100,PGV_RotD50,PGV_RotD100
164529,1990-10-04T23:48:26.123000Z,D90606B5,5.57,0.15,Interface,O,1,190,21,58,special,-41.61,175.44,-41.2333,174.9199,5952370.8,2713346.37,5995282,2670919,7.6,7.6,60.3,61.9,58.15,59.96,51.33,-34.89,0,13.8,12.99,nu,606B,B,800,Q3,<0.1,Q3,0,Q3,0,-99999,-99999,0,0.4,12,0.68,12,HarvardCMT&Luo(1992),0.013749748,0.013862179,0.014088096,0.01441975,0.014869312,0.017832706,0.021233242,0.052589984,0.043155687,0.02850006,0.041686227,0.034130276,0.028110057,0.013936655,0.01798748,-99999,-99999,-99999,-99999,-99999,-99999,-99999,0.018028744,0.018203304,0.018523498,0.018967642,0.019619139,0.023784531,0.028379628,0.071927981,0.055196642,0.035452778,0.055807277,0.046932984,0.033587431,0.017779647,0.020059942,-99999,-99999,-99999,-99999,-99999,-99999,-99999,0.013701,0.018028,0.009334,0.010354
164529,1990-10-04T23:48:26.123000Z,D90642E8,5.57,0.15,Interface,O,1,190,21,58,special,-41.61,175.44,-41.2341,174.918,5952370.8,2713346.37,5995197,2670758,7.6,7.6,60.35,61.96,58.2,60.01,51.48,-34.78,0,13.8,12.99,nu,642E,C,350,Q1,0.35,Q2,50,Q3,0,-99999,-99999,0,0.4,13,0.68,13,HarvardCMT&Luo(1992),0.037692472,0.037897474,0.038152805,0.038597125,0.039099225,0.04221846,0.046438011,0.087260843,0.10025314,0.093815055,0.19014599,0.129568432,0.120757458,0.027174733,0.026828586,-99999,-99999,-99999,-99999,-99999,-99999,-99999,0.042374234,0.042574708,0.04287856,0.043365722,0.044009538,0.053580663,0.050652206,0.111238787,0.121502532,0.120790667,0.217091517,0.169368604,0.164692328,0.032623438,0.034760264,-99999,-99999,-99999,-99999,-99999,-99999,-99999,0.037615,0.042374,0.022462,0.02414
164529,1990-10-04T23:48:26.123000Z,D90900B5,5.57,0.15,Interface,O,1,190,21,58,special,-41.61,175.44,-41.2921,174.779,5952370.8,2713346.37,5989003,2658976,7.6,7.6,65.46,67,63.34,65.08,62.01,-26.63,0,13.8,12.99,nu,941A,D,272,Q2,0.85,Q2,9.85E+01,Q2,0,-99999,-99999,0,0.4,11.5,0.68,11.5,HarvardCMT&Luo(1992),0.022650543,0.022705963,0.022820996,0.023012228,0.023257311,0.024175074,0.026747353,0.052308326,0.055419902,0.05351046,0.063672188,0.069115168,0.084052987,0.064516124,0.047845123,-99999,-99999,-99999,-99999,-99999,-99999,-99999,0.025337867,0.025416674,0.025520927,0.025696213,0.025959951,0.027381951,0.029311193,0.06072136,0.058867491,0.057592171,0.071412655,0.083321802,0.118420063,0.070690099,0.053172795,-99999,-99999,-99999,-99999,-99999,-99999,-99999,0.02265,0.025338,0.022889,0.025328
164529,1990-10-04T23:48:26.123000Z,D90935B2,5.57,0.15,Interface,O,1,190,21,58,special,-41.61,175.44,-41.2108,174.9047,5952370.8,2713346.37,5997808,2669699,7.6,7.6,62.96,64.5,60.81,62.54,52.97,-37.17,0,13.8,12.99,nu,935A,D,240,Q3,1.2,Q3,275,Q3,0,-99999,-99999,0,0.4,15,0.68,15,HarvardCMT&Luo(1992),0.032911764,0.033092097,0.033446426,0.033982257,0.034805607,0.040188863,0.044946155,0.065062993,0.086656215,0.088657981,0.173782625,0.081617057,0.079321363,0.044648361,0.07900416,-99999,-99999,-99999,-99999,-99999,-99999,-99999,0.037517689,0.037661687,0.037896563,0.038317466,0.039051133,0.046378936,0.049199692,0.072066845,0.100883748,0.110045843,0.219650175,0.091413389,0.091112257,0.059797141,0.0872069,-99999,-99999,-99999,-99999,-99999,-99999,-99999,0.032746,0.037519,0.034941,0.042109
164529,1990-10-04T23:48:26.123000Z,D90941A5,5.57,0.15,Interface,O,1,190,21,58,special,-41.61,175.44,-41.2921,174.779,5952370.8,2713346.37,5989003,2658976,7.6,7.6,65.46,67,63.34,65.08,62.01,-26.63,0,13.8,12.99,nu,941A,D,272,Q2,0.85,Q2,9.85E+01,Q2,0,-99999,-99999,0,0.41,11,0.697,11,HarvardCMT&Luo(1992),0.02298181,0.023070088,0.023244609,0.023503076,0.023852891,0.025423468,0.029621211,0.050938822,0.053809315,0.053693932,0.073911435,0.081424794,0.054870496,0.061332392,0.033183872,-99999,-99999,-99999,-99999,-99999,-99999,-99999,0.031420112,0.031518314,0.031679485,0.031895715,0.032178541,0.03328064,0.031492695,0.068554901,0.058364675,0.066111792,0.078320994,0.105019904,0.070708728,0.066399972,0.040188418,-99999,-99999,-99999,-99999,-99999,-99999,-99999,0.022982,0.031422,0.021391,0.023599
160610,1990-10-06T02:41:12.583000Z,D90642EB,5.46,0.15,Interface,O,1,250,38,145,special,-41.61,175.43,-41.2341,174.918,5952394.08,2712513.04,5995197,2670758,6.7,6.7,59.75,61.46,58.1,60.11,56.08,24.6,0,14.2,12.97,nu,642E,C,350,Q1,0.35,Q2,50,Q3,0,-99999,-99999,0,0.6,11,1.02,11,HarvardCMT&Luo(1992),0.028071109,0.028185309,0.02833079,0.02856753,0.028809024,0.029951184,0.034197139,0.058134613,0.080661785,0.095390643,0.105079273,0.122855423,0.081902438,0.022410313,-99999,-99999,-99999,-99999,-99999,-99999,-99999,-99999,0.030108135,0.0302639,0.030523883,0.030912875,0.031420695,0.033718344,0.040097055,0.066430986,0.085602795,0.10549944,0.127733689,0.157809303,0.111031317,0.031084057,-99999,-99999,-99999,-99999,-99999,-99999,-99999,-99999,0.027979,0.030104,0.016174,0.019076
160610,1990-10-06T02:41:12.583000Z,D90900B6,5.46,0.15,Interface,O,1,250,38,145,special,-41.61,175.43,-41.2921,174.779,5952394.08,2712513.04,5989003,2658976,6.7,6.7,64.76,66.39,63.03,64.9,54.29,37.79,0,14.2,12.97,nu,941A,D,272,Q2,0.85,Q2,9.85E+01,Q2,0,-99999,-99999,0,0.4,10,0.68,10,HarvardCMT&Luo(1992),0.014070934,0.014100448,0.014159974,0.014235723,0.014335731,0.014664665,0.018276034,0.022417324,0.030606762,0.036973129,0.034605641,0.04083165,0.031882547,0.045663627,0.030517732,-99999,-99999,-99999,-99999,-99999,-99999,-99999,0.01903382,0.019071772,0.019135085,0.019232591,0.01933105,0.019672079,0.021702203,0.02979882,0.043057202,0.041418929,0.03933418,0.046300325,0.041191976,0.052796034,0.036079557,-99999,-99999,-99999,-99999,-99999,-99999,-99999,0.014052,0.019034,0.012221,0.01399
160610,1990-10-06T02:41:12.583000Z,D90935B3,5.46,0.15,Interface,O,1,250,38,145,special,-41.61,175.43,-41.2108,174.9047,5952394.08,2712513.04,5997808,2669699,6.7,6.7,62.37,64.01,60.72,62.65,58.89,24.7,0,14.2,12.97,nu,935A,D,240,Q3,1.2,Q3,275,Q3,0,-99999,-99999,0,0.3,15,0.51,15,HarvardCMT&Luo(1992),0.019816237,0.019912802,0.020024513,0.020211269,0.020482147,0.02308084,0.028482274,0.046907751,0.040280959,0.069351421,0.081507061,0.070523749,0.045781048,0.041418477,0.026395501,0.015290864,-99999,-99999,-99999,-99999,-99999,-99999,0.021462016,0.021561419,0.021710254,0.021945968,0.022216098,0.026522104,0.035196863,0.057143133,0.047066846,0.088166479,0.110227964,0.092400717,0.052967557,0.048508031,0.030063334,0.019773405,-99999,-99999,-99999,-99999,-99999,-99999,0.019813,0.021374,0.01878,0.023053
160610,1990-10-06T02:41:12.583000Z,D90941A6,5.46,0.15,Interface,O,1,250,38,145,special,-41.61,175.43,-41.2921,174.779,5952394.08,2712513.04,5989003,2658976,6.7,6.7,64.76,66.39,63.03,64.9,54.29,37.79,0,14.2,12.97,nu,941A,D,272,Q2,0.85,Q2,9.85E+01,Q2,0,-99999,-99999,0,0.35,12,0.595,12,HarvardCMT&Luo(1992),0.013388149,0.013428142,0.01349953,0.013611583,0.013760608,0.014137236,0.019860633,0.028053669,0.035292598,0.045357047,0.040244246,0.0467089,0.021264676,0.044519927,0.02044981,0.006916691,-99999,-99999,-99999,-99999,-99999,-99999,0.016519406,0.016594109,0.016702189,0.016881341,0.017116128,0.018627692,0.024300419,0.02995389,0.045717238,0.052017593,0.043643378,0.057936332,0.023963013,0.048688707,0.022822567,0.008317765,-99999,-99999,-99999,-99999,-99999,-99999,0.013333,0.016519,0.009242,0.010038
194283,1991-01-28T12:58:46.823000Z,A91051B1,5.76,0.08,Crustal,R,1,42,30,99,special,-41.89,171.58,-41.7557,171.5998,5923123.14,2392149.06,5938069,2393545,6.97,6.97,15.03,18.04,11.7,14.67,-5.94,12.04,0,10,8.26,nu,WBCS,D,300,Q3,1.2,Q2,105,Q3,0,-99999,-99999,1,0.4,27,0.68,27,Anderson_etal_1993&Dowrick_Rhoades1998&HarvardCMT,0.143894227,0.146095043,0.149316488,0.185941281,0.223163721,0.338080235,0.47350764,0.343316311,0.359967898,0.289283111,0.265863927,0.307273132,0.273791998,0.369238112,0.216513661,-99999,-99999,-99999,-99999,-99999,-99999,-99999,0.162945107,0.165442084,0.170842176,0.204710092,0.27164293,0.416524402,0.567731594,0.437889986,0.415115549,0.390079147,0.37597105,0.380958346,0.362810872,0.515168668,0.30260855,-99999,-99999,-99999,-99999,-99999,-99999,-99999,0.142879,0.161382,0.10733,0.128337
194283,1991-01-28T12:58:46.823000Z,A91083A1,5.76,0.08,Crustal,R,1,42,30,99,special,-41.89,171.58,-41.8311,171.6606,5923123.14,2392149.06,5929772,2398735,6.97,6.97,9.35,13.7,5.87,11.28,3.46,9.35,0,10,8.26,nu,083A,B,1200,Q3,<0.1,Q3,0,Q2,0,-99999,-99999,0,0.5,40,0.85,40,Anderson_etal_1993&Dowrick_Rhoades1998&HarvardCMT,0.202607206,0.223602649,0.440390714,0.42446404,0.454746333,0.573049894,0.446042234,0.334678939,0.309098468,0.145548508,0.158463169,0.188565031,0.153934423,0.115300382,0.098941619,-99999,-99999,-99999,-99999,-99999,-99999,-99999,0.2622774,0.316193527,0.542908148,0.563599059,0.604386483,0.728167474,0.509842041,0.44941939,0.403692687,0.155288013,0.179734987,0.221137364,0.206970523,0.159577924,0.136002813,-99999,-99999,-99999,-99999,-99999,-99999,-99999,0.193315,0.234507,0.065445,0.081315
194283,1991-01-28T12:58:46.823000Z,A91090A1,5.76,0.08,Crustal,R,1,42,30,99,special,-41.89,171.58,-41.8553,171.9539,5923123.14,2392149.06,5927428,2423132,6.97,6.97,31.2,32.86,27.91,30.07,23.16,23.93,0,10,8.26,nu,090A,C,270,Q3,0.33,Q3,40,Q3,0,-99999,-99999,1,0.3,22,0.51,22,Anderson_etal_1993&Dowrick_Rhoades1998&HarvardCMT,0.083409983,0.08446427,0.0863013,0.089209023,0.097085186,0.130279032,0.140708238,0.220634592,0.267285476,0.221236211,0.154801078,0.185132094,0.230431656,0.095310726,0.065279036,0.032998833,-99999,-99999,-99999,-99999,-99999,-99999,0.115095526,0.116295265,0.118647127,0.122063591,0.136622953,0.183828755,0.189054851,0.235724964,0.370600672,0.300984043,0.182963069,0.261090236,0.292140282,0.121917975,0.09201491,0.043759762,-99999,-99999,-99999,-99999,-99999,-99999,0.08299,0.115127,0.061288,0.084013
194283,1991-01-28T12:58:46.823000Z,A91122A1,5.76,0.08,Crustal,R,1,42,30,99,special,-41.89,171.58,-41.8025,172.3248,5923123.14,2392149.06,5933606,2453884,6.97,6.97,62.46,63.44,59.16,60.33,41.88,49.1,0,10,8.26,nu,122A,D,500,Q3,1.6,Q3,250,Q3,0,-99999,-99999,1,0.4,40,0.68,40,Anderson_etal_1993&Dowrick_Rhoades1998&HarvardCMT,0.12859743,0.138883755,0.164467362,0.257243383,0.198337814,0.289430971,0.353030993,0.340835173,0.209832013,0.277203646,0.2494469,0.222207976,0.227962887,0.105132282,0.057980176,-99999,-99999,-99999,-99999,-99999,-99999,-99999,0.172451215,0.176706679,0.195953993,0.33115214,0.249634246,0.375583271,0.471506445,0.446408024,0.278299161,0.36116104,0.35191655,0.311594761,0.306104779,0.133243966,0.066264095,-99999,-99999,-99999,-99999,-99999,-99999,-99999,0.128037,0.172541,0.069375,0.08888
194283,1991-01-28T12:58:46.823000Z,D91042A3,5.76,0.08,Crustal,R,1,42,30,99,special,-41.89,171.58,-42.5232,172.8305,5923123.14,2392149.06,5853765,2496076,6.97,6.97,124.76,125.38,121.74,122.51,126.66,18,0,10,8.26,nu,HSES,D,280,Q3,0.9,Q1,85,Q3,0,-99999,-99999,1,0.2,11,0.34,11,Anderson_etal_1993&Dowrick_Rhoades1998&HarvardCMT,0.023586967,0.023661406,0.023765512,0.023949257,0.024172701,0.025165574,0.029810618,0.040943265,0.056280298,0.046000253,0.078811257,0.058732062,0.096402313,0.075238424,0.039016083,0.011414862,0.006664376,-99999,-99999,-99999,-99999,-99999,0.026777324,0.026829328,0.026945474,0.02707404,0.027263382,0.027999267,0.031991611,0.048422542,0.063142096,0.051037744,0.091542554,0.082194458,0.133441869,0.093586529,0.054364401,0.013495505,0.009416564,-99999,-99999,-99999,-99999,-99999,0.023586,0.026774,0.023361,0.029622
201724,1991-01-28T18:00:53.158000Z,A91051B2,5.89,0.08,Crustal,S,1,48,77,11,special,-41.9,171.67,-41.7557,171.5998,5922133.85,2399635.78,5938069,2393545,8.1,8.1,17.07,20.86,15.62,17.84,-15.01,6.14,0,12,8.05,fw,WBCS,D,300,Q3,1.2,Q2,105,Q3,0,-99999,-99999,1,0.3,20,0.51,20,Anderson_etal_1993&Dowrick_Rhoades1998&HarvardCMT,0.147495736,0.150210815,0.154971056,0.161998589,0.186338108,0.343888544,0.663879041,0.389811415,0.362634929,0.299400031,0.292439272,0.185677758,0.221181941,0.240301176,0.134585914,0.08107237,-99999,-99999,-99999,-99999,-99999,-99999,0.163615263,0.165200563,0.167846406,0.171048289,0.20589214,0.427633735,0.759389584,0.472701397,0.379476669,0.376052242,0.413291533,0.217306343,0.257139482,0.338072102,0.186144469,0.102786489,-99999,-99999,-99999,-99999,-99999,-99999,0.146803,0.16229,0.090179,0.110719
201724,1991-01-28T18:00:53.158000Z,A91052A2,5.89,0.08,Crustal,S,1,48,77,11,special,-41.9,171.67,-42.1166,171.8604,5922133.85,2399635.78,5898305,2415760,8.1,8.1,28.77,31.24,27.75,30.62,29.41,-3.96,0,12,8.05,hw,052A,C,333,Q3,0.3,Q3,30,Q3,0,-99999,-99999,1,0.5,35,0.85,35,Anderson_etal_1993&Dowrick_Rhoades1998&HarvardCMT,0.17365107,0.179297412,0.209535147,0.354310266,0.415318165,0.509807507,0.782269402,0.404461,0.340678912,0.27288359,0.243901055,0.109411874,0.077585766,0.058610606,0.045005347,-99999,-99999,-99999,-99999,-99999,-99999,-99999,0.182634372,0.193269898,0.226982124,0.376431044,0.513964087,0.632900977,1.106336192,0.460758801,0.396945223,0.301249799,0.287200446,0.120649476,0.090257403,0.081598493,0.05942473,-99999,-99999,-99999,-99999,-99999,-99999,-99999,0.172849,0.182562,0.048354,0.054283
201724,1991-01-28T18:00:53.158000Z,A91083A2,5.89,0.08,Crustal,S,1,48,77,11,special,-41.9,171.67,-41.8311,171.6606,5922133.85,2399635.78,5929772,2398735,8.1,8.1,7.7,14.26,5.85,10.38,-5.37,4.44,0,12,8.05,fw,083A,B,1200,Q3,<0.1,Q3,0,Q2,0,-99999,-99999,1,1,35,1.7,35,Anderson_etal_1993&Dowrick_Rhoades1998&HarvardCMT,0.143117913,0.153640465,0.212774661,0.304528708,0.360438357,0.580487566,0.373144942,0.352528473,0.266433145,0.161460432,0.152228721,0.084405621,0.05618506,-99999,-99999,-99999,-99999,-99999,-99999,-99999,-99999,-99999,0.201947347,0.216359137,0.279570855,0.355843357,0.430137887,0.802576143,0.492529482,0.418667483,0.286213998,0.201023755,0.20819982,0.110235399,0.061981169,-99999,-99999,-99999,-99999,-99999,-99999,-99999,-99999,-99999,0.14279,0.201932,0.029918,0.038692
201724,1991-01-28T18:00:53.158000Z,A91090A2,5.89,0.08,Crustal,S,1,48,77,11,special,-41.9,171.67,-41.8553,171.9539,5922133.85,2399635.78,5927428,2423132,8.1,8.1,24.03,26.94,20.56,23.59,12.7,21,0,12,8.05,nu,090A,C,270,Q3,0.33,Q3,40,Q3,0,-99999,-99999,1,0.3,20,0.51,20,Anderson_etal_1993&Dowrick_Rhoades1998&HarvardCMT,0.166898567,0.167445828,0.168405149,0.172062757,0.185596732,0.193584759,0.276666812,0.344256471,0.612509172,0.540316446,0.390429684,0.663139156,0.320153639,0.265068863,0.204481376,0.063679325,-99999,-99999,-99999,-99999,-99999,-99999,0.185600813,0.186077814,0.186873586,0.188179058,0.194771557,0.211713944,0.327322835,0.407936665,0.66418082,0.655983842,0.542043937,0.882539638,0.448786252,0.339450392,0.275110966,0.082449953,-99999,-99999,-99999,-99999,-99999,-99999,0.16676,0.185405,0.123361,0.148819
201724,1991-01-28T18:00:53.158000Z,A91122A2,5.89,0.08,Crustal,S,1,48,77,11,special,-41.9,171.67,-41.8025,172.3248,5922133.85,2399635.78,5933606,2453884,8.1,8.1,55.31,56.76,51.82,53.36,28.68,47.99,0,12,8.05,nu,122A,D,500,Q3,1.6,Q3,250,Q3,0,-99999,-99999,1,0.3,33,0.51,33,Anderson_etal_1993&Dowrick_Rhoades1998&HarvardCMT,0.260924171,0.293474894,0.433508938,0.673625104,0.564826864,0.442529556,0.711874583,0.998030766,0.541640206,0.45827721,0.457877427,0.268349399,0.248409379,0.148232275,0.090891399,0.044703554,-99999,-99999,-99999,-99999,-99999,-99999,0.32007111,0.339553423,0.479259797,0.917344212,0.746391497,0.559383527,0.884514078,1.264699364,0.747448392,0.590261715,0.533444706,0.377183003,0.335245427,0.195351286,0.104944266,0.051445682,-99999,-99999,-99999,-99999,-99999,-99999,0.259538,0.310917,0.0751,0.09991
201724,1991-01-28T18:00:53.158000Z,D91042A4,5.89,0.08,Crustal,S,1,48,77,11,special,-41.9,171.67,-42.5232,172.8305,5922133.85,2399635.78,5853765,2496076,8.1,8.1,118.06,118.86,116.84,117.93,116.25,25.92,0,12,8.05,nu,HSES,D,280,Q3,0.9,Q1,85,Q3,0,-99999,-99999,0,0.3,12,0.51,12,Anderson_etal_1993&Dowrick_Rhoades1998&HarvardCMT,0.027224471,0.027273073,0.027357765,0.02748522,0.027672437,0.028564047,0.033004127,0.0464791,0.05903427,0.064622702,0.083602572,0.071747938,0.074614572,0.12453472,0.050910334,0.023544104,-99999,-99999,-99999,-99999,-99999,-99999,0.030577258,0.030615122,0.030631554,0.030663619,0.030931738,0.03256061,0.037384007,0.056763705,0.071696607,0.081398873,0.105539361,0.090948759,0.095732901,0.175748536,0.070477354,0.030143092,-99999,-99999,-99999,-99999,-99999,-99999,0.027216,0.030578,0.029481,0.035726
201354,1991-02-15T10:48:09.669000Z,A91051B3,5.42,0.15,Crustal,R,0,213,37,90,geonet,-42.0386,171.5897,-41.7557,171.5998,5906631.78,2393229.54,5938069,2393545,4.7,4.7,31.47,32.19,29.3,30.05,-99999,-99999,0,6.92,5.27,nu,WBCS,D,300,Q3,1.2,Q2,105,Q3,0,-99999,-99999,1,0.3,22,0.51,22,HarvardCMT,0.097939798,0.099342188,0.101782155,0.11216207,0.159225896,0.40633882,0.234192784,0.319763485,0.217273379,0.13101707,0.148756308,0.133396205,0.134304758,0.127132167,0.055894282,0.05255091,-99999,-99999,-99999,-99999,-99999,-99999,0.119218548,0.122649048,0.128598052,0.136617738,0.217222969,0.523905754,0.316626818,0.429642768,0.301153438,0.153628909,0.191752254,0.146590401,0.157567018,0.143037733,0.064794945,0.06860991,-99999,-99999,-99999,-99999,-99999,-99999,0.09661,0.119132,0.037472,0.047378
201354,1991-02-15T10:48:09.669000Z,A91052A3,5.42,0.15,Crustal,R,0,213,37,90,geonet,-42.0386,171.5897,-42.1166,171.8604,5906631.78,2393229.54,5898305,2415760,4.7,4.7,23.97,25.04,22.28,23.52,-99999,-99999,0,6.92,5.27,nu,052A,C,333,Q3,0.3,Q3,30,Q3,0,-99999,-99999,0,0.5,32,0.85,32,HarvardCMT,0.159523204,0.163206596,0.184361058,0.258798288,0.362308721,0.442201968,0.513522767,0.494620161,0.404225253,0.283434337,0.190890305,0.117326557,0.083274724,0.063205424,0.038363636,-99999,-99999,-99999,-99999,-99999,-99999,-99999,0.191403713,0.194822122,0.20571124,0.29392638,0.410455953,0.520326886,0.674636451,0.624177519,0.456774649,0.335544591,0.216788698,0.13413005,0.109938308,0.077600509,0.054236635,-99999,-99999,-99999,-99999,-99999,-99999,-99999,0.159601,0.19139,0.046705,0.056129
201354,1991-02-15T10:48:09.669000Z,A91090A3,5.42,0.15,Crustal,R,0,213,37,90,geonet,-42.0386,171.5897,-41.8553,171.9539,5906631.78,2393229.54,5927428,2423132,4.7,4.7,36.37,37.09,34.1,34.84,-99999,-99999,0,6.92,5.27,nu,090A,C,270,Q3,0.33,Q3,40,Q3,0,-99999,-99999,1,0.45,13,0.765,13,HarvardCMT,0.080308007,0.08071064,0.081377532,0.08235302,0.083714417,0.088817507,0.094905522,0.166186257,0.206109294,0.262263563,0.196783761,0.147502329,0.120209212,0.063585747,0.029394623,-99999,-99999,-99999,-99999,-99999,-99999,-99999,0.107707728,0.108171208,0.108972018,0.110089474,0.111601038,0.117759566,0.133440957,0.23501121,0.273706162,0.349540986,0.267174529,0.17543692,0.154826964,0.081341206,0.034932367,-99999,-99999,-99999,-99999,-99999,-99999,-99999,0.080027,0.10772,0.042587,0.057742
